AAXX 25004 40296 32660 30000 10154 20056 40167 52003 83100 333 83830
BBXX ZMFR 24234 99413 31748 43/// /2011 10168 20111 40225 52001 22200 00162
BBXX 46218 25001 99345 71208 46/// ///// 1//// 92332 22200 00139 11706 20602 329// 41705 70028
BBXX 44097 25001 99410 70711 46/// ///// 1//// 92332 22200 00119 10902 20902 70009
AAXX 25004 40270 11540 72306 10078 20063 39246 40147 52005 60031 76122 87800 333 84825 83630
BBXX 3FNF4 25004 99190 11191 41597 80533 10200 2017/ 40190 54000 70222 8892/ 22253 04250 20505 321// 40606 5//// 6//// 80180 ICE /////
AAXX 25004 91334 12474 80512 10306 20239 30080 40083 50012 60014 82171 333 20272 56199 58017 70013 555 92500
AAXX 25004 91334 12474 80512 10306 20239 30080 40083 50012 60014 82171 333 20272 56199 58017 70013 555 92500
AAXX 25004 08495 11459 60815 10151 20129 30277 40285 51001 60001 70511 865// 92350 333 82714 85636
BBXX BAREU56 25004 99327 10143 46/// ///// 40226 57009 22232
BBXX 46248 25001 99461 71247 46/// ///// 1//// 92334 22200 00095 11306 21004 328// 41305 70031
BBXX 46244 25001 99409 71244 46/// ///// 1//// 92335 22200 00095 11406 21003 329// 41405 70028
BBXX 44098 25001 99428 70702 46/// ///// 1//// 92337 22200 00087 10602 20602 70010
BBXX 46240 25001 99366 71219 46/// ///// 1//// 92342 22200 00124 11202 21001 336// 41202 70011
BBXX 46212 25001 99408 71243 46/// ///// 1//// 92342 22200 00099 11405 21002 330// 41404 70025
BBXX 46217 25001 99342 71194 46/// ///// 1//// 92342 22200 00147 11701 21001 326// 41701 70007
BBXX 46211 25001 99469 71242 46/// ///// 1//// 92336 22200 00084 11206 20904 328// 41204 70028
AAXX 25004 68392 36/// /0602 10169 20157 30190 4//// 57016 333 10195 20159 91005 555
AAXX 25004 91356 11566 80608 10294 20233 30079 40086 52014 69904 7028/ 84275 333 20250 56299 58028 84820 83080 555 92500
AAXX 25004 91376 11432 81014 10271 20240 30075 40078 50002 60044 78182 883// 333 20260 56299 58014 70043 555 92500
AAXX 25004 68906 16/// /3120 10190 20159 30089 40152 57008 69963 333 10215 20179 91036 555 20006 91015
BBXX DBKV 25001 99169 70250 46/// /0507 10230 20160 40186 52008 22220 00234
BBXX DBBT 25001 99339 30184 46/// /1408 10226 20131 40102 57014 22220 00161
AAXX 25001 13586 32970 01101 11073 21086 39959 40270 52011
AAXX 25004 91376 11432 81014 10271 20240 30075 40078 50002 60044 78182 883// 333 20260 56299 58014 70043 555 92500
AAXX 25004 61902 11582 71310 10235 20187 40149 69901 70381 878// 333 59003 81820 87643
BBXX BAREU61 25004 99053 70040 46/// ///// 10277 29082 40111 22211
AAXX 25004 78774 32670 10712 10278 20194 39988 40070 54000 81100 333 10332 20242 30/// 56200 59001 81845
AAXX 25004 78774 32670 10712 10278 20194 39988 40070 54000 81100 333 10332 20242 30/// 56200 59001 81845
AAXX 25004 78774 32670 10712 10278 20194 39988 40070 54000 81100 333 10332 20242 30/// 56200 59001 81845
AAXX 25004 91413 11469 70908 10290 20263 30073 40098 51030 60064 72582 82271 333 20268 56299 58034 70064 555 92500
AAXX 25004 91413 11469 70908 10290 20263 30073 40098 51030 60064 72582 82271 333 20268 56299 58034 70064 555 92500
BBXX 41115 25001 99184 70673 46/// ///// 1//// 92335 22200 10802 20802 302// 41101 70009
BBXX 41114 25001 99276 70802 46/// ///// 1//// 92346 22200 00246 11001 21001 70007
BBXX 41012 25001 99300 70805 46/// /0609 10230 40246 51006 92350 22200 00241 10903 20602 310// 40901 70013 333 91210 555 11090 22095 32326 40710 62349 062085 068085 067083 070083 063086 045082
BBXX 51205 25001 99210 71564 46/// ///// 1//// 92348 22200 00236 10905 20905 336// 41302 70027
BBXX 46114 25001 99364 71222 46/// ///// 1//// 92334 22200 00127 11406 21002 329// 41406 70032
BBXX 46060 25001 99606 71468 46/// /0805 10012 49904 56028 92350 22200 00050 333 91205 555 11047 22048 32341 40806 62349 077046 072044 085024 070020 078020 063034 80805 92341
AAXX 25004 89664 31761 29903 12008 11031 39843 49884 51007 82800 333 12009 21010 56400 82650
BBXX 51203 25001 99208 71570 46/// ///// 1//// 92343 22200 00249 11401 20301 326// 41401 70007
BBXX 52200 25001 99134 11448 46/// ///// 1//// 92345 22200 00287 11004 21004 309// 41102 70021
BBXX 51201 25001 99217 71581 46/// ///// 1//// 92342 22200 00240 10804 20804 336// 41202 70021
BBXX 46088 25001 99483 71232 46/// /1403 10080 40267 57006 92350 22200 00079 11201 20301 317// 41201 70005 333 91204 555 11033 22036 32348 41404 62349 136032 129024 154016 154011 119011 085020
AAXX 25004 89664 31761 29903 12008 11031 39843 49884 51007 82800 333 12009 21010 56400 82650
AAXX 25004 16597 11560 72920 10125 20061 30104 40192 58007 69921 72561 878// 333 83827 85640 91131 91530
AAXX 25004 40255 11650 82206 10084 20072 39432 40149 54002 60231 79566 888XX 333 85825 84630
AAXX 25004 89664 31761 29903 12008 11031 39843 49884 51007 82800 333 12009 21010 56400 82650
AAXX 25004 68994 12598 63603 10064 20032 30070 40099 58001 60013 86500 333 10083 20042 91008 555 20014 91009
AAXX 25004 91643 11599 63508 10305 20231 40068 54005 60001 70122 82230 333 20271 50004 5689/ 70000 82820 86360
AAXX 25004 68382 16/// /0000 10173 20163 39393 48562 57005 69983 333 10201 20168 91002 555 20008 91021
AAXX 25004 68352 16/// /1112 10196 21008 39102 48548 57005 60023 333 10241 20196 91017 555 20020 91020
AAXX 25004 68906 11498 73120 10190 20159 30089 40152 57008 69963 70255 816// 333 10215 20179 91036 555 20006 91015
AAXX 25004 08594 32460 70515 10225 20148 40179 81532 333 58005 81615 85360 87070
AAXX 25004 08589 31459 70410 10222 20173 40168 70622 81504 333 59001 81617 87070
AAXX 25004 08583 NIL
BBXX DBBU 25001 99544 10124 46/// /2411 10046 20035 40221 52007 22220 00050
BBXX DBBC 25001 99535 10100 46/// /2406 10048 2//// 40239 57005 22270 00044
BBXX DBKR 25001 99541 10121 46/// /2204 10033 20033 40225 52003 22200 00048
BBXX DBEA 25001 99540 10084 46/// /2313 10056 20043 40213 57013 22260 00057
BBXX DBFR 25001 99535 10086 46/// /2307 10051 20051 40232 57011 22210 00050
BBXX DBBI 25001 99535 10100 46/// /2405 10048 20048 40236 57005 22240 00039
BBXX DBCK 25001 99/// ///// 46/// ///// 10054 20053 40231 57011 22220 00049
BBXX DBBA 25001 99541 10121 46/// /2504 10039 20020 40226 52004 22220 00039
BBXX DBFH 25001 99/// ///// 46/// ///// 10052 20042/40237 57012 22220 00049
BBXX DBND 25001 99536 10086 46/// /2309 10054 20044 40231 57009 22260 00059
BBXX 61001 25004 99434 10078 46/// /0426 10138 20015 40230 52016 22200 00146 10705 70024 555 1/032
AAXX 25004 61901 169// /1212 10166 20129 39680 40190 51005 69921 92350 333 8//99 555 7/090
BBXX 44025 25001 99402 70732 46/// /0305 10025 21067 40308 51010 92350 22200 00111 10601 20301 308// 40601 70007 333 91207 555 11056 22058 32257 43508 62349 026055 011050 004051 012055 014050 359055
BBXX 41008 25001 99314 70809 46/// /0508 10169 20141 40275 53009 92350 22200 00166 10703 20703 300// 40901 70016 333 91210 555 11089 22096 32258 40510 62349 046083 049082 045084 047087 042090 049087
BBXX 41004 25001 99325 70791 46/// /0407 10157 20096 40292 53018 92350 22200 00217 10703 20603 3//// 40702 70017 333 91209 555 11074 22077 32255 40310 62349 040072 044076 043075 047075 043080 041078
BBXX 44009 25001 99385 70747 46/// /3405 10053 40322 51013 92350 22200 00109 10502 20401 300// 40501 70008 333 91206 555 11050 22051 32337 43607 62349 342047 352050 359044 347047 324045 329051
BBXX 44014 25001 99366 70748 46/// /3505 1//// 40302 53013 92350 22200 00137 10502 20501 301// 40501 70009 333 91207 555 11052 22052 32313 40108 62349 354052 356052 004053 004059 005058 006059
AAXX 25004 78384 12560 10904 10260 20239 40173 60000 81101 333 10301 20239 58002 70000 81820
AAXX 25004 78383 12460 10804 10258 20204 40175 60001 81200 333 10301 20254 58002 70000 81818
BBXX NWS0022 25004 99416 70714 43/// /0607 10006 21071 40314 5//// 7//// 8//// 222// 04101 2//// 3//// 4//// 5//// 6//// 8//// ICE /////
BBXX WDC6698 25004 99097 71478 43/// /0416 1//// 2//// 40090 5//// 7//// 8//// 222// 04261 2//// 3//// 4//// 5//// 6//// 8//// ICE /////
BBXX 41060 25001 99148 70510 46/// ///// 1//// 92350 22200 10903 70017
BBXX 41049 25001 99275 70630 46/// /0503 10220 20164 40239 53008 92350 22200 00237 10803 20401 300// 40803 70014 333 91203 555 11026 22026 32323 40404 62349 046025 048025 045027 037027 041023 044026 80403 92323
BBXX 41001 25001 99347 70727 46/// ///// 10155 20063 40276 53016 92350 22200 00235 10704 70019
BBXX 42020 25001 99270 70967 46/// /3514 10149 20129 40202 53017 92350 22200 00224 10808 20808 70040 333 91216 555 11148 22155 32329 43518 62349 351139 350141 350144 351141 350143 352145
BBXX 41044 25001 99217 70587 46/// /0806 10246 20189 40198 53010 92350 22200 00263 10804 20602 300// 40803 70020 333 91208 555 11067 22070 32251 40909 62349 082064 081064 085061 088067 090071 086074 80808 92251
BBXX 41048 25001 99320 70696 46/// /0211 10199 20142 40245 51021 92350 22200 00232 10604 20604 70019 333 91213 555 11112 22118 32320 40114 62349 015111 015111 016113 007098 006102 011103 80312 92327
BBXX 42065 25001 99149 70750 46/// /0609 10265 20230 92350 22200 11005 20704 3//// 41004 70027 333 91211 555 11094 22100 32250 40612 62349 057089 058095 057094 058089 057089 058100 80611 92350
BBXX 42012 25001 99301 70876 46/// /0707 10183 20113 40245 54000 92350 22200 00198 10502 20502 70008 333 91208 555 11075 22079 32303 40709 62349 070072 074072 068072 076070 072069 073069
BBXX 42001 25001 99259 70897 46/// /1108 10246 20202 40216 53005 92350 22200 00243 10703 20602 3//// 40702 70013 333 91210 555 11087 22093 32345 41010 62349 107081 110077 109079 110081 110078 109076
BBXX 42035 25001 99292 70944 46/// /0512 10100 20097 40225 58011 92350 22200 00156 10504 20504 70018 333 91215 555 11132 22138 32345 40515 62349 053123 048113 049107 054117 049119 044109
BBXX 42058 25001 99149 70749 46/// /0811 10271 20221 40124 53011 92350 22200 00273 10907 20705 308// 40904 70034 333 91214 555 11120 22128 32257 40715 62349 077112 079116 075114 074116 076118 077114 80812 92257
BBXX 42362 25001 99278 70907 46/// /0811 10217 20183 40220 92345
BBXX 42060 25001 99163 70635 46/// /0610 10269 20202 40169 53012 92350 22200 00274 10604 20604 300// 41001 70020 333 91212 555 11103 22109 32303 40612 62349 056095 060094 063094 058092 057095 055096 80510 92343
BBXX 42363 25001 99282 70892 46/// /0813 10194 20167 40237 92345 333 91213
BBXX 42364 25001 99291 70881 46/// /0807 10178 20150 40247 92345
BBXX 42036 25001 99285 70845 46/// /0407 10198 20175 40235 53004 92350 22200 00217 10502 20502 70008 333 91208 555 11074 22077 32255 40509 62349 041071 045072 051070 053073 050070 054071
BBXX 42056 25001 99198 70849 46/// /0807 10267 20226 40173 53007 92350 22200 00272 11002 20502 312// 41001 70011 333 91208 555 11073 22077 32336 40808 62349 081069 079067 077062 084061 079062 082063 80808 92347
BBXX 42059 25001 99151 70675 46/// /0906 10264 20233 40152 53011 92350 22200 00278 10804 20502 3//// 40803 70020 333 91207 555 11061 22064 32250 41110 62349 084059 083058 082057 087054 099044 116053 81108 92251
BBXX 42019 25001 99279 70954 46/// /0515 10178 20173 40167 55004 92350 333 91218 555 11160 22171 32332 42920 62349 041151 282161 282159 282138 281140 283142
BBXX 44005 25001 99432 70691 46/// /0109 11048 21134 40317 51016 92350 22200 00084 10603 20603 3//// 41001 70015 333 91212 555 11095 22099 32301 43614 62349 008093 014094 359093 002095 002105 008100
BBXX 42040 25001 99292 70882 46/// /0908 10179 40242 53003 92350 22200 00225 10602 20602 315// 40901 70011 333 91209 555 11079 22082 32326 41009 62349 089078 092072 091072 089074 090073 084070
BBXX 42003 25001 99260 70856 46/// /0707 1//// 92350 22200 10603 20602 325// 40801 70013 333 91209 555 11072 22076 32252 40710 62349 075068 075073 075073 071077 069074 068080 80709 92252
BBXX 42002 25001 99258 70937 46/// /1205 10240 20239 40189 53014 92350 22200 00232 10804 20402 306// 40804 70020 333 91206 555 11053 22056 32251 41110 62349 119053 115064 115073 114068 112072 112080
BBXX 41047 25001 99275 70715 46/// /0602 10235 40244 53008 92350 22200 00248 10903 311// 40903 70015 333 91203 555 11020 22020 32332 40803 62349 064020 071022 065019 071022 074021 071021 80603 92344
BBXX 42055 25001 99222 70940 46/// /1108 10252 20217 40173 53012 92350 22200 00252 10803 20502 332// 40801 70013 333 91209 555 11083 22089 32251 41110 62349 111078 106078 105071 107076 108079 108082 81109 92252
BBXX 41043 25001 99211 70650 46/// /0708 10250 20208 40201 53015 92350 22200 00258 10805 20603 300// 40804 70025 333 91209 555 11085 22090 32258 40710 62349 068081 066082 066081 069082 068081 070081 80709 92258
BBXX 41036 25001 99342 70770 46/// ///// 10126 20060 40292 51011 92350 22200 00187 10802 70009
BBXX 44066 25001 99396 70726 46/// /0107 10034 21031 40304 51008 92350 22200 00123 10502 20502 3//// 40701 70011 333 91208 555 11069 22071 32333 40110 62349 011064 009066 001061 004067 015067 358067
AAXX 25004 78384 12560 10904 10260 20239 40173 60000 81101 333 10301 20239 58002 70000 81820
AAXX 25004 78383 12460 10804 10258 20204 40175 60001 81200 333 10301 20254 58002 70000 81818
BBXX 46070 25001 99551 11753 46/// /0809 11009 21065 40228 51004 92350 22200 00036 10804 20704 3//// 40802 70021 333 91211 555 11099 22104 32330 42313 62349 082095 085104 087107 082094 083088 081084 80812 92330
BBXX 46105 25001 99590 71522 46/// ///// 1//// 92350 22200 10706 70030
BBXX 46078 25001 99561 71526 46/// /2711 11037 21092 92350 555 11112 22120
BBXX 44027 25001 99443 70673 46/// /0109 11095 21114 40317 51014 92350 22200 00078 10403 20402 3//// 40801 70013 333 91212 555 11090 22093 32316 43613 62349 009087 010087 017093 007098 000098 359093
BBXX 41013 25001 99334 70777 46/// /0307 10139 20056 40288 52013 92350 22200 00192 10603 20602 316// 40801 70013 333 91209 555 11072 22075 32329 40110 62349 030069 023069 015073 026071 029071 022072
BBXX 44065 25001 99404 70737 46/// /0506 10026 21059 40304 50000 92350 22200 00095 10801 20301 318// 40801 70005 333 91208 555 11064 22066 32343 40508 62349 051060 047059 052058 032055 033050 021046 80507 92330
BBXX 44020 25001 99414 70702 46/// /0207 11012 21076 40312 51017 92350 22200 00069 10401 20401 70005 333 91209 555 11078 22083 32342 40209 62349 011071 252069 249068 245063 248071 252062
BBXX 32012 25001 99197 50856 46/// ///// 1//// 92350 22200 10904 70021
BBXX 46002 25001 99426 71305 46/// ///// 10122 40234 56021 92350 22200 00122 11205 70026
BBXX 46006 25001 99408 71375 46/// /2206 10103 40189 56007 92350 22200 00121 11708 20502 3//// 41708 70039 333 91207 555 11061 22063 32250 42308 62349 221058 225048 222040 214046 227037 231053
BBXX 46084 25001 99566 71361 46/// /0000 10060 20032 49945 54000 92350 22200 00072 11611 70054 333 91200 555 32304 43600 62349 000000 000000 000000 000000 000000 000000
BBXX 46078 25001 99561 71526 46/// /2711 11037 21092 92350 555 11112 22120
BBXX 46075 25001 99539 71608 46/// /3110 11033 21100 40093 57008 92350 22200 00047 10705 20705 300// 41101 70024 333 91213 555 11103 22108 32328 43214 62349 311101 322096 327101 325103 313101 319105 83312 92312
BBXX 46005 25001 99461 71310 46/// ///10 10110 40167 56025 92350 22200 00100 10806 20805 3//// 41104 70031 333 91212 555 11105 22113
BBXX 46059 25001 99380 71300 46/// /2107 10132 40284 56016 92350 22200 00139 11305 20402 3//// 41305 70025 333 91209 555 11069 22072 32316 42110 62349 214067 222073 228068 212075 217064 221062
BBXX 46080 25001 99580 71500 46/// /2911 11012 21063 49941 58011 92350 22200 00056 10706 20706 3//// 41003 70032 333 91214 555 11118 22124 32309 42716 62349 292114 285117 290109 293112 282121 288122 82814 92309
BBXX 46014 25001 99394 71240 46/// /2503 10102 40301 55006 92350 22200 00111 11507 20301 3//// 41507 70035 333 91204 555 11035 22037 32325 42405 62349 253034 244031 223035 217038 205036 198038
BBXX 46011 25001 99350 71210 46/// /3304 10134 40276 55004 92350 22200 00139 11506 20401 330// 41506 70030 333 91206 555 11042 22044 32347 43206 62349 328040 332038 333041 333037 335036 328036
BBXX 46047 25001 99324 71195 46/// /3303 10142 40265 55004 92350 22200 00141 11605 20301 330// 41605 70027 333 91204 555 11029 22031 32345 43204 62349 332028 334028 336024 328017 325017 313014
BBXX 46027 25001 99419 71244 46/// /1602 10106 40292 55005 92350 22200 00092 11406 328// 41406 70030 333 91203 555 11026 22031 32349 41703 62349 167022 183019 183018 195019 206012 258008
BBXX 46086 25001 99325 71180 46/// /3203 10150 40257 55004 92350 22200 00154 11705 20301 328// 41705 70024 333 91204 555 11030 22031 32349 43104 62349 319028 325025 330019 335018 327020 317019
BBXX 46088 25001 99483 71232 46/// /1403 10080 40267 92350 22200 00079 11201 20301 317// 41201 70005 333 91204 555 11033 22036 32348 41404 62349 136032 129024 154016 154011 119011 085020
BBXX 46050 25001 99442 71246 46/// /1703 10098 40283 56017 92350 22200 00098 11406 20401 328// 41406 70029 333 91204 555 11036 22038 32347 41804 62349 172033 172030 173031 164031 156029 151029
BBXX 46069 25001 99337 71202 46/// /3204 10144 40268 56003 92350 22200 00145 11605 20401 330// 41605 70023 333 91205 555 11038 22040 32344 43205 62349 320036 306026 318025 308021 306019 313021
BBXX 46012 25001 99374 71229 46/// /3407 10117 40284 56005 92350 22200 00122 11506 20401 328// 41506 70028 333 91209 555 11077 22081 32259 43509 62349 337072 337070 333072 343069 350070 000071
BBXX 46013 25001 99382 71233 46/// /0103 10116 40293 56008 92350 22200 00118 11505 3//// 41505 70027 333 91204 555 11031 22033 32344 43604 62349 011029 019025 023023 039022 041016 045013
BBXX 46087 25001 99485 71247 46/// /1806 10100 20064 40275 57010 92350 22200 00086 11405 20501 326// 41405 70025 333 91207 555 11064 22072 32346 41807 62349 180056 176054 182045 173032 158031 148033
BBXX 46029 25001 99461 71245 46/// /1706 10096 20073 40274 58015 92350 22200 00095 11305 20502 329// 41305 70027 333 91207 555 11061 22065 32316 41608 62349 170057 173062 171062 172063 172061 174064
BBXX 46028 25001 99357 71219 46/// /2904 10125 40275 54000 92350 22200 00137 11505 20401 329// 41505 70026 333 91205 555 11042 22043 32340 42905 62349 293041 294039 294038 292037 289034 287030
BBXX 46054 25001 99342 71204 46/// /3104 10139 40270 54000 92350 22200 00142 11605 300// 41605 70027 333 91205 555 11039 22041 32345 43105 62349 305037 301029 308035 304033 292033 291030
BBXX 46025 25001 99337 71191 46/// /2603 10159 20101 40254 56006 92350 22200 00154 11702 331// 41702 70008 333 91204 555 11037 22041 32259 42504 62349 260033 268032 278035 255035 248035 252034
BBXX DBBT 25001 99339 30184 46/// /1408 10226 20131 40102 57014 22220 00161
BBXX DBKV 25001 99169 70250 46/// /0507 10230 20160 40186 52008 22220 00234
BBXX 46248 25001 99461 71247 46/// ///// 1//// 92334 22200 00095 11306 21004 328// 41305 70031
BBXX 46244 25001 99409 71244 46/// ///// 1//// 92335 22200 00095 11406 21003 329// 41405 70028
BBXX KRGB 25004 99278 71470 41498 40410 10244 20196 40248 57020 70111 84100 22254 00194 20804 332// 41505 5//// 6//// 80211 ICE /////
BBXX PINX 25004 99182 70745 41998 01016 10280 2//// 40140 54000 70200 80000 22274 00270 2//// 3//// 4//// 5//// 6//// 8//// ICE /////
BBXX 3EBL5 25004 99262 70794 41797 51214 10240 20180 40220 52020 71411 8426/ 22214 04260 2//05 31115 4//05 5//00 6//// 80200 ICE /////
BBXX WJBJ 25003 99197 70674 41298 10922 10252 20221 40180 52015 7//00 818// 22273 00267 20306 309// 40809 5//// 6//// 80230 ICE /////
BBXX WSRL 25003 99448 71319 41598 71824 10130 2009/ 40175 57030 70222 875// 22214 00100 20504 328// 41006 5//// 6//// 80110 ICE /////
BBXX ICGU 25004 99146 70610 41/97 /0714 10260 20217 40160 54/// 780// 8//// 22200 04280 2//// 3//// 4//// 5//// 6//// 80230 ICE /////
BBXX 41004 25001 99325 70791 46/// /0407 10157 20096 40292 53018 92350 22200 00217 10703 20603 3//// 40702 70017 333 91209 555 11074 22077 32255 40310 62349 040072 044076 043075 047075 043080 041078
BBXX 44014 25001 99366 70748 46/// /3505 1//// 40302 53013 92350 22200 00137 10502 20501 301// 40501 70009 333 91207 555 11052 22052 32313 40108 62349 354052 356052 004053 004059 005058 006059
BBXX 44009 25001 99385 70747 46/// /3405 10053 40322 51013 92350 22200 00109 10502 20401 300// 40501 70008 333 91206 555 11050 22051 32337 43607 62349 342047 352050 359044 347047 324045 329051
BBXX 41008 25001 99314 70809 46/// /0508 10169 20141 40275 53009 92350 22200 00166 10703 20703 300// 40901 70016 333 91210 555 11089 22096 32258 40510 62349 046083 049082 045084 047087 042090 049087
BBXX 44025 25001 99402 70732 46/// /0305 10025 21067 40308 51010 92350 22200 00111 10601 20301 308// 40601 70007 333 91207 555 11056 22058 32257 43508 62349 026055 011050 004051 012055 014050 359055
BBXX 46088 25001 99483 71232 46/// /1403 10080 40267 57006 92350 22200 00079 11201 20301 317// 41201 70005 333 91204 555 11033 22036 32348 41404 62349 136032 129024 154016 154011 119011 085020
BBXX A8ID9 25004 99247 71376 41398 80718 10210 20164 40220 56020 70322 87778 22214 04210 20603 308// 41408 5//// 80180
BBXX LAZV5 25004 99372 70425 41698 32217 10180 2170/ 40230 56010 70121 83/// 22223 00200 20503 326// 40604 5//// 6//// 80170
BBXX C6XS8 25004 99239 70814 41/98 20820 10250 2//// 40200 54/// 7//00 8//// 22214 00260 2//04 3//// 4//03 5//// 6//// 8//// ICE /////
BBXX 41114 25001 99276 70802 46/// ///// 1//// 92346 22200 00246 11001 21001 70007
BBXX 41115 25001 99184 70673 46/// ///// 1//// 92335 22200 10802 20802 302// 41101 70009
BBXX 46114 25001 99364 71222 46/// ///// 1//// 92334 22200 00127 11406 21002 329// 41406 70032
BBXX 41012 25001 99300 70805 46/// /0609 10230 40246 51006 92350 22200 00241 10903 20602 310// 40901 70013 333 91210 555 11090 22095 32326 40710 62349 062085 068085 067083 070083 063086 045082
BBXX 46060 25001 99606 71468 46/// /0805 10012 49904 56028 92350 22200 00050 333 91205 555 11047 22048 32341 40806 62349 077046 072044 085024 070020 078020 063034 80805 92341
BBXX 51205 25001 99210 71564 46/// ///// 1//// 92348 22200 00236 10905 20905 336// 41302 70027
BBXX V7MO2 25004 99262 70914 41797 51013 10228 20172 40201 52009 70222 85/// 22200 00232 20504 3//// 40604 5//// 6//// 80191 ICE /////
BBXX WDE9586 25003 99453 71246 41898 71923 10110 2009/ 40255 54000 7//22 86/31 22244 00100 20405 329// 40806 5//// 6//// 80100 ICE /////
BBXX DMDZ 25003 99217 70766 41498 10914 10260 20232 40190 54000 7//00 811// 22263 00260 20702 3//// 4//// 5//// 80240
BBXX DDAC2 25000 99237 71123 41498 53408 10182 20136 40160 56010 7//11 83168 22273 04214 20302 334// 40606 5//// 80154
BBXX KGTX 25004 99501 71309 41/96 81924 10100 2004/ 40100 52010 7//22 88/// 22221 00087 21007 319// 41208 5//// 6//// 80070 ICE /////
BBXX LAVX4 25004 99411 70446 41/97 72330 10165 2015/ 40120 55004 70222 88/// 22213 0//// 2//09 3//// 4//// 5//// 6//// 80170
BBXX 4XIS 25003 99349 71434 43598 42818 10210 2015/ 40280 54000 85120 22224 20605 327// 40706 80170
BBXX 46211 25001 99469 71242 46/// ///// 1//// 92336 22200 00084 11206 20904 328// 41204 70028
BBXX 46212 25001 99408 71243 46/// ///// 1//// 92342 22200 00099 11405 21002 330// 41404 70025
BBXX 46217 25001 99342 71194 46/// ///// 1//// 92342 22200 00147 11701 21001 326// 41701 70007
BBXX 46240 25001 99366 71219 46/// ///// 1//// 92342 22200 00124 11202 21001 336// 41202 70011
BBXX 44098 25001 99428 70702 46/// ///// 1//// 92337 22200 00087 10602 20602 70010
BBXX DBBI 25001 99535 10100 46/// /2405 10048 20048 40236 57005 22240 00039
BBXX DBFR 25001 99535 10086 46/// /2307 10051 20051 40232 57011 22210 00050
BBXX DBBC 25001 99535 10100 46/// /2406 10048 2//// 40239 57005 22270 00044
BBXX DBJM 25001 99542 10079 46/// /2314 10067 /0057/40213 57011 22250 00072
BBXX DBND 25001 99536 10086 46/// /2309 10054 20044 40231 57009 22260 00059
BBXX DBBA 25001 99541 10121 46/// /2504 10039 20020 40226 52004 22220 00039
BBXX DBKR 25001 99541 10121 46/// /2204 10033 20033 40225 52003 22200 00048
BBXX DBEA 25001 99540 10084 46/// /2313 10056 20043 40213 57013 22260 00057
BBXX DBBU 25001 99544 10124 46/// /2411 10046 20035 40221 52007 22220 00050
BBXX WKAW 25004 99490 70167 41/96 /2227 10120 2011/ 40260 54000 71022 8//// 22224 00120 20406 328// 4//06 5//// 6//// 80118 ICE /////
BBXX DCDP2 25003 99475 70127 41/97 82421 10125 20078 40340 54000 70211 8//// 22224 00120 20504 80100
BBXX 3FSB4 25004 99095 70861 41798 51603 10275 2024/ 40090 56010 7//11 85895 22234 0//// 2//// 3//// 4//// 5//// 6//// 80252 ICE /////
AAXX 25001 13579 32970 03402 11049 21075 39377 40256 53006
AAXX 25004 91408 11466 81206 10261 20254 30046 40084 51015 60374 78088 8532/ 333 20250 56999 58032 70373 555 92500
AAXX 25004 91408 11466 81206 10261 20254 30046 40084 51015 60374 78088 8532/ 333 20250 56999 58032 70373 555 92500
AAXX 25004 89009 41632 81908 11133 36905 57006 77722 8802/ 333 11133 21187 88546
AAXX 25004 78700 32578 70404 10284 20236 30104 40109 56003 81170 333 10348 20255 30/// 56000 58002 81830 87358
AAXX 25004 78703 31460 70916 10245 20212 30159 40161 52001 71544 84210 333 10267 20246 30/// 56200 70000 84816 87457
AAXX 25004 78704 31560 71004 10241 20211 30146 40151 52007 71544 84970 333 10267 20216 30/// 56200 58008 70311 81922 83822 87458
AAXX 25004 78705 11560 61802 10225 20204 30138 4'0156 53008 69961 70554 83236 333 10279 20199 31/// 56100 58020 70068 83824 86070
AAXX 25004 78706 11560 70000 10248 20229 30140 40145 57003 60082 72064 85270 333 10269 20200 31/// 56220 59010 700048 85824 87458
AAXX 25004 78707 NIL
AAXX 25004 78708 31560 73606 10246 20231 30127 40157 53006 71544 83570 333 10263 20224 30/// 56880 58022 70000 83626 87458
AAXX 25004 78711 NIL
AAXX 25004 78714 32564 80000 10224 20201 8422/ 333 10242 20188 31/// 56199 70063 84824 88458
AAXX 25004 78717 01556 83602 20180 20170 38970 40159 53'002 60011 75165 8652/ 333 10222 20172 31/// 56199 58010 69900 70012 86620 88459
AAXX 25004 78718 31660 63610 10220 71544 85431 333 10286 20206 30/// 56800 70000 85835
AAXX 25004 78719 31456 70410 10156 20150 38358 40157 53001 71522 87400 333 10190 20088 30/// 56100 58003 70000 87614
AAXX 25004 78720 11560 73613 10206 20164 39037 40129 53002 69901 71554 87531 333 10224 20165 30/// 56800 58004 79999 87624 83357
AAXX 25004 78724 32578 70310 10282 20207 30047 40104 53003 84170 333 10317 20236 30/// 56100 58009 70000 84830 83358
AAXX 25004 78858 11477 20714 10245 20206 30122 40178 69941 70181 82200 333 10278 20237 58009 70004 82819
BBXX BAREU11 25004 99453 70271 46/// ///// 40263 57004 22223
BBXX BAREU05 25004 99465 70722 46/// ///// 40346 57002 22212
AAXX 25004 40260 31958 02210 10060 21006 39350 40130 54000 70500
AAXX 25004 40265 11558 72104 10086 20082 39363 40157 54000 60011 76062 87800 333 84825 84630
AAXX 25004 96315 11470 71603 10260 20242 40088 60024 70282 81848 333 20240 55037 81816 85080
AAXX 25004 96323 NIL
AAXX 25004 89009 41632 81908 11133 36905 57006 77722 8802/ 333 11133 21187 88546
AAXX 25004 68386 16/// /0000 10213 20204 39746 48656 56001 60243 333 10240 20211 91002 555 20244 91028
AAXX 25004 85574 12960 02011 10255 21010 39560 40091 54000 60001 333 10324
AAXX 25004 85577 12965 01703 10255 21029 39516 40100 53005 60001 333 10332
AAXX 25004 85585 12498 71917 10163 20113 40186 56004 60001 87800 333 10186 56400 83817 84620
AAXX 25004 85586 12960 03003 10160 20114 40140 54000 60001 333 10190
AAXX 25004 85629 12984 02308 10298 20074 40084 56002 60001 222 10338
AAXX 25004 85672 12970 01805 10298 20060 40107 54000 60001 333 10336
AAXX 25004 85682 12965 02410 10229 20088 40109 56011 60001 333 10280
AAXX 25004 85743 12960 02908 10215 20105 40139 53005 60001 333 10312
AAXX 25004 85799 12960 01611 10142 20077 40200 57008 60001 333 10185
AAXX 25004 85864 12980 22006 10192 20071 40191 53003 60001 82030 333 10240 56040 82363
AAXX 25004 85874 32982 /3015 10172 20074 39562 40170 51005 333 10230
AAXX 25004 85934 12580 22514 10110 20029 40124 52015 60001 82101 333 10157 56505 82820
AAXX 25004 89056 11112 81404 11006 21008 49822 53005 60044 77376 885// 333 10010 21006 56699 88603 93101
AAXX 25004 89057 11210 80711 11008 21012 49820 54001 77177 8672/ 333 10013 21009 56779 86705 88515 93105
AAXX 25004 89058 11440 81105 11002 21009 39802 49823 52005 60031 77077 8272/
AAXX 25004 89059 11520 82706 11016 21044 49833 51061 69944 77172 884// 333 10014 21017 76099 88626
AAXX 25004 89251 11240 80705 10001 21012 49815 52004 76867 8672/ 333 10019
AAXX 25004 85406 12970 41703 10223 20160 40131 53022 60001 84030 333 10252 56000 84362
AAXX 25004 85418 12965 62211 10217 20165 40129 52013 60001 83031 333 10250 56000 83363 83080
AAXX 25004 85442 12470 51808 10192 20150 40122 53008 60001 81504 333 10225 56407 81617 84080
AAXX 25004 85469 11570 33310 10248 20180 40194 57007 69921 70182 83800 333 56800 82820
AAXX 25004 85488 3//// /9905 10177 20120 40123 55001 333 10210
BBXX BATFR32 25004 99426 10082 46/// /0721 10134 21010 4//// 5//// 7//// 8//// 22283 00154
AAXX 25004 81405 04468 80000 10251 20244 30114 40123 69901 700// 333 10284 69907 58013 555 69905
AAXX 25004 78925 11575 60611 10248 20217 40159 53011 60101 72586 85830 333 10284 20234 58011 70170 82820 83636
AAXX 25004 78925 11575 60611 10248 20217 40159 53011 60101 72586 85830 333 10284 20234 58011 70170 82820 83636
AAXX 25001 45032 16/// /9901 10046 21005 30255 40272 52001 60000 333 70000
AAXX 25001 45035 16/// /0403 10086 21033 30230 40275 52001 60000 333 70000
AAXX 25001 45039 16/// /0203 10094 21027 30252 40267 52002 60000 333 70000
AAXX 25001 45044 16/// /0008 10093 21028 30162 40260 52001 60000 333 70000
AAXX 25001 45032 16/// /9901 10046 21005 30255 40272 52001 60000 333 70000
AAXX 25001 45035 16/// /0403 10086 21033 30230 40275 52001 60000 333 70000
AAXX 25001 45039 16/// /0203 10094 21027 30252 40267 52002 60000 333 70000
AAXX 25001 45044 16/// /0008 10093 21028 30162 40260 52001 60000 333 70000
AAXX 25004 97180 01460 70403 10275 20259 30064 40082 53013 60024 70262 81232 333 20252 50150 55030 55508 51534 56000 58003 81819 83360 85080
AAXX 25004 91348 12474 80605 10292 20244 30039 40091 50007 60014 84201 333 20244 561/9 58023 70010 555 92500
AAXX 25004 85406 12970 41703 10223 20160 40131 53022 60001 84030 333 10252 56000 84362
AAXX 25004 85418 12965 62211 10217 20165 40129 52013 60001 83031 333 10250 56000 83363 83080
AAXX 25004 85442 12470 51808 10192 20150 40122 53008 60001 81504 333 10225 56407 81617 84080
AAXX 25004 85469 11570 33310 10248 20180 40194 57007 69921 70182 83800 333 56800 82820
AAXX 25004 85488 3//// /9905 10177 20120 40123 55001 333 10210
AAXX 25004 85864 12980 22006 10192 20071 40191 53003 60001 82030 333 10240 56040 82363
AAXX 25004 85874 32982 /3015 10172 20074 39562 40170 51005 333 10230
AAXX 25004 85934 12580 22514 10110 20029 40124 52015 60001 82101 333 10157 56505 82820
AAXX 25004 89056 11112 81404 11006 21008 49822 53005 60044 77376 885// 333 10010 21006 56699 88603 93101
AAXX 25004 89057 11210 80711 11008 21012 49820 54001 77177 8672/ 333 10013 21009 56779 86705 88515 93105
AAXX 25004 89058 11440 81105 11002 21009 39802 49823 52005 60031 77077 8272/
AAXX 25004 89059 11520 82706 11016 21044 49833 51061 69944 77172 884// 333 10014 21017 76099 88626
AAXX 25004 89251 11240 80705 10001 21012 49815 52004 76867 8672/ 333 10019
AAXX 25004 85574 12960 02011 10255 21010 39560 40091 54000 60001 333 10324
AAXX 25004 85577 12965 01703 10255 21029 39516 40100 53005 60001 333 10332
AAXX 25004 85585 12498 71917 10163 20113 40186 56004 60001 87800 333 10186 56400 83817 84620
AAXX 25004 85586 12960 03003 10160 20114 40140 54000 60001 333 10190
AAXX 25004 85629 12984 02308 10298 20074 40084 56002 60001 222 10338
AAXX 25004 85672 12970 01805 10298 20060 40107 54000 60001 333 10336
AAXX 25004 85682 12965 02410 10229 20088 40109 56011 60001 333 10280
AAXX 25004 85743 12960 02908 10215 20105 40139 53005 60001 333 10312
AAXX 25004 85799 12960 01611 10142 20077 40200 57008 60001 333 10185
AAXX 25001 10004 46/60 /2413 10084 20066 30202 40202 58010 222// 00077 333 55300 91117 91214
AAXX 25001 10015 12359 82312 10068 20051 30201 40211 58013 60001 875// 333 31/// 55/// 20256 30146 55300 20000 30000 84708 87630 91117 91214
AAXX 25001 10020 15564 82310 10071 20059 30149 40182 56017 60001 333 55/// 20264 30138 55300 20000 30000 85/21 88/32 88/43 91115 91211
AAXX 25001 10035 12365 72307 10051 20039 30149 40209 56010 60001 876// 333 31/// 55/// 20254 30116 42487 55300 20000 30000 41195 87708 91113
AAXX 25001 10055 12475 42411 10043 20031 30201 40212 58004 60001 84501 333 31/// 55/// 20218 30123 55300 20000 30000 84610 83080 91114 91211
AAXX 25001 10147 12370 72306 10047 20033 30217 40236 57007 60001 8553/ 333 31/// 55/// 20244 30139 42569 55300 20000 30000 41135 81708 85611 85364
AAXX 25001 10162 15362 82407 10036 20024 30151 40236 58002 60001 333 55/// 20188 30121 55300 20000 30000 88/09
AAXX 25001 10184 12970 02303 10023 20011 30217 40225 51008 60001 333 31/// 55/// 20035 30035 55300 20000 30000
AAXX 25001 10200 15372 82106 10052 20041 30235 40233 56014 60001 333 55/// 20250 30152 55300 20000 30000 87/09 88/21 88/60
AAXX 25001 10224 12475 82306 10050 20036 30244 40251 57005 60001 875// 333 33/// 55/// 20232 30140 55300 20000 30000 87611
AAXX 25001 10270 NIL
AAXX 25001 10338 12470 62505 10045 20028 30189 40263 58007 60001 86500 333 31/// 55/// 20143 30125 55300 20000 30000 84614 86645
AAXX 25001 10361 15576 52604 10036 20009 30168 40275 53004 60001 333 55/// 20061 30061 55300 20000 30000 81/31 85/65
AAXX 25001 10393 12375 72706 10031 20022 30129 40259 51019 60001 876// 333 31/// 55/// 20065 30062 55300 20000 30000 87707 91114
AAXX 25001 10400 12581 72005 10046 20025 30242 40293 58008 60001 83531 333 32/// 55/// 20283 30194 55300 20000 30000 81620 83630 85073
AAXX 25001 10438 17757 81803 10015 20007 30009 40300 58003 60001 71000 333 55300 87/50 88/57
AAXX 25001 10469 12982 52205 10017 20005 30115 40286 50006 60001 85050 333 31/// 55300 85362
AAXX 25001 10488 12474 72705 10031 20013 39996 40286 51017 60001 875// 333 31/// 55/// 20080 30079 42783 55300 20000 30000 41091 82618 87647 91113
AAXX 25001 10506 12575 72505 10023 20008 39717 40318 58006 60001 875// 333 31/// 55/// 20189 30168 55300 20000 30000 87626
AAXX 25001 10548 15478 82603 10016 21006 39757 40317 52004 60001 333 55/// 20107 30105 55300 20000 30000 87/16 87/63 88/65
AAXX 25001 10637 12881 72105 10028 20002 30184 40327 58002 60001 81532 333 31/// 55300 81657 83359 85075
AAXX 25001 10685 17368 82403 10003 21010 39613 40312 51008 69901 70075 333 55/// 20111 30111 55300 20000 30000 82/08 88/25 88/70
AAXX 25001 10738 12983 02003 10009 21010 39864 40354 50001 60001 333 31/// 55300
AAXX 25001 10763 12480 72504 10027 20001 39935 40331 51007 60001 875// 333 31/// 55/// 20199 30193 55300 20000 30000 81618 87650
AAXX 25001 10788 07780 82505 10030 20010 39882 40328 51012 69941 72365 333 55/// 20129 30126 55300 20000 30000 69907 88/50
AAXX 25001 10852 07477 52504 10013 20002 39757 40348 50006 69931 70076 333 55/// 20140 30136 55300 20000 30000 69937 85/17
AAXX 25001 10946 07577 72001 10003 21014 39492 40356 50000 69911 70075 333 55/// 20099 30099 55300 20000 30000 69907 85/20 86/50 87/56
AAXX 25001 12772 31412 80000 11011 21019 39945 40241 52009 71022 886// 333 88713
AAXX 25001 12822 36/// /3205 10058 21001 30114 40260 52018
AAXX 25001 12843 31968 73203 10028 20005 30061 40236 53003 70252 8707/
AAXX 25001 12882 31335 81902 11004 21010 30104 40241 50005 71072 886// 333 88706
AAXX 25001 12925 36/// /1701 10008 21011 30094 40272 51013
AAXX 25001 12942 31958 83207 10046 21012 30009 40260 51009 70222 8807/
AAXX 25001 12982 11545 82502 10005 21009 30138 40243 51004 69951 72176 8257/ 333 82630
BBXX BATEU04 25004 99629 70214 46/// /2626 10017 21022 4//// 22261
BBXX BATFR08 25004 99274 30649 46/// /0817 10222 20155 40202 57006 22273 00230
BBXX BATFR31 25004 99426 10074 46/// /0115 10130 20124 40232 53044 22283 00147
BBXX BATFR09 25004 99362 70035 46/// /0925 10157 20110 40290 50002 22223 00172
BBXX BAREU62 25004 99390 10261 46/// ///// 40215 57005 22234
BBXX BATEU05 25004 99584 70012 46/// /2532 10087 40050 52020 22222
BBXX BATFR21 25004 99438 10083 46/// /0027 20140 40245 51022 222//
BBXX BATFR28 25004 99025 11016 46/// /0612 10270 20212 40088 53009 22272 00294
BBXX BATFR46 25004 99384 10001 44996 20012 10142 20077 40314 50/// 70111 82122 22253 00169 20510
BBXX BATFR01 25004 99395 10137 46/// /2718 10140 20087 40115 58018 22271 00162
BBXX BATFR60 25004 99500 70018 46/// /2525 10114 20077 40311 55007 22222 00112
BBXX BATFR14 25004 99481 70091 44/98 82517 10119 20072 40344 56014 70022 8//// 22214 00132 331// 41204 5////
AAXX 25004 91348 12474 80605 10292 20244 30039 40091 50007 60014 84201 333 20244 561/9 58023 70010 555 92500
BBXX BAREU06 25004 99402 70256 46/// ///// 40339 52004 22224
BBXX BATFR19 25004 99066 30057 46/// /1814 10239 20207 40131 58004 2228/ 00257
BBXX BATFR55 25004 99073 30405 44/97 00805 10284 20244 40103 70000 22222 00292 20802
AAXX 25004 78862 11478 60513 10246 20207 30148 40171 69911 72511 86800 333 10279 20237 58005 79911 86817
AAXX 25004 2200Z 2500/2524 06015KT 9999 SCT022 PROB30 TEMPO 2504/2512 06013G23KT SHRA
AAXX 25004 TAF TQPF 242200Z 2500/2524 06015KT 9999 SCT022 PROB30 TEMPO 2504/2512 06013G23KT SHRA
AAXX 25004 TAF TUPJ 242200Z 2500/2524 06015KT 9999 SCT022 PROB30 TEMPO 2504/2512 06013G23KT SHRA
AAXX 25004 G28KT SHRA PROB30 TEMPO 2412/2424 07016G26KT SHRA
AAXX 25004 TAF TUPJ 232200Z 2400/2424 07016KT 9999 SCT020 SCT040 PROB40 TEMPO 2400/2412 07018G28KT SHRA TEMPO 2412/2424 07016G26KT SHRA
AAXX 25004 TAF TUPJ 041000Z 04012/0512 07008KT 9999 SCT016 BKN038 SCT270 TEMPO 0412/0512 SHRA BKN015 PROB40 TEMPO 0418/0512 5000 SHRA BKN014 BKN036 PROB30 0420/0512 4000 TSRA FEW012CB
AAXX 25004 918 4000 TSRA FEW012CB
AAXX 25004 N015 BKN036 PROB40 TEMPO 0704/0724 3000 +TSRA SCT011CB BKN012 BECMG 0712/0714 14008KT
AAXX 25004 21/2712 07017G28KT 5000 SHRA BKN015 BKN036 PROB TEMPO 2700/2712 4000 TSRA FEW013CB
AAXX 25004 PROB30 TEMPO 0800/0806 4000 TSRA FEW012CB PROB40 TEMPO 0800/0824 2000 +SHRA/TSRA SCT010CB BKN012 BKN250
BBXX 46005 25001 99461 71310 46/// ///10 10110 40167 56025 92350 22200 00100 10806 20805 3//// 41104 70031 333 91212 555 11105 22113
BBXX 46006 25001 99408 71375 46/// /2206 10103 40189 56007 92350 22200 00121 11708 20502 3//// 41708 70039 333 91207 555 11061 22063 32250 42308 62349 221058 225048 222040 214046 227037 231053
BBXX 46012 25001 99374 71229 46/// /3407 10117 40284 56005 92350 22200 00122 11506 20401 328// 41506 70028 333 91209 555 11077 22081 32259 43509 62349 337072 337070 333072 343069 350070 000071
BBXX 46013 25001 99382 71233 46/// /0103 10116 40293 56008 92350 22200 00118 11505 3//// 41505 70027 333 91204 555 11031 22033 32344 43604 62349 011029 019025 023023 039022 041016 045013
BBXX 46014 25001 99394 71240 46/// /2503 10102 40301 55006 92350 22200 00111 11507 20301 3//// 41507 70035 333 91204 555 11035 22037 32325 42405 62349 253034 244031 223035 217038 205036 198038
BBXX 46028 25001 99357 71219 46/// /2904 10125 40275 54000 92350 22200 00137 11505 20401 329// 41505 70026 333 91205 555 11042 22043 32340 42905 62349 293041 294039 294038 292037 289034 287030
BBXX 46029 25001 99461 71245 46/// /1706 10096 20073 40274 58015 92350 22200 00095 11305 20502 329// 41305 70027 333 91207 555 11061 22065 32316 41608 62349 170057 173062 171062 172063 172061 174064
BBXX 46054 25001 99342 71204 46/// /3104 10139 40270 54000 92350 22200 00142 11605 300// 41605 70027 333 91205 555 11039 22041 32345 43105 62349 305037 301029 308035 304033 292033 291030
BBXX 4XIS 25003 99349 71434 43598 42818 10210 20150 40280 54000 85120 22224 20605 327// 40706 80170
BBXX KGTX 25004 99501 71309 41/96 81924 10100 20040 40100 52010 7//22 88/// 22221 00087 21007 319// 41208 5//// 6//// 80070 ICE /////
BBXX WSRL 25003 99448 71319 41598 71824 10130 20090 40175 57030 70222 875// 22214 00100 20504 328// 41006 5//// 6//// 80110 ICE /////
AAXX 25004 78925 11575 60611 10248 20217 40159 53011 60101 72586 85830 333 10284 20234 58011 70170 82820 83636
AAXX 25004 78862 11478 60513 10246 20207 30148 40171 69911 72511 86800 333 10279 20237 58005 79911 86817
AAXX 25004 2200Z 2500/2524 06015KT 9999 SCT022 PROB30 TEMPO 2504/2512 06013G23KT SHRA
AAXX 25004 TAF TQPF 242200Z 2500/2524 06015KT 9999 SCT022 PROB30 TEMPO 2504/2512 06013G23KT SHRA
AAXX 25004 TAF TUPJ 242200Z 2500/2524 06015KT 9999 SCT022 PROB30 TEMPO 2504/2512 06013G23KT SHRA
AAXX 25004 G28KT SHRA PROB30 TEMPO 2412/2424 07016G26KT SHRA
AAXX 25004 TAF TUPJ 232200Z 2400/2424 07016KT 9999 SCT020 SCT040 PROB40 TEMPO 2400/2412 07018G28KT SHRA TEMPO 2412/2424 07016G26KT SHRA
AAXX 25004 TAF TUPJ 041000Z 04012/0512 07008KT 9999 SCT016 BKN038 SCT270 TEMPO 0412/0512 SHRA BKN015 PROB40 TEMPO 0418/0512 5000 SHRA BKN014 BKN036 PROB30 0420/0512 4000 TSRA FEW012CB
AAXX 25004 918 4000 TSRA FEW012CB
AAXX 25004 N015 BKN036 PROB40 TEMPO 0704/0724 3000 +TSRA SCT011CB BKN012 BECMG 0712/0714 14008KT
AAXX 25004 21/2712 07017G28KT 5000 SHRA BKN015 BKN036 PROB TEMPO 2700/2712 4000 TSRA FEW013CB
AAXX 25004 PROB30 TEMPO 0800/0806 4000 TSRA FEW012CB PROB40 TEMPO 0800/0824 2000 +SHRA/TSRA SCT010CB BKN012 BKN250
AAXX 25001 78221 NIL
AAXX 25001 78224 31559 10704 10229 20186 30126 40200 53014 70044 81100 333 10294 81830
AAXX 25001 78229 41559 11001 10194 20169 30126 40201 52010 70082 81400 333 81625
AAXX 25001 78239 41559 30806 10243 20208 30196 40199 52010 70500 83800 333 10280 82820
AAXX 25001 78244 NIL
AAXX 25001 78243 42559 30605 10225 20200 30082 40206 52016 83210 333 83820
AAXX 25001 78255 42559 20704 10222 20192 30047 40196 52010 82801 333 10285 81820
AAXX 25001 78264 31559 00102 10236 20195 30100 40175 54000 70500 333 10298
AAXX 25001 78265 31560 20604 10238 20194 30081 40181 52010 70104 82200 333 10294 82820
AAXX 25001 78256 NIL
AAXX 25001 78259 NIL
AAXX 25001 78268 NIL
AAXX 25004 87692 32960 01403 10152 20113 30225 40250 51001 333 10205 20152 555 10249 64165 65208
AAXX 25004 41170 31958 02004 10161 20116 30151 40164 70500 333 59011
AAXX 25004 78897 12580 60808 10251 20208 40171 53014 69901 86800 333 022// 10294 20229 58008 70018 82823 85656
AAXX 25001 01001 11460 53617 11024 21060 39594 49605 56025 60001 70321 85400 333 91124
AAXX 25001 01008 41587 31801 11008 21052 39621 49654 52010 70121 83500 333 91108
AAXX 25001 01010 41480 41612 10028 21025 39776 49791 58050 70110 83968 333 91116
AAXX 25001 01026 41689 41806 10016 21047 39681 49820 57037 70272 82165 333 4/013 91114
AAXX 25001 01055 46/// /1807 10026 21050 39821 49838 56009 333 91121
AAXX 25001 01062 11989 02109 11011 21031 39705 49717 52020 69901 70100 333 91117
AAXX 25001 01098 41989 02005 10010 21033 39860 49878 51010 70120 333 91109
AAXX 25001 01115 41460 81620 10035 20014 39759 49779 56056 76186 8272/ 333 91126
AAXX 25001 01152 11686 81510 10032 21006 39799 49814 56052 69901 70382 8657/ 333 91115
AAXX 25001 01205 46/// /2423 10082 20040 39848 49893 50028 333 91136
AAXX 25001 01212 16/// /2324 10064 20041 39884 49900 53019 6//// 333 91134
AAXX 25001 01271 17984 81907 10044 21048 39874 49895 56028 6//// 700// 333 91119
AAXX 25001 01288 16/// /1706 11012 21051 39206 49951 58024 6//// 333 91118
AAXX 25001 01300 NIL
AAXX 25001 01317 16/// /2504 10079 20036 30001 40016 53009 6//// 333 91115
AAXX 25001 01367 41785 51303 11016 21041 39548 49994 56032 70121 855// 333 91107
AAXX 25001 01384 41385 71503 10030 20017 39778 40027 56038 70252 875// 333 91110
AAXX 25001 01403 16/// /2516 10078 20053 39972 40040 53013 60021 333 91124
AAXX 25001 01415 17456 82507 10092 20072 30047 40058 52006 6//// 781// 333 91114
AAXX 25001 01482 46/// /2216 10068 20046 30043 40051 56037 333 91121
AAXX 25001 01492 41475 82203 10036 20020 39909 40027 56041 70222 8557/ 333 91109
AAXX 25001 01003 NIL
AAXX 25001 01007 16/// /1206 10000 21041 39634 49643 52013 60001 333 91109
AAXX 25001 01028 11985 02105 11021 21040 39721 49741 50003 60001 70200 333 91121
AAXX 25001 01047 41988 02205 11080 21130 39515 49887 58009 70220
AAXX 25001 01049 16/// /1705 11015 21079 39862 49866 58008 60001 333 91108
AAXX 25001 01078 16/// /2306 10008 21028 39843 49856 50005 6//// 333 91121
AAXX 25001 01102 46/// /1917 10049 20034 39813 49832 56032 333 91130
AAXX 25001 01160 41789 81611 10042 21002 39778 49795 56057 70282 888// 333 91120
AAXX 25001 01218 NIL
AAXX 25001 01238 46/// /1711 11003 21036 38804 49929 56015 333 91123
AAXX 25001 01241 11470 82413 10047 20026 39876 49887 53009 69901 78082 8796/ 333 91122
AAXX 25001 01281 NIL
AAXX 25001 01338 16/// /2308 10071 20028 39909 49974 55009 60031 333 91113
AAXX 25001 01359 16/// /2310 10022 21005 39074 49974 56022 69941 333 91117
AAXX 25001 01397 16/// /1201 11095 21101 39572 40026 58042 60001 333 91104
AAXX 25001 01400 NIL
AAXX 25001 01427 16/// /2512 10082 20067 30055 40071 56014 60021 333 91117
AAXX 25001 01447 NIL
AAXX 25001 01448 46/// /2515 10076 20067 30060 40070 56028 333 91119
BBXX PCEO 25003 99504 10004 41/97 82512 10102 20059 40282 58004 76166 8//// 22264 04115 20802 3//// 4//// 5//// 80080
AAXX 25001 10007 NIL
AAXX 25001 10044 46/// /2212 10046 20028 30175 40207 58006 222// 00052 333 55300 91114 91212
AAXX 25001 10046 42360 72306 10046 20029 30177 40217 58005 876// 333 87707
AAXX 25001 10091 NIL
AAXX 25001 10113 174// 82208 10060 20048 30203 40222 57013 60001 7//// 333 55/// 20300 30152 55300 20000 30000 81/12 88/50 88/60 91113
AAXX 25001 10124 46/// ///// 10057 2//// 30176 40214 56012 222// 00058 333 553// 911// 912//
AAXX 25001 10131 15466 72308 10055 20037 30210 40225 57011 60001 333 55/// 20232 30131 55300 20000 30000 82/11 87/25 91114
AAXX 25001 10170 12983 02204 10036 20018 30209 40225 50003 60001 333 31/// 55/// 20164 30106 55300 20000 30000 91113
AAXX 25001 10264 16368 82406 10026 20017 30132 40242 52001 60001 333 55/// 20081 30080 55300 20000 30000 87/09 88/12
AAXX 25001 10291 12370 42506 10026 20016 30177 40247 51017 60001 84500 333 31/// 55/// 20057 30057 55300 20000 30000 84607
AAXX 25001 10315 12475 62104 10046 20028 30209 40275 57008 60001 82501 333 31/// 55/// 20271 30183 55300 20000 30000 81617 85070
AAXX 25001 10379 12981 12607 10022 20014 30134 40259 51010 60001 80004 333 31/// 55/// 20073 30070 42669 55300 20000 30000 40872 81075
AAXX 25001 10382 12482 22604 10018 20010 30214 40261 51014 60001 82500 333 31/// 55/// 20064 30064 55300 20000 30000 82614
AAXX 25001 10384 16/// /2605 10032 20019 30198 40260 51015 60001 333 55/// 20063 30063 55300 20000 30000
AAXX 25001 10427 01/01 92609 11006 21006 39258 48536 58002 69901 74984 333 44036 55/// 20071 30071 55300 20000 30000 69907 91115 91211 96285 96485
AAXX 25001 10430 15663 82204 10045 20023 30087 40284 58007 60001 333 55/// 20079 30071 55300 20000 30000 87/42 87/50 88/56
AAXX 25001 10439 NIL
AAXX 25001 10453 11/90 92617 11031 21031 38893 48509 56005 69951 74944 333 49115 55300 91123 90208 91218 91219 96036
AAXX 25001 10496 15379 72704 10033 20019 30180 40267 51020 60001 333 55/// 20047 30047 55300 20000 30000 86/08 87/31 87/41
AAXX 25001 10499 01481 52805 10031 20012 39973 40271 51024 69911 72162 85800 333 32/// 55/// 20098 30093 55300 20000 30000 69907 83815 83626 91114
AAXX 25001 10505 12570 62208 10039 20020 30014 40304 58009 60001 84832 333 31/// 55/// 20183 30169 55300 20000 30000 81822 84656
AAXX 25001 10513 01682 61702 10030 20011 30185 40311 58008 69901 72162 8353/ 333 31/// 55/// 20133 30131 55300 20000 30000 69907 82635 86358
AAXX 25001 10532 17765 81902 10023 20011 30056 40313 58002 60001 72030 333 55/// 20290 30183 55300 20000 30000 87/50 88/57 88/59
AAXX 25001 10544 01/00 92505 11019 21019 39195 48546 51001 69901 74974 333 48017 55300 69907 96147 96278 96478 96441
AAXX 25001 10554 12980 42305 10009 21007 39897 40300 50000 60001 80004 333 31/// 55/// 20081 30080 55300 20000 30000 84076
AAXX 25001 10567 12581 22405 10009 21003 39913 40303 51007 60001 82500 333 31/// 55/// 20042 30041 55300 20000 30000 82633
AAXX 25001 10578 11/01 92917 11038 21041 38847 48529 51020 69921 74974 333 49069 55/// 20136 30122 55300 20000 30000 96038
AAXX 25001 10609 12574 72305 10025 20006 39992 40334 58004 60001 8553/ 333 31/// 55/// 20172 30158 55300 20000 30000 83620 83656 86361
AAXX 25001 10616 12364 82603 10019 20008 39709 40329 58001 60001 878// 333 31/// 55300 84807 87609
AAXX 25001 10641 NIL
AAXX 25001 10655 11970 12505 10013 20004 39990 40332 51002 69901 70261 81030 333 31/// 55/// 20212 30193 55300 20000 30000 81366
AAXX 25001 10675 17578 82603 10029 20003 30026 40328 51008 69901 70065 333 55/// 20130 30130 55300 20000 30000 81/24 88/42 88/66
AAXX 25001 10688 07467 82402 10016 20004 39784 40325 51011 69901 70065 333 55/// 20120 30119 55300 20000 30000 69907 87/13 87/30 88/50
AAXX 25001 10708 12580 72004 10017 20002 39946 40347 50000 60001 83631 333 32/// 55/// 20239 30193 55300 20000 30000 82720 87080
AAXX 25001 10729 15676 81603 10029 20010 30221 40348 50001 60001 333 55/// 20275 30186 55300 20000 30000 88/49
AAXX 25001 10731 15581 82304 10038 20004 30199 40348 54000 60001 333 55/// 20191 30153 55300 20000 30000 81/22 88/41 88/67
AAXX 25001 10742 15675 62502 10021 20003 30001 40345 51003 60001 333 55/// 20163 30152 55300 20000 30000 85/47 86/66
AAXX 25001 10776 07582 72803 10027 20003 39872 40331 51012 69901 70065 333 55/// 20170 30163 55300 20000 30000 69907 85/24 87/29 87/50
AAXX 25001 10791 06/// ///// 11050 21053 38610 48547 51010 69921 333 55300 69907
AAXX 25001 10805 15769 82003 10028 20007 30162 40361 54000 60001 333 55/// 20042 30042 55300 20000 30000 88/50 88/64 88/67
AAXX 25001 10815 17366 72604 11018 21020 39375 48573 58003 69941 70076 333 4/009 55/// 20213 30200 55300 20000 30000 86/07 87/11
AAXX 25001 10836 07363 82707 11006 21007 39445 40350 51003 69911 70076 333 55/// 20083 30083 55300 20000 30000 69907 88/06 88/10
AAXX 25001 10870 11370 82603 10017 20007 39790 40344 51010 69901 70262 878// 333 31/// 55300 83809 87616
AAXX 25001 10895 07470 72808 10016 20003 39736 40326 51012 60011 72387 333 55/// 20132 30131 55300 20000 30000 69967 87/18 87/22 87/56 91113
AAXX 25001 10908 06060 72706 11065 21068 38592 48580 50000 69901 333 55/// 20262 30262 55300 20000 30000 69907 83/00 85/05 87/62
AAXX 25001 10929 01957 02502 10011 21005 39811 40365 51003 69901 71011 333 31/// 55/// 20191 30185 55300 20000 30000 69907
AAXX 25001 10948 07/35 /1301 11015 21015 39377 48582 51002 69981 77170 333 4/026 55/// 20105 30105 55300 20000 30000 69937
AAXX 25001 10961 46/// /3604 11157 21175 37100 47067 50001 333 55/// 20154 42300 55300 20000 40952
AAXX 25001 10962 01282 82504 11018 21024 39159 48576 50004 69901 72272 875// 333 42005 55/// 20087 30087 55300 20000 30000 69907 84705 87620
AAXX 25001 10980 46/// /3201 11073 21073 38221 48574 51004 333 55/// 20081 30081 55300 20000 30000
BBXX PHQX 25003 99429 70150 41597 50000 10110 20050 40370 70222 83175 22264 2//00 3//// 4//// 5//// 80080
BBXX A8QJ7 25004 99300 70156 41/98 /0312 10190 20190 40262 58012 70322 8/7// 22283 06180 2//// 3//// 4//// 5//// 80190
AAXX 25004 78897 12580 60808 10251 20208 40171 53014 69901 86800 333 022// 10294 20229 58008 70018 82823 85656
AAXX 25004 91503 31480 53605 10310 20224 40065 52012 70511 82266 333 56800 58015 82819 85280
AAXX 25004 91517 31475 31804 10315 20252 4//// 5//// 70500 82903 333 20240 56609 5//// 81822 81922 83080
AAXX 25004 91503 31480 53605 10310 20224 40065 52012 70511 82266 333 56800 58015 82819 85280
AAXX 25004 91517 31475 31804 10315 20252 4//// 5//// 70500 82903 333 20240 56609 5//// 81822 81922 83080
AAXX 25001 33815 42597 80000 11049 21081 30013 40231 52001 885// 555 14107
AAXX 25004 07005 04/70 /2211 10070 20051 30221 40313 57005 69921 751// 333 69907 90710 91118 555 69905
AAXX 25004 07015 02582 72313 10067 20044 30246 40305 56007 60001 85502 333 60007 85625 85067 90710 91122 93100 555 60005
AAXX 25004 07020 02568 62621 10111 20076 30295 40322 56005 60001 86500 333 60007 86630 90710 91130 555 60005
AAXX 25004 07027 04885 82213 10075 20058 30249 40333 57004 69941 700// 333 60007 90710 91118 555 60005
AAXX 25004 07037 04685 82409 10062 20047 30143 40332 58004 69901 700// 333 60007 90710 91115 555 60005
AAXX 25004 07070 04770 82408 10047 20021 30223 40338 58008 60001 700// 333 60007 90710 91113 555 60005
AAXX 25004 07110 02670 82510 10083 20063 30231 40349 57001 60001 875// 333 60007 87636 90710 91113 93100 555 60005
AAXX 25004 07117 02465 52312 10088 20069 30264 40336 56007 69961 85820 333 69947 90710 91123 92437 555 60005
AAXX 25004 07130 04782 82306 10072 20058 30302 40356 55006 60001 700// 333 60007 90710 91113 555 60005
AAXX 25004 07139 06/// /2004 10047 20029 30170 40351 58007 60001 333 60007 90710 91108 555 60005
AAXX 25004 07149 02665 62205 10041 20028 30230 40344 58011 60001 86500 333 60007 82636 85656 90710 91110 93100 555 60005
AAXX 25004 07168 04/70 /2410 10042 20012 30207 40356 58004 60001 700// 333 60007 90710 91116 555 60005
AAXX 25004 07181 04984 /2308 10016 20000 39928 40357 58001 60001 700// 333 60007 90710 91112 555 60005
AAXX 25004 07190 04683 81504 10018 21001 30164 40356 58003 60001 700// 333 60007 90710 91109 555 60005
AAXX 25004 07207 06/// /2813 10108 20055 60001 333 60007 90710 91121 555 60005
AAXX 25004 07222 04762 82004 10048 20035 30334 40367 50001 69901 700// 333 69907 90710 91105 555 60005
AAXX 25004 07240 02765 62203 10029 20016 30227 40369 50000 60001 86500 333 60007 86650 90710 91106 93100 555 60005
AAXX 25004 07255 04963 /2102 11001 21007 30167 40379 50001 60001 700// 333 60007 90710 91105 555 60005
AAXX 25004 07280 04964 /3202 11007 21014 30082 40371 58005 60001 700// 333 60007 90710 91104 555 60005
AAXX 25004 07299 04971 81404 10003 21010 30024 40370 51004 60001 700// 333 60007 90710 91105 555 60005
AAXX 25004 07314 06/// /1604 10070 20045 30352 40381 50000 60001 333 60007 90710 91107 555 60005
AAXX 25004 07335 04660 /2203 11006 21010 30228 40382 50000 60001 700// 333 60007 90710 91104 555 60005
AAXX 25004 07434 04985 /3104 10016 21003 39880 40384 57001 60001 700// 333 60007 90710 91106 555 60005
AAXX 25004 07460 02560 30000 11015 21023 39972 40387 53002 60001 83500 333 60007 83626 90710 91102 93100 555 60005
AAXX 25004 07471 04470 80402 11010 21030 39356 48924 53002 60001 700// 333 60007 90710 91106 555 60005
AAXX 25004 07481 02980 03409 10005 21016 30063 40367 53002 60001 333 60007 90710 91113 93100 555 60005
AAXX 25004 07510 01958 00000 10001 21006 30317 40387 53002 60001 71100 333 60007 90710 91101 93100 555 60005
AAXX 25004 07535 06/// /0000 11013 21014 30056 40389 53002 60001 333 60007 90710 91102 555 60005
AAXX 25004 07558 06/// /3316 10000 21036 39481 40359 52001 60001 333 60007 90710 91122 555 60005
AAXX 25004 07577 04/70 /0213 10060 21016 30234 40327 50001 60001 700// 333 60007 90710 91126 555 60005
AAXX 25004 07591 04/// /3401 11014 21098 39243 4//// 53019 60001 700// 333 60007 90710 91105 555 60005
AAXX 25004 07607 04964 /0602 11019 21022 30310 40387 56002 60001 700// 333 60007 90710 91104 555 60005
AAXX 25004 07621 04978 /1803 11006 21012 39928 40388 57008 60001 700// 333 60007 90710 91106 555 60005
AAXX 25004 07627 06/// /2701 11021 21031 39874 40395 58006 60001 333 60007 90710 91102 555 60005
AAXX 25004 07630 04973 /2903 10021 20002 30192 40383 57003 60001 700// 333 60007 90710 91105 555 60005
AAXX 25004 07643 04986 /2808 10050 21036 30305 40315 58008 60001 700// 333 60007 90710 91118 555 60005
AAXX 25004 07650 04986 /3515 10059 21015 30234 40274 55000 60001 700// 333 60007 90710 91128 555 60005
AAXX 25004 07661 06/// /2507 10081 21085 30080 40245 51007 60001 333 60007 90710 91109 555 60005
AAXX 25004 07690 02980 03409 10081 21076 30208 40243 51012 60001 333 60007 90710 91114 93100 555 60005
AAXX 25004 07747 04986 /3309 10078 21004 30287 40342 51006 60001 700// 333 60007 90710 91127 555 60005
AAXX 25004 07761 02582 20407 10042 21008 30203 40214 51023 60001 81830 333 60007 81830 90710 91109 93100 555 60005
AAXX 25004 07790 04986 /2905 10078 20035 30211 40226 52020 60001 700// 333 60007 90710 91107 555 60005
AAXX 25001 01037 16/// /1405 10013 21074 39845 49851 58026 60001 333 91111
AAXX 25001 01046 16/// /1505 10002 21070 39838 49845 58024 6//// 333 91110
AAXX 25001 01058 16/// /1605 11082 21106 39420 49891 58007 69931 333 4/018 91108
AAXX 25001 01065 16/// /0803 11105 21113 39731 49898 58001 60001 333 91105
AAXX 25001 01092 46/// /2310 10006 21044 333 91114
AAXX 25001 01107 16/// /1719 10040 21083 39756 49760 58061 60041 333 91127
AAXX 25001 01114 16/// /1711 10051 21005 39789 49799 58060 60001 333 91121
AAXX 25001 01144 46/// /1514 10039 20004 333 91120
AAXX 25001 01199 NIL
AAXX 25001 01245 NIL
AAXX 25001 01259 16/// /2010 10048 20018 39834 49856 56008 60011 333 91125
AAXX 25001 01262 NIL
AAXX 25001 01278 NIL
AAXX 25001 01293 16/// /1908 10041 21041 39704 49908 56042 60001 333 91113
AAXX 25001 01329 16/// /2214 10067 20049 39941 40002 56009 60131 333 91119
AAXX 25001 01337 16/// /1401 10036 20016 39937 40003 55000 60031 333 91107
AAXX 25001 01344 16/// ///// 10024 21002 60051 333 4/075
AAXX 25001 01364 16/// ///// 10007 21007 38864 49968 50012 60001 333 4/040 91116
AAXX 25001 01373 16/// /0000 11055 21062 39797 40002 56036 60001 333 91103
AAXX 25001 01374 NIL
AAXX 25001 01380 16/// /1604 11061 21071 6//// 333 4/025 91116
AAXX 25001 01389 NIL
AAXX 25001 01393 NIL
AAXX 25001 01424 16/// ///// 10029 20022 30031 40034 56010 60171
AAXX 25001 01431 16/// /1202 10021 20014 39392 40056 56013 60101 333 91105
AAXX 25001 01436 NIL
AAXX 25001 01465 16/// /2215 10076 20064 30044 40062 58031 60001 333 91122
AAXX 25001 01471 16/// /2701 11025 21043 60001 333 91105
AAXX 25001 01483 NIL
AAXX 25004 03005 11561 22640 10067 20023 39882 49981 53023 69941 72581 82800 92350 333 55/// 20014 81825 90710 91160 91052
AAXX 25004 03017 15977 /2632 10070 20026 30001 40033 52021 69921 92350 333 55/// 20029 8//99 90710 91148
AAXX 25004 03023 17959 /2420 10087 20050 30078 40083 50002 60001 704// 92350 333 81/58 86/62 90710 91127
AAXX 25004 03026 17759 /2317 10071 20023 30041 40059 51015 69901 704// 92350 333 55/// 20039 81/50 90710 91128
AAXX 25004 03063 15667 /2007 10062 20020 39821 40099 52013 69901 92350 333 55/// 20054 87/31
AAXX 25004 03066 15670 /2209 10072 20015 30076 40082 53018 69901 92350 333 55/// 20105 81/44
AAXX 25004 03075 15663 /2214 10064 20005 30009 40054 51021 69901 92350 333 82/41 90710 91125
AAXX 25004 03091 15968 /2206 10068 20010 30016 40095 53020 60001 92350 333 55/// 20057 8//99
AAXX 25004 03100 17656 /2311 10091 20073 30093 40109 58004 60001 704// 92350 333 55/// 20034 81/30 83/59 87/61
AAXX 25004 03111 16862 /2515 10097 20087 30133 40145 53004 60021 92350 333 87/57
AAXX 25004 03134 15468 /2210 10091 20070 30062 40134 53014 69941 92350 333 55/// 20027 86/18 85/25
AAXX 25004 03136 15469 /2318 10099 20091 30113 40146 53008 60021 92350 333 55/// 20329 81/14 85/31 90710 91126
AAXX 25004 03162 17339 /2311 10087 20077 39860 40146 52005 60061 762// 92350 333 55/// 20028 87/07 85/17 91021
AAXX 25004 03166 15471 /2514 10091 20071 30055 40125 51013 69921 92350 333 55/// 20082 87/17 90710 91125
AAXX 25004 03171 11980 12507 10061 20036 30105 40117 53024 69941 70261 80001 92350 333 55/// 20038 81080
AAXX 25004 03204 11370 72520 10102 20088 30163 40182 50006 60001 70261 876// 92350 333 55/// 20062 87708 90710 91134 91031
AAXX 25004 03240 15483 /2212 10102 20081 30117 40145 50005 60001 92350 333 55/// 20105 85/17
AAXX 25004 03257 15471 /2417 10103 20079 30141 40182 51002 69901 92350 333 55/// 20104 83/17 87/23 90710 91125
AAXX 25004 03292 169// /2613 10087 20070 30168 40186 51011 60001 92350 333 81/64 88/73 90710 91125 91025
AAXX 25004 03302 17457 /2322 10101 20091 30198 40210 55004 60011 704// 92350 333 55/// 20109 81/14 84/69 90710 91132
AAXX 25004 03354 15665 /2411 10088 20069 30087 40231 53008 69901 92350 333 55/// 20149 88/46 91021
AAXX 25004 03377 12984 72416 10087 20063 30134 40219 53003 60001 8703/ 92350 333 55/// 20144 87359
AAXX 25004 03414 15780 /2314 10100 20086 30141 40229 53004 69901 92350 333 55/// 20083 87/56
AAXX 25004 03462 15984 /2215 10081 20060 30143 40234 53001 60001 92350 333 55/// 20118 85/61 83/67
AAXX 25004 03482 17768 /2212 10073 20060 30211 40237 56003 69921 723// 92350 333 87/56 86/67
AAXX 25004 03502 17458 /2526 10100 20087 30086 40249 55001 60021 722// 92350 333 55/// 20203 88/10 90710 91135
AAXX 25004 03535 15583 /2110 10090 20068 30123 40241 53002 69901 92350 333 55/// 20152 87/21 86/28
AAXX 25004 03590 NIL
AAXX 25004 03649 12480 82612 10095 20075 30159 40260 57002 69901 885// 92350 333 86713 88625 90710 91126 91026
AAXX 25004 03716 17465 /2518 10096 20087 30214 40275 53005 60031 761// 92350 333 55/// 20238 84/12 87/19 90710 91128
AAXX 25004 03740 16472 /2312 10085 20070 30094 40273 53002 60001 92350 333 55/// 2//// 88/11
AAXX 25004 03746 15480 /2411 10087 20059 30123 40279 55002 69901 92350 333 81/15 87/21
AAXX 25004 03772 17479 /2211 10089 20061 30241 40272 55004 69901 723// 92350 333 55/// 20157 88/19
AAXX 25004 03796 46/// /2512 10076 20063 30137 40282 56005 92350
AAXX 25004 03803 NIL
AAXX 25004 03808 11470 72512 10097 20079 30198 40305 57002 69901 70262 878// 92350 333 55/// 20316 83816 87635
AAXX 25004 03809 12470 72615 10103 20084 30210 40304 56005 60001 875// 92350 333 82618 84622 87625 90710 91132
AAXX 25004 03827 15460 /2517 10104 20084 30244 40307 55001 60001 92350 333 81/14 85/17 86/40 90710 91126
AAXX 25004 03840 15373 /2412 10079 20071 39979 40289 52001 69901 92350 333 88/09
AAXX 25004 03853 15471 /2409 10098 20071 30260 40285 56001 69901 92350 333 55/// 20227 87/19
AAXX 25004 03874 46/// /2620 10094 20075 30274 40285 56003 92350 333 90710 91125
AAXX 25004 03882 17660 /2407 10086 20073 30224 40288 56003 69921 761// 92350 333 55/// 20286 85/39 83/47 85/57 91018
AAXX 25004 03894 NIL
AAXX 25004 03917 17469 /2213 10098 20089 30088 40165 52003 69921 781// 92350 333 55/// 20096 85/16 84/56
AAXX 25004 97180 01460 70403 10275 20259 30064 40082 53013 60024 70262 81232 333 20252 50150 55030 55508 51534 56000 58003 69927 81819 83360 85080
AAXX 25001 01025 17/84 21811 10020 21045 39810 49821 58036 6//// 700// 333 91114
AAXX 25001 01052 16/// /1904 10000 21051 39745 49841 58010 60001 333 91115
AAXX 25001 01122 16/// /1811 10004 21020 39765 49854 58051 69961 333 91117
AAXX 25001 01132 16/// /1506 11020 21042 39510 49898 58036 69971 333 91114
AAXX 25001 01156 16/// /1512 10038 20010 39766 49775 58055 69941 333 91119
AAXX 25001 01203 46/// /2227 10064 20023 39863 49910 53008 333 91139
AAXX 25001 01233 16/// /1505 11011 21033 60001 333 91114
AAXX 25001 01265 16/// /2106 11025 21054 39372 49955 58031 69921 333 91117
AAXX 25001 01273 16/// /1710 10024 21052 39711 49904 56030 60001 333 91118
AAXX 25001 01307 46/// /2315 10083 20045 39958 49985 53011 333 91123
AAXX 25001 01321 16/// /2605 10037 20008 39706 49956 55001 60131 333 91113
AAXX 25001 01327 16/// /2613 10049 20010 60181 333 91120
AAXX 25001 01350 16/// /2715 11006 21006 38606 49981 56004 60011 333 91122
AAXX 25001 01361 16/// /2807 10009 21025 38918 49927 58014 69971 333 4/082 91113
AAXX 25001 01375 NIL
AAXX 25001 01378 16/// /2102 11029 21038 39703 49999 56038 60001 333 91105
AAXX 25001 01385 16/// /3402 11027 21035 39738 40014 56040 60001 333 91103
AAXX 25001 01412 16/// /2510 10084 20073 30032 40061 53003 60041 333 91117
AAXX 25001 01422 16/// /2304 10083 20068 60061 333 91115
AAXX 25001 01440 NIL
AAXX 25001 01441 NIL
AAXX 25001 01467 NIL
AAXX 25001 01469 16/// /1502 10025 21004 39845 40016 56037 69931 333 91108
AAXX 25001 01477 16/// /1302 10044 20015 60001 333 4/022 91106
AAXX 25001 01480 16/// /3401 10029 20016 60001 333 91105
AAXX 25001 01484 16/// /1906 10035 20022 39875 40031 56044 60011 333 91111
AAXX 25001 01490 16/// /2108 10006 20005 60001 333 91114
AAXX 25001 01495 16/// /2214 10070 20049 30038 40051 56037 60001 333 91122
AAXX 25001 01015 NIL
AAXX 25001 01023 41589 72302 11005 21041 39739 49833 58038 70220 8487/ 333 91106
AAXX 25001 01033 46/// /1512 10027 21035 39778 49808 58037 333 91119
AAXX 25001 01059 16/// /1205 11014 21056 39860 49869 58006 6//// 333 91111
AAXX 25001 01089 16/// /2303 11008 21013 39785 49890 51007 6//// 333 91109
AAXX 25001 01167 41480 81609 10035 21012 39791 49795 57058 70282 887// 333 91113
AAXX 25001 01180 NIL
AAXX 25001 01210 16/// /2417 10076 20017 39885 49911 53009 6//// 333 91129
AAXX 25001 01228 46/// /2518 10068 20031 39857 49864 53004 333 91133
AAXX 25001 01240 16/// /2218 10065 20035 39832 49851 55010 6//// 333 91127
AAXX 25001 01304 46/// /2611 10069 20033 39923 49954 53021 333 91124
AAXX 25001 01311 47662 82507 10075 20041 39956 40017 53012 723// 333 91118
AAXX 25001 01340 16/// /3103 10013 21005 39142 40006 55004 60051 333 91109
AAXX 25001 01355 16/// ///// 10048 20022 39974 49979 55004 69971
AAXX 25001 01360 NIL
AAXX 25001 01392 16/// /1602 10014 20002 39797 40023 58039 60001 333 91106
AAXX 25001 01406 46/// /2012 10076 20054 30004 40022 53012 333 91121
AAXX 25001 01411 16/// /2409 10089 20069 30025 40050 51009 6//// 333 91119
AAXX 25001 01425 16/// /0901 10063 20056 39985 40064 55008 60241 333 91109
AAXX 25001 01433 46/// /2602 10005 21003 38775 40021 56008 333 91116
AAXX 25001 01442 NIL
AAXX 25001 01450 NIL
AAXX 25001 01452 16/// /2306 10067 20055 30047 40068 57027 60031 333 91113
AAXX 25001 01473 16/// /1302 10037 20013 39815 40023 56036 6//// 333 91108
AAXX 25001 01494 17/61 /2110 10061 20043 39978 40043 58039 60001 700// 333 91118
AAXX 25004 61901 169// /1212 10166 20129 39680 40190 51005 69921 92350 333 8//99 555 7/090
AAXX 25004 61902 11582 71310 10235 20187 40149 69901 70381 878// 333 59003 81820 87643
AAXX 25004 88889 12575 22316 10079 20040 39984 40068 51013 60001 82400 92350 333 10133 82822 90710 91125
BBXX 46082 25001 99597 71434 46/// ///// 10042 49895 56037 92350 22200 00062 11008 70039
BBXX 46072 25001 99517 71722 46/// /0511 11001 21036 40120 56022 92350 22200 00046 10905 20603 3//// 40904 70025 333 91214 555 11112 22118 32342 40414 62349 049104 057093 059081 057086 058085 060082 80511 92339
BBXX 46035 25001 99571 71778 46/// /0111 1//// 40230 57004 92350 22200 10805 20805 70023 333 91214 555 11107 22114 32259 40114 62349 014106 001106 013099 031093 025095 020102 80212 92300
BBXX 46077 25001 99579 71543 46/// /2410 11077 21123 49976 58035 92350 22200 00048 10604 20604 70018 333 91214 555 11107 22112 32333 42415 62349 237099 238104 235100 239104 242102 248103 82412 92345
BBXX 51101 25001 99243 71621 46/// /0810 10234 20169 40228 57020 92350 22200 00238 10807 20806 305// 41004 70033 333 91212 555 11109 22116 32328 40813 62349 076101 074109 077106 081103 085106 084106
BBXX 46061 25001 99602 71468 46/// /3207 10005 49898 57028 92350 22200 00056 11104 20602 300// 41103 70019 333 91209 555 11078 22081 32349 43209 62349 323074 322076 321075 320077 323077 325068
BBXX 46072 25001 99517 71722 46/// /0511 11001 21036 40120 56022 92350 22200 00046 10905 20603 3//// 40904 70025 333 91214 555 11112 22118 32342 40414 62349 049104 057093 059081 057086 058085 060082 80511 92339
BBXX 42039 25001 99288 70860 46/// /0607 10192 40237 52011 92350 22200 00230 10502 20502 70012 333 91208 555 11070 22073 32250 40510 62349 055067 056069 055068 058068 057072 053073 80608 92251
BBXX 41040 25001 99145 70530 46/// /0606 10262 20212 40162 51020 92350 22200 00275 10804 20502 3//// 40804 70020 333 91207 555 11060 22063 32336 40707 62349 062056 068056 066052 068052 067054 065053 80706 92336
BBXX 41010 25001 99289 70785 46/// /0506 10232 40242 52012 92350 22200 00238 10903 20501 300// 40902 70013 333 91208 555 11066 22069
BBXX 42057 25001 99168 70815 46/// /0608 10274 20222 40153 53007 92350 22200 00276 10704 20703 3//// 41002 70018 333 91210 555 11083 22088 32349 40710 62349 061082 063081 065081 063080 063082 063078 80609 92349
BBXX 41009 25001 99285 70802 46/// /0505 10243 20202 40241 53008 92350 22200 00245 11002 20401 300// 41002 70010 333 91206 555 11054 22057
BBXX 44007 25001 99435 70701 46/// /0407 11055 21103 40331 52021 92350 22200 00075 10901 20301 3//// 40901 70007 333 91210 555 11075 22078 32343 40410 62349 042072 038072 029068 046063 037064 036068
BBXX 51004 25001 99175 71524 46/// /0511 10239 20205 92350 555 11116 22123
BBXX 51002 25001 99171 71578 46/// /0712 10241 40152 58016 92350 22200 00250 333 91215 555 11124 22132 32347 40715 62349 063115 066111 066114 064118 064115 065115
BBXX 51100 25001 99236 71539 46/// /0610 10214 40229 58017 92350 22200 00230 10905 20704 308// 40903 70025 333 91212 555 11108 22114 32250 40613 62349 065098 063103 066099 062096 058095 061098
BBXX 46026 25001 99378 71228 46/// /3203 10122 40289 56007 92350 22200 00120 11504 20301 328// 41504 70020 333 91204 555 11030 22034 32348 43204 62349 314027 264017 302020 301025 304020 313016
BBXX 46041 25001 99474 71247 46/// /1706 10083 40273 56016 92350 22200 00084 11106 20502 3//// 41106 70032 333 91208 555 11067 22071 32314 41610 62349 169063 170064 172067 169073 165072 162070
AAXX 25004 85201 11470 73005 10088 20052 36298 52010 60021 71322 83963 333 10130 56000 58001 82615 81917 83357 87070
AAXX 25004 85223 32584 72608 10216 20076 37486 47128 52011 83331 333 10290 56000 58001 82627 81930 83358 87070
AAXX 25004 85244 NIL
AAXX 25004 78016 11564 73512 10201 20156 30219 40223 53022 60031 70182 86830 333 10232 20193 70033 90926
AAXX 25004 78767 11965 32103 10230 20209 30120 40130 51010 60062 70500 81046 333 10279 20237 32/// 56000 58010 70198 81364
AAXX 25004 78906 11472 62002 10225 20211 30155 40160 60021 78082 86400 333 10287 20221 58014 70049 86815 90946
AAXX 25001 11816 12665 63309 10050 21006 30101 40268 52029 60001 85540 333 55000 83635 85656 91014
AAXX 25001 11826 15/84 /3006 10030 20002 30051 40256 52021 60001 333 55000
AAXX 25001 11903 11656 79901 11008 21015 39846 40240 53009 60001 71022 87500 333 55000 87636
AAXX 25001 11934 11360 89901 11021 21031 39378 42806 52009 69911 70277 886// 333 55000 81706 88711
AAXX 25001 11968 11416 81901 11014 21022 39947 40239 53008 69901 71077 886// 333 55000 88711
AAXX 25004 78016 11564 73512 10201 20156 30219 40223 53022 60031 70182 86830 333 10232 20193 70033 90926
AAXX 25001 02917 47382 82804 11008 21015 39902 40026 700// 88/// 90000
AAXX 25001 02913 47975 02303 11021 21029 39971 40024 700//
AAXX 25001 02897 47399 12404 11009 21015 39818 40001 700// 81/// 90000
AAXX 25001 02947 47/75 72602 11015 21015 40050 52008 70000 87/// 92351
AAXX 25001 02974 42982 12803 11010 21015 30007 40074 52015 70211 80001
AAXX 25001 02741 47974 02302 11025 21028 30071 40087 54001 70000 92339
AAXX 25001 02755 47978 02201 11027 21031 39915 40012 52009 70076 92339
AAXX 25001 02805 47999 01702 11086 21098 39755 49890 54001 70000 92339
AAXX 25001 02836 47999 02201 11096 21103 39717 49946 52011 70000 92339
AAXX 25001 02845 47999 12302 11052 21053 39705 49957 52010 70010 80/// 92339
AAXX 25001 02849 47219 82404 11020 21025 39673 49947 52012 77174 88/// 92339
AAXX 25001 02866 47982 02202 11021 21021 39828 49979 52015 70087 92339
AAXX 25001 02924 47966 00000 11047 21047 39839 40041 52004 70000 92339
AAXX 25001 02935 47371 72302 11017 21024 39866 40042 52009 70000 87/// 92339
AAXX 25001 02939 47383 72403 11006 21008 39824 40019 52006 70074 87/// 92339
AAXX 25001 02947 47375 72602 11015 21015 40050 52008 70000 87/// 92351
AAXX 25001 02976 46/// /3003 10012 20009 30045 40061 52016 92339
AAXX 25001 02981 47982 02707 10033 2//// 30083 40092 52008 70000 92339
AAXX 25001 02982 46/// /3108 10021 21001 30078 40086 52011 92339
AAXX 25001 02807 NIL
AAXX 25001 02897 NIL
AAXX 25001 02913 NIL
AAXX 25001 02917 NIL
AAXX 25001 02926 NIL
AAXX 25001 02944 NIL
AAXX 25001 02963 NIL
AAXX 25001 02944 47470 12202 11028 21028 39914 40064 700// 81/// 90000
AAXX 25001 02926 47976 02202 11013 21014 30049 40061 52001 700// 90000
AAXX 25004 78767 11965 32103 10230 20209 30120 40130 51010 60062 70500 81046 333 10279 20237 32/// 56000 58010 70198 81364
AAXX 25004 78906 11472 62002 10225 20211 30155 40160 60021 78082 86400 333 10287 20221 58014 70049 86815 90946
AAXX 25001 02807 47999 02204 11060 21068 39732 49917 700// 90000
AAXX 25004 78906 11472 62002 10225 20211 30155 40160 60021 78082 86400 333 10287 20221 58014 70049 86815 90946
AAXX 25004 78767 11965 32103 10230 20209 30120 40130 51010 60062 70500 81046 333 10279 20237 32/// 56000 58010 70198 81364
BBXX CGDS 25004 99447 70755 46/// /0808 11104 21126 4//// 5//// 7//// 8//// 22200 0//// 2////
BBXX CG2960 25004 99429 70824 46/// /1714 10021 21024 40254 58008 7//// 8//// 22281 00061 2////
AAXX 25001 76040 32960 00102 10187 21062 30258 40272 57008 92348 333 10196 20039 30/// 50270 59008 70000 98660
AAXX 25001 76225 32960 00702 10016 21028 38696 40286 52012 92345 333 10034 21022 30/// 50161 58084 79999
AAXX 25001 76256 32980 03605 10201 20056 30196 40210 5//// 92345 333 10166 20052 30/// 50420 59013 70000
AAXX 25001 76305 32970 03405 10198 20005 30187 40195 57001 92350 333 10223 20110 30/// 50501 58/// 70000
AAXX 25001 76342 31460 80602 10074 20051 39575 40315 52008 70222 887// 92350 333 10090 20035 31/// 50021 561// 58025 70044 88710
AAXX 25001 76382 32480 23404 10100 20019 38944 40229 57001 81502 92354 333 10131 20036 30/// 50321 56301 58088 70000 81614 81076
AAXX 25001 76390 31440 73503 10042 20030 38240 40217 52001 74044 85405 92330 333 10090 21004 30/// 50111 56805 58020 70000 85715 82070
AAXX 25001 76402 31959 03603 10232 20035 30122 40179 57006 70544 92340 333 10245 20048 30/// 50491 59015 70000
AAXX 25001 76423 32784 32403 10200 21012 38136 40106 52003 81344 92356 333 10236 20040 30/// 50350 56099 58004 70000 81357 82067
AAXX 25001 76458 32970 13005 10190 20124 30135 40139 53002 80005 92338 333 10216 20093 30/// 50321 56//9 59003 70000 81070
AAXX 25001 76491 32560 73606 10114 20094 39849 40250 52016 875// 92350 333 10166 20100 30/// 50611 568// 70000 87625
AAXX 25001 76525 31980 62118 10152 20003 37461 40104 55005 73933 83031 92340 333 10165 20072 30/// 50831 56/55 58002 70000 83358 83080 91118
AAXX 25001 76539 32970 03602 10240 20036 38141 40109 57013 92350 333 10262 20050 30/// 50220 59003 70000
AAXX 25001 76543 32875 80903 10215 20138 30181 40214 52011 8805/ 92330 333 10238 20170 30/// 5//// 5603/ 58/// 70000 88358
AAXX 25001 76548 32474 70404 10172 20143 30204 40214 53009 83404 92340 333 10202 20164 30/// 50071 56806 58016 70000 83612 84076
AAXX 25001 76556 32970 31802 10239 20165 39105 40115 54000 80006 92335 333 10275 20114 30/// 50281 56//6 59003 70000 83070
AAXX 25001 76571 32670 01802 10230 21038 38159 40117 55004 92340 333 10250 20046 30/// 50711 58012 70000
AAXX 25001 76581 32970 01208 10202 20128 39052 40140 52009 92350 333 10270 20136 30/// 50340 59026 70000
AAXX 25001 76612 32962 12801 10240 20019 38457 40126 53004 80001 92350 333 10281 20075 30/// 50351 56005 58001 70000 81072
AAXX 25001 76625 32550 03204 10227 20022 38128 40072 54001 92350 333 10257 20082 30/// 50410 56000 58010 70000
AAXX 25001 76644 32460 60204 10266 20221 30156 40168 50703 81636 92350 333 10315 20209 30/// 50320 5622/ 58002 70000 81610
AAXX 25001 76654 31956 02702 10268 20206 30121 40125 57008 70544 92345 333 10304 20202 30/// 50401 59001 70000
AAXX 25001 76658 31560 22305 10287 20171 39615 40109 57005 70540 81102 92350 333 10345 20173 30/// 50550 56101 58002 70000 81822 81070 94002 98904
AAXX 25001 76665 32962 01502 10210 20076 38113 40092 57003 92350 333 10280 20054 30/// 50270 70000 58001
AAXX 25001 76675 31580 52304 10130 20034 37386 40117 52011 69901 76061 85900 92348 333 10216 21021 30/// 50330 569// 58007 69907 79999 83926 82826 91109
AAXX 25001 76683 32672 20000 10198 20068 37820 40120 54000 81130 92345 333 10238 20040 30/// 50281 56240 58/// 70000 81839 81358 98222
AAXX 25001 76685 32570 11401 10208 20013 37863 40090 57004 81100 92340 333 10244 20074 30/// 50181 56900 58001 70000 81827
AAXX 25001 76687 31355 71102 10174 20158 38699 40172 52003 80322 875// 92348 333 10232 20135 30/// 50070 563// 58001 70006 82718 85620
AAXX 25001 76695 32958 20600 10270 20204 31147 40153 52001 82001 92348 333 10310 20212 31/// 50860 56//0 58002 70180 82078
AAXX 25001 76737 31475 71101 10191 20162 38791 40158 53005 70322 86760 92335 333 10242 20148 30/// 50201 56220 58001 70007 86710 91108 91514
AAXX 25001 76743 31956 60901 10275 20248 30144 40152 53004 70222 86/5/ 92350 333 10305 20230 30/// 50080 56/0/ 58003 70021 86356
AAXX 25001 76750 32558 60703 10266 20206 30157 40167 52005 83131 92350 333 10321 20218 30/// 50490 56226 58013 70000 83820
AAXX 25001 76762 32504 11302 10258 20205 38746 40173 56004 81200 92330 333 10318 20137 30/// 50341 56300 58007 70000 81830
AAXX 25001 76773 31568 42701 10254 20069 38410 40086 57003 7050/ 84300 92345 333 10292 20060 30/// 50401 56200 58004 70000 83820 81620
AAXX 25001 76805 32970 02501 10285 20236 30102 40104 52007 92330 333 10329 20210 30/// 50451 58001 70000
AAXX 25001 76843 32565 63603 10230 20177 39492 40126 54000 86700 92437 333 10292 20205 30/// 50301 567// 58001 70000 86620
AAXX 25001 76845 32458 60502 10154 20125 37957 40152 51004 84704 92345 333 10198 20112 30/// 50171 56209 58002 70000 84712 82077
AAXX 25001 76848 32470 70401 10172 20144 38392 40087 51003 83444 92350 333 10230 20144 30/// 50301 56199 58010 70003 83618 81360 83075
AAXX 25001 76903 31675 62802 10298 20213 39973 40105 58001 70122 82501 92345 333 10353 20236 30/// 50311 56109 59002 70000 81833 81650 84074
AAXX 25001 76243 21370 83602 10064 20039 39979 40286 52002 70252 886// 92335 333 10080 20042 31/// 50061 568// 59042 69907 70056 88708
AAXX 25001 76311 32980 00000 10260 20027 39867 40147 56006 92345 333 10280 20007 30/// 50260 59012 70000
AAXX 25001 76412 31966 02602 10228 20051 30098 40142 57022 70544 92350 333 10238 20048 30/// 50471 59019 70000
AAXX 25001 76640 31357 83603 10210 20191 30199 40211 52006 70222 884// 92340 333 10224 20176 30/// 50191 567// 58006 70000 88608
AAXX 25001 76741 31350 73609 10234 20215 30124 40142 57012 70544 85550 92330 333 10245 20198 30/// 50131 568// 59003 70014 82610 83811
AAXX 25001 76040 32960 00102 10187 21062 30258 40272 57008 92348 33310196 20039 30/// 50270 59008 70000 98660
AAXX 25001 76225 32960 00702 10016 21028 38696 40286 52012 92345 33310034 21022 30/// 50161 58084 79999
AAXX 25001 76256 32980 03605 10201 20056 30196 40210 5//// 92345 33310166 20052 30/// 50420 59013 70000
AAXX 25001 76305 32970 03405 10198 20005 30187 40195 57001 92350 33310223 20110 30/// 50501 58/// 70000
AAXX 25001 76342 31460 80602 10074 20051 39575 40315 52008 70222 887//92350 333 10090 20035 31/// 50021 561// 58025 70044 88710
AAXX 25001 76382 32480 23404 10100 20019 38944 40229 57001 81502 92354333 10131 20036 30/// 50321 56301 58088 70000 81614 81076
AAXX 25001 76390 31440 73503 10042 20030 38240 40217 52001 74044 8540592330 333 10090 21004 30/// 50111 56805 58020 70000 8571582070
AAXX 25001 76402 31959 03603 10232 20035 30122 40179 57006 70544 92340333 10245 20048 30/// 50491 59015 70000
AAXX 25001 76423 32784 32403 10200 21012 38136 40106 52003 81344 92356333 10236 20040 30/// 50350 56099 58004 70000 81357 82067
AAXX 25001 76458 32970 13005 10190 20124 30135 40139 53002 80005 92338333 10216 20093 30/// 50321 56//9 59003 70000 81070
AAXX 25001 76491 32560 73606 10114 20094 39849 40250 52016 875// 92350333 10166 20100 30/// 50611 568// 70000 87625
AAXX 25001 76525 31980 62118 10152 20003 37461 40104 55005 73933 8303192340 333 10165 20072 30/// 50831 56/55 58002 70000 8335883080 91118
AAXX 25001 76539 32970 03602 10240 20036 38141 40109 57013 92350 33310262 20050 30/// 50220 59003 70000
AAXX 25001 76543 32875 80903 10215 20138 30181 40214 52011 8805/ 92330333 10238 20170 30/// 5//// 5603/ 58/// 70000 88358
AAXX 25001 76548 32474 70404 10172 20143 30204 40214 53009 83404 92340333 10202 20164 30/// 50071 56806 58016 70000 83612 84076
AAXX 25001 76556 32970 31802 10239 20165 39105 40115 54000 80006 92335333 10275 20114 30/// 50281 56//6 59003 70000 83070
AAXX 25001 76571 32670 01802 10230 21038 38159 40117 55004 92340 33310250 20046 30/// 50711 58012 70000
AAXX 25001 76581 32970 01208 10202 20128 39052 40140 52009 92350 33310270 20136 30/// 50340 59026 70000
AAXX 25001 76612 32962 12801 10240 20019 38457 40126 53004 80001 92350333 10281 20075 30/// 50351 56005 58001 70000 81072
AAXX 25001 76625 32550 03204 10227 20022 38128 40072 54001 92350 33310257 20082 30/// 50410 56000 58010 70000
AAXX 25001 76644 32460 60204 10266 20221 30156 40168 50703 81636 92350333 10315 20209 30/// 50320 5622/ 58002 70000 81610
AAXX 25001 76654 31956 02702 10268 20206 30121 40125 57008 70544 92345333 10304 20202 30/// 50401 59001 70000
AAXX 25001 76658 31560 22305 10287 20171 39615 40109 57005 70540 8110292350 333 10345 20173 30/// 50550 56101 58002 70000 8182281070 94002 98904
AAXX 25001 76665 32962 01502 10210 20076 38113 40092 57003 92350 33310280 20054 30/// 50270 70000 58001
AAXX 25001 76675 31580 52304 10130 20034 37386 40117 52011 69901 7606185900 92348 333 10216 21021 30/// 50330 569// 58007 6990779999 83926 82826 91109
AAXX 25001 76683 32672 20000 10198 20068 37820 40120 54000 81130 92345333 10238 20040 30/// 50281 56240 58/// 70000 81839 8135898222
AAXX 25001 76685 32570 11401 10208 20013 37863 40090 57004 81100 92340333 10244 20074 30/// 50181 56900 58001 70000 81827
AAXX 25001 76687 31355 71102 10174 20158 38699 40172 52003 80322 875//92348 333 10232 20135 30/// 50070 563// 58001 70006 8271885620
AAXX 25001 76695 32958 20600 10270 20204 31147 40153 52001 82001 92348333 10310 20212 31/// 50860 56//0 58002 70180 82078
AAXX 25001 76737 31475 71101 10191 20162 38791 40158 53005 70322 8676092335 333 10242 20148 30/// 50201 56220 58001 70007 8671091108 91514
AAXX 25001 76743 31956 60901 10275 20248 30144 40152 53004 70222 86/5/92350 333 10305 20230 30/// 50080 56/0/ 58003 70021 86356
AAXX 25001 76750 32558 60703 10266 20206 30157 40167 52005 83131 92350333 10321 20218 30/// 50490 56226 58013 70000 83820
AAXX 25001 76762 32504 11302 10258 20205 38746 40173 56004 81200 92330333 10318 20137 30/// 50341 56300 58007 70000 81830
AAXX 25001 76773 31568 42701 10254 20069 38410 40086 57003 7050/ 8430092345 333 10292 20060 30/// 50401 56200 58004 70000 8382081620
AAXX 25001 76805 32970 02501 10285 20236 30102 40104 52007 92330 33310329 20210 30/// 50451 58001 70000
AAXX 25001 76843 32565 63603 10230 20177 39492 40126 54000 86700 92437333 10292 20205 30/// 50301 567// 58001 70000 86620
AAXX 25001 76845 32458 60502 10154 20125 37957 40152 51004 84704 92345333 10198 20112 30/// 50171 56209 58002 70000 84712 82077
AAXX 25001 76848 32470 70401 10172 20144 38392 40087 51003 83444 92350333 10230 20144 30/// 50301 56199 58010 70003 83618 8136083075
AAXX 25001 76903 31675 62802 10298 20213 39973 40105 58001 70122 8250192345 333 10353 20236 30/// 50311 56109 59002 70000 8183381650 84074
AAXX 25001 76243 21370 83602 10064 20039 39979 40286 52002 70252 886//92335 333 10080 20042 31/// 50061 568// 59042 69907 7005688708
AAXX 25001 76311 32980 00000 10260 20027 39867 40147 56006 92345 33310280 20007 30/// 50260 59012 70000
AAXX 25001 76412 31966 02602 10228 20051 30098 40142 57022 70544 92350333 10238 20048 30/// 50471 59019 70000
AAXX 25001 76640 31357 83603 10210 20191 30199 40211 52006 70222 884//92340 333 10224 20176 30/// 50191 567// 58006 70000 88608
AAXX 25001 76741 31350 73609 10234 20215 30124 40142 57012 70544 8555092330 333 10245 20198 30/// 50131 568// 59003 70014 8261083811
AAXX 25001 01121 46/// /1813 10030 20004 39802 49814 56054 333 91120
AAXX 25001 01135 16/// /1705 11004 21010 39708 49859 58042 60041 333 4/004 91112
AAXX 25001 01143 16/// /1704 10030 21038 60001 333 91110
AAXX 25001 01150 16/// /1504 10005 21043 60021 333 91111
AAXX 25001 01192 16/// /1906 10028 21071 60001 333 4/002 91117
AAXX 25001 01225 46/// /2220 10075 20024 39854 49859 55001 333 91132
AAXX 25001 01230 16/// /1905 10037 21012 60001 333 4/035 91119
AAXX 25001 01232 16/// /3603 10075 20015 39828 49905 53007 60001 333 4/009 91115
AAXX 25001 01234 16/// /2002 10005 21019 60001 333 91105
AAXX 25001 01253 16/// /2102 10001 21046 60001 333 4/035 91112
AAXX 25001 01254 16/// /1405 10037 21039 60001 333 4/023 91115
AAXX 25001 01257 NIL
AAXX 25001 01277 NIL
AAXX 25001 01291 16/// /1305 10010 21025 60001 333 4/023 91111
AAXX 25001 01332 NIL
AAXX 25001 01366 46/// /2413 11032 21040 38357 49959 55008 333 91128
AAXX 25001 01370 16/// /1704 11017 21031 38875 40044 56023 69931 333 4/027 91110
AAXX 25001 01376 16/// /3602 11001 21028 60001 333 91104
AAXX 25001 01383 46/// /1208 11032 21042 39687 40005 56032 333 91112
AAXX 25001 01386 16/// ///// 11016 21025 60001
AAXX 25001 01416 16/// ///// 10082 20082 60051
AAXX 25001 01419 16/// /2207 10062 20060 60161 333 91115
AAXX 25001 01430 16/// ///// 10077 20068 60071
AAXX 25001 01434 16/// /2702 10016 21008 39056 40017 56012 60041 333 91114
AAXX 25001 01455 16/// /1703 10051 20023 39732 40039 56029 60001 333 91107
AAXX 25001 01468 16/// /1604 10023 20010 60001 333 91109
AAXX 25001 01470 16/// /1604 10043 20023 39918 40032 56038 60001 333 4/006 91109
AAXX 25001 01476 NIL
AAXX 25001 01481 16/// /2105 10065 20043 30012 40044 56036 60001 333 91114
AAXX 25001 01488 NIL
BBXX CGDS 25004 99447 70755 46/// /0808 11104 21126 4//// 5//// 7//// 8//// 22200 0//// 2////
BBXX CG2960 25004 99429 70824 46/// /1714 10021 21024 40254 58008 7//// 8//// 22281 00061 2////
AAXX 25001 11423 07056 /2705 11006 21007 39407 42883 52009 69921 72487 333 55000 69905 81/01 85/04 87/07
AAXX 25001 11487 07670 /2708 10014 21004 39664 40307 51014 69921 70080 333 55001 60005 81/44 91115
AAXX 25001 11518 01675 62806 10019 21005 39841 40295 52014 69901 70162 86500 333 55001 60005 86643 91112
AAXX 25001 11603 07358 /3006 10016 21004 39781 40278 51023 69991 78176 333 55000 69935 81/07 83/11 85/14 88/32 91114
AAXX 25001 11659 07670 /3107 10011 20007 39620 40279 52018 69991 70076 333 55004 60005 87/39 91113
AAXX 25001 11723 01584 62904 10028 21010 39965 40271 51024 69901 70162 86500 333 55000 60005 82627 84631 91112
AAXX 25001 11782 01568 82103 10022 20005 39939 40253 51028 69921 76162 885// 333 55000 69915 88623
AAXX 25004 81401 06/// /1401 10234 20224 30120 40126 60021 333 10299 60007 58020 555 60005
AAXX 25004 81408 06/// /0000 10246 20236 30110 40118 60001 333 10299 60007 58014 555 60005
AAXX 25004 91772 11398 40000 10290 20248 4//// 60231 70162 81102 333 20240 569/9 70263 81708 84081
AAXX 25004 91776 NIL
AAXX 25004 91779 31498 40108 10291 20249 40083 58012 60001 70210 82231 333 20225 56899 70548 82817 83362
AAXX 25004 91784 11498 50904 10271 20251 40080 58009 69981 70182 82231 333 20242 56299 70195 82818 84362
AAXX 25004 91792 11398 81410 10262 20234 10087 58005 60051 78088 8577/ 333 20230 5639/ 71083 81709 84818 86362
BBXX VOFG 25004 99456 70614 46/// /3408 11070 21093 40267 53020 7//// 8//// 22200 0//// 2////
BBXX CG2350 25004 99433 70798 46/// /1205 10001 21082 40272 58012 7//// 8//// 22200 0//// 2////
BBXX VXKF 25004 99462 70602 46/// /2704 11086 21129 40255 52016 7//// 8//// 22200 0//// 2////
BBXX CG2965 25004 99487 71235 46/// /2603 10081 20069 40283 56014 7//// 8//// 22200 0//// 2////
BBXX CGDR 25004 99484 71234 46/// /3606 10097 20082 40278 56012 7//// 8//// 22200 0//// 2////
BBXX CGSB 25004 99505 70589 46/// /3225 11172 21202 40221 51027 7//// 8//// 22252 00031 2////
BBXX CGUM 25004 99460 70599 46/// /3209 11078 21119 40258 53015 7//// 8//// 22200 0//// 2////
BBXX VAAP 25004 99492 70589 46/// /3125 11117 21152 40209 53027 7//// 8//// 22262 0//// 2////
BBXX CGDG 25004 99447 70636 46/// /3604 11096 21068 40299 53030 7//// 8//// 22200 0//// 2////
BBXX CGTF 25004 99476 70527 46/// /1906 11091 21138 40191 53026 7//// 8//// 22200 0//// 2////
BBXX 3FZK3 25004 99456 71228 46/// /1502 10092 20009 40295 56022 7//// 8//// 22200 0//// 2////
BBXX VOKJ 25004 99471 70707 46/// /2507 11132 21169 40348 56007 7//// 8//// 22213 0//// 2////
BBXX CGBY 25004 99487 71235 46/// /2503 10083 20071 40282 56013 7//// 8//// 22200 0//// 2////
BBXX CGHL 25004 99476 70527 46/// /2804 11087 21136 40191 53026 7//// 8//// 22200 0//// 2////
BBXX CZ9742 25004 99506 70969 46/// /2606 10007 21040 40083 53002 7//// 8//// 22200 0//// 2////
BBXX CGDT 25004 99468 70712 46/// /2904 11156 21178 40356 53006 7//// 8//// 22200 0//// 2////
BBXX VCRG 25004 99474 70619 46/// /3215 11078 21135 40278 53032 7//// 8//// 22271 00000 2////
BBXX VCBW 25004 99474 70705 46/// /3411 11138 21167 40335 50000 7//// 8//// 22252 00023 2////
BBXX VCSZ 25004 99484 70616 46/// /3124 11103 21120 40247 53029 7//// 8//// 22273 0//// 2////
BBXX VCWL 25004 99468 70712 46/// /0000 11153 21176 40356 53006 7//// 8//// 22200 0//// 2////
BBXX CGDX 25004 99468 70712 46/// /2904 11148 21180 40355 53006 7//// 8//// 22200 0//// 2////
BBXX CG2958 25004 99543 71303 46/// /2405 10079 20070 40076 55004 7//// 8//// 22200 0//// 2////
BBXX VOPP 25004 99456 70735 46/// /1006 11160 21178 4//// 5//// 7//// 8//// 22200 0//// 2////
BBXX CGBN 25004 99447 70636 46/// /3509 11092 21134 40299 53031 7//// 8//// 22200 0//// 2////
BBXX VRYO3 25004 99519 70538 46/// /0918 11137 21134 40120 51035 7//// 8//// 22264 00019 2////
AAXX 25004 68399 16/// /0000 10200 20200 30072 40182 58000 60023 333 10254 20199 91007 555 20024 91018
AAXX 25004 68383 16/// /0000 10204 20189 39946 48586 58003 60053 333 10241 20204 91000 555 20058 91019
AAXX 25004 68379 16/// /1502 10215 20206 39866 48590 56001 60113 333 10235 20211 91004 555 20116 91019
BBXX 42363 25001 99282 70892 46/// /0913 10194 20167 40237 53003 90000 333 91213
BBXX 41046 25001 99238 70683 46/// /0707 10247 20189 40217 53007 92350 22200 00254 10904 20602 300// 40903 70018 333 91208 555 11069 22072 32305 40608 62349 072066 075063 076066 073066 069067 065068 80607 92252
BBXX 42364 25001 99291 70881 46/// /0807 10178 20156 40247 51006 90000
AAXX 25004 78583 32574 70707 10267 20228 40165 60001 85802 333 02203 10288 20/// 58013 70004 83820 86077
AAXX 25004 81401 06/// /1401 10234 20224 30120 40126 60021 333 10299 60007 58020 555 60005
AAXX 25004 81408 06/// /0000 10246 20236 30110 40118 60001 333 10299 60007 58014 555 60005
BBXX CGDR 25004 99484 71234 46/// /3606 10097 20082 40278 56012 7//// 8//// 22200 0//// 2////
BBXX CGUM 25004 99460 70599 46/// /3209 11078 21119 40258 53015 7//// 8//// 22200 0//// 2////
BBXX CGBY 25004 99487 71235 46/// /2503 10083 20071 40282 56013 7//// 8//// 22200 0//// 2////
BBXX CZ9742 25004 99506 70969 46/// /2606 10007 21040 40083 53002 7//// 8//// 22200 0//// 2////
BBXX VCRG 25004 99474 70619 46/// /3215 11078 21135 40278 53032 7//// 8//// 22271 00000 2////
BBXX CGBN 25004 99447 70636 46/// /3509 11092 21134 40299 53031 7//// 8//// 22200 0//// 2////
BBXX CGDG 25004 99447 70636 46/// /3604 11096 21068 40299 53030 7//// 8//// 22200 0//// 2////
BBXX VOKJ 25004 99471 70707 46/// /2507 11132 21169 40348 56007 7//// 8//// 22213 0//// 2////
BBXX CG2965 25004 99487 71235 46/// /2603 10081 20069 40283 56014 7//// 8//// 22200 0//// 2////
BBXX CGSB 25004 99505 70589 46/// /3225 11172 21202 40221 51027 7//// 8//// 22252 00031 2////
BBXX VOFG 25004 99456 70614 46/// /3408 11070 21093 40267 53020 7//// 8//// 22200 0//// 2////
BBXX VRYO3 25004 99519 70538 46/// /0918 11137 21134 40120 51035 7//// 8//// 22264 00019 2////
BBXX VXKF 25004 99462 70602 46/// /2704 11086 21129 40255 52016 7//// 8//// 22200 0//// 2////
BBXX 3FZK3 25004 99456 71228 46/// /1502 10092 20009 40295 56022 7//// 8//// 22200 0//// 2////
BBXX CG2350 25004 99433 70798 46/// /1205 10001 21082 40272 58012 7//// 8//// 22200 0//// 2////
BBXX CGHL 25004 99476 70527 46/// /2804 11087 21136 40191 53026 7//// 8//// 22200 0//// 2////
BBXX CGDX 25004 99468 70712 46/// /2904 11148 21180 40355 53006 7//// 8//// 22200 0//// 2////
BBXX CGDT 25004 99468 70712 46/// /2904 11156 21178 40356 53006 7//// 8//// 22200 0//// 2////
BBXX CGTF 25004 99476 70527 46/// /1906 11091 21138 40191 53026 7//// 8//// 22200 0//// 2////
BBXX VCSZ 25004 99484 70616 46/// /3124 11103 21120 40247 53029 7//// 8//// 22273 0//// 2////
BBXX VCWL 25004 99468 70712 46/// /0000 11153 21176 40356 53006 7//// 8//// 22200 0//// 2////
BBXX VOPP 25004 99456 70735 46/// /1006 11160 21178 4//// 5//// 7//// 8//// 22200 0//// 2////
BBXX VCBW 25004 99474 70705 46/// /3411 11138 21167 40335 50000 7//// 8//// 22252 00023 2////
BBXX VAAP 25004 99492 70589 46/// /3125 11117 21152 40209 53027 7//// 8//// 22262 0//// 2////
BBXX CG2958 25004 99543 71303 46/// /2405 10079 20070 40076 55004 7//// 8//// 22200 0//// 2////
AAXX 25001 01281 16/// /2202 11002 21020 39717 49890 58045 60001 333 91107
BBXX VCLM 25004 99468 70712 46/// /2603 11141 21168 40351 53007 7//// 8//// 22200 0//// 2////
BBXX VOLG 25004 99446 70636 46/// /0109 11088 21132 40296 53030 7//// 8//// 22200 0//// 2////
BBXX VAAZ 25004 99/// ///// 46/// /2921 11075 21121 40104 53025 7//// 8//// 22200 0//// 2////
BBXX CGBR 25004 99522 71281 46/// /0402 10103 20101 40125 58028 7//// 8//// 22200 0//// 2////
BBXX C6SI6 25004 99344 11351 46/// /2616 10047 21028 40186 51012 7//// 8//// 22283 0//// 2////
BBXX VOKF 25004 99490 70669 46/// /2608 11112 21168 40325 53008 7//// 8//// 22200 0//// 2////
BBXX CGCC 25004 99463 70725 46/// /1405 11166 21182 40347 58006 7//// 8//// 22200 0//// 2////
BBXX CGJK 25004 99484 71234 46/// /0108 10103 20065 40276 56012 7//// 8//// 22200 0//// 2////
BBXX 44097 25001 99410 70711 46/// ///// 1//// 90002 22200 00120 10902 20902 70009
AAXX 25004 64500 32460 62008 10270 20237 30094 40107 86500 92351 333 0//00 59004 83610 85633
BBXX VAAZ 25004 99/// ///// 46/// /2921 11075 21121 40104 53025 7//// 8//// 22200 0//// 2////
BBXX VCLM 25004 99468 70712 46/// /2603 11141 21168 40351 53007 7//// 8//// 22200 0//// 2////
BBXX CGBR 25004 99522 71281 46/// /0402 10103 20101 40125 58028 7//// 8//// 22200 0//// 2////
BBXX VOKF 25004 99490 70669 46/// /2608 11112 21168 40325 53008 7//// 8//// 22200 0//// 2////
BBXX C6SI6 25004 99344 11351 46/// /2616 10047 21028 40186 51012 7//// 8//// 22283 0//// 2////
BBXX VOLG 25004 99446 70636 46/// /0109 11088 21132 40296 53030 7//// 8//// 22200 0//// 2////
BBXX 46232 25001 99325 71174 46/// ///// 1//// 92338 22200 00151 11803 21001 328// 41803 70015
BBXX 46249 25001 99338 71197 46/// ///// 1//// 92340 22200 00152 11702 21001 326// 41702 70011
BBXX 46247 25001 99378 71228 46/// ///// 1//// 92351 22200 00119 11505 21002 328// 41504 70023
BBXX 46243 25001 99462 71241 46/// ///// 1//// 92359 22200 00083 11305 20804 326// 41304 70027
BBXX 46236 25001 99368 71219 46/// ///// 1//// 92350 22200 00124 11505 21001 327// 41505 70024
BBXX 46237 25001 99378 71226 46/// ///// 1//// 92340 22200 00109 11505 21002 325// 41504 70024
BBXX 46229 25001 99438 71246 46/// ///// 1//// 92351 22200 00098 11305 21003 328// 41305 70027
BBXX 46225 25001 99329 71174 46/// ///// 1//// 92344 22200 00149 11802 20601 325// 41802 70009
BBXX 46213 25001 99403 71247 46/// ///// 1//// 92354 22200 00099 11406 21003 329// 41405 70029
BBXX 46215 25001 99352 71209 46/// ///// 1//// 92338 22200 00159 11504 21001 326// 41504 70022
BBXX 46219 25001 99332 71199 46/// ///// 1//// 92358 22200 00142 11406 21002 330// 41406 70032
BBXX 46224 25001 99332 71175 46/// ///// 1//// 92336 22200 00145 11502 21001 319// 41501 70008
BBXX 46214 25001 99379 71235 46/// ///// 1//// 92353 22200 00121 11507 21002 329// 41506 70033
BBXX CGJK 25004 99484 71234 46/// /0108 10103 20065 40276 56012 7//// 8//// 22200 0//// 2////
BBXX 46218 25001 99345 71208 46/// ///// 1//// 90002 22200 00138 11706 21002 329// 41706 70031
BBXX CGCC 25004 99463 70725 46/// /1405 11166 21182 40347 58006 7//// 8//// 22200 0//// 2////
AAXX 25001 14648 12970 60407 10085 20000 30085 40207 52011 60001 86030 333 86360
AAXX 25001 14652 11000 90226 11076 21079 37902 48479 58005 60011 74573 333 89/00
AAXX 25001 14542 11520 80000 10019 20001 30066 40262 52005 69951 76166 887// 333 88715 95990
BBXX 44099 25001 99369 70757 46/// ///// 1//// 92352 22200 00119 10602 20602 70008
BBXX 44100 25001 99363 70756 46/// ///// 1//// 92352 22200 00126 10502 20502 70011
BBXX 41110 25001 99341 70777 46/// ///// 1//// 92351 22200 00141 10802 20801 70008
BBXX 42099 25001 99273 70842 46/// ///// 1//// 92357 22200 00230 10502 20502 70008
BBXX 41113 25001 99284 70805 46/// ///// 1//// 92351 22200 00225 10801 20801 70006
BBXX 41112 25001 99307 70813 46/// ///// 1//// 92351 22200 00169 10603 20603 70015
AAXX 25004 63980 41470 22908 10259 20231 40084 70381 82902 333 58002 81914 943// 91115
BBXX FVNM 25004 99089 70795 46/// /0514 10279 20234 40086 53019 22200 00279
BBXX BATFR56 25004 99092 30738 46/// /1314 10269 20267 40077 56015 22213 00297
BBXX BATFR43 25004 99207 51676 46/// /3308 10282 20239 40084 56009 22263 00284
AAXX 25004 89642 42982 61005 10010 21091 39892 49945 58005 80006 333 10010 21038 86270
AAXX 25004 60150 31402 81008 10074 20074 39597 40263 57007 74442 86//8 333 88706
AAXX 25004 60252 32456 31103 10078 20064 40249 53009 83500 333 83620 95800
AAXX 25004 60096 NIL
AAXX 25004 60101 NIL
AAXX 25004 60115 NIL
AAXX 25004 60135 NIL
AAXX 25004 60155 NIL
AAXX 25004 60156 NIL
AAXX 25004 60230 NIL
AAXX 25004 60340 32650 72604 10074 20060 40303 50002 875// 333 87633
AAXX 25004 60285 NIL
AAXX 25004 78958 11572 30705 10257 20225 30138 40148 60001 70600 82202 333 10306 20244 58016 82821
AAXX 25003 61701 32960 03010 10210 20075 40125 80000 333 59010
AAXX 25003 61705 NIL
AAXX 25003 61707 NIL
AAXX 25003 61711 NIL
AAXX 25003 61712 NIL
AAXX 25003 61717 NIL
AAXX 25003 61720 NIL
AAXX 25003 61721 NIL
AAXX 25003 61722 NIL
AAXX 25003 61731 NIL
AAXX 25003 61733 NIL
AAXX 25004 60141 31001 80805 10072 20066 39590 40273 58005 72444 886// 333 88701
AAXX 25004 60265 32970 00000 10064 21056 38962 48572 53006
AAXX 25004 60060 NIL
AAXX 25004 60105 NIL
AAXX 25004 60106 NIL
AAXX 25004 60107 NIL
AAXX 25004 60127 NIL
AAXX 25004 60185 NIL
AAXX 25004 60190 NIL
AAXX 25004 60191 NIL
AAXX 25004 60195 NIL
AAXX 25004 60210 NIL
AAXX 25004 60220 NIL
AAXX 25004 60318 NIL
AAXX 25001 11812 36/// /3212 10010 21010 39542 42835 52038 333 55007
AAXX 25001 11813 16/// /9904 10034 21008 39913 40270 52035 60001 333 55001 91010
AAXX 25001 11816 12665 63309 10050 21006 30101 40268 52029 60001 85540 333 55000 83635 85656 91014
AAXX 25001 11819 16/// /3007 10032 20002 30041 40263 52028 69931 333 55000
AAXX 25001 11826 15/84 /3006 10030 20002 30051 40256 52021 60001 333 55000
AAXX 25001 11841 16/// /0000 10007 21002 39865 40253 52025 69911 333 55000
AAXX 25001 11855 16/// /3205 10026 20010 30084 40254 52015 60001 333 55000
AAXX 25001 11856 16/// /9901 10002 21004 39921 40250 52014 69921 333 55000
AAXX 25001 11858 16/// /9904 10029 20006 30101 40257 52016 60001 333 55000
AAXX 25001 11867 17/26 /9901 10006 21005 39924 40251 52017 69911 75411 333 55000
AAXX 25001 11880 16/// /2803 10004 21000 30069 40246 52009 69911 333 55000
AAXX 25001 11900 16/// /0000 10001 21004 39901 40247 52014 69901 333 55000
AAXX 25001 11903 11656 79901 11008 21015 39846 40240 53009 60001 71022 87500 333 55000 87636
AAXX 25001 11916 46/// /3415 11079 21092 37934 48455 54000 6///1 333 91021 91121
AAXX 25001 11918 16/// /2504 10008 21011 39396 42820 52021 60001 333 55000
AAXX 25001 11927 16/// /0201 11016 21019 39964 40236 52008 60001 333 55000
AAXX 25001 11930 46/// /9902 11088 21096 37321 47991 52005 6///1 333 55000
AAXX 25001 11933 16/// /9901 11035 21035 38666 48479 52008 69911 333 55000
AAXX 25001 11934 11360 89901 11021 21031 39378 42806 52009 69911 70277 886// 333 55000 81706 88711
AAXX 25001 11938 16/// /2801 11030 21035 39131 42802 52009 60001
AAXX 25001 11952 16/// /1302 11032 21033 39370 42806 52009 60001 333 55001
AAXX 25001 11958 36/// /3207 11029 21034 38750 48478 52006 333 55///
AAXX 25001 11968 11416 81901 11014 21022 39947 40239 53008 69901 71077 886// 333 55000 88711
AAXX 25001 11976 16/// /0000 11012 21018 39966 40240 52008 60001 333 55000
AAXX 25001 11978 16/// /1201 11008 21014 30104 40239 52008 69941 333 55000
AAXX 25001 11993 16/// /0000 11010 21014 30019 40244 52008 60001 333 55000
BBXX DBLK 25001 99675 30000 41197 /0410 11016 21017 49689 57039 7//// 22282 05012
BBXX 51204 25001 99213 71581 46/// ///// 1//// 92352 22200 00245 10802 20802 329// 41101 70011
BBXX 51202 25001 99214 71577 46/// ///// 1//// 92339 22200 00242 10806 20806 301// 41302 70031
AAXX 25004 78958 11572 30705 10257 20225 30138 40148 60001 70600 82202 333 10306 20244 58016 82821
BBXX 46238 25001 99334 71195 46/// ///// 1//// 92350 22200 00145 11704 21001 329// 41704 70022
BBXX 46239 25001 99363 71221 46/// ///// 1//// 92351 22200 00137 11306 21002 330// 41306 70032
AAXX 25003 91502 31470 63206 10315 20239 40066 51010 70522 81866 333 20244 56799 58023 81816 86281
AAXX 25003 91507 31480 22704 10316 20244 40070 51010 70510 82903 333 20231 56209 58026 82818 81919
AAXX 25003 91520 31575 43403 10305 20248 40068 51010 70511 81208 333 20236 56909 58024 81820 84280
AAXX 25003 91541 11475 73206 10290 20255 40067 52003 60014 71522 8497/ 333 20255 56609 58010 83817 81918 87360
AAXX 25004 78862 11478 60513 10246 20207 30148 40171 69911 72511 86800 333 10279 20237 58005 79911 86817
AAXX 25004 2200Z 2500/2524 06015KT 9999 SCT022 PROB30 TEMPO 2504/2512 06013G23KT SHRA
AAXX 25004 TAF TQPF 242200Z 2500/2524 06015KT 9999 SCT022 PROB30 TEMPO 2504/2512 06013G23KT SHRA
AAXX 25004 TAF TUPJ 242200Z 2500/2524 06015KT 9999 SCT022 PROB30 TEMPO 2504/2512 06013G23KT SHRA
AAXX 25004 G28KT SHRA PROB30 TEMPO 2412/2424 07016G26KT SHRA
AAXX 25004 TAF TUPJ 232200Z 2400/2424 07016KT 9999 SCT020 SCT040 PROB40 TEMPO 2400/2412 07018G28KT SHRA TEMPO 2412/2424 07016G26KT SHRA
AAXX 25004 TAF TUPJ 041000Z 04012/0512 07008KT 9999 SCT016 BKN038 SCT270 TEMPO 0412/0512 SHRA BKN015 PROB40 TEMPO 0418/0512 5000 SHRA BKN014 BKN036 PROB30 0420/0512 4000 TSRA FEW012CB
AAXX 25004 918 4000 TSRA FEW012CB
AAXX 25004 N015 BKN036 PROB40 TEMPO 0704/0724 3000 +TSRA SCT011CB BKN012 BECMG 0712/0714 14008KT
AAXX 25004 21/2712 07017G28KT 5000 SHRA BKN015 BKN036 PROB TEMPO 2700/2712 4000 TSRA FEW013CB
AAXX 25004 PROB30 TEMPO 0800/0806 4000 TSRA FEW012CB PROB40 TEMPO 0800/0824 2000 +SHRA/TSRA SCT010CB BKN012 BKN250
AAXX 25003 91502 31470 63206 10315 20239 40066 51010 70522 81866 333 20244 56799 58023 81816 86281
AAXX 25003 91507 31480 22704 10316 20244 40070 51010 70510 82903 333 20231 56209 58026 82818 81919
AAXX 25003 91520 31575 43403 10305 20248 40068 51010 70511 81208 333 20236 56909 58024 81820 84280
AAXX 25003 91541 11475 73206 10290 20255 40067 52003 60014 71522 8497/ 333 20255 56609 58010 83817 81918 87360
AAXX 25004 89667 46/// /3004 10018 39886 4//// 5////
AAXX 2500/ 89828 46/// ///// 11208 36551 4//// 5////
AAXX 2500/ 89108 46/// ///// 11148 36992 4//// 5////
AAXX 2500/ 89799 46/// ///// 11110 4//// 5////
AAXX 2500/ 89332 46/// ///// 11020 39207 4//// 5////
BBXX 44011 25001 99411 70666 46/// /3511 10032 21024 40272 53029 92350 22200 00092 10604 20604 70022 333 91213 555 11114 22120 32337 41815 62349 353108 350112 349108 355109 358105 017091
AAXX 25001 37682 31597 71801 11025 21028 38062 48451 52002 70272 875//
AAXX 25001 37717 315// 82101 10000 21014 38019 48444 52004 78582 883// 555 1/102
AAXX 25001 37788 41694 61901 11001 21013 39151 40169 52007 71022 8357/
AAXX 25001 89061 179// 03507 10000 21007 39828 49835 52008 60094 77177 333 10014 21005 91009 91112
AAXX 25004 78948 12580 60708 10253 20212 30148 40156 60001 70322 84801 333 02206 10296 20252 58011 70015 84828
AAXX 25004 78947 11580 21007 10240 20222 30158 40161 60011 70181 82200 333 00200 10287 20230 58013 70026 82826
AAXX 25004 61968 16/// /0401 10265 20236 40096 60001 333 59015 90710 91107 555 60005
AAXX 25004 61970 16/// ///// 10282 20248 40114 60001 333 59003 555 60005
AAXX 25004 61972 16/// /1505 10255 20214 40140 60001 333 58008 90710 91113 555 60005
AAXX 25004 61980 11559 71312 10235 20214 40139 60021 76062 878// 333 59001 82823 87650 90710 91119 924/7 555 69965
AAXX 25004 78982 02480 40712 10264 20228 30126 40131 52013 60001 82261 333 10294 20233 58010 60007 70028 82817 83081
BBXX BATFR20 25004 99431 10087 46/// ///// 10130 20007 40202 51008 22263
AAXX 2500/ 89577 46/// ///// 35766 4//// 5////
AAXX 25004 89578 46/// /0409 11327 36838 4//// 5////
AAXX 25004 71805 04569 73313 11084 21120 30205 40214 51021 69901 700// 333 43/// 69907 90710 91124 555 69905
AAXX 25004 91487 NIL
AAXX 25004 91490 NIL
AAXX 25004 91533 NIL
AAXX 25004 91601 NIL
AAXX 25004 91610 11599 40710 10305 20232 40061 58011 60001 70220 83101 333 20258 562/9 70000
AAXX 25004 91623 NIL
AAXX 25004 91629 NIL
AAXX 25004 91701 NIL
AAXX 25004 85244 11565 71614 10233 20183 39688 40118 52036 60191 70296 83576 333 10310 56499 58064 83620 85357 87070
AAXX 25004 86011 NIL
AAXX 25004 86033 01870 70000 10252 20248 30028 40123 53022 60171 70292 87070 333 10364 55050 69927 87457
AAXX 25004 86065 32370 82306 10180 20142 39931 40174 53010 885// 333 10346 55002 85710 88620
AAXX 25004 86068 32470 82015 10190 20153 39962 40159 52025 885// 333 10348 55020 88620
AAXX 25004 86086 32870 51804 10268 20158 30034 40123 52033 83076 333 10340 55035 83457 82270
AAXX 25004 86097 32470 81805 10230 20199 39490 40131 52002 8557/ 333 10324 55075 85515 86457
AAXX 25004 86128 NIL
AAXX 25004 86134 32570 71804 10266 20226 30024 40110 52016 87500 333 10340 55045 87627
AAXX 25004 86170 32270 82308 10184 20176 30031 40136 52027 886// 333 10344 55000 88705
AAXX 25004 86185 32370 80000 10248 20235 30031 40124 52018 886// 333 10314 55005 88710
AAXX 25004 86192 32870 50000 10286 20204 39901 40117 51010 85070 333 10330 55/// 85357
AAXX 25004 86210 32470 80904 10230 20201 39760 40102 52005 885// 333 10346 55043 88610
AAXX 25004 86218 32570 61814 10212 20193 30037 40134 52024 83560 333 10323 55040 83627 85358
AAXX 25004 86221 32570 81802 10238 20212 39990 40124 52003 885// 333 10330 55000 88622
AAXX 25004 86233 32570 71805 10246 20224 39938 40125 53015 87500 333 10318 55000 87620
AAXX 25004 86234 32570 71608 10244 20225 39897 40079 53012 87500 333 10304 55000 87632
AAXX 25004 86246 32870 20908 10246 20222 39831 40114 55004 82040 333 10380 55003 82357
AAXX 25004 86251 32570 80000 10224 20218 39948 40116 53001 885// 333 10288 55///
AAXX 25004 86255 02470 81812 10178 20166 30096 40165 53005 60041 885// 333 10300 55000 60007 88612
AAXX 25004 86260 32470 81802 10210 20196 39975 40128 52007 885// 333 10282 55002 88613
AAXX 25004 86268 32470 81402 10226 20217 39968 40139 52004 885// 333 10284 55000 88612
AAXX 25004 86285 32470 81408 10222 20204 39854 40139 51006 885// 333 10260 55000 88620
AAXX 25004 86297 NIL
AAXX 25001 89061 179// 03507 10000 21007 39828 49835 52008 60094 77177 333 10014 21005 91009 91112
AAXX 25001 45032 36/// /1401 10047 21006 30255 40272 52001
AAXX 25001 45035 36/// /0503 10086 21033 30230 40275 52001
AAXX 25001 45039 36/// /0203 10094 21027 30252 40267 52002
AAXX 25001 45044 36/// /0007 10094 21029 30163 40260 52002
AAXX 25001 45032 36/// /1401 10047 21006 30255 40272 52001
AAXX 25001 45035 36/// /0503 10086 21033 30230 40275 52001
AAXX 25001 45039 36/// /0203 10094 21027 30252 40267 52002
AAXX 25001 45044 36/// /0007 10094 21029 30163 40260 52002
AAXX 25004 17600 11560 72824 10146 20094 30098 40108 55002 60041 72598 878// 333 82825 85650 91032 91143
AAXX 25004 17601 11556 52918 10121 20071 30076 40107 52001 60021 72991 84980 92350 333 81925 84650 90710 91125
AAXX 25004 17607 NIL
AAXX 25004 17609 11570 62307 10116 20059 30098 40102 58005 60001 71311 8298/ 333 81830 81935 85359 97013 97018
AAXX 25004 48601 11559 70000 10249 20230 30083 40087 60114 70522 83832 333 20245 50200 58000 70114 83820 83364 87077
AAXX 25004 48615 11357 81008 10261 20227 30100 40106 60014 70562 84738 333 20247 50340 58012 70010 81708 83620 88272
AAXX 25004 48620 11463 70802 10243 20231 30080 40089 60564 70522 81932 333 20240 58001 70564 81917 86078
AAXX 25004 48647 11360 71001 10254 20241 30066 40091 60084 70522 83952 333 20250 50230 58003 70076 81707 81917 86364
AAXX 25004 48650 11459 70608 10255 20228 30073 40092 60044 70522 82948 333 20243 50250 58005 70044 81917 85364 85277
AAXX 25004 48657 11240 83603 10229 20225 30095 40113 60154 76166 87528 333 20228 50080 58026 70148 83705 84622 88276
AAXX 25004 48665 11460 70507 10246 20229 30092 40102 60294 70562 82578 333 20240 50150 58014 70288 81712 86364
AAXX 25004 96413 11050 72104 10241 20237 30073 40100 60704 76162 8557/ 333 20237 58018 70696 81700 84620 87365
AAXX 25004 96421 12475 70501 10248 20236 30056 40092 60044 83531 333 20236 50240 55062 58013 70042 83618 87365
AAXX 25004 96441 12480 72303 10247 20236 30062 40089 60004 84931 333 20235 58010 70000 81915 83616 87080
AAXX 25004 96449 12480 71204 10253 20236 30066 40085 60004 82931 333 20233 50400 58006 70000 82814 81915 84365 85080
AAXX 25004 96465 12478 71503 10277 20251 30055 40088 69904 82842 333 20248 50220 55035 58007 79999 82812 87080
AAXX 25004 96471 12477 71203 10253 20225 30085 40088 69944 81848 333 20238 50260 58003 70004 81815 83364 87277
AAXX 25004 96481 NIL
AAXX 25004 96491 11456 72605 10252 20246 30076 40088 61014 72162 84948 333 20236 55000 58013 71012 81710 81917 83640 87276
AAXX 25001 01218 16/// /1102 10072 20025 39896 49917 53007 69921 333 91125
AAXX 25001 01447 16/// /1501 11001 21006 39359 40031 56025 69941 333 91105
AAXX 25001 06206 46662 72413 10086 20060 30152 40205 56007 8//// 333 82/39 85/45 87/50 91015 91115 91213
AAXX 25001 06207 45662 82412 10073 20047 30155 40210 58007 8//// 333 85/36 88/41 91015 91116 91214
AAXX 25001 06239 47361 8//16 10085 20064 3//// 4//// 5//// 72385 8//// 333 82/09 84/12 85/23 91018 91119 91217
AAXX 25001 06252 46/// /2513 10087 20062 30176 40223 56003 222// 00097 10605 333 91015 91117 91214
AAXX 25001 06260 15564 82206 10070 20044 30263 40265 56010 60001 8//// 333 84/24 88/27 91010 91110 91206
AAXX 25001 06270 15463 72206 10064 20052 30231 40231 57008 60001 8//// 333 85/14 87/17 87/62 91009 91110 91207
AAXX 25001 06290 15765 72205 10047 20032 30224 40265 57011 60001 8//// 333 86/56 87/66 91008 91110 91206
AAXX 25001 06201 47463 82412 10082 20065 30135 40188 56002 70385 8//// 333 81/12 87/38 87/56 91014 91116 91212
AAXX 25001 06203 45763 32412 10093 20065 30194 40246 56009 8//// 333 82/56 83/60 91015 91116 91213
AAXX 25001 06204 47464 82514 10089 20064 30175 40226 56006 78186 8//// 333 81/15 85/37 88/42 91016 91117 91214
AAXX 25001 06205 47461 72314 10085 20062 30092 40152 56001 70385 8//// 333 82/11 83/17 85/50 91017 91120 91216
AAXX 25001 06208 45462 82209 10073 20053 30176 40226 57007 8//// 333 87/14 88/17 91012 91112 91209
AAXX 25001 06211 466// 82314 10083 20063 30149 40205 56004 8//// 333 81/41 87/46 88/50 91017 91118 91215
AAXX 25001 06212 45765 42411 1//// 2//// 30169 40233 57007 8//// 333 83/56 84/61 91014 91116 91213
AAXX 25001 06235 15562 82308 10081 20062 30238 40238 56008 60001 8//// 333 83/31 88/38 91010 91112 91209
AAXX 25001 06240 17465 82108 10072 20058 30262 40257 57008 69901 70285 8//// 333 86/13 88/16 91009 91110 91208
AAXX 25001 06251 15461 82308 10068 20059 30223 40224 58008 60001 8//// 333 81/16 87/50 88/66 91010 91113 91209
AAXX 25001 06258 46/// /2111 333 91013 91114 91212
AAXX 25001 06269 17465 82208 10067 20048 30260 40254 57011 69901 70385 8//// 333 81/14 87/20 88/25 91011 91111 91208
AAXX 25001 06280 15565 82207 10061 20048 30233 40237 56013 60001 8//// 333 83/22 88/59 91009 91110 91208
AAXX 25001 06310 15768 72210 10066 20056 30267 40277 56009 60001 8//// 333 83/50 84/62 87/66 91012 91112 91211
AAXX 25001 06344 15467 82208 10074 20054 30272 40265 56009 60001 8//// 333 81/13 88/20 91012 91112 91208
AAXX 25001 06370 15674 82207 10061 20038 30259 40285 56009 60001 8//// 333 86/44 88/50 91009 91109 91207
AAXX 25001 06380 15574 82207 10050 20026 30161 40304 56009 60001 8//// 333 83/30 84/36 88/57 91009 91110 91208
AAXX 25004 91574 46/// ///// 29073 30149 40155 51135 333 58013
AAXX 25004 91570 NIL
AAXX 25004 91598 NIL
AAXX 25004 16450 11260 53005 10048 20044 39054 48514 56006 60001 72841 83240 333 83804 84356
AAXX 25004 78906 11472 62002 10225 20211 30155 40160 60021 78082 86400 333 10287 20221 58014 70049 86815 90946
BBXX DBBH 25001 99376 70010 41/98 /0604 10104 20069 40320 54000 7//// 22200 04162
AAXX 25004 13600 NIL
AAXX 25004 13610 NIL
AAXX 25004 13611 NIL
AAXX 25004 13619 NIL
AAXX 25004 13622 NIL
AAXX 25004 13624 NIL
AAXX 25004 13625 NIL
AAXX 25004 13629 NIL
AAXX 25004 13601 NIL
AAXX 25004 13602 NIL
AAXX 25004 13623 NIL
AAXX 25004 16008 12965 03507 11034 21139 38597 48550 52011 60001 333 92820
AAXX 25004 16084 12965 02607 11022 21023 30086 40262 52013 60001
AAXX 25004 16088 12960 03503 11018 21018 30135 40259 52016 60001
AAXX 25004 16110 12998 50904 10104 21033 30229 40233 52014 60001 85001 555 0////
AAXX 25004 16134 11984 03544 11066 21083 37796 48493 52018 60011 70274 333 92805
AAXX 25004 16153 NIL
AAXX 25004 16158 12960 03202 10030 20012 30219 40226 52029 60001
AAXX 25004 16206 11980 40215 10074 20045 30182 40191 51013 69901 70161 84010 333 84462
AAXX 25004 16219 NIL
AAXX 25004 16252 11440 83513 10036 20033 39207 42769 53001 60061 76366 888// 333 84610 85820
AAXX 25004 16280 11597 80413 10100 20079 39894 40116 56004 60031 72162 885// 333 88620 555 0////
AAXX 25004 16310 NIL
AAXX 25004 16320 12460 51407 10078 20067 30155 40168 50000 60001 85800 333 83815 84625 555 0////
AAXX 25004 16325 12998 00817 10108 20089 30125 40139 58010 60001 333 98080 555 0////
AAXX 25004 16360 12998 00907 10110 20064 30016 40151 58005 60001 555 0////
AAXX 25004 16400 NIL
AAXX 25004 16420 12597 52203 10124 20075 30083 40149 57015 60001 82250 333 82825 84358 555 0////
AAXX 25004 16429 12562 33015 10128 20079 30166 40177 56005 60001 83500 333 83628
AAXX 25004 16470 NIL
AAXX 25004 16480 12998 03105 10122 20083 30094 40156 58006 60001 555 0////
AAXX 25004 16522 12997 03218 10126 20051 39958 40203 52003 60001 555 0////
AAXX 25004 16539 NIL
AAXX 25004 16550 12698 23113 10108 20016 39996 40177 51010 60001 82000 333 82840 555 0////
AAXX 25004 16021 12960 03008 11070 21125 38007 48538 52008 60001 333 92842
AAXX 25004 16022 11989 13624 11076 21140 37872 48528 51008 60001 73600 80001 333 92832
AAXX 25004 16033 12962 02203 11044 21078 38858 48550 52011 60001 333 92802
AAXX 25004 16040 NIL
AAXX 25004 16052 11960 00635 11160 21196 36624 47071 52012 60001 70240
AAXX 25004 16061 12984 00000 10060 21072 39407 42847 52006 60001
AAXX 25004 16098 12962 53204 10034 20014 30185 40237 52011 60001 85020 333 85460
AAXX 25004 16138 NIL
AAXX 25004 16148 11835 82202 10040 20024 30235 40248 52018 60061 71062 8807/ 333 88358
AAXX 25004 16168 11165 33425 10042 20038 39406 42767 52022 69961 70264 82200 333 83802
AAXX 25004 16172 11562 30509 10072 20004 39909 40212 52010 60021 70161 83200 333 83823
AAXX 25004 16179 11/03 92707 10022 20022 39530 42814 52018 60121 76176 333 89/01 92820 93104
AAXX 25004 16224 11468 80118 10072 20027 39830 40152 51020 60031 72162 888// 333 55300 83815 86640
AAXX 25004 16232 11598 80102 10108 20091 30103 40156 52010 60011 76091 8527/ 333 82825 83630 555 0////
AAXX 25004 16245 11460 73505 10090 20074 30118 40144 53019 60021 76062 84850 333 82818 83640
AAXX 25004 16253 11460 70311 10088 20073 30123 40135 56009 60161 76166 87800 333 81815 86640
AAXX 25004 16258 11/00 90708 10044 20026 39148 42758 55004 60001 74741 333 89/00
AAXX 25004 16263 NIL
AAXX 25004 16294 11597 41106 10090 20048 39944 40139 58004 60031 70162 84400 333 84630 555 0////
AAXX 25004 16337 NIL
AAXX 25004 16344 11/00 93206 10016 20016 38270 48456 57014 60001 74741 333 89/00 95090 95190
AAXX 25004 16434 NIL
AAXX 25004 16450 NIL
AAXX 25004 16459 12960 02504 10088 20087 30120 40156 57011 60001
AAXX 25004 16546 11558 53005 10100 20058 30176 40204 58001 60001 71011 85800 333 82820 84630
AAXX 25004 16564 12597 22718 10112 20083 30053 40196 53023 60001 82200 333 82820 555 0////
AAXX 25004 16045 NIL
AAXX 25004 16090 12960 23406 10032 20029 30162 40248 52012 60001 82030 333 82362
AAXX 25004 16149 11530 82909 10039 20021 30222 40239 53024 60061 76066 888// 333 84820 84630
AAXX 25004 16261 NIL
AAXX 25004 16453 NIL
AAXX 25004 16560 NIL
AAXX 25004 91772 11398 40000 10290 20248 4//// 60231 70162 81102 333 20240 569/9 70263 81708 84081
AAXX 25004 91776 NIL
AAXX 25004 91779 31498 40108 10291 20249 40083 58012 60001 70210 82231 333 20225 56899 70548 82817 83362
AAXX 25004 91784 11498 50904 10271 20251 40080 58009 69981 70182 82231 333 20242 56299 70195 82818 84362
AAXX 25004 91792 11398 81410 10262 20234 40087 58005 60051 78088 8577/ 333 20230 5639/ 71083 81709 84818 86362
AAXX 25004 91573 06/// /3114 10285 20239 39941 40036 50011 69921 333 10290 58000 69927
AAXX 25004 91577 06/// /0109 10290 20223 30006 40026 50002 69941 333 10290 59001 60007
AAXX 25004 91579 06/// /3512 10287 20257 30039 40047 53004 69941 333 10302 59010 69927
AAXX 25004 91582 04470 63511 10279 20255 30016 40050 53002 60061 700// 333 69947 90710 91121 555 60005
AAXX 25004 91583 06/// /3202 10262 20248 30025 40040 51011 60151 333 10265 59013 60037
AAXX 25004 91587 06/// /0210 10269 20257 30008 40052 58001 60551 333 10270 59019 60327
AAXX 25004 91590 04413 83404 10236 20224 30001 40043 53014 60281 765// 333 60117 90710 91122 555 60095
AAXX 25004 91592 06/// /0106 10243 20234 39956 40040 53001 60131 333 10247 59029 60027
AAXX 25004 91596 06/// /0612 10239 20229 39948 40056 51009 60341 333 10240 59023 60307
AAXX 25004 78016 11564 73512 10201 20156 30219 40223 53022 60031 70182 86830 333 10232 20193 70033 90926
AAXX 25001 06407 12465 62105 10059 20046 30280 40286 57009 60001 85501 333 70002 82710 84656 85068 91109 91206
AAXX 25001 06447 NIL
AAXX 25001 06431 NIL
AAXX 25001 06432 NIL
AAXX 25001 06449 12568 52207 10049 20026 30081 40315 57008 60001 84532 333 70018 84628 91110 91207
AAXX 25001 06450 15871 82205 10063 20035 30275 40292 57008 60001 333 70166 88/56 91109 91206
AAXX 25001 06458 NIL
AAXX 25001 06465 NIL
AAXX 25001 06478 12766 72107 10042 20021 30082 40309 58011 60001 875// 333 70037 87656 91110 91207
AAXX 25001 06496 NIL
AAXX 25004 65338 33958 52204 10256 20240 39918 40103 80002 333 0//00 59005 85076
AAXX 25001 03951 17456 /2411 10107 20098 30231 40257 54000 69921 71081 87/// 333 87/11
AAXX 25001 03953 11364 82208 10112 20100 30209 40246 58002 69941 72052 886// 333 86708 88715 92437
AAXX 25001 03955 11262 82307 10094 20091 30047 40246 52002 69911 75065 886// 333 87705 87712
AAXX 25001 03956 17359 /2508 10099 20085 30157 40234 50001 60001 7101/ 87/// 333 87/07
AAXX 25001 03962 11364 82208 10103 20094 30201 40225 53002 69911 75052 886// 333 81708 87711 87715
AAXX 25001 03963 16/// /2312 10104 20096 30163 40191 58003 60001
AAXX 25001 03966 16/// /2307 10098 20092 30123 40216 50004 60011
AAXX 25001 03967 11380 72309 10098 20090 30093 40207 52004 69911 72065 875// 333 83709 86630
AAXX 25001 03969 11361 82310 10096 20090 30101 40205 51003 69911 75065 886// 333 82706 86708 87620
AAXX 25001 03973 16/// /2206 10093 20091 39926 40180 57003 60011
AAXX 25001 03976 11228 82211 10107 20105 30148 40160 57006 69921 75865 886// 333 86704 88708 90710 91119
AAXX 25001 03980 17462 /2410 10102 20093 30110 40135 54000 69931 70385 88/// 333 88/11
AAXX 25001 06400 32863 62105 10066 20061 30278 40289 57010 83531 333 83657 85070 91109 91207
AAXX 25001 06428 NIL
AAXX 25001 06451 12680 72306 10061 20033 30232 40300 56008 60001 83531 333 70056 83642 83657 86072 91111 91208
AAXX 25001 06456 32667 72404 10035 20022 39944 40322 58006 875// 333 87635 91107 91206
AAXX 25001 06476 161// 82303 10010 20003 39643 40330 58007 69921 333 70101 87/02 88/03 91107 91203
AAXX 25001 06479 35770 /2206 10051 20027 30218 40300 56008 333 85/56 87/57 91108 91206
AAXX 25001 06490 15368 82406 10028 20012 39731 40318 58007 60001 333 70101 81/09 84/28 86/32 91111 91206
AAXX 25001 06590 36/60 /2604 10024 20009 39867 40335 58005 333 91107 91204
BBXX TFBKF 25004 99635 70202 46/// ///// 22200 11008 70038
BBXX TFDRN 25004 99658 70212 46/// ///// 22200 10907 70033
BBXX TFGRS 25004 99663 70182 46/// ///// 22200 10708 70040
BBXX TFGRV 25004 99638 70225 46/// ///// 22200 11212 70061
BBXX TFGSK 25004 99641 70229 46/// ///// 22200 11011 70053
BBXX TFHFN 25004 99642 70152 46/// ///// 22200 11011 70057
BBXX TFKGR 25004 99657 70136 46/// ///// 22200 10709 70043
BBXX TFSRT 25004 99633 70203 46/// ///// 22200 11215 70073
BBXX TFSTD 25004 99664 70234 46/// ///// 22200 10706 70030
AAXX 25004 89532 42/80 10207 11064 21096 39755 49782 53010 81502 333 10015 21065
AAXX 25004 48601 11559 70000 10249 20230 30083 40087 60114 70522 83832 333 20245 50200 58000 70114 83820 83364 87077
AAXX 25004 48615 11357 81008 10261 20227 30100 40106 60014 70562 84738 333 20247 50340 58012 70010 81708 83620 88272
AAXX 25004 48620 11463 70802 10243 20231 30080 40089 60564 70522 81932 333 20240 58001 70564 81917 86078
AAXX 25004 48647 11360 71001 10254 20241 30066 40091 60084 70522 83952 333 20250 50230 58003 70076 81707 81917 86364
AAXX 25004 48657 11240 83603 10229 20225 30095 40113 60154 76166 87528 333 20228 50080 58026 70148 83705 84622 88276
AAXX 25004 48665 11460 70507 10246 20229 30092 40102 60294 70562 82578 333 20240 50150 58014 70288 81712 86364
AAXX 25004 96413 11050 72104 10241 20237 30073 40100 60704 76162 8557/ 333 20237 58018 70696 81700 84620 87365
AAXX 25004 96421 12475 70501 10248 20236 30056 40092 60044 83531 333 20236 50240 55062 58013 70042 83618 87365
AAXX 25004 96441 12480 72303 10247 20236 30062 40089 60004 84931 333 20235 58010 70000 81915 83616 87080
AAXX 25004 96449 12480 71204 10253 20236 30066 40085 60004 82931 333 20233 50400 58006 70000 82814 81915 84365 85080
AAXX 25004 96465 12478 71503 10277 20251 30055 40088 69904 82842 333 20248 50220 55035 58007 79999 82812 87080
AAXX 25004 96471 12477 71203 10253 20225 30085 40088 69944 81848 333 20238 50260 58003 70004 81815 83364 87277
AAXX 25004 96481 12462 73401 10259 20241 30067 40086 60034 8387/ 333 20241 50270 55036 58007 70032 82817 86364
AAXX 25004 96491 11456 72605 10252 20246 30076 40088 61014 72162 84948 333 20236 55000 58013 71012 81710 81917 83640 87276
AAXX 25001 33135 31295 80801 11091 21102 30043 40233 52001 71042 886// 333 88706
AAXX 25001 33317 32997 81803 11060 21086 39864 40218 58007 8807/
AAXX 25001 33345 32998 00000 11070 21083 30021 40238 51001
AAXX 25001 33393 /1434 82204 11014 21022 39810 40214 52005 71072 885// 333 88615 555 69901
AAXX 25001 33506 32597 60101 11049 21070 30023 40229 52006 86600
AAXX 25001 33587 32961 00000 11083 21097 39963 40243 52002
AAXX 25001 33631 /1295 80000 11003 21009 30097 40246 52005 77177 8772/ 333 87706 555 69991
AAXX 25001 33663 31995 00000 11103 21103 30139 40242 52003 71000
AAXX 25001 33658 32997 61202 11072 21081 39917 40234 52001 86030
AAXX 25001 33711 32497 73502 11050 21060 30013 40233 52006 87500 333 87618
AAXX 25001 33791 NIL
AAXX 25001 33837 32484 83402 11028 21057 30176 40230 52008 884// 333 88712
AAXX 25001 33924 32598 80204 10004 21029 30187 40199 52006 885//
AAXX 25001 33946 /1250 83602 11029 21036 39975 40205 52010 77177 8672/ 333 86704 555 69921
AAXX 25001 34300 32497 80603 11049 21069 30028 40229 52007 885// 333 86711
AAXX 25001 34504 /1497 70305 11043 21062 30025 40212 52005 70272 87600 333 87711 555 69901
AAXX 25001 34519 NIL
AAXX 25001 34601 /1360 70206 11041 21048 30062 40204 52007 78582 87900 333 85707 555 69971
AAXX 25001 33791 32597 80304 11029 21067 30063 40220 52007 885// 333 88628
AAXX 25001 34519 /1350 80305 11032 21046 39901 40186 52005 77172 8872/ 333 87707 555 60011
AAXX 25004 84455 31460 30000 10260 20225 39770 40120 70121 83100 333 10325 56000 58010 83820
AAXX 25004 84401 31660 61713 10270 20165 30047 40091 70302 8353/ 333 10325 5600/ 59007 83640 83360
AAXX 25004 84782 31462 82106 10202 20166 39622 40126 70222 885// 333 10276 565// 59005 88620
AAXX 25004 84691 31458 32216 10215 20190 30100 40107 71044 83600 333 10258 560// 59006 83715
AAXX 25004 84377 21560 50000 10245 20222 39975 40081 70212 85800 333 10332 56900 58006 60041 85630
AAXX 25004 84752 32960 42709 10141 20086 37529 70120 84030 333 10217 56090 58008 84366
AAXX 25004 84452 31960 71718 10202 20168 30082 40113 70320 8701/ 333 10274 5609/ 58012 87462
AAXX 25004 84501 31958 61408 10187 20160 30084 40111 71022 8603/ 333 10206 56000 58001 86366
AAXX 25004 84370 31460 82603 10252 20226 30054 40087 70220 8353/ 333 10309 56090 58001 83617 88356
AAXX 25004 84686 21760 82604 10103 20051 36876 70262 885// 333 10177 56900 58010 69941 88650
AAXX 25004 84628 34960 61712 10204 20172 30096 40112 70231 83031 333 10246 56019 59005 83366 83076
AAXX 25004 84515 31458 20203 10290 20263 39890 40063 70900 82900 333 333 10334 56900 58004 82915
AAXX 25004 84735 21356 80103 10056 20033 36451 76166 82120 333 10186 56990 58008 60011 82810 88520
AAXX 25001 01375 16/// /1908 11059 21064 6//// 333 91117
AAXX 25001 01440 46/// /2616 10001 21000 38753 40027 57009 333 91122
AAXX 25001 01015 46/// /1613 10024 21040 333 91119
AAXX 25001 01180 16/// /1704 10017 21032 39750 49806 58051 69951 333 91110
AAXX 25001 01442 16/// /1307 10063 20038 39795 40050 56023 60021 333 91112
AAXX 25001 01450 16/// /1205 11004 21013 38878 40016 56017 60021 333 91112
AAXX 25001 01245 16/// /2309 10037 21036 39212 49901 56025 60001 333 91115
AAXX 25001 01262 46/// /2318 10055 20027 333 91130
AAXX 25001 01389 16/// /1402 11038 21044 39700 40016 56038 60001 333 91106
AAXX 25001 01393 16/// /1602 11025 21047 39174 49977 58032 6//// 333 91111
AAXX 25001 01436 16/// /2515 10083 20071 6//// 333 91121
AAXX 25001 01257 16/// /1904 10044 21042 39734 49892 55012 60001 333 91116
AAXX 25001 01277 16/// /0000 10004 21007 69951 333 91108
AAXX 25001 01476 16/// /2213 10070 20056 30038 40044 56034 6//// 333 91118
AAXX 25001 01488 16/// /1603 10033 20015 69961 333 4/016 91108
AAXX 25001 11010 36083 /2807 10033 20010 39930 40319 52012 333 55/// 91114 91210
AAXX 25001 11012 17/// /2506 10029 20008 39841 40324 52012 69901 7//8/
AAXX 25001 11022 16/// /2705 10035 21014 39885 40281 53027 60001 333 91119
AAXX 25001 11035 11976 53009 10058 21013 30016 40273 52022 69901 70182 85030 333 85360 91117
AAXX 25001 11036 32884 53111 10055 21018 30044 40271 52021 333 55008 84858 91015 91119 91212
AAXX 25001 11101 17/// /1002 10018 20014 39823 40371 50001 69911 7//8/
AAXX 25001 11120 06642 /1202 10005 21003 39619 40353 52006 69931 333 55000 69905
AAXX 25001 11126 17/// /3108 11107 21108 37790 48576 53003 69951 7404/ 333 91115
AAXX 25001 11130 17/// /0000 10004 21002 39738 40350 51006 60021 7408/
AAXX 25001 11146 NIL
AAXX 25001 11150 06082 /2904 10031 21016 39783 40338 52010 69921 333 55/// 69905
AAXX 25001 11155 17/// /3213 11058 21064 38434 48560 53013 60071 7404/ 333 91124
AAXX 25001 11157 NIL
AAXX 25001 11172 NIL
AAXX 25001 11190 12665 42907 10055 21030 30031 40269 53024 60001 84500 333 91119
AAXX 25001 11204 16/// /0101 11026 21083 39486 40313 51013 60001
AAXX 25001 11212 NIL
AAXX 25001 11231 36750 /2902 11033 21034 39704 40302 52015 333 55000
AAXX 25001 11240 36084 /9901 11013 21013 39824 40280 52017 333 55///
AAXX 25001 11244 16/// /3301 11001 21009 39937 40278 53016 60001
AAXX 25001 11389 17/// /2306 10036 20008 39967 40302 53019 69901 7//8/ 333 91116
AAXX 25004 48698 01450 83203 10249 20247 30083 40102 60084 76186 8287/ 333 20247 58023 60027 70080 81815 84363 88466
AAXX 25001 45007 12959 10508 10105 21059 30261 40270 52013 60002 80001 333 20102 58012 70000 81080
AAXX 25001 45007 12959 10508 10105 21059 30261 40270 52013 60002 80001 333 20102 58012 70000 81080
BBXX UFTA 25001 99846 71249 41695 83209 11227 21256 40161 52011 73832 885// 333 21231
AAXX 25001 15015 01493 82600 11023 21023 39612 42808 54000 69911 74474 886// 333 42998 55000 60007 91001 91101
AAXX 25001 15020 01996 02801 11111 21112 30023 40237 52003 60001 71000 333 40002 55044 60007 91001 91102 92600
AAXX 25001 15090 02997 00501 11080 21096 30140 40239 57002 60001 333 55300 0//// 20004 3//// 55035 0//// 20471 30201 60007 91002 91103 92611
AAXX 25001 15108 01/91 92902 11082 21082 38053 48489 51003 60001 74511 333 44017 55078 60007
AAXX 25001 15120 01596 70701 11016 21025 39727 40243 52002 60001 71022 87600 333 55300 10030 2//// 3//// 55013 00042 20315 30276 60007 91002 91102
AAXX 25001 15150 01996 02001 11085 21088 30010 40237 54000 60001 71000 333 41998 55044 60007 91001 91102
AAXX 25001 15170 01995 81700 11069 21081 39425 42808 52002 60001 71022 8807/ 333 47005 55010 60007 91000 91102
AAXX 25001 15200 01596 81701 11003 21006 30097 40248 51006 69911 77172 885// 333 42998 55000 69917 91002 91102 96010
AAXX 25001 15230 02997 80000 11013 21032 39947 40253 52005 60001 8807/ 333 55300 10017 20000 3//// 55044 00022 20479 30292 60007 91000 91101
AAXX 25001 15260 02597 81201 11027 21044 39692 40251 51009 60001 8457/ 333 43997 55003 60007 91002 91103
AAXX 25001 15280 01/93 40206 11122 21137 37438 47966 50001 60001 74141 84500 333 48039 55078 60007
AAXX 25001 15292 02998 81501 11008 21028 39947 40254 51006 60001 8807/ 333 55055 60007 91001 91102
AAXX 25001 15310 02997 70801 11053 21067 30154 40246 54001 60001 87070 333 55300 10128 20004 3//// 55045 10012 20551 30530 60007 91002 91102 92600
AAXX 25001 15335 03/// /2701 11050 21065 30235 40242 52004 6///1 333 4//// 55/// 6///7 91002 91103
AAXX 25001 15346 01994 80000 11041 21044 39942 40247 51004 60001 71011 8807/ 333 55038 60007 91001 91101 92610
AAXX 25001 15350 02597 82603 11020 21040 30116 40242 50001 60001 885// 333 55000 60007 91004 91104
AAXX 25001 15360 02997 83306 11013 21061 30213 40228 52009 60001 8807/ 222// 0//// 2//// /000 60007 91007 91107 92427
AAXX 25001 15410 02997 03301 11045 21050 30145 40246 50001 60001 333 55055 60007 91001 91101 92600
AAXX 25001 15420 02997 42402 11026 21040 30125 40242 50001 60001 84070 333 55300 0//// 20000 3//// 55002 0//// 20210 3//// 60007 91003 91104 92600
AAXX 25001 15450 01995 03302 11060 21062 39998 40249 52005 60001 71000 333 55300 10186 20004 3//// 55010 10136 20339 30308 60007 91003 91103 92611
AAXX 25001 15460 01496 82802 11010 21038 30217 40242 52002 60001 71022 886// 333 47001 55000 60007 91003 91104
AAXX 25001 15470 02997 02501 11067 21067 30113 40248 52005 60001 333 41998 55000 60007 91002 91102 92600
AAXX 25001 15480 02497 33302 11022 21070 30226 40244 51006 60001 83600 222// 0//// 2//// 333 55000 60007 91004 91105 92437
AAXX 25004 43533 11459 79902 10266 20240 30082 40085 60002 70522 83238 333 58005 70000 83818 87276
AAXX 25004 43555 12460 79902 10264 20239 30084 40087 60002 83202 333 58009 70000 83818 87077
AAXX 25004 43577 12460 50203 10256 20237 30087 40089 60002 82202 333 58006 70000 82818 85077
AAXX 25004 43588 11465 73604 10272 20243 30081 40083 60022 70282 83238 333 59003 70008 83818 87276
AAXX 25004 43599 12465 73403 10270 20249 30083 40085 60002 82202 333 59002 70001 82818 86076
AAXX 25004 43533 11459 79902 10266 20240 30082 40085 60002 70522 83238 333 58005 70000 83818 87276
AAXX 25004 43555 12460 79902 10264 20239 30084 40087 60002 83202 333 58009 70000 83818 87077
AAXX 25004 43577 12460 50203 10256 20237 30087 40089 60002 82202 333 58006 70000 82818 85077
AAXX 25004 43588 11465 73604 10272 20243 30081 40083 60022 70282 83238 333 59003 70008 83818 87276
AAXX 25004 43599 12465 73403 10270 20249 30083 40085 60002 82202 333 59002 70001 82818 86076
AAXX 25004 91324 11474 80907 10278 20247 30075 40077 60034 70262 83203 333 562/9 58024 70069 83819 88075 555 92500
AAXX 25004 91329 NIL
AAXX 25004 91336 11474 80617 10283 20233 30152 40155 60074 70282 82101 333 561/9 58027 70069 82818 88075 555 92500
AAXX 25004 91339 11474 80810 10289 20243 30071 40077 60674 70282 8636/ 333 56299 58007 70670 86918 88362 555 92500
AAXX 25004 91320 11474 80709 10294 20272 30105 40110 60034 70282 8291/ 333 56299 58020 70030 82914 86463 555 92500
AAXX 25004 91930 36/// ///// 10302 20229 333 20254
AAXX 25004 91943 36/// /0911 10291 20216 30113 40115 57021 333 58001
AAXX 25004 89061 179// 03507 10000 21007 39828 49835 52008 60094 77177 333 10014 21005 91009 91112
AAXX 25004 03894 11480 52519 10095 20060 40321 57010 69901 70182 82871 333 81815 84362 90710 91126
AAXX 25004 68240 42960 40402 10161 20155 48518 57012 84070
AAXX 25004 03301 16464 /2317 10096 20096 30141 40215 57003 60011 92350 333 87/11 90710 91126
AAXX 25004 03305 15483 /2320 10097 20073 39957 40220 52001 60101 92350 333 87/15 85/23 90710 91132
AAXX 25004 03313 16585 /2311 10109 20083 30118 40212 51002 60021 92350 333 84/24 84/32
AAXX 25004 03316 15562 /2320 10098 20074 30194 40205 51005 69981 92350 333 83/23 87/48 90710 91130
AAXX 25004 03318 16/// /2421 10089 20076 69981 92350 333 90710 91129
AAXX 25004 03321 16580 /2309 10108 20082 30206 40218 53006 69921 92350 333 55/// 20111 81/20 86/27
AAXX 25004 03330 17261 /2411 10078 20071 39860 40224 53003 60011 751// 92350 333 88/05
AAXX 25004 03344 17325 /2415 10082 20075 39879 40198 53003 60081 753// 92350 333 86/07 87/14 90710 91129
AAXX 25004 03346 16/// /2415 10075 20072 60011 92350 333 90710 91125
AAXX 25004 03348 17475 /2109 10088 20080 30107 40216 52006 60031 781// 92350 333 55/// 20157 88/17
AAXX 25004 03355 15583 /2312 10092 20079 30190 40201 52010 69901 92350 333 55/// 20133 87/23 84/57
AAXX 25004 03373 16774 /2212 10081 20064 30144 40215 53007 69921 92350 333 83/50 87/59
AAXX 25004 03379 16984 /2519 10087 20060 30143 40221 55001 60001 92350 333 88/59 90710 91127
AAXX 25004 03382 15881 /2412 10088 20069 30186 40194 53006 69921 92350 333 55/// 20151 82/57 87/73
AAXX 25004 03385 46977 /2318 10083 20064 30193 40203 50002 92350 333 84/60 86/68
AAXX 25004 03391 12583 72110 10084 20055 30215 40222 53002 60001 8457/ 92350 333 84620 87359
AAXX 25004 03392 16973 /2013 10077 20061 30214 40218 55003 60001 92350 333 86/61 87/64
AAXX 25004 03405 16358 /2527 10097 20097 30112 40229 56002 60021 92350 333 55/// 20107 81/07 84/64 90710 91137
AAXX 25004 03409 16/// /2412 10090 20084 60041 92350 333 55/// 2////
AAXX 25004 03410 16348 /2310 10079 20079 39793 40231 51010 60081 92350 333 55/// 20073 83/07 87/16
AAXX 25004 03469 17983 /2420 10083 20065 30220 40223 58005 69901 723// 92350 333 55/// 20158 83/58 83/68 90710 91126
AAXX 25004 03488 17771 /2219 10075 20064 30202 40229 54000 69941 761// 92350 333 87/56 90710 91131
AAXX 25004 03503 17458 /2511 10103 20089 30169 40247 55000 60041 704// 92350 333 87/10 85/18
AAXX 25004 03507 17127 /2310 10079 20079 39884 40260 53002 60121 762// 92350 333 88/02
AAXX 25004 03520 16559 /2512 10089 20080 30127 40249 53005 60001 92350 333 55/// 20158 81/26 83/32 87/46
AAXX 25004 03522 15483 /2509 10103 20086 30162 40255 53009 60001 92350 333 82/16 87/48
AAXX 25004 03529 15569 /2008 10092 20078 30215 40258 53004 69981 92350 333 87/25
AAXX 25004 03544 15571 /2208 10082 20069 30113 40245 53003 69901 92350 333 55/// 20156 85/22 83/56 87/58
AAXX 25004 03560 15475 /2209 10074 20064 30140 40245 56005 69901 92350 333 55/// 20161 82/10 83/66
AAXX 25004 03604 16467 /2719 10106 20090 30203 40257 57002 60011 92350 333 83/16 84/50 86/67 90710 91130 91029
AAXX 25004 03605 16460 /2623 10104 20088 30255 40264 57002 60011 92350 333 87/17 90710 91127
AAXX 25004 03609 16/// /2322 10098 20089 30219 40272 55000 60011 92350 333 90710 91130
AAXX 25004 03628 15471 /2423 10097 20081 30193 40266 55002 69901 92350 333 55/// 20217 87/11 90710 91131
AAXX 25004 03647 16365 /2615 10084 20074 39996 40254 55000 69921 92350 333 55/// 20149 85/09 83/56 86/65
AAXX 25004 03658 16479 /2010 10087 20062 30196 40266 55002 60001 92350 333 88/15
AAXX 25004 03660 15474 /2407 10078 20063 30016 40268 53001 69921 92350 333 88/10
AAXX 25004 03672 16485 /2310 10088 20057 30229 40270 55003 60001 92350 333 88/18
AAXX 25004 03684 17480 /2314 10076 20055 30149 40257 56007 69921 723// 92350 333 87/15
AAXX 25004 03693 16770 /2311 10078 20063 30266 40269 56007 69921 92350 333 88/56
AAXX 25004 03707 17459 /2517 10105 20091 30277 40285 56001 69921 757// 92350 333 87/18
AAXX 25004 03710 16236 /2512 10074 20074 39857 40283 55000 60031 92350 333 55/// 20171 87/03 90710 91125
AAXX 25004 03743 16480 /2410 10085 20065 30113 40276 56004 60001 92350 333 87/19
AAXX 25004 03749 16580 /2411 10089 20066 30167 40279 55003 60001 92350 333 82/20 87/25
AAXX 25004 03761 17478 /2317 10082 20055 30128 40274 56004 69901 723// 92350 333 55/// 20185 87/18
AAXX 25004 03768 16464 /2511 10087 20061 30195 40276 56003 60001 92350 333 87/18
AAXX 25004 03769 17573 /2206 10079 20069 30196 40279 56006 69901 761// 92350 333 55/// 20234 84/22 85/28
AAXX 25004 03770 16/// ///// 10088 20066 69941 92350
AAXX 25004 03781 17480 /2111 10069 20062 30067 40278 58005 69941 761// 92350 333 55/// 20211 86/16 85/23
AAXX 25004 03823 15260 /2514 10085 20080 30051 40298 55002 69901 92350 333 55/// 20253 85/05 86/20
AAXX 25004 03839 16/// ///// 10097 20075 60001 92350 333 55/// 20299
AAXX 25004 03857 15461 /2723 10106 20084 30231 40295 55002 60001 92350 333 81/18 86/32 90710 91133
AAXX 25004 03862 15568 /2513 10097 20068 30276 40289 55004 60001 92350 333 55/// 20177 83/29 84/60 87/63
AAXX 25004 03866 16/// /2623 10104 20079 30265 40290 57002 60001 92350 333 90710 91133
AAXX 25004 03872 15569 /2515 10097 20078 30282 40287 56004 60001 92350 333 55/// 20222 81/26 83/39 86/64
AAXX 25004 03876 16/// /2508 10095 20079 30288 40291 56004 69921 92350
AAXX 25004 03895 41362 72418 10089 20074 40327 57005 72582 878// 333 82810 86626 90710 91125
AAXX 25004 96481 12462 73401 10259 20241 30067 40086 60034 8387/ 333 20241 50270 55036 58007 70032 82817 86364
AAXX 25004 03008 16/// /2534 10075 20033 39939 40008 53025 60001 92350 333 90710 91147 91046
AAXX 25004 03010 46/// /2733 10077 20042 40025 53018 333 90710 91155
AAXX 25004 03014 46/// /2942 10048 20001 49984 53026 92350 333 8//// 90710 91157
AAXX 25004 03031 15961 /2621 10066 20009 39760 40085 51013 69961 92350 333 55/// 20046 87/60 90710 91142 91034
AAXX 25004 03034 15660 /2317 10087 20041 30066 40080 50006 60031 92350 333 83/34 86/63 90710 91125
AAXX 25004 03037 17659 /2209 10084 20048 30078 40100 50003 69901 704// 92350 333 82/33 83/49 87/59
AAXX 25004 03039 46/// /2224 10026 20026 92350 333 90710 91132
AAXX 25004 03041 46/// /2332 11002 21002 92350 333 90710 91154 91054
AAXX 25004 03044 17660 /2513 10075 20020 39962 40061 51030 69901 723// 92350 333 55/// 20037 85/31 87/46 90710 91128 91027
AAXX 25004 03047 15964 /2110 10075 20003 39809 40110 50005 60001 92350 333 55/// 20039 83/60
AAXX 25004 03062 15663 /2317 10075 21002 30065 40070 53007 69901 92350 333 55/// 20089 81/33 83/38 90710 91127
AAXX 25004 03065 46/// /2653 11016 21018 92350 333 90710 91172 91070
AAXX 25004 03068 12670 12617 10073 20011 30069 40077 53019 60001 81500 92350 333 81640 90710 91128
AAXX 25004 03080 15963 /2518 10082 20008 39919 40089 52014 60001 92350 333 8//99 90710 91126
AAXX 25004 03088 15967 /2319 10062 20044 39937 40101 52014 69981 92350 333 55/// 20057 81/72
AAXX 25004 03094 15666 /2010 10061 20004 30072 40077 53023 60001 92350 333 85/39 87/71
AAXX 25004 03105 17457 /2314 10099 20088 30124 40141 53004 69921 722// 92350 333 83/14 83/27 85/57
AAXX 25004 03132 17475 /2415 10100 20100 30148 40161 52003 69901 781// 92350 333 84/13 86/19 90710 91125
AAXX 25004 03144 15963 /2316 10077 20051 30074 40117 53018 69921 92350 333 55/// 20074 8//99 90710 91125
AAXX 25004 03148 46/// /2622 10051 20027 92350 333 90710 91137 91032
AAXX 25004 03153 17259 /2423 10091 20091 30019 40157 53002 69901 710// 92350 333 55/// 20052 88/03 90710 91135 91033
AAXX 25004 03155 16467 /2315 10085 20071 39843 40140 52014 69921 92350 333 84/11 83/18 85/38 90710 91125
AAXX 25004 03158 17684 /2310 10089 20075 39994 40131 53009 69921 723// 92350 333 55/// 20115 84/30 85/38
AAXX 25004 03210 16257 /1808 10083 20079 30028 40180 51010 60021 92350 333 81/05 85/10 87/63
AAXX 25004 03212 15484 /2514 10111 20080 30072 40170 51004 60031 92350 333 84/17 84/26 86/41 90710 91131
AAXX 25004 03214 17460 /2417 10091 20081 30165 40183 53002 60021 704// 92350 333 85/10 86/64 90710 91133
AAXX 25004 03220 16481 ///// 10104 20090 30120 40154 50006 69921 92350 333 84/10 87/22
AAXX 25004 03225 16556 /2417 10089 20074 39869 40174 52005 60031 92350 333 55/// 20075 81/21 86/35 90710 91127 91027
AAXX 25004 03226 15584 /2615 10089 20076 39891 40166 50002 69941 92350 333 83/23 86/36 90710 91126
AAXX 25004 03227 46/// /2541 10044 2//// 92350 333 90710 91151
AAXX 25004 03230 16380 /2415 10088 20079 39889 40144 51004 69961 92350 333 86/09 84/16 90710 91126 91026
AAXX 25004 03238 17456 /2614 10092 20080 39974 40146 50002 69921 757// 92350 333 86/12 85/21 90710 91127 91025
AAXX 25004 03261 16460 /2314 10093 20084 30149 40189 51002 69921 92350 333 87/11 85/19
AAXX 25004 03265 15480 /2309 10098 20080 30158 40189 53002 69901 92350 333 88/13
AAXX 25004 03266 16360 /2113 10090 20079 30175 40192 51003 60001 92350 333 81/09 87/12
AAXX 25004 03275 15472 /2322 10084 20065 39975 40168 50006 69921 92350 333 82/13 90710 91131
AAXX 25004 03281 16/// /2314 10068 20068 69921 92350 333 90710 91125
AAXX 25004 03903 16370 /2415 10110 20101 30109 40166 57002 69961 92350 333 55/// 20041 87/08
AAXX 25004 03904 17450 /2319 10107 20096 30097 40157 53001 69961 704// 92350 333 88/10 90710 91137
AAXX 25004 03907 17450 /2217 10104 20091 30138 40145 55001 60011 757// 92350 333 55/// 20052 86/12 83/20 90710 91127 91027
AAXX 25004 03911 16256 /2309 10092 20091 39892 40164 53005 69961 92350 333 87/04
AAXX 25004 03915 16334 /1706 10096 20096 30079 40157 52005 60021 92350 333 87/08 84/18
AAXX 25004 03916 16583 /2706 10093 20087 39958 40147 50001 60041 92350 333 55/// 20100 82/28 83/56 91018
AAXX 25004 03923 17223 /2312 10096 20094 39978 40173 51005 69981 752// 92350 333 87/05
AAXX 25004 70026 NIL
AAXX 25004 70133 NIL
AAXX 25004 70174 NIL
AAXX 25004 70200 NIL
AAXX 25004 70219 NIL
AAXX 25004 70231 NIL
AAXX 25004 70261 NIL
AAXX 25004 70267 NIL
AAXX 25004 70271 NIL
AAXX 25004 70273 NIL
AAXX 25004 70308 NIL
AAXX 25004 70316 NIL
AAXX 25004 70326 NIL
AAXX 25004 70340 NIL
AAXX 25004 70350 NIL
AAXX 25004 70361 NIL
AAXX 25004 70381 NIL
AAXX 25004 70398 NIL
AAXX 25004 70414 NIL
AAXX 25004 78526 NIL
AAXX 25004 78543 NIL
AAXX 25004 78255 42559 20704 10222 20192 30047 40196 52010 82801 333 10285 81820
AAXX 25004 78317 NIL
AAXX 25004 78318 NIL
AAXX 25004 78325 NIL
AAXX 25004 78333 NIL
AAXX 25004 78338 NIL
AAXX 25004 78348 NIL
AAXX 25004 78349 NIL
AAXX 25004 78353 NIL
AAXX 25004 78360 NIL
AAXX 25004 78367 NIL
AAXX 25004 78369 NIL
BBXX 41041 25001 99142 70460 46/// /0706 1//// 40159 53014 92350 22200 00264 333 91207 555 11064 22068
AAXX 25004 91165 NIL
AAXX 25004 91182 NIL
AAXX 25004 91190 NIL
AAXX 25004 91212 NIL
AAXX 25004 91217 NIL
AAXX 25004 91285 NIL
AAXX 25004 91317 NIL
AAXX 25004 91334 12474 80512 10306 20239 30080 40083 50012 60014 82171 333 20272 56199 58017 70013 555 92500
AAXX 25004 91348 12474 80605 10292 20244 30039 40091 50007 60014 84201 333 20244 561/9 58023 70010 555 92500
AAXX 25004 91356 11566 80608 10294 20233 30079 40086 52014 69904 7028/ 84275 333 20250 56299 58028 84820 83080 555 92500
AAXX 25004 91366 NIL
AAXX 25004 91369 NIL
AAXX 25004 91371 NIL
AAXX 25004 91376 11432 81014 10271 20240 30075 40078 50002 60044 78182 883// 333 20260 56299 58014 70043 555 92500
AAXX 25004 91408 11466 81206 10261 20254 30046 40084 51015 60374 78088 8532/ 333 20250 56999 58032 70373 555 92500
AAXX 25004 91413 11469 70908 10290 20263 30073 40098 51030 60064 72582 82271 333 20268 56299 58034 70064 555 92500
AAXX 25004 91425 NIL
AAXX 25004 91434 NIL
AAXX 25004 91765 NIL
AAXX 25004 91222 NIL
AAXX 25004 91245 NIL
AAXX 25004 91323 NIL
AAXX 25004 91339 NIL
AAXX 25004 91343 NIL
AAXX 25004 91353 NIL
AAXX 25004 91442 NIL
AAXX 25001 26554 41333 82203 11024 21040 39970 40137 58002 77176 8872/ 333 87709 93401 555 1/102
AAXX 25001 26666 41458 81803 11047 21071 39941 40164 58005 77172 8872/ 88712 91111 555 1/104
AAXX 25001 26850 41356 82002 11047 21064 39890 40172 52001 76876 886// 333 88707 93400 555 1/104
AAXX 25001 26863 41457 81904 11055 21069 39938 40185 58007 71022 886// 333 88712 555 1/106
AAXX 25001 26941 41327 81703 11034 21042 39927 40173 54000 71022 887// 333 88707 555 14103
AAXX 25001 26951 41359 82004 11046 21062 39978 40186 58004 77172 8802/ 333 88509 555 1/104
AAXX 25001 33008 41/08 92102 10012 20005 39988 40170 52004 74765 555 11000
AAXX 25001 33019 41336 81402 11034 21038 30004 40185 58003 75152 886// 333 88709 555 1/102
AAXX 25001 33036 42360 71802 11073 21090 39968 40211 58006 8667/ 333 86707 555 1/106
AAXX 25001 33041 42960 72002 11085 21100 30059 40224 58003 87050 555 1/108
BBXX C6DM2 25004 99055 11001 41999 70916 10270 20228 40080 54/// 7//11 8671/ 22212 0//// 2//// 3//// 4//// 5//// 6//// 80240 ICE /////
BBXX PCHM 25004 99458 31706 41298 30710 10200 20149 40204 56010 70322 8277/ 22200 00160 20000 318// 40000 80170
BBXX WFLG 25004 99244 71504 41698 60724 10211 20168 40232 57013 70222 862// 22213 04200 20805 302// 40602 5//// 6//// 80183 ICE /////
BBXX WDB6831 25004 99452 70831 41/98 82031 10011 2//// 40193 57030 70322 8//// 22262 0//// 2//05 3//// 4//// 5//// 6//// 8//// ICE /////
BBXX NWS0003 25004 99539 71665 43/// /0000 11030 21078 40121 5//// 7//// 8//// 222// 0//// 2//// 3//// 4//// 5//// 6//// 8//// ICE /////
BBXX NWS0029 25004 99415 70707 43/// /0204 11017 21087 40315 5//// 7//// 8//// 222// 04076 2//// 3//// 4//// 5//// 6//// 8//// ICE /////
BBXX KAOU 25004 99005 10815 43/// /2910 10269 20245 40068 5//// 7//// 8//// 222// 04286 2//// 3//// 4//// 5//// 6//// 8//// ICE /////
BBXX KNJK 25003 99244 70810 41398 10512 10228 20212 40200 54000 70200 81/// 22253 00250 2//// 3//// 4//// 5//// 6//// 80217 ICE /////
BBXX NWS0020 25004 99304 70460 43/// /0918 10216 20179 40205 5//// 7//// 8//// 222// 04227 2//// 3//// 4//// 5//// 6//// 8//// ICE /////
BBXX 9HA2066 25004 99230 70838 419// 20819 10280 20280 40180 51/// 7//// 82//3 22214 00280 20502 309// 40602 5//// 6//// 80280 ICE /////
BBXX SCKB 25003 99489 70287 41/// /2242 10140 20105 40090 56005 75255 8//// 22253 00110 20911 3//// 4//// 5//// 6//// 80120 ICE /////
BBXX WZJC 25004 99255 70866 41298 60813 10250 2020/ 40200 53006 70222 8589/ 22233 00250 2//// 3//// 4//// 5//// 6//// 80217 ICE /////
BBXX WCZ5238 25004 99274 11416 41798 73025 10190 20123 40153 51002 70122 87/6/ 22264 00220 20303 330// 40604 5//// 6//// 80150 ICE /////
BBXX ZCDG7 25004 99217 71602 41598 30938 10230 20183 40214 54000 70100 82470 22243 00250 20403 312// 40605 5//// 80200
BBXX WXJ63 25003 99611 71464 41/97 80506 11017 21055 49922 57/// 715// 8//// 222// 00044 2//// 3//// 4//// 5//// 6//// 8//// ICE /////
BBXX WKAB 25003 99198 10386 41397 60110 10262 20209 40137 57020 7//22 86/// 22234 00276 21001 303// 41001 5//// 6//// 80225 ICE /////
BBXX 51000 25001 99235 71541 46/// /0710 10220 40225 58017 92350 22200 00230 10806 20805 336// 41103 70028 333 91212 555 11101 22107 32306 40613 62349 069096 069096 060092 056110 059107 061104
BBXX 51003 25001 99193 71606 46/// /0611 10244 40170 57015 92350 22200 00255 10907 20606 3//// 40904 70034 333 91213 555 11112 22119 32305 40715 62349 056105 062106 067112 069113 068115 065110
BBXX 46083 25001 99582 71380 46/// /1315 10039 20031 49897 56035 92350 22200 00066 11009 20707 300// 41005 70043 333 91218 555 11158 22169 32338 41321 62349 127148 130160 131154 130165 126156 128164 81318 92338
BBXX 46001 25001 99563 71480 46/// /2911 10013 49958 52007 92350 22200 00045 11106 20705 300// 41104 70032 333 91213 555 11116 22122 32324 43015 62349 292111 298110 298114 302108 300107 303109
BBXX 44008 25001 99405 70692 46/// /0108 10016 21047 40303 51027 92350 22200 00111 10803 20503 301// 40802 70015 333 91211 555 11081 22084 32335 40111 62349 011077 006083 355087 357077 009078 002080
BBXX 46089 25001 99459 71258 46/// /1708 10093 20086 40261 56018 92350 22200 00093 11206 20503 328// 41205 70029 333 91209 555 11080 22085 32310 41709 62349 169074 171071 172074 172072 172079 172074
BBXX 46042 25001 99368 71224 46/// /3305 10120 40278 56007 92350 22200 00132 11606 20401 330// 41606 70030 333 91206 555 11050 22052 32250 43206 62349 330048 328046 331044 337041 346042 353043
BBXX 46053 25001 99342 71198 46/// /2803 10146 40267 54000 92350 22200 00147 11602 335// 41602 70011 333 91203 555 11031 22032 32338 43004 62349 282029 303033 312030 314028 312026 308024
BBXX DCQR2 25003 99357 31504 41997 10311 10217 20168 40100 54000 70200 80005 22282 04190 20402 306// 40602 5//// 80187
BBXX MIBR 25003 99025 11049 41596 80215 10265 20228 40100 54000 70222 887// 22244 00276 20301 301// 40808 5//// 80240
BBXX PCDE 25003 99238 31520 41598 32314 10262 20208 40065 54000 7//00 8/1// 22283 20602 308// 40705 80224
BBXX PCCL 25003 99353 31724 41698 61210 10209 20117 40215 54000 70222 81108 22242 04184 20401 319// 41002 80154
BBXX PHAM 25003 99490 70049 41597 42710 10130 20118 40340 57010 7//// 8/400 22213 20801 80123 90749
BBXX UCKG 25001 99662 10032 41/96 52218 10030 49664 57040 75055 22232 00020 20606 32400 40808
BBXX UCKD 25001 99559 10020 41/97 92314 10098 40129 57003 70022 89/// 22213 00090 20803
BBXX PCIH 25003 99358 70330 41597 21306 10188 20163 40280 58010 70200 22284 20201 80172
BBXX MGGK4 25000 99429 70106 41298 40612 10130 20121 40349 55/// 70011 82178 22284 00148 20102 3//// 40204 5//// 80125
BBXX DCUJ2 25003 99369 10120 41/98 82928 10140 20064 40198 57007 70311 8//// 22234 00150 2//// 80100
AAXX 25001 06414 36/// /2206 10064 20041 30255 40288 58009 60001 333 91109 91206
AAXX 25001 06459 36/// /2105 10047 20042 30118 40316 57008 60001 333 91109 91206
AAXX 25001 06494 36/// /2406 10008 20005 39495 40320 58004 60001 333 4/007 91109 91206
AAXX 25004 78792 31459 80605 10276 20221 30071 40084 52011 70500 83220 333 021// 10322 20239 30/// 58007 83818 85459
AAXX 25004 78793 11470 60000 10257 20233 30053 40084 50003 60031 70186 81251 333 10304 20240 31/// 568// 58003 70027 81810 84358
AAXX 25004 78795 11458 80000 10244 20239 39981 40081 57010 60071 76069 8342/ 333 10310 20232 31/// 5600/ 58003 70075 83610 85459
AAXX 25004 04005 42589 29901 11075 21142 49775 52008 82200 555 3/201
AAXX 25004 04018 41359 71805 11031 21070 49789 58003 78781 873// 555 3//12 82706 84918 87650
AAXX 25004 04030 42584 51404 11022 21070 49790 51001 8484/ 555 3//08 83830 85650 82363
AAXX 25004 04048 41420 82708 10002 21021 49814 52021 78511 888// 555 3/720
AAXX 25004 04063 42782 21105 11021 21090 49767 52042 81220 555 3//17
AAXX 25004 04077 NIL
AAXX 25004 04082 NIL
AAXX 25004 04097 41589 23405 10000 21070 49746 52102 72680 82300 555 3/343
AAXX 25003 78970 12465 50000 10254 20218 30112 40137 60001 70522 81842 333 0299 10323 20234 58013 81818 85080
AAXX 25003 78962 11450 60608 10245 20222 30139 40147 69901 71682 83802 333 02209 10303 20229 58017 83812 85080 90950
AAXX 25004 78866 01481 10711 10253 20194 30178 40183 52015 69961 70181 81200 333 10280 20245 58008 69907 70014 81819
AAXX 25004 78988 02480 21208 10263 20224 30126 40137 52015 60001 82200 333 10281 20232 58011 60007 70018 82816
AAXX 25004 78990 01/80 /0100 10262 20224 30137 52015 60001 70000 333 10291 20000 58010 60007
AAXX 25004 78905 11476 70810 10258 20201 30145 40168 69901 70222 87200 333 10291 20240 58005 70010 87817
AAXX 25004 48310 31540 70000 10182 20162 39706 40173 52011 71022 85546 333 20180 58023
AAXX 25004 48325 31640 50000 10160 20156 39890 40141 52012 71011 82535 333 20153 58012
AAXX 25004 48329 31520 60000 10158 20151 39808 40158 52009 71022 81506 333 20158 58024
AAXX 25004 48352 31930 01302 10120 20090 39995 40207 52015 71000 333 20120 58036
AAXX 25004 48357 31956 20000 10135 20118 30025 40203 52011 71000 80001 333 20132 58023
AAXX 25004 48380 NIL
AAXX 25004 48383 31930 00703 10140 20091 30023 40191 51015 71000 333 20135 58020
AAXX 25004 48403 31956 60802 10149 20113 39970 40190 52011 71010 80006 333 20148 58037
AAXX 25004 48405 31956 30504 10140 20088 30016 40186 52011 71000 80005 333 20138 58031
AAXX 25004 48420 31940 30614 10195 20128 30130 40135 52006 71011 80005 333 20194 58021
AAXX 25004 48421 31950 20000 10175 20158 30021 40139 52005 71000 80005 333 20173 58017
AAXX 25004 48425 31940 30606 10185 20120 30144 40154 52013 71011 80005 333 20179 58027
AAXX 25004 48426 31956 30508 10183 20109 30141 40155 53014 70500 80001 333 20181 58030
AAXX 25004 48429 31958 30614 10196 20118 30133 40140 52009 70511 80001 333 20196 58023
AAXX 25004 48430 31958 20812 10185 20111 30140 40148 52014 70500 80002 333 20183 58031
AAXX 25004 48450 31956 20000 10196 20127 30116 40150 52015 70500 80005 333 20170 58027
AAXX 25004 48459 32960 20412 10189 20142 30132 40134 52010 80005 333 20188 58024
AAXX 25004 48465 31958 30615 10225 20157 30129 40134 52010 71011 80005 333 20213 58022
AAXX 25004 48550 11458 60814 10270 20240 30085 40091 52001 60404 71022 82846 333 20239 58004 70401
AAXX 25004 48552 11457 70000 10241 20238 30086 40093 52006 60434 71022 86836 333 20229 58007 70434
AAXX 25004 48566 NIL
AAXX 25004 48568 11458 81603 10259 20231 30086 40093 52004 60134 71022 8382/ 333 20256 58005 70133
AAXX 25004 48300 31/02 90000 10177 20172 39823 40143 52006 74740 333 20171 58010
AAXX 25004 48327 31558 50000 10177 20151 39802 40167 52004 71011 82545 333 20175 58015
AAXX 25004 48331 31920 70000 10172 20151 39940 40178 52011 71022 87051 333 20170 58026
AAXX 25004 48353 31907 40000 10115 20097 39898 40204 52015 74441 82035 333 20111 58036
AAXX 25004 48356 31930 00000 10117 20097 39999 40207 52012 71000 333 20117 58027
AAXX 25004 48375 NIL
AAXX 25004 48378 31556 30303 10178 20128 30106 40160 52010 71000 82505 333 20173 58028
AAXX 25004 48381 31940 43604 10130 20103 39967 40195 52004 71011 80006 333 20121 58032
AAXX 25004 48407 31930 80406 10151 20112 30026 40174 52012 71022 81047 333 20142 58029
AAXX 25004 48431 NIL
AAXX 25004 48456 NIL
AAXX 25004 48480 31957 10215 10189 20118 30125 40129 52012 70500 80001 333 20187 58022
AAXX 25004 48500 31540 60210 10227 20175 30111 40118 52019 71022 82536 333 20224 58019
AAXX 25004 48551 11556 70102 10245 20238 30082 40090 52005 60144 71022 83876 333 20234 58005 70142
AAXX 25004 48565 11557 70908 10252 20227 30062 40072 52016 69904 71022 82246 333 20247 59001 79999
AAXX 25004 48569 11558 60000 10242 20216 30060 40100 52007 60014 71022 82246 333 20239 58013 70010
AAXX 25004 48583 11558 81103 10244 20225 30097 40103 52023 60024 71022 82876 333 20239 58016 70017
BBXX OYCY2 25004 99509 11617 41/94 /1038 10000 2000/ 40050 57070 786// 8//// 22253 00050 20506 310// 40708 5//// 6//// 80000 ICE /////
BBXX H9UY 25004 99261 11785 41898 21513 00/// 10250 40207 56/// 70200 82201 9//// 22263 04260 20203 313// 40305 5//// 6//// 80220
BBXX C6SI6 25004 99344 11351 46/// /2616 10047 21028 40186 51012 7//// 8//// 22283 0//// 2////
BBXX DGWF2 25003 99168 11113 41197 80322 10205 20150 40205 52005 70222 887// 22254 04240 20404 80170
BBXX SHIP 25004 99273 11691 41498 42213 10240 2020/ 40190 54000 70200 834// 22263 00240 20602 320// 40603 5//// 6//// 80210 ICE /////
BBXX A8SI3 25003 99536 11677 43698 81018 10030 2110/ 40260 54000 884// 22264 00020 21003 81010
BBXX WCZ5238 25004 99274 11416 41798 73025 10190 20123 40153 51002 70122 87/6/ 22264 00220 20303 330// 40604 5//// 6//// 80150 ICE /////
BBXX ONFE 25004 99139 11143 41697 70132 10240 2020/ 40160 5//// 7//22 872// 22254 00270 2//// 3//// 4//// 5//// 6//// 80210 ICE /////
BBXX 46070 25001 99551 11753 46/// /0809 11009 21065 40228 51004 92350 22200 00036 10804 20704 3//// 40802 70021 333 91211 555 11099 22104 32330 42313 62349 082095 085104 087107 082094 083088 081084 80812 92330
BBXX C6DM2 25004 99055 11001 41999 70916 10270 20228 40080 54/// 7//11 8671/ 22212 0//// 2//// 3//// 4//// 5//// 6//// 80240 ICE /////
BBXX 3EPD8 25004 99009 50324 41498 11415 10255 20218 40127 7//00 81100 22283 04265 299// 80230
BBXX WKAB 25003 99198 10386 41397 60110 10262 20209 40137 57020 7//22 86/// 22234 00276 21001 303// 41001 5//// 6//// 80225 ICE /////
BBXX BATFR19 25004 99066 30057 46/// /1814 10239 20207 40131 58004 2228/ 00257
BBXX BATFR55 25004 99073 30405 44/97 00805 10284 20244 40103 70000 22222 00292 20802
BBXX BATFR08 25004 99274 30649 46/// /0817 10222 20155 40202 57006 22273 00230
BBXX UFTA 25001 99846 71249 41695 83209 11227 21256 40161 52011 73832 885// 333 21231
BBXX 5BDK2 25004 99277 70862 41497 50913 10240 2023/ 40260 51010 70300 84188 22263 00240 20602 309// 40802 5//// 6//// 80230 ICE /////
BBXX WDD6126 25004 99382 70442 43/98 /2027 10185 2015/ 40190 58014 7//// 8//// 22254 00190 20505 327// 40504 5//// 6//// 80160 ICE /////
BBXX 44011 25001 99411 70666 46/// /3511 10032 21024 40272 53029 92350 22200 00092 10604 20604 70022 333 91213 555 11114 22120 32337 41815 62349 353108 350112 349108 355109 358105 017091
BBXX 46238 25001 99334 71195 46/// ///// 1//// 92350 22200 00145 11704 21001 329// 41704 70022
BBXX 46239 25001 99363 71221 46/// ///// 1//// 92351 22200 00137 11306 21002 330// 41306 70032
BBXX 41113 25001 99284 70805 46/// ///// 1//// 92351 22200 00225 10801 20801 70006
BBXX 42099 25001 99273 70842 46/// ///// 1//// 92357 22200 00230 10502 20502 70008
BBXX 41110 25001 99341 70777 46/// ///// 1//// 92351 22200 00141 10802 20801 70008
BBXX 44100 25001 99363 70756 46/// ///// 1//// 92352 22200 00126 10502 20502 70011
BBXX 44099 25001 99369 70757 46/// ///// 1//// 92352 22200 00119 10602 20602 70008
BBXX 41112 25001 99307 70813 46/// ///// 1//// 92351 22200 00169 10603 20603 70015
BBXX 46219 25001 99332 71199 46/// ///// 1//// 92358 22200 00142 11406 21002 330// 41406 70032
BBXX 46214 25001 99379 71235 46/// ///// 1//// 92353 22200 00121 11507 21002 329// 41506 70033
BBXX 46224 25001 99332 71175 46/// ///// 1//// 92336 22200 00145 11502 21001 319// 41501 70008
BBXX 46218 25001 99345 71208 46/// ///// 1//// 90002 22200 00138 11706 21002 329// 41706 70031
BBXX 46236 25001 99368 71219 46/// ///// 1//// 92350 22200 00124 11505 21001 327// 41505 70024
BBXX 46225 25001 99329 71174 46/// ///// 1//// 92344 22200 00149 11802 20601 325// 41802 70009
BBXX 46213 25001 99403 71247 46/// ///// 1//// 92354 22200 00099 11406 21003 329// 41405 70029
BBXX 46229 25001 99438 71246 46/// ///// 1//// 92351 22200 00098 11305 21003 328// 41305 70027
BBXX 46237 25001 99378 71226 46/// ///// 1//// 92340 22200 00109 11505 21002 325// 41504 70024
BBXX 46249 25001 99338 71197 46/// ///// 1//// 92340 22200 00152 11702 21001 326// 41702 70011
BBXX 46243 25001 99462 71241 46/// ///// 1//// 92359 22200 00083 11305 20804 326// 41304 70027
BBXX 46215 25001 99352 71209 46/// ///// 1//// 92338 22200 00159 11504 21001 326// 41504 70022
BBXX 46247 25001 99378 71228 46/// ///// 1//// 92351 22200 00119 11505 21002 328// 41504 70023
BBXX 46232 25001 99325 71174 46/// ///// 1//// 92338 22200 00151 11803 21001 328// 41803 70015
BBXX 44097 25001 99410 70711 46/// ///// 1//// 90002 22200 00120 10902 20902 70009
BBXX CGJK 25004 99484 71234 46/// /0108 10103 20065 40276 56012 7//// 8//// 22200 0//// 2////
BBXX VOLG 25004 99446 70636 46/// /0109 11088 21132 40296 53030 7//// 8//// 22200 0//// 2////
BBXX CGBR 25004 99522 71281 46/// /0402 10103 20101 40125 58028 7//// 8//// 22200 0//// 2////
BBXX CGCC 25004 99463 70725 46/// /1405 11166 21182 40347 58006 7//// 8//// 22200 0//// 2////
BBXX VCLM 25004 99468 70712 46/// /2603 11141 21168 40351 53007 7//// 8//// 22200 0//// 2////
BBXX VOKF 25004 99490 70669 46/// /2608 11112 21168 40325 53008 7//// 8//// 22200 0//// 2////
BBXX WZJC 25004 99255 70866 41298 60813 10250 2020/ 40200 53006 70222 8589/ 22233 00250 2//// 3//// 4//// 5//// 6//// 80217 ICE /////
BBXX ZCDG7 25004 99217 71602 41598 30938 10230 20183 40214 54000 70100 82470 22243 00250 20403 312// 40605 5//// 80200
BBXX 42363 25001 99282 70892 46/// /0913 10194 20167 40237 53003 90000 333 91213
BBXX A8WP6 25004 99018 50393 41698 20818 00/// 10260 2024/ 40160 53010 70211 82/// 22273 00254 2//// 3//// 4//// 5//// 6//// 80250
BBXX A8DE3 25003 99167 50734 41/98 51008 10210 20195 40138 52008 7//22 83/62 22233 29901 318// 40702 80200
BBXX 3FBC9 25004 99017 50963 41798 61412 10230 40068 55014 70322 84235 9//// 22233 00220 20301 315// 40304 5//// 6//// 80200
BBXX P3GY9 25004 99026 70460 41895 30519 10290 2025/ 40135 51015 70100 83191 22233 00290 20804 334// 41204 5//// 6//// 80260 ICE /////
BBXX WBP3210 25004 99525 50683 43/// /2514 10115 2//// 40120 5//// 7//// 8//// 22232 00121 2//// 3//// 4//// 5//// 6//// ICE /////
BBXX WCX7445 25004 99531 50709 43/// /2207 10116 2//// 40088 5//// 7//// 8//// 22200 00151 2//// 3//// 4//// 5//// 6//// ICE /////
BBXX 32012 25001 99197 50856 46/// ///// 1//// 92350 22200 10904 70021
BBXX ELWR5 25000 99016 50820 41598 12205 10238 20202 40090 53011 70011 80005 22200 04255 20202 322// 40303 80213
BBXX 41046 25001 99238 70683 46/// /0707 10247 20189 40217 53007 92350 22200 00254 10904 20602 300// 40903 70018 333 91208 555 11069 22072 32305 40608 62349 072066 075063 076066 073066 069067 065068 80607 92252
BBXX 42364 25001 99291 70881 46/// /0807 10178 20156 40247 51006 90000
BBXX CGDG 25004 99447 70636 46/// /3604 11096 21068 40299 53030 7//// 8//// 22200 0//// 2////
BBXX CGDR 25004 99484 71234 46/// /3606 10097 20082 40278 56012 7//// 8//// 22200 0//// 2////
BBXX VXKF 25004 99462 70602 46/// /2704 11086 21129 40255 52016 7//// 8//// 22200 0//// 2////
BBXX CGBY 25004 99487 71235 46/// /2503 10083 20071 40282 56013 7//// 8//// 22200 0//// 2////
BBXX VRYO3 25004 99519 70538 46/// /0918 11137 21134 40120 51035 7//// 8//// 22264 00019 2////
BBXX CG2965 25004 99487 71235 46/// /2603 10081 20069 40283 56014 7//// 8//// 22200 0//// 2////
BBXX VCWL 25004 99468 70712 46/// /0000 11153 21176 40356 53006 7//// 8//// 22200 0//// 2////
BBXX CGBN 25004 99447 70636 46/// /3509 11092 21134 40299 53031 7//// 8//// 22200 0//// 2////
BBXX CGDX 25004 99468 70712 46/// /2904 11148 21180 40355 53006 7//// 8//// 22200 0//// 2////
BBXX CGDT 25004 99468 70712 46/// /2904 11156 21178 40356 53006 7//// 8//// 22200 0//// 2////
BBXX CZ9742 25004 99506 70969 46/// /2606 10007 21040 40083 53002 7//// 8//// 22200 0//// 2////
BBXX VCRG 25004 99474 70619 46/// /3215 11078 21135 40278 53032 7//// 8//// 22271 00000 2////
BBXX CGUM 25004 99460 70599 46/// /3209 11078 21119 40258 53015 7//// 8//// 22200 0//// 2////
BBXX 3FZK3 25004 99456 71228 46/// /1502 10092 20009 40295 56022 7//// 8//// 22200 0//// 2////
BBXX VOPP 25004 99456 70735 46/// /1006 11160 21178 4//// 5//// 7//// 8//// 22200 0//// 2////
BBXX VCSZ 25004 99484 70616 46/// /3124 11103 21120 40247 53029 7//// 8//// 22273 0//// 2////
BBXX VCBW 25004 99474 70705 46/// /3411 11138 21167 40335 50000 7//// 8//// 22252 00023 2////
BBXX CGTF 25004 99476 70527 46/// /1906 11091 21138 40191 53026 7//// 8//// 22200 0//// 2////
BBXX CG2958 25004 99543 71303 46/// /2405 10079 20070 40076 55004 7//// 8//// 22200 0//// 2////
BBXX VAAP 25004 99492 70589 46/// /3125 11117 21152 40209 53027 7//// 8//// 22262 0//// 2////
BBXX CGHL 25004 99476 70527 46/// /2804 11087 21136 40191 53026 7//// 8//// 22200 0//// 2////
BBXX CGSB 25004 99505 70589 46/// /3225 11172 21202 40221 51027 7//// 8//// 22252 00031 2////
BBXX VOKJ 25004 99471 70707 46/// /2507 11132 21169 40348 56007 7//// 8//// 22213 0//// 2////
BBXX VOFG 25004 99456 70614 46/// /3408 11070 21093 40267 53020 7//// 8//// 22200 0//// 2////
BBXX 46026 25001 99378 71228 46/// /3203 10122 40289 56007 92350 22200 00120 11504 20301 328// 41504 70020 333 91204 555 11030 22034 32348 43204 62349 314027 264017 302020 301025 304020 313016
BBXX 46041 25001 99474 71247 46/// /1706 10083 40273 56016 92350 22200 00084 11106 20502 3//// 41106 70032 333 91208 555 11067 22071 32314 41610 62349 169063 170064 172067 169073 165072 162070
BBXX 44007 25001 99435 70701 46/// /0407 11055 21103 40331 52021 92350 22200 00075 10901 20301 3//// 40901 70007 333 91210 555 11075 22078 32343 40410 62349 042072 038072 029068 046063 037064 036068
BBXX 46035 25001 99571 71778 46/// /0111 1//// 40230 57004 92350 22200 10805 20805 70023 333 91214 555 11107 22114 32259 40114 62349 014106 001106 013099 031093 025095 020102 80212 92300
BBXX 46082 25001 99597 71434 46/// ///// 10042 49895 56037 92350 22200 00062 11008 70039
BBXX 51101 25001 99243 71621 46/// /0810 10234 20169 40228 57020 92350 22200 00238 10807 20806 305// 41004 70033 333 91212 555 11109 22116 32328 40813 62349 076101 074109 077106 081103 085106 084106
BBXX DBLK 25001 99675 30000 41197 /0410 11016 21017 49689 57039 7//// 22282 05012
BBXX 46006 25001 99408 71375 46/// /2206 10103 40189 56007 92350 22200 00121 11708 20502 3//// 41708 70039 333 91207 555 11061 22063 32250 42308 62349 221058 225048 222040 214046 227037 231053
BBXX 46059 25001 99380 71300 46/// /2107 10132 40284 56016 92350 22200 00139 11305 20402 3//// 41305 70025 333 91209 555 11069 22072 32316 42110 62349 214067 222073 228068 212075 217064 221062
BBXX 41013 25001 99334 70777 46/// /0307 10139 20056 40288 52013 92350 22200 00192 10603 20602 316// 40801 70013 333 91209 555 11072 22075 32329 40110 62349 030069 023069 015073 026071 029071 022072
BBXX 44065 25001 99404 70737 46/// /0506 10026 21059 40304 50000 92350 22200 00095 10801 20301 318// 40801 70005 333 91208 555 11064 22066 32343 40508 62349 051060 047059 052058 032055 033050 021046 80507 92330
BBXX 44027 25001 99443 70673 46/// /0109 11095 21114 40317 51014 92350 22200 00078 10403 20402 3//// 40801 70013 333 91212 555 11090 22093 32316 43613 62349 009087 010087 017093 007098 000098 359093
BBXX 46025 25001 99337 71191 46/// /2603 10159 20101 40254 56006 92350 22200 00154 11702 331// 41702 70008 333 91204 555 11037 22041 32259 42504 62349 260033 268032 278035 255035 248035 252034
BBXX 44020 25001 99414 70702 46/// /0207 11012 21076 40312 51017 92350 22200 00069 10401 20401 70005 333 91209 555 11078 22083 32342 40209 62349 011071 252069 249068 245063 248071 252062
BBXX 46054 25001 99342 71204 46/// /3104 10139 40270 54000 92350 22200 00142 11605 300// 41605 70027 333 91205 555 11039 22041 32345 43105 62349 305037 301029 308035 304033 292033 291030
BBXX 46029 25001 99461 71245 46/// /1706 10096 20073 40274 58015 92350 22200 00095 11305 20502 329// 41305 70027 333 91207 555 11061 22065 32316 41608 62349 170057 173062 171062 172063 172061 174064
BBXX 46013 25001 99382 71233 46/// /0103 10116 40293 56008 92350 22200 00118 11505 3//// 41505 70027 333 91204 555 11031 22033 32344 43604 62349 011029 019025 023023 039022 041016 045013
BBXX 46087 25001 99485 71247 46/// /1806 10100 20064 40275 57010 92350 22200 00086 11405 20501 326// 41405 70025 333 91207 555 11064 22072 32346 41807 62349 180056 176054 182045 173032 158031 148033
BBXX 46088 25001 99483 71232 46/// /1403 10080 40267 92350 22200 00079 11201 20301 317// 41201 70005 333 91204 555 11033 22036 32348 41404 62349 136032 129024 154016 154011 119011 085020
BBXX 46028 25001 99357 71219 46/// /2904 10125 40275 54000 92350 22200 00137 11505 20401 329// 41505 70026 333 91205 555 11042 22043 32340 42905 62349 293041 294039 294038 292037 289034 287030
BBXX 46086 25001 99325 71180 46/// /3203 10150 40257 55004 92350 22200 00154 11705 20301 328// 41705 70024 333 91204 555 11030 22031 32349 43104 62349 319028 325025 330019 335018 327020 317019
BBXX 46105 25001 99590 71522 46/// ///// 1//// 92350 22200 10706 70030
BBXX 46012 25001 99374 71229 46/// /3407 10117 40284 56005 92350 22200 00122 11506 20401 328// 41506 70028 333 91209 555 11077 22081 32259 43509 62349 337072 337070 333072 343069 350070 000071
BBXX 46069 25001 99337 71202 46/// /3204 10144 40268 56003 92350 22200 00145 11605 20401 330// 41605 70023 333 91205 555 11038 22040 32344 43205 62349 320036 306026 318025 308021 306019 313021
BBXX 46047 25001 99324 71195 46/// /3303 10142 40265 55004 92350 22200 00141 11605 20301 330// 41605 70027 333 91204 555 11029 22031 32345 43204 62349 332028 334028 336024 328017 325017 313014
BBXX 46014 25001 99394 71240 46/// /2503 10102 40301 55006 92350 22200 00111 11507 20301 3//// 41507 70035 333 91204 555 11035 22037 32325 42405 62349 253034 244031 223035 217038 205036 198038
BBXX 46077 25001 99579 71543 46/// /2410 11077 21123 49976 58035 92350 22200 00048 10604 20604 70018 333 91214 555 11107 22112 32333 42415 62349 237099 238104 235100 239104 242102 248103 82412 92345
BBXX 46061 25001 99602 71468 46/// /3207 10005 49898 57028 92350 22200 00056 11104 20602 300// 41103 70019 333 91209 555 11078 22081 32349 43209 62349 323074 322076 321075 320077 323077 325068
BBXX 41010 25001 99289 70785 46/// /0506 10232 40242 52012 92350 22200 00238 10903 20501 300// 40902 70013 333 91208 555 11066 22069
BBXX 41040 25001 99145 70530 46/// /0606 10262 20212 40162 51020 92350 22200 00275 10804 20502 3//// 40804 70020 333 91207 555 11060 22063 32336 40707 62349 062056 068056 066052 068052 067054 065053 80706 92336
BBXX 41009 25001 99285 70802 46/// /0505 10243 20202 40241 53008 92350 22200 00245 11002 20401 300// 41002 70010 333 91206 555 11054 22057
BBXX 42039 25001 99288 70860 46/// /0607 10192 40237 52011 92350 22200 00230 10502 20502 70012 333 91208 555 11070 22073 32250 40510 62349 055067 056069 055068 058068 057072 053073 80608 92251
BBXX 46072 25001 99517 71722 46/// /0511 11001 21036 40120 56022 92350 22200 00046 10905 20603 3//// 40904 70025 333 91214 555 11112 22118 32342 40414 62349 049104 057093 059081 057086 058085 060082 80511 92339
BBXX 42057 25001 99168 70815 46/// /0608 10274 20222 40153 53007 92350 22200 00276 10704 20703 3//// 41002 70018 333 91210 555 11083 22088 32349 40710 62349 061082 063081 065081 063080 063082 063078 80609 92349
BBXX 9HA2066 25004 99230 70838 419// 20819 10280 20280 40180 51/// 7//// 82//3 22214 00280 20502 309// 40602 5//// 6//// 80280 ICE /////
BBXX C6SI3 25004 99499 71515 41398 72724 10020 2103/ 40110 5//// 7//77 87/4/ 22223 0//// 20412 32729 40512 5//// 6//// 80000 ICE /////
BBXX 9V7955 25004 99325 71482 41597 60609 10195 2019/ 40280 51010 70121 86185 22264 00180 20102 30606 40404 50304 6//// 80190 ICE /////
BBXX 9VVN 25004 99516 71364 41897 62320 10090 2007/ 40060 51010 74411 81/98 22234 0//// 21006 32123 42009 54010 6//// 80080 ICE /////
BBXX A8XD5 25004 99414 71517 41297 32818 10140 20105 40250 52/// 70311 83142 22223 04150 20306 327// 40306 80120
BBXX KNJK 25003 99244 70810 41398 10512 10228 20212 40200 54000 70200 81/// 22253 00250 2//// 3//// 4//// 5//// 6//// 80217 ICE /////
BBXX PGQI 25003 99344 70745 41/97 50317 10160 20082 40280 54000 70222 8//// 22243 20502 305// 41003 80117
BBXX BAREU05 25004 99465 70722 46/// ///// 40346 57002 22212
BBXX 46027 25001 99419 71244 46/// /1602 10106 40292 55005 92350 22200 00092 11406 328// 41406 70030 333 91203 555 11026 22031 32349 41703 62349 167022 183019 183018 195019 206012 258008
BBXX 46050 25001 99442 71246 46/// /1703 10098 40283 56017 92350 22200 00098 11406 20401 328// 41406 70029 333 91204 555 11036 22038 32347 41804 62349 172033 172030 173031 164031 156029 151029
BBXX 46075 25001 99539 71608 46/// /3110 11033 21100 40093 57008 92350 22200 00047 10705 20705 300// 41101 70024 333 91213 555 11103 22108 32328 43214 62349 311101 322096 327101 325103 313101 319105 83312 92312
BBXX 46084 25001 99566 71361 46/// /0000 10060 20032 49945 54000 92350 22200 00072 11611 70054 333 91200 555 32304 43600 62349 000000 000000 000000 000000 000000 000000
BBXX 46002 25001 99426 71305 46/// ///// 10122 40234 56021 92350 22200 00122 11205 70026
BBXX 46005 25001 99461 71310 46/// ///10 10110 40167 56025 92350 22200 00100 10806 20805 3//// 41104 70031 333 91212 555 11105 22113
BBXX 46080 25001 99580 71500 46/// /2911 11012 21063 49941 58011 92350 22200 00056 10706 20706 3//// 41003 70032 333 91214 555 11118 22124 32309 42716 62349 292114 285117 290109 293112 282121 288122 82814 92309
BBXX 41060 25001 99148 70510 46/// ///// 1//// 92350 22200 10903 70017
BBXX 41001 25001 99347 70727 46/// ///// 10155 20063 40276 53016 92350 22200 00235 10704 70019
BBXX 41049 25001 99275 70630 46/// /0503 10220 20164 40239 53008 92350 22200 00237 10803 20401 300// 40803 70014 333 91203 555 11026 22026 32323 40404 62349 046025 048025 045027 037027 041023 044026 80403 92323
BBXX 42020 25001 99270 70967 46/// /3514 10149 20129 40202 53017 92350 22200 00224 10808 20808 70040 333 91216 555 11148 22155 32329 43518 62349 351139 350141 350144 351141 350143 352145
BBXX 42002 25001 99258 70937 46/// /1205 10240 20239 40189 53014 92350 22200 00232 10804 20402 306// 40804 70020 333 91206 555 11053 22056 32251 41110 62349 119053 115064 115073 114068 112072 112080
BBXX 42055 25001 99222 70940 46/// /1108 10252 20217 40173 53012 92350 22200 00252 10803 20502 332// 40801 70013 333 91209 555 11083 22089 32251 41110 62349 111078 106078 105071 107076 108079 108082 81109 92252
BBXX 41036 25001 99342 70770 46/// ///// 10126 20060 40292 51011 92350 22200 00187 10802 70009
BBXX 41047 25001 99275 70715 46/// /0602 10235 40244 53008 92350 22200 00248 10903 311// 40903 70015 333 91203 555 11020 22020 32332 40803 62349 064020 071022 065019 071022 074021 071021 80603 92344
BBXX 41043 25001 99211 70650 46/// /0708 10250 20208 40201 53015 92350 22200 00258 10805 20603 300// 40804 70025 333 91209 555 11085 22090 32258 40710 62349 068081 066082 066081 069082 068081 070081 80709 92258
BBXX NWS0022 25004 99416 70714 43/// /0607 10006 21071 40314 5//// 7//// 8//// 222// 04101 2//// 3//// 4//// 5//// 6//// 8//// ICE /////
BBXX PHBO 25003 99233 70666 41/97 /0514 10250 20186 40212 52013 70381 8//// 22214 20402 80209
BBXX WDC6736 25004 99254 70800 43/// /0505 10250 2019/ 40220 54010 7//// 8//// 22211 00270 2//// 3//// 4//// 5//// 6//// 80210 ICE /////
BBXX 9HXC9 25004 99260 70795 41498 40716 10236 20176 40210 52020 7//11 84730 22215 00265 2//// 3//// 4//// 5//// 6//// 80196 ICE /////
BBXX WDC3786 25004 99264 71368 43498 71019 10201 2016/ 40247 57009 7//// 8/8// 22214 0//// 20303 331// 41006 5//// 6//// 80174 ICE /////
BBXX WABS 25004 99421 71258 41998 31606 10100 2008/ 40280 57020 7//11 81/68 22243 0//// 20202 329// 40606 5//// 6//// 80089 ICE /////
BBXX WFLG 25004 99244 71504 41698 60724 10211 20168 40232 57013 70222 862// 22213 04200 20805 302// 40602 5//// 6//// 80183 ICE /////
BBXX 9HJF9 25004 99204 70869 41798 20810 1//// 2//// 40190 54000 7//00 82/// 22200 00250 20401 3//// 40501 50401 6//// 8//// ICE /////
BBXX SHIP 25003 99321 71178 41998 00208 10190 2017/ 40300 54000 70200 80/// 22200 00170 20101 330// 40602 5//// 6//// 80175 ICE /////
BBXX 46011 25001 99350 71210 46/// /3304 10134 40276 55004 92350 22200 00139 11506 20401 330// 41506 70030 333 91206 555 11042 22044 32347 43206 62349 328040 332038 333041 333037 335036 328036
BBXX 46078 25001 99561 71526 46/// /2711 11037 21092 92350 555 11112 22120
BBXX 42012 25001 99301 70876 46/// /0707 10183 20113 40245 54000 92350 22200 00198 10502 20502 70008 333 91208 555 11075 22079 32303 40709 62349 070072 074072 068072 076070 072069 073069
BBXX 41044 25001 99217 70587 46/// /0806 10246 20189 40198 53010 92350 22200 00263 10804 20602 300// 40803 70020 333 91208 555 11067 22070 32251 40909 62349 082064 081064 085061 088067 090071 086074 80808 92251
BBXX 42035 25001 99292 70944 46/// /0512 10100 20097 40225 58011 92350 22200 00156 10504 20504 70018 333 91215 555 11132 22138 32345 40515 62349 053123 048113 049107 054117 049119 044109
BBXX 42001 25001 99259 70897 46/// /1108 10246 20202 40216 53005 92350 22200 00243 10703 20602 3//// 40702 70013 333 91210 555 11087 22093 32345 41010 62349 107081 110077 109079 110081 110078 109076
BBXX 41048 25001 99320 70696 46/// /0211 10199 20142 40245 51021 92350 22200 00232 10604 20604 70019 333 91213 555 11112 22118 32320 40114 62349 015111 015111 016113 007098 006102 011103 80312 92327
BBXX 42065 25001 99149 70750 46/// /0609 10265 20230 92350 22200 11005 20704 3//// 41004 70027 333 91211 555 11094 22100 32250 40612 62349 057089 058095 057094 058089 057089 058100 80611 92350
BBXX 42040 25001 99292 70882 46/// /0908 10179 40242 53003 92350 22200 00225 10602 20602 315// 40901 70011 333 91209 555 11079 22082 32326 41009 62349 089078 092072 091072 089074 090073 084070
BBXX 42019 25001 99279 70954 46/// /0515 10178 20173 40167 55004 92350 333 91218 555 11160 22171 32332 42920 62349 041151 282161 282159 282138 281140 283142
BBXX 44005 25001 99432 70691 46/// /0109 11048 21134 40317 51016 92350 22200 00084 10603 20603 3//// 41001 70015 333 91212 555 11095 22099 32301 43614 62349 008093 014094 359093 002095 002105 008100
BBXX 42059 25001 99151 70675 46/// /0906 10264 20233 40152 53011 92350 22200 00278 10804 20502 3//// 40803 70020 333 91207 555 11061 22064 32250 41110 62349 084059 083058 082057 087054 099044 116053 81108 92251
BBXX 44066 25001 99396 70726 46/// /0107 10034 21031 40304 51008 92350 22200 00123 10502 20502 3//// 40701 70011 333 91208 555 11069 22071 32333 40110 62349 011064 009066 001061 004067 015067 358067
BBXX 42003 25001 99260 70856 46/// /0707 1//// 92350 22200 10603 20602 325// 40801 70013 333 91209 555 11072 22076 32252 40710 62349 075068 075073 075073 071077 069074 068080 80709 92252
BBXX 42056 25001 99198 70849 46/// /0807 10267 20226 40173 53007 92350 22200 00272 11002 20502 312// 41001 70011 333 91208 555 11073 22077 32336 40808 62349 081069 079067 077062 084061 079062 082063 80808 92347
BBXX 42060 25001 99163 70635 46/// /0610 10269 20202 40169 53012 92350 22200 00274 10604 20604 300// 41001 70020 333 91212 555 11103 22109 32303 40612 62349 056095 060094 063094 058092 057095 055096 80510 92343
BBXX 42363 25001 99282 70892 46/// /0813 10194 20167 40237 92345 333 91213
BBXX 42036 25001 99285 70845 46/// /0407 10198 20175 40235 53004 92350 22200 00217 10502 20502 70008 333 91208 555 11074 22077 32255 40509 62349 041071 045072 051070 053073 050070 054071
BBXX 42364 25001 99291 70881 46/// /0807 10178 20150 40247 92345
BBXX 42362 25001 99278 70907 46/// /0811 10217 20183 40220 92345
BBXX 42058 25001 99149 70749 46/// /0811 10271 20221 40124 53011 92350 22200 00273 10907 20705 308// 40904 70034 333 91214 555 11120 22128 32257 40715 62349 077112 079116 075114 074116 076118 077114 80812 92257
BBXX FVNM 25004 99089 70795 46/// /0514 10279 20234 40086 53019 22200 00279
BBXX WDC6698 25004 99097 71478 43/// /0416 1//// 2//// 40090 5//// 7//// 8//// 222// 04261 2//// 3//// 4//// 5//// 6//// 8//// ICE /////
BBXX 3FQS8 25004 99157 70987 41598 32708 00/// 10280 2027/ 40100 56030 70200 83131 22274 00280 20301 305// 40301 5//// 6//// 80270 /////
BBXX CG2350 25004 99433 70798 46/// /1205 10001 21082 40272 58012 7//// 8//// 22200 0//// 2////
BBXX CG2960 25004 99429 70824 46/// /1714 10021 21024 40254 58008 7//// 8//// 22281 00061 2////
BBXX CGDS 25004 99447 70755 46/// /0808 11104 21126 4//// 5//// 7//// 8//// 22200 0//// 2////
BBXX SHIP 25004 99120 31522 41598 49909 10295 2026/ 40070 52010 70200 83465 22283 00310 20802 300// 41003 5//// 6//// 80265 ICE /////
BBXX BATFR43 25004 99207 51676 46/// /3308 10282 20239 40084 56009 22263 00284
BBXX BATFR56 25004 99092 30738 46/// /1314 10269 20267 40077 56015 22213 00297
BBXX ZCDE3 25003 99091 31002 41699 50812 10278 20253 40052 53002 70311 83444 22214 00290 20302 31719 40505 50404 80260
BBXX BATFR28 25004 99025 11016 46/// /0612 10270 20212 40088 53009 22272 00294
BBXX PCHM 25004 99458 31706 41298 30710 10200 20149 40204 56010 70322 8277/ 22200 00160 20000 318// 40000 80170
BBXX TFSRT 25004 99633 70203 46/// ///// 22200 11215 70073
BBXX TFSTD 25004 99664 70234 46/// ///// 22200 10706 70030
BBXX TFGSK 25004 99641 70229 46/// ///// 22200 11011 70053
BBXX TFHFN 25004 99642 70152 46/// ///// 22200 11011 70057
BBXX TFKGR 25004 99657 70136 46/// ///// 22200 10709 70043
BBXX TFGRV 25004 99638 70225 46/// ///// 22200 11212 70061
BBXX TFBKF 25004 99635 70202 46/// ///// 22200 11008 70038
BBXX TFDRN 25004 99658 70212 46/// ///// 22200 10907 70033
BBXX TFGRS 25004 99663 70182 46/// ///// 22200 10708 70040
BBXX OZ2049 25000 99615 70152 41/97 92525 10048 49885 72588
BBXX DBBH 25001 99376 70010 41/98 /0604 10104 20069 40320 54000 7//// 22200 04162
BBXX A8QJ7 25004 99300 70156 41/98 /0312 10190 20190 40262 58012 70322 8/7// 22283 06180 2//// 3//// 4//// 5//// 80190
BBXX A8JH8 25004 99383 10248 41/97 /0223 10090 20026 40200 52020 70200 8//// 22214 20402 80060 80115
BBXX SCKB 25003 99489 70287 41/// /2242 10140 20105 40090 56005 75255 8//// 22253 00110 20911 3//// 4//// 5//// 6//// 80120 ICE /////
BBXX DK7210 25001 99540 10066 46/// /2313 10084 20084 30185
AAXX 25004 91324 11474 80907 10278 20247 30075 40077 60034 70262 83203 333 562/9 58024 70069 83819 88075 555 92500
AAXX 25004 91329 NIL
AAXX 25004 91336 11474 80617 10283 20233 30152 40155 60074 70282 82101 333 561/9 58027 70069 82818 88075 555 92500
AAXX 25004 91339 11474 80810 10289 20243 30071 40077 60674 70282 8636/ 333 56299 58007 70670 86918 88362 555 92500
AAXX 25004 91320 11474 80709 10294 20272 30105 40110 60034 70282 8291/ 333 56299 58020 70030 82914 86463 555 92500
AAXX 25004 48302 31/00 90906 10107 20103 38485 40152 74542 333 20105 58018
AAXX 25004 48304 01520 80000 10176 20148 39701 40173 52010 69924 71062 85576 333 20168 58017 69907 70002
AAXX 25004 48334 31556 60000 10150 20141 39792 40168 52015 71022 83556 333 20147 58024
AAXX 25004 48360 NIL
AAXX 25004 48372 31956 50000 10172 20151 30096 40156 52007 71011 82035 333 20165 58021
AAXX 25004 48373 NIL
AAXX 25004 48386 31930 50000 10175 20158 30114 40159 52002 71011 80006 333 20160 58027
AAXX 25004 48387 31556 80904 10150 20132 39174 40153 52011 71022 83557 333 20140 58012
AAXX 25004 48408 32960 63602 10148 20110 30018 40174 52009 80006 333 20133 58026
AAXX 25004 48415 31940 60627 10181 20107 30137 40148 52011 70521 80006 333 20174 58030
AAXX 25004 48433 NIL
AAXX 25004 48437 31957 33602 10132 20099 39967 40187 52009 71010 80001 333 20120 58031
AAXX 25004 48440 31557 70405 10188 20129 30102 40153 52010 71010 82536 333 20183 58029
AAXX 25004 48451 31558 20304 10194 20140 30140 40151 52015 71000 82500 333 20193 58027
AAXX 25004 48454 32960 21112 10198 20131 30114 40121 80005 333 20195 58014
AAXX 25004 48457 31940 50522 10208 20139 30117 40134 71022 80006 333 20205 58017
AAXX 25004 48463 31957 60408 10200 20129 30039 40135 70522 80006 333 20197 58019
AAXX 25004 48464 31556 83306 10200 20158 30120 40133 52015 71022 85776 333 20200 58028
AAXX 25004 48479 31950 40406 10201 20129 30072 40125 57014 70511 80006 333 20198 58020
AAXX 25004 48520 11558 70412 10254 20205 30083 40099 52004 60014 71022 84576 333 20240 59007 70012
AAXX 25004 48554 11430 80000 10245 20238 30089 40093 52005 60124 71022 85907 333 20240 58010 70122
AAXX 25004 48563 12560 61003 10234 20222 30045 40081 52006 60254 82256 333 20203 58000 70252
AAXX 25004 48571 11560 70508 10256 20223 30080 40092 52004 60104 71022 83237 333 20244 58008 70102
AAXX 25004 91324 11474 80907 10278 20247 30075 40077 60034 70262 83203 333 562/9 58024 70069 83819 88075 555 92500
AAXX 25004 91329 NIL
AAXX 25004 91336 11474 80617 10283 20233 30152 40155 60074 70282 82101 333 561/9 58027 70069 82818 88075 555 92500
AAXX 25004 91339 11474 80810 10289 20243 30071 40077 60674 70282 8636/ 333 56299 58007 70670 86918 88362 555 92500
AAXX 25004 91320 11474 80709 10294 20272 30105 40110 60034 70282 8291/ 333 56299 58020 70030 82914 86463 555 92500
AAXX 25004 78792 31459 80605 10276 20221 30071 40084 52011 70500 83220 333 021// 10322 20239 30/// 58007 83818 85459
AAXX 25004 78793 11470 60000 10257 20233 30053 40084 50003 60031 70186 81251 333 10304 20240 31/// 568// 58003 70027 81810 84358
AAXX 25004 78795 11458 80000 10244 20239 39981 40081 57010 60071 76069 8342/ 333 10310 20232 31/// 5600/ 58003 70075 83610 85459
AAXX 25004 78866 01481 10711 10253 20194 30178 40183 52015 69961 70181 81200 333 10280 20245 58008 69907 70014 81819
AAXX 25004 78988 02480 21208 10263 20224 30126 40137 52015 60001 82200 333 10281 20232 58011 60007 70018 82816
AAXX 25004 78990 01/80 /0100 10262 20224 30137 52015 60001 70000 333 10291 20000 58010 60007
AAXX 25004 78905 11476 70810 10258 20201 30145 40168 69901 70222 87200 333 10291 20240 58005 70010 87817
AAXX 25004 48307 31556 80000 10159 20150 39790 40183 52004 71022 82556 333 20157 58024
AAXX 25004 48324 32560 60000 10153 20148 39936 40164 51009 82135 333 20148 58029
AAXX 25004 48333 31520 60000 10160 20148 39866 40179 52020 71022 81570 333 20155 58023
AAXX 25004 48350 NIL
AAXX 25004 48355 31950 00000 10100 20079 39976 40209 50016 71000 333 20090 58031
AAXX 25004 48358 31930 20000 10095 20085 30020 40208 51013 71000 80005 333 20092 58027
AAXX 25004 48384 31950 60302 10129 20110 39997 40198 52010 71022 80006 333 20120 58032
AAXX 25004 48401 31957 40508 10189 20118 30056 40166 52012 70511 80005 333 20187 58026
AAXX 25004 48404 31956 60502 10132 20099 30001 40189 51013 71010 80007 333 20130 58031
AAXX 25004 48409 31920 20305 10150 20108 30025 40179 52010 71000 80001 333 20145 58023
AAXX 25004 48419 NIL
AAXX 25004 48427 31958 60101 10180 20132 30144 40152 52015 71020 80006 333 20177 58014
AAXX 25004 48435 31940 61138 10140 20091 39719 40175 52009 71010 83046 333 20139 58031
AAXX 25004 48453 32960 50407 10200 20129 30136 40139 52011 80006 333 20196 58032
AAXX 25004 48458 31958 10504 10178 20128 30076 40159 52005 71000 80001 333 20174 58025
AAXX 25004 48474 31556 60000 10190 20163 30010 40137 52012 71020 81236 333 20189 58025
AAXX 25004 48481 NIL
AAXX 25004 48555 11556 80000 10245 20230 30074 40117 50023 60334 71022 8587/ 333 20226 58009 70331
AAXX 25004 48556 11540 50000 10226 20221 30071 40087 52007 60074 71011 82505 333 20223 58000 70071
AAXX 25004 48557 NIL
AAXX 25004 48560 01557 80603 10258 20242 30086 40091 52008 60074 76022 84876 333 20252 58007 69945 70069
AAXX 25004 48574 32560 50000 10255 20240 30063 40092 52005 82136 333 20238 58005
AAXX 25004 48581 NIL
AAXX 25004 78792 31459 80605 10276 20221 30071 40084 52011 70500 83220 333 021// 10322 20239 30/// 58007 83818 85459
AAXX 25004 78793 11470 60000 10257 20233 30053 40084 50003 60031 70186 81251 333 10304 20240 31/// 568// 58003 70027 81810 84358
AAXX 25004 78795 11458 80000 10244 20239 39981 40081 57010 60071 76069 8342/ 333 10310 20232 31/// 5600/ 58003 70075 83610 85459
AAXX 25001 38353 429// 02202 11002 21103 39280 40196 53006
AAXX 25001 38613 429// 80301 11020 21059 39285 40211 53006 8802/ 555 14105
AAXX 25001 38616 425// 63201 10002 21061 39176 40210 53005 82501
AAXX 25001 38345 42998 20000 11077 21117 38768 48460 53006 80002 555 14110
AAXX 25001 36911 429// 00907 10026 20023 39210 40177 53001 555 1/106
AAXX 25001 36974 429// 01002 11265 38003 48513 56002 555 17129
AAXX 25001 36982 429// 00000 11288 21333 36507 47238 53002
AAXX 25004 78905 11476 70810 10258 20201 30145 40168 69901 70222 87200 333 10291 20240 58005 70010 87817
AAXX 25004 78866 01481 10711 10253 20194 30178 40183 52015 69961 70181 81200 333 10280 20245 58008 69907 70014 81819
AAXX 25004 78988 02480 21208 10263 20224 30126 40137 52015 60001 82200 333 10281 20232 58011 60007 70018 82816
AAXX 25004 78990 01/80 /0100 10262 20224 30137 52015 60001 70000 333 10291 20000 58010 60007
AAXX 25004 91925 01465 60308 10265 20210 30036 40096 58017 60004 71511 86800 333 20223 56800 59002 60007 84816 90710 91119 555 60005 10319
AAXX 25004 91929 04571 /0815 10302 20234 30115 40118 57017 60001 700// 333 60007 90710 91121 555 60005
AAXX 25004 91938 02480 52207 10305 20201 30122 40124 56019 60001 85800 333 60007 82816 83640 90710 91119 555 60005 12319
AAXX 25004 91944 06/// /0916 10281 20204 30138 40141 56016 60011 333 60017 90710 91122 555 60005
AAXX 25004 91948 01481 61109 10251 20201 30077 40179 57015 60034 72586 86800 333 20224 56200 59004 60017 85818 83656 90710 91117 555 69905 11123
AAXX 25004 91954 06/// /0514 10285 20208 30162 40165 56012 69924 333 20260 58006 60007
AAXX 25004 91958 02583 30609 10265 20215 30190 40192 58015 60024 83800 333 20206 56100 59009 60007 83823 90710 91111 555 60005 10612
AAXX 25004 91943 NIL
AAXX 25004 91945 NIL
AAXX 25004 16622 12960 01105 11026 21041 30234 40245 51008 60001 333 90730 91107 555 40000 47705 44210 50000 51030
AAXX 25004 16641 12560 40000 10044 20044 30167 40173 56003 60001 84534 333 84630 84070 90730 91105 555 40000 47654 44190 50000 50044
AAXX 25004 16682 NIL
AAXX 25004 16716 NIL
AAXX 25004 16734 NIL
AAXX 25004 16743 NIL
AAXX 25004 16749 12560 22822 10080 21014 30140 40155 51005 60001 82100 333 90730 91134 555 40000 47636 44200 50000 50044
AAXX 25004 16754 11460 73512 10118 20073 30139 40187 53004 69901 76062 87800 333 82818 86630 90730 91115 555 40000 47636 44200 50000 50096 60000 65555 60020 70000 77R// 7R///
AAXX 25004 47101 12975 00201 11135 21173 30194 40298 52016 69902 333 21151 3/111 42///
AAXX 25004 47105 369// /2706 11048 21233 30215 40249 52016 333 21074 3/102
AAXX 25004 47108 12970 02707 11089 21229 30193 40306 52027 69902 333 21095 3/107 45///
AAXX 25004 47115 11510 72906 11034 21073 39924 40207 52012 60032 78588 87800 333 21040 3/000 48009 92042
AAXX 25004 47133 12970 00001 11061 21108 30225 40315 52025 69902 333 21096 3/103 48001
AAXX 25004 47138 32970 01803 11037 21173 30264 40267 52021 333 21052 30004 92032
AAXX 25004 47159 32980 02707 11017 21174 30186 40275 52018 333 21041 30103 92023
AAXX 25004 47165 12670 30504 11019 21076 30258 40307 52021 60012 83500 333 21039 3/001 43004 92022
AAXX 25004 47168 12970 03416 11027 21157 30210 40293 52025 69902 333 21032 30102 92025
AAXX 25004 47184 12570 73616 10032 21027 30271 40297 52020 60032 87800 333 20020 31003 92054
BBXX PBEN 25003 99368 10013 41/98 23606 10150 20097 40300 52015 7//22 821// 22263 20501 336// 40601 80120
AAXX 25001 15502 12970 00000 11076 21086 30202 40244 51005 60001 333 11030 21076 555 593//
AAXX 25001 15525 11556 22003 11076 21094 39966 40250 51004 60001 71000 82500 333 11040 21076 42004 555 587//
AAXX 25001 15528 12968 00000 11070 21079 30026 40228 51001 60001 333 11040 21074 44003 555 593//
AAXX 25001 15535 11930 20000 11055 21058 30190 40239 51002 60001 71011 82050 333 11013 21056 42002 555 597// 92600
AAXX 25001 15549 12570 80000 11044 21056 39811 40249 52002 60001 886// 333 11040 21055 43004 555 590//
AAXX 25001 15552 12462 82902 11014 21046 30190 40241 52004 60001 885// 333 11014 21015 555 576// 92022 92427
AAXX 25001 15614 12962 00000 11092 21104 39514 40269 52009 60001 333 11058 21092 44012 555 590//
AAXX 25001 15615 11986 00208 11117 21136 37761 47990 51007 60001 70241 333 11113 21150 555 586//
AAXX 25001 15626 11958 00000 11108 21131 30053 40257 52006 60001 71000 333 11046 21108 47004 555 583//
AAXX 25001 15627 11989 03604 11102 21169 37568 47988 51004 60001 70200 333 11100 21122 48019 555 558//
AAXX 25001 15640 12960 00000 11058 21093 39917 40249 54000 60001 333 11034 21062 555 576//
AAXX 25001 15655 12570 83204 11016 21066 30210 40245 52005 60001 885// 222// 2//01 333 11005 21016 555 566// 92023 92428
AAXX 25001 15712 12970 03201 11043 21053 39989 40254 52009 60001 333 11016 21043 43001 555 592//
AAXX 25001 15730 11940 00000 11074 21084 39836 40255 52006 60001 71000 333 11033 21076 43009 555 593//
AAXX 25001 14240 11556 83301 10023 20016 30109 40270 52015 69921 71062 885//
AAXX 25001 14258 11956 82501 10009 21001 30074 40269 52014 60001 7102/ 8807/ 333 88360
AAXX 25001 14445 12670 80806 10112 21028 30033 40188 52012 60001 8687/ 333 86896 82499 91020 91507 92312
AAXX 25001 26038 21471 32601 10002 21003 30046 40088 51020 70261 83600 333 10036 20001 60007 83713 555 1/100 20001 3/100 50022 52102
AAXX 25001 26045 27361 82402 10023 20022 30071 40073 52013 71081 88/// 333 10022 20007 69937 88/07 555 1/000 20007 3/100 50004
AAXX 25001 26058 27357 82202 10007 20005 30062 40070 52006 76176 88/// 333 10007 21004 60027 88/09 555 1/100 21004 3/100 51006 52100
AAXX 25001 26115 27/81 02902 10018 21009 30095 40103 51012 70000 80/// 333 10056 20010 60007 80/// 555 1/100 20010 3/102 50049
AAXX 25001 26135 27056 72801 10012 20011 30011 40086 52014 71051 87/// 333 10013 20002 69937 87/02 555 1/000 20002 3/100 51002 52000
AAXX 25001 26141 21103 92602 10002 21001 39931 40081 52012 74776 333 10003 21002 60027 8//02 555 1/100 21002 3/100 51008 52100
AAXX 25001 26231 NIL
AAXX 25001 26242 21150 82201 10001 21007 30000 40088 52009 77176 8872/ 333 10002 21001 60037 88503 555 1/000 21001 3/100 51008 52100
AAXX 25001 26247 27/56 /2302 10003 20003 30014 40095 52008 77177 333 10004 21002 69997 555 1/100 21002 3/100 51006
AAXX 25001 76040 32960 00102 10187 21062 30258 40272 57008 92348 333 10196 20039 30/// 50270 59008 70000 98660
AAXX 25001 76122 32570 60000 10018 21028 38608 40305 52001 86400 92347 333 10030 21030 31/// 50021 56900 58039 70016 86635
AAXX 25001 76225 32960 00702 10016 21028 38696 40286 52012 92345 333 10034 21022 30/// 50161 58084 79999
AAXX 25001 76256 32980 03605 10201 20056 30196 40210 5//// 92345 333 10166 20052 30/// 50420 59013 70000
AAXX 25001 76305 32970 03405 10198 20005 30187 40195 57001 92350 333 10223 20110 30/// 50501 58/// 70000
AAXX 25001 76323 32970 03602 10044 21022 38307 40309 52008 92355 333 10073 21015 30/// 50351 58094 70000
AAXX 25001 76342 31460 80602 10074 20051 39575 40315 52008 70222 887// 92350 333 10090 20035 31/// 50021 561// 58025 70044 88710
AAXX 25001 76382 32480 23404 10100 20019 38944 40229 57001 81502 92354 333 10131 20036 30/// 50321 56301 58088 70000 81614 81076
AAXX 25001 76390 31440 73503 10042 20030 38240 40217 52001 74044 85405 92330 333 10090 21004 30/// 50111 56805 58020 70000 85715 82070
AAXX 25001 76393 31420 80203 10086 20050 39654 40252 52010 70522 887// 92355 333 10108 20054 30/// 50101 568// 58023 70020 88715
AAXX 25001 76402 31959 03603 10232 20035 30122 40179 57006 70544 92340 333 10245 20048 30/// 50491 59015 70000
AAXX 25001 76423 32784 32403 10200 21012 38136 40106 52003 81344 92356 333 10236 20040 30/// 50350 56099 58004 70000 81357 82067
AAXX 25001 76458 32970 13005 10190 20124 30135 40139 53002 80005 92338 333 10216 20093 30/// 50321 56//9 59003 70000 81070
AAXX 25001 76491 32560 73606 10114 20094 39849 40250 52016 875// 92350 333 10166 20100 30/// 50611 568// 70000 87625
AAXX 25001 76525 31980 62118 10152 20003 37461 40104 55005 73933 83031 92340 333 10165 20072 30/// 50831 56/55 58002 70000 83358 83080 91118
AAXX 25001 76539 32970 03602 10240 20036 38141 40109 57013 92350 333 10262 20050 30/// 50220 59003 70000
AAXX 25001 76543 32875 80903 10215 20138 30181 40214 52011 8805/ 92330 333 10238 20170 30/// 5//// 5603/ 58/// 70000 88358
AAXX 25001 76548 32474 70404 10172 20143 30204 40214 53009 83404 92340 333 10202 20164 30/// 50071 56806 58016 70000 83612 84076
AAXX 25001 76556 32970 31802 10239 20165 39105 40115 54000 80006 92335 333 10275 20114 30/// 50281 56//6 59003 70000 83070
AAXX 25001 76571 32670 01802 10230 21038 38159 40117 55004 92340 333 10250 20046 30/// 50711 58012 70000
AAXX 25001 76577 32970 00000 10208 20171 38037 40114 57004 92340 333 10248 20077 30/// 50311 58004 70000
AAXX 25001 76581 32970 01208 10202 20128 39052 40140 52009 92350 333 10270 20136 30/// 50340 59026 70000
AAXX 25001 76612 32962 12801 10240 20019 38457 40126 53004 80001 92350 333 10281 20075 30/// 50351 56005 58001 70000 81072
AAXX 25001 76625 32550 03204 10227 20022 38128 40072 54001 92350 333 10257 20082 30/// 50410 56000 58010 70000
AAXX 25001 76634 31670 60402 10170 20025 37852 40108 52007 70511 82104 92350 333 10254 20050 30/// 50461 563/5 59004 70000 82834 84075
AAXX 25001 76644 32460 60204 10266 20221 30156 40168 50703 81636 92350 333 10315 20209 30/// 50320 5622/ 58002 70000 81610
AAXX 25001 76654 31956 02702 10268 20206 30121 40125 57008 70544 92345 333 10304 20202 30/// 50401 59001 70000
AAXX 25001 76658 31560 22305 10287 20171 39615 40109 57005 70540 81102 92350 333 10345 20173 30/// 50550 56101 58002 70000 81822 81070 94002 98904
AAXX 25001 76665 32962 01502 10210 20076 38113 40092 57003 92350 333 10280 20054 30/// 50270 70000 58001
AAXX 25001 76675 31580 52304 10130 20034 37386 40117 52011 69901 76061 85900 92348 333 10216 21021 30/// 50330 569// 58007 69907 79999 83926 82826 91109
AAXX 25001 76683 32672 20000 10198 20068 37820 40120 54000 81130 92345 333 10238 20040 30/// 50281 56240 58/// 70000 81839 81358 98222
AAXX 25001 76685 32570 11401 10208 20013 37863 40090 57004 81100 92340 333 10244 20074 30/// 50181 56900 58001 70000 81827
AAXX 25001 76687 31355 71102 10174 20158 38699 40172 52003 80322 875// 92348 333 10232 20135 30/// 50070 563// 58001 70006 82718 85620
AAXX 25001 76695 32958 20600 10270 20204 31147 40153 52001 82001 92348 333 10310 20212 31/// 50860 56//0 58002 70180 82078
AAXX 25001 76737 31475 71101 10191 20162 38791 40158 53005 70322 86760 92335 333 10242 20148 30/// 50201 56220 58001 70007 86710 91108 91514
AAXX 25001 76743 31956 60901 10275 20248 30144 40152 53004 70222 86/5/ 92350 333 10305 20230 30/// 50080 56/0/ 58003 70021 86356
AAXX 25001 76750 32558 60703 10266 20206 30157 40167 52005 83131 92350 333 10321 20218 30/// 50490 56226 58013 70000 83820
AAXX 25001 76762 32504 11302 10258 20205 38746 40173 56004 81200 92330 333 10318 20137 30/// 50341 56300 58007 70000 81830
AAXX 25001 76773 31568 42701 10254 20069 38410 40086 57003 7050/ 84300 92345 333 10292 20060 30/// 50401 56200 58004 70000 83820 81620
AAXX 25001 76805 32970 02501 10285 20236 30102 40104 52007 92330 333 10329 20210 30/// 50451 58001 70000
AAXX 25001 76843 32565 63603 10230 20177 39492 40126 54000 86700 92437 333 10292 20205 30/// 50301 567// 58001 70000 86620
AAXX 25001 76845 32458 60502 10154 20125 37957 40152 51004 84704 92345 333 10198 20112 30/// 50171 56209 58002 70000 84712 82077
AAXX 25001 76848 32470 70401 10172 20144 38392 40087 51003 83444 92350 333 10230 20144 30/// 50301 56199 58010 70003 83618 81360 83075
AAXX 25001 76903 31675 62802 10298 20213 39973 40105 58001 70122 82501 92345 333 10353 20236 30/// 50311 56109 59002 70000 81833 81650 84074
AAXX 25001 76243 21370 83602 10064 20039 39979 40286 52002 70252 886// 92335 333 10080 20042 31/// 50061 568// 59042 69907 70056 88708
AAXX 25001 76311 32980 00000 10260 20027 39867 40147 56006 92345 333 10280 20007 30/// 50260 59012 70000
AAXX 25001 76405 32980 03609 10186 20094 30157 40179 57009 92350 333 10208 20150 30/// 50710 59026 70000
AAXX 25001 76412 31966 02602 10228 20051 30098 40142 57022 70544 92350 333 10238 20048 30/// 50471 59019 70000
AAXX 25001 76640 31357 83603 10210 20191 30199 40211 52006 70222 884// 92340 333 10224 20176 30/// 50191 567// 58006 70000 88608
AAXX 25001 76741 31350 73609 10234 20215 30124 40142 57012 70544 85550 92330 333 10245 20198 30/// 50131 568// 59003 70014 82610 83811
AAXX 25004 47090 32975 02907 11053 21248 30225 40248 52017 333 21064 3/107 42/// 92033
AAXX 25004 47095 12970 00000 11135 21178 30099 40305 52017 69902 333 21165 3/110 46///
AAXX 25004 47097 329// /2303 11080 21178 30200 40303 52025 333 21121 3/107
AAXX 25004 47098 129// /2001 11100 21151 30156 40300 52021 69902 333 21136 3/105
AAXX 25004 47099 129// /1802 11106 21164 30268 40307 52023 69902 333 21148 3/105
AAXX 25004 47100 12970 02510 11133 21235 39292 40274 52010 69902 333 21153 3/108 49026
AAXX 25004 47102 12670 60707 11062 21113 30126 40315 52021 69902 86500 333 21064 3/000 42007
AAXX 25004 47104 32975 02909 11045 21253 30145 40247 52019 333 21090 3/105 43002
AAXX 25004 47106 329// /2910 11047 21237 30186 40238 53010 333 21065 3/104
AAXX 25004 47112 12970 03411 11068 21211 30218 40307 52029 69902 333 21075 3/101 43001 92024
AAXX 25004 47114 12970 01401 11079 21177 30104 40298 52018 69902 333 21120 3/107 45///
AAXX 25004 47119 32970 02703 11074 21187 30264 40309 52029 333 21098 3/103 43003
AAXX 25004 47121 329// /0001 11106 21164 39982 40298 52021 333 21134 3/108
AAXX 25004 47127 329// /0001 11114 21163 30156 40309 52022 333 21130 3/105
AAXX 25004 47129 12975 00703 11042 21126 30280 40318 52025 69902 333 21078 3/104 43002
AAXX 25004 47130 32975 02706 11031 21218 30180 40244 52012 333 21075 30103 92032
AAXX 25004 47131 12970 02903 11057 21190 30237 40312 52027 69902 333 21072 3/103 48001
AAXX 25004 47135 129// /2711 11068 21184 39986 40303 52020 69902 333 21078 3/105
AAXX 25004 47136 12970 02909 11056 21197 30095 40276 52015 69902 333 21085 30106
AAXX 25004 47137 329// /2708 11064 21204 30170 40295 52021 333 21075 3/106
AAXX 25004 47140 12970 00000 11043 21085 30284 40314 52023 60022 333 21082 3/001 43003 92020
AAXX 25004 47143 32972 02710 11038 21196 30213 40296 52024 333 21051 30103
AAXX 25004 47145 12970 03209 11047 21192 30277 40305 52028 69902 333 21093 3/102 47004
AAXX 25004 47146 12970 00001 11056 21091 30248 40318 52027 69902 333 21078 3/101 44001
AAXX 25004 47150 12970 00703 11041 21130 30291 40311 52026 69922 333 21070 3/104 46///
AAXX 25004 47152 32973 02907 11027 21179 30223 40268 52017 333 21048 30103
AAXX 25004 47154 329// /2910 11045 21176 30230 40294 52025 333 21060 3/105
AAXX 25004 47155 32970 00508 11021 21190 30236 40284 52018 333 21050 30102
AAXX 25004 47156 12975 00506 11043 21095 30217 40311 52018 69952 333 21059 3/000 43003
AAXX 25004 47157 12975 00705 11048 21182 39999 40283 52023 69902 333 21070 34105
AAXX 25004 47162 32975 00506 11017 21155 30247 40289 52025 333 21029 30102 92022
AAXX 25004 47169 12675 33614 10022 21061 30201 40298 52019 69902 83500 333 20012 31001 92055
AAXX 25004 47170 12973 00203 11011 21104 30260 40305 52027 69922 80000 333 21025 3/101 41/// 92022
AAXX 25004 47171 129// /0000 11078 21098 30255 40314 52020 60022 333 21098 3/101
AAXX 25004 47172 129// /3605 11034 21102 30235 40305 52020 60032 333 21082 3/001
AAXX 25004 47173 329// /1601 11060 21092 30198 40316 52023 333 21101 3/103
AAXX 25004 47174 12970 02907 11042 21121 30090 40303 52022 69912 333 21055 3/103 42///
AAXX 25004 47175 11570 11105 11046 21057 39701 40302 52023 60042 72840 81500 333 21053 3/000 47006 92022
AAXX 25004 47185 12665 73222 10047 21038 30198 40291 52028 69972 87500 333 20037 31003 92056
AAXX 25004 47188 12670 60507 10026 21037 30270 40292 52025 60032 86500 333 20008 3/001 42/// 92033
AAXX 25004 47189 12670 60503 10033 21012 30228 40290 52023 69952 86500 333 20013 31003 92022
AAXX 25004 47192 12973 00905 11020 21165 30253 40292 52023 69902 333 21046 30103
BBXX 3FZK3 25004 99456 71228 46/// /1502 10092 20009 40295 56022 7//// 8//// 22200 0//// 2////
BBXX 46002 25001 99426 71305 46/// ///// 10122 40234 56021 92350 22200 00122 11205 70026
BBXX 46026 25001 99378 71228 46/// /3203 10122 40289 56007 92350 22200 00120 11504 20301 328// 41504 70020 333 91204 555 11030 22034 32348 43204 62349 314027 264017 302020 301025 304020 313016
BBXX 46042 25001 99368 71224 46/// /3305 10120 40278 56007 92350 22200 00132 11606 20401 330// 41606 70030 333 91206 555 11050 22052 32250 43206 62349 330048 328046 331044 337041 346042 353043
BBXX 46050 25001 99442 71246 46/// /1703 10098 40283 56017 92350 22200 00098 11406 20401 328// 41406 70029 333 91204 555 11036 22038 32347 41804 62349 172033 172030 173031 164031 156029 151029
BBXX CG2958 25004 99543 71303 46/// /2405 10079 20070 40076 55004 7//// 8//// 22200 0//// 2////
BBXX CG2965 25004 99487 71235 46/// /2603 10081 20069 40283 56014 7//// 8//// 22200 0//// 2////
BBXX CGBR 25004 99522 71281 46/// /0402 10103 20101 40125 58028 7//// 8//// 22200 0//// 2////
BBXX CGBY 25004 99487 71235 46/// /2503 10083 20071 40282 56013 7//// 8//// 22200 0//// 2////
BBXX CGDR 25004 99484 71234 46/// /3606 10097 20082 40278 56012 7//// 8//// 22200 0//// 2////
BBXX CGJK 25004 99484 71234 46/// /0108 10103 20065 40276 56012 7//// 8//// 22200 0//// 2////
BBXX WDE9586 25003 99453 71246 41898 71923 10110 20090 40255 54000 7//22 86/31 22244 00100 20405 329// 40806 5//// 6//// 80100 ICE /////
AAXX 25004 93004 16/// /0722 10206 20133 40210 57005 60004 333 20141 70000
AAXX 25004 93023 16/// /0611 10192 20122 40230 57003 60004 333 20122 70000
AAXX 25004 93069 16/// /1307 10169 20135 40232 52002 60004 333 20156 70000
AAXX 25004 93110 17698 /2003 10201 20137 40230 57001 60004 333 20139 70000
AAXX 25004 93186 17598 /0210 10201 20150 40227 57004 60004 333 20153 70000
AAXX 25004 93196 16/// /1109 10186 20134 40233 57003 60004 333 20114 70000
AAXX 25004 93245 16/98 /2506 10191 20131 40214 57012 60004 333 20114 70000
AAXX 25004 93292 17/98 /1409 10194 20116 40237 57001 60004 333 20063 70000
AAXX 25004 93309 17/98 /0107 10200 20157 40225 57002 60004 333 20100 70000
AAXX 25004 93334 16/// /2404 10191 20090 39270 57003 60004 333 20037 70000
AAXX 25004 93339 16/// /2108 10181 20098 39277 57003 60004 333 20046 70000
AAXX 25004 93373 17/98 /0710 10202 20097 40235 57002 60004 333 20071 70000
AAXX 25004 93404 17/98 /1005 10235 20097 40218 57008 60004 333 20091 70000
AAXX 25004 93420 17/98 /2307 10189 20130 40223 57001 60004 333 20071 70000
AAXX 25004 93439 17/98 /1908 10168 20116 40222 57001 60004 333 20117 70000
AAXX 25004 93498 16/// /0513 10178 20138 40232 54000 60004 333 20112 70000
AAXX 25004 93515 17/98 /2418 10205 20144 40218 57003 60004 333 20120 70000
AAXX 25004 93527 16/// /0208 10217 20167 40223 57002 60004 333 20138 70000
AAXX 25004 93546 17997 /0110 10219 20166 40219 57001 60004 333 20137 70000
AAXX 25004 93597 16/// /0704 10178 20148 40222 57001 6///4
AAXX 25004 93615 17/97 /2709 10201 20153 40224 57002 60004 333 20124 70000
AAXX 25004 93678 16398 /0510 10174 20133 40219 57004 60004 333 20115 70000
AAXX 25004 93709 16/// /2610 10192 20152 40225 57002 60004 333 20102 70000
AAXX 25004 93773 17/98 /1305 10204 20137 40204 57008 60004 333 20081 70000
AAXX 25004 93781 17/98 /0613 10203 20144 40211 57010 60004 333 20133 70000
AAXX 25004 93800 NIL
AAXX 25004 93805 NIL
AAXX 25004 93831 17/98 /2510 10218 20057 40195 57016 69924 333 20101 70002
AAXX 25004 93845 17/98 /2212 10197 20105 40207 57001 60004 333 20097 70000
AAXX 25004 93891 17898 /1305 10219 20133 40202 57008 60004 333 20113 70000
AAXX 25004 93909 16/// /3234 10152 20126 40195 57001 69984 333 70008
AAXX 25004 93929 16/// /9901 10119 20116 40151 52014 60014 333 70010
AAXX 25004 93947 16/// /2916 10114 20112 40108 52008 60034 333 70030
AAXX 25004 93987 16/// /2107 10147 20107 40236 52001 69984 333 20096 70008
AAXX 25004 93994 NIL
AAXX 25001 76040 32960 00102 10187 21062 30258 40272 57008 92348 33310196 20039 30/// 50270 59008 70000 98660
AAXX 25001 76122 32570 60000 10018 21028 38608 40305 52001 86400 92347333 10030 21030 31/// 50021 56900 58039 70016 86635
AAXX 25001 76225 32960 00702 10016 21028 38696 40286 52012 92345 33310034 21022 30/// 50161 58084 79999
AAXX 25001 76256 32980 03605 10201 20056 30196 40210 5//// 92345 33310166 20052 30/// 50420 59013 70000
AAXX 25001 76305 32970 03405 10198 20005 30187 40195 57001 92350 33310223 20110 30/// 50501 58/// 70000
AAXX 25001 76323 32970 03602 10044 21022 38307 40309 52008 92355 33310073 21015 30/// 50351 58094 70000
AAXX 25001 76342 31460 80602 10074 20051 39575 40315 52008 70222 887//92350 333 10090 20035 31/// 50021 561// 58025 70044 88710
AAXX 25001 76382 32480 23404 10100 20019 38944 40229 57001 81502 92354333 10131 20036 30/// 50321 56301 58088 70000 81614 81076
AAXX 25001 76390 31440 73503 10042 20030 38240 40217 52001 74044 8540592330 333 10090 21004 30/// 50111 56805 58020 70000 8571582070
AAXX 25001 76393 31420 80203 10086 20050 39654 40252 52010 70522 887//92355 333 10108 20054 30/// 50101 568// 58023 70020 88715
AAXX 25001 76402 31959 03603 10232 20035 30122 40179 57006 70544 92340333 10245 20048 30/// 50491 59015 70000
AAXX 25001 76423 32784 32403 10200 21012 38136 40106 52003 81344 92356333 10236 20040 30/// 50350 56099 58004 70000 81357 82067
AAXX 25001 76458 32970 13005 10190 20124 30135 40139 53002 80005 92338333 10216 20093 30/// 50321 56//9 59003 70000 81070
AAXX 25001 76491 32560 73606 10114 20094 39849 40250 52016 875// 92350333 10166 20100 30/// 50611 568// 70000 87625
AAXX 25001 76525 31980 62118 10152 20003 37461 40104 55005 73933 8303192340 333 10165 20072 30/// 50831 56/55 58002 70000 8335883080 91118
AAXX 25001 76539 32970 03602 10240 20036 38141 40109 57013 92350 33310262 20050 30/// 50220 59003 70000
AAXX 25001 76543 32875 80903 10215 20138 30181 40214 52011 8805/ 92330333 10238 20170 30/// 5//// 5603/ 58/// 70000 88358
AAXX 25001 76548 32474 70404 10172 20143 30204 40214 53009 83404 92340333 10202 20164 30/// 50071 56806 58016 70000 83612 84076
AAXX 25001 76556 32970 31802 10239 20165 39105 40115 54000 80006 92335333 10275 20114 30/// 50281 56//6 59003 70000 83070
AAXX 25001 76571 32670 01802 10230 21038 38159 40117 55004 92340 33310250 20046 30/// 50711 58012 70000
AAXX 25001 76577 32970 00000 10208 20171 38037 40114 57004 92340 33310248 20077 30/// 50311 58004 70000
AAXX 25001 76581 32970 01208 10202 20128 39052 40140 52009 92350 33310270 20136 30/// 50340 59026 70000
AAXX 25001 76612 32962 12801 10240 20019 38457 40126 53004 80001 92350333 10281 20075 30/// 50351 56005 58001 70000 81072
AAXX 25001 76625 32550 03204 10227 20022 38128 40072 54001 92350 33310257 20082 30/// 50410 56000 58010 70000
AAXX 25001 76634 31670 60402 10170 20025 37852 40108 52007 70511 8210492350 333 10254 20050 30/// 50461 563/5 59004 70000 8283484075
AAXX 25001 76644 32460 60204 10266 20221 30156 40168 50703 81636 92350333 10315 20209 30/// 50320 5622/ 58002 70000 81610
AAXX 25001 76654 31956 02702 10268 20206 30121 40125 57008 70544 92345333 10304 20202 30/// 50401 59001 70000
AAXX 25001 76658 31560 22305 10287 20171 39615 40109 57005 70540 8110292350 333 10345 20173 30/// 50550 56101 58002 70000 8182281070 94002 98904
AAXX 25001 76665 32962 01502 10210 20076 38113 40092 57003 92350 33310280 20054 30/// 50270 70000 58001
AAXX 25001 76675 31580 52304 10130 20034 37386 40117 52011 69901 7606185900 92348 333 10216 21021 30/// 50330 569// 58007 6990779999 83926 82826 91109
AAXX 25001 76683 32672 20000 10198 20068 37820 40120 54000 81130 92345333 10238 20040 30/// 50281 56240 58/// 70000 81839 8135898222
AAXX 25001 76685 32570 11401 10208 20013 37863 40090 57004 81100 92340333 10244 20074 30/// 50181 56900 58001 70000 81827
AAXX 25001 76687 31355 71102 10174 20158 38699 40172 52003 80322 875//92348 333 10232 20135 30/// 50070 563// 58001 70006 8271885620
AAXX 25001 76695 32958 20600 10270 20204 31147 40153 52001 82001 92348333 10310 20212 31/// 50860 56//0 58002 70180 82078
AAXX 25001 76737 31475 71101 10191 20162 38791 40158 53005 70322 8676092335 333 10242 20148 30/// 50201 56220 58001 70007 8671091108 91514
AAXX 25001 76743 31956 60901 10275 20248 30144 40152 53004 70222 86/5/92350 333 10305 20230 30/// 50080 56/0/ 58003 70021 86356
AAXX 25001 76750 32558 60703 10266 20206 30157 40167 52005 83131 92350333 10321 20218 30/// 50490 56226 58013 70000 83820
AAXX 25001 76762 32504 11302 10258 20205 38746 40173 56004 81200 92330333 10318 20137 30/// 50341 56300 58007 70000 81830
AAXX 25001 76773 31568 42701 10254 20069 38410 40086 57003 7050/ 8430092345 333 10292 20060 30/// 50401 56200 58004 70000 8382081620
AAXX 25001 76805 32970 02501 10285 20236 30102 40104 52007 92330 33310329 20210 30/// 50451 58001 70000
AAXX 25001 76843 32565 63603 10230 20177 39492 40126 54000 86700 92437333 10292 20205 30/// 50301 567// 58001 70000 86620
AAXX 25001 76845 32458 60502 10154 20125 37957 40152 51004 84704 92345333 10198 20112 30/// 50171 56209 58002 70000 84712 82077
AAXX 25001 76848 32470 70401 10172 20144 38392 40087 51003 83444 92350333 10230 20144 30/// 50301 56199 58010 70003 83618 8136083075
AAXX 25001 76903 31675 62802 10298 20213 39973 40105 58001 70122 8250192345 333 10353 20236 30/// 50311 56109 59002 70000 8183381650 84074
AAXX 25001 76243 21370 83602 10064 20039 39979 40286 52002 70252 886//92335 333 10080 20042 31/// 50061 568// 59042 69907 7005688708
AAXX 25001 76311 32980 00000 10260 20027 39867 40147 56006 92345 33310280 20007 30/// 50260 59012 70000
AAXX 25001 76405 32980 03609 10186 20094 30157 40179 57009 92350 33310208 20150 30/// 50710 59026 70000
AAXX 25001 76412 31966 02602 10228 20051 30098 40142 57022 70544 92350333 10238 20048 30/// 50471 59019 70000
AAXX 25001 76640 31357 83603 10210 20191 30199 40211 52006 70222 884//92340 333 10224 20176 30/// 50191 567// 58006 70000 88608
AAXX 25001 76741 31350 73609 10234 20215 30124 40142 57012 70544 8555092330 333 10245 20198 30/// 50131 568// 59003 70014 8261083811
BBXX LAHV 25001 99589 10057 43/// /2506 10090 20070 40055 222// 04086 1////
BBXX LDGJ 25001 99603 10053 43/// /1803 10085 20038 40015 5//// 222/0 04098 1//// 3//// 4//// 5////
BBXX LF4H 25004 99596 10022 46/97 12529 10084 20034 40015 52013 8//// 22200 06084 10709 70044 333 91136
BBXX LMEL 25001 99603 10053 43/// /2005 10083 20047 40013 5//// 222/0 04099 1//// 3//// 4//// 5////
AAXX 25001 26509 /1470 82904 10046 20029 30128 40137 52024 70286 885// 333 88620 91008 91108 555 1/003 60011
AAXX 25001 26518 /1/03 92902 10018 20018 39923 40129 52024 74565 333 91003 91105 555 1/001 4/013 60021
AAXX 25001 26524 /1295 82702 10016 20016 39986 40120 53017 71062 886// 333 88704 91004 91108 555 1/100 60032
AAXX 25001 26531 /1256 82202 10005 20002 30037 40114 52009 72176 886// 333 88703 91004 91105 934// 555 1/000 4/997 60041
AAXX 25001 26629 /1239 82103 10007 20007 30034 40131 52007 76176 8872/ 333 88703 91005 91105 555 1/000 60011
AAXX 25001 26633 /1460 81802 11003 21012 39992 40125 51001 76676 8872/ 333 88710 91004 91107 93402 555 1/101 4/001 60021
AAXX 25001 26730 11256 81803 11007 21007 39943 40139 52002 77172 8802/ 333 88504 91005 91106 93403 555 1/101 47001 60031
AAXX 25001 26645 41296 81903 11026 21032 39874 40140 52001 77176 8872/ 333 88705 93402 555 1/102
AAXX 25001 26659 41358 82004 11040 21052 39937 40159 58003 76665 8872/ 333 88509 93401 555 1/102
AAXX 25001 26763 42460 81505 11053 21078 39939 40176 58007 886// 333 88711 555 1/106
AAXX 25001 26825 NIL
AAXX 25001 26832 41256 81702 11016 21024 39958 40157 54000 78587 883// 333 85705 93402 555 1/101
AAXX 25001 26887 41396 81802 11089 21096 39995 40214 58003 71022 886// 333 88708 555 1/108
AAXX 25001 26961 42460 71903 11051 21076 39991 40192 58007 875// 333 87618 555 1////
AAXX 25001 33027 42597 71802 11050 21071 30028 40203 58005 875// 555 1/104
AAXX 25004 16643 12560 42906 10096 20061 30187 40193 52004 60001 82240 333 82825 84360 90730 91114 555 40000 47670 44200 50000 50080
AAXX 25004 16648 12560 70000 10020 20004 30133 40226 50003 60001 87800 333 82820 85630 90730 91104 555 40000 47630 44210 50000 50014
AAXX 25004 16650 11560 40807 10024 21028 30222 40226 50011 69901 70152 83560 333 83630 84358 90730 91117 555 40000 47698 44220 50000 50006 60000 65555 60000 70000 77/// 7D///
AAXX 25004 16684 12460 80410 10066 21001 30174 40202 54000 60001 8667/ 333 82712 85620 88358 90730 91119 555 40000 47660 44200 50000 50040
AAXX 25004 16732 NIL
AAXX 25004 16614 36/// /1802 11086 21098 39441 40275 52010 333 90730 91103
AAXX 25004 16627 NIL
AAXX 25004 16667 NIL
AAXX 25004 16675 NIL
AAXX 25004 16710 36/// /9901 10020 20007 39427 40219 52003 333 90730 91105
AAXX 25004 16723 NIL
AAXX 25004 16738 NIL
AAXX 25004 16746 12560 60000 10094 20073 30003 40189 54000 60001 86800 333 82825 86635 90730 91106 555 40000 47531 44180 50000 50084
AAXX 25001 13160 31596 82602 10010 20003 30142 40255 51008 71022 886//
AAXX 25001 13262 11697 82702 10025 20012 30114 40268 52011 69961 76162 8802/
AAXX 25001 13272 11420 82102 10008 21003 30133 40257 52010 69972 76862 885// 333 86713 88633
AAXX 25001 13285 32697 80000 11080 21019 30145 40252 52011 885//
AAXX 25001 13289 32998 03109 11060 21073 38991 48476 51003 333 91113
AAXX 25001 13376 31595 80000 11014 21029 39989 40263 52009 71022 886//
AAXX 25001 13388 31996 00501 11031 21046 30000 40262 52011 71000
AAXX 25001 13462 32960 63201 10021 21016 30162 40203 52005 86030 333 86360
AAXX 25001 13473 NIL
AAXX 25001 13489 31995 00000 11048 21071 39718 40266 52012 71000
AAXX 25001 14121 36/// /0000 10007 20001 39990 40267 52011
BBXX BATUK01 25004 99560 70032 46/// /2605 10094 20050 40122 53015 22200 00055
AAXX 25001 33088 32597 82203 11041 21053 30004 40204 58002 885//
AAXX 25001 33177 /1496 82001 10003 21008 39953 40196 51001 71052 8872/ 333 93402 555 69931
AAXX 25001 33261 31/93 90000 11079 21079 30048 40242 52002 74942
AAXX 25001 33275 32397 83302 11060 21071 30001 40236 52002 8665/ 333 86707
AAXX 25001 33301 /1397 82003 11034 21038 39913 40206 58003 77172 8672/ 333 86708 555 69901
AAXX 25001 33325 32997 02201 11082 21101 39946 40231 58003
AAXX 25001 33377 31/93 90000 11076 21076 30034 40240 52004 74942
AAXX 25001 33415 /1396 81802 11048 21058 39806 40222 58002 77172 8772/ 333 86709 555 69901
AAXX 25001 33429 32697 61903 11073 21090 39783 40230 58002 86500 333 86646
AAXX 25001 33466 31957 00000 11084 21090 30041 40241 52003 71000
AAXX 25001 33526 /1328 80000 11036 21044 39866 40221 54000 77172 8672/ 333 86708 555 69931
AAXX 25001 33562 32997 02002 11096 21112 39856 40242 54000
AAXX 25001 33614 32570 80202 11033 21057 30115 40224 52005 885// 333 88623
AAXX 25001 33761 31996 03001 11085 21092 39998 40236 52002 71011
AAXX 25001 33902 32597 80105 11015 21049 30139 40208 52009 883//
AAXX 25001 33983 /1297 83105 10014 20000 30093 40155 52012 70262 886// 333 88704 555 60011
AAXX 25001 34415 32497 80504 11036 21054 30116 40217 52006 886//
AAXX 25001 34523 /1497 80702 11020 21041 30119 40198 52008 70372 8772/ 333 87715 555 69951
AAXX 25001 34712 /1496 80403 10000 21003 30079 40167 52009 71052 886// 333 88713 555 69901
AAXX 25004 08001 NIL
AAXX 25004 08015 NIL
AAXX 25004 08023 12560 41606 10082 20057 30299 40372 58007 60001 84800
AAXX 25004 08027 12975 01103 10062 20011 30054 40375 58002 60001
AAXX 25004 08045 02981 02305 10060 20037 30023 40343 56002 60001 333 60007
AAXX 25004 08141 12970 03402 10010 21012 39471 40369 58002 60001
AAXX 25004 08160 12970 02815 10070 21002 30021 40339 52002 60001
AAXX 25004 08181 02966 03512 10056 20004 30306 40313 58001 60001 333 60007
AAXX 25004 08221 02980 03404 11003 21040 39638 40359 51005 60001 333 60007
AAXX 25004 08231 NIL
AAXX 25004 08261 NIL
AAXX 25004 08284 02970 02702 10042 21002 30248 40327 51004 60001 333 60007
AAXX 25004 08306 NIL
AAXX 25004 08314 06/// /3521 10108 20016 30192 40297 50003 60001 333 60007
AAXX 25004 08430 12660 13003 10078 20056 30245 40322 51003 60001 81500
AAXX 25004 08482 11459 51205 10148 20114 30294 40303 51005 60001 71022 85600
BBXX 61002 25004 99421 10047 46/// ///37 10109 2//// 40274 52002 22200 00138 10810 70048 555 1/050
AAXX 25001 14241 11830 80000 10015 20003 30137 40272 53017 60011 71066 8357/
AAXX 25001 14284 11656 62804 10007 21000 30147 40260 51007 60001 71022 82570
AAXX 25001 14307 32982 80404 10105 21025 30154 40231 52019 8807/ 333
AAXX 25001 14317 NIL
AAXX 25001 14431 12680 80105 10100 20006 30117 40211 53021 60001 8457/ 333 84640 91011 91507
AAXX 25001 14444 32970 70704 10119 21003 30164 40193 52011 87030 333
AAXX 25001 14474 12975 70603 10073 20019 39993 40186 50003 60001 87070
BBXX 62087 25001 99547 10068 46/// /0806 10084 20072 4//// 5//// 22270 00080
AAXX 25004 60645 36/// /0000 10145 20015
AAXX 25004 60663 36/// /0705 10112 21018
AAXX 25004 60619 36/// /0206 10054 20009
AAXX 25003 04013 42589 21402 11040 21082 49777 57004 82200 555 3//18
AAXX 25003 04064 42670 53409 11018 21068 49803 52030 8253/ 555 3//13
BBXX VEP717 25003 99467 70487 41598 83120 11026 2108/ 40155 52031 70222 885// 22200 06022 20402 333// 40707 81044
AAXX 25004 60715 12560 42817 10124 20041 30217 40224 56009 60003 82280 333 59014 55/// 2//// 82823 83359 91028 91129
AAXX 25004 60723 NIL
AAXX 25004 60725 NIL
AAXX 25004 60735 12560 23008 10139 20053 30154 40237 58005 60003 82200 333 55085 20913 82823
AAXX 25004 60745 12560 20504 10098 20046 39882 40260 50003 60003 82200 333 55070 11103 82823
AAXX 25004 60748 NIL
AAXX 25004 60750 12560 42904 10104 20043 30217 40243 50001 60003 84200 333 55079 21027 84823
AAXX 25004 60760 12960 02705 10106 20034 30153 40259 56001 60003 333 55091 21221 91006 91114
AAXX 25004 60765 NIL
AAXX 25004 60767 NIL
AAXX 25004 60769 12560 73410 10160 20093 30233 40237 57005 60003 85802 333 55086 21214 84820 84070
AAXX 25004 17022 11562 71202 10016 20006 30041 40212 52007 60051 72162 85520 333 85628 87459 91111 92427
AAXX 25004 17031 12670 72914 10061 20013 30175 40181 52011 60001 84520 333 84636 87460
AAXX 25004 17038 11660 52907 10082 20026 30124 40175 52011 69901 70282 85200 333 84835 92447
AAXX 25004 17050 12970 01104 11030 21055 30183 40248 52002 60001
AAXX 25004 17060 12660 43512 10015 21050 30188 40230 52008 60001 84200 333 84835
AAXX 25004 17096 12570 72205 11049 21052 38168 48440 56002 60001 85530 333 85630 87357
AAXX 25004 17124 12560 73104 11004 21057 39245 40188 52008 60001 84550 333 84630 86360
AAXX 25004 17128 11660 80205 11009 21038 39043 40168 52005 69901 77122 8552/ 333 85635 88458 93100
AAXX 25004 17170 NIL
AAXX 25004 17195 11556 80000 10008 20001 38898 48422 57009 69901 71072 8552/ 333 85630 88458 93100
AAXX 25004 17199 11670 70000 10038 20030 39018 40110 55002 69981 70162 84570 333 84635 87460
AAXX 25004 17219 12965 33611 10013 21030 30046 40196 53002 60001 80001 333 83070 91124
AAXX 25004 17240 12570 53003 11008 21058 38974 40141 55000 60001 84570 333 84630 85360 91112
AAXX 25004 17244 11560 83513 11012 21033 38930 48426 55001 60011 77172 8452/ 333 84630 88458 93102
AAXX 25004 17280 11607 71106 10051 20049 39328 40121 56005 60021 74362 84550 333 84640 87360
AAXX 25004 17350 11660 70702 10096 20090 30013 40091 55003 60051 78082 84250 333 84835 87360
AAXX 25004 17024 1//// /1911 10024 20011 30115 40195 53004 60011
AAXX 25004 17056 12970 02904 11024 21029 30241 40245 52010 60001 333 92428
AAXX 25004 17067 11670 63603 10031 21014 30199 40222 52006 69901 70282 86200 333 86840 91109 92418
AAXX 25004 17092 12970 43203 10003 21014 38792 48428 55000 60001 84030 333 84360
AAXX 25004 17112 12970 00406 11007 21045 30235 40238 53002 60001 333 91109 92418
AAXX 25004 17115 12560 53509 10022 21019 30173 40226 52009 60001 83570 333 82632 85360
AAXX 25004 17116 1//// /0203 10014 20005 30102 40227 52008 69941
AAXX 25004 17188 11660 41701 11021 21049 39083 40176 53004 69941 70171 84500 333 84640 91105 93102
AAXX 25004 17202 11560 80508 10037 20026 39097 40121 55000 60031 76122 8552/ 333 85630 88459
AAXX 25004 17248 12665 80102 10000 21007 38906 48416 55005 60001 8452/ 333 84640 88460
AAXX 25004 17292 12670 43102 10001 21037 39386 40156 53004 60001 84200 333 84835 91112
AAXX 25004 17300 12960 03218 10085 21037 30034 40105 55000 60001
AAXX 25004 17310 NIL
AAXX 25004 17330 11670 73201 10098 20033 30078 40096 56001 60041 70282 84270 333 84840 87360
AAXX 25004 17026 12570 33108 10055 20014 30146 40186 52008 60001 83200 333 83830 91124 92438
AAXX 25004 17034 11560 72204 10056 20032 30140 40187 52012 60021 78082 84270 333 84830 87359 92437
AAXX 25004 17070 11550 70901 11013 21023 39309 40205 52007 60021 77077 84520 333 84630 87458 91102 93102
AAXX 25004 17084 11670 80202 10003 21021 39242 40168 52005 69901 72272 85520 333 85635 88460 91109 93100
AAXX 25004 17090 11665 71102 10006 21008 38653 48428 54000 60011 70272 84570 333 84636 87360 93100
AAXX 25004 17098 11/02 90000 11040 21040 38141 48454 56001 69911 74972 333 89/02 93191
AAXX 25004 17150 12660 73506 10014 21017 30096 40224 52005 60001 84550 333 84635 86360
AAXX 25004 17160 3//// /3507 11000 21012 38956 40135 55001 60001
AAXX 25004 17184 12670 23509 10017 21016 30091 40206 52006 60001 82100 333 82840
AAXX 25004 17189 11540 83110 11034 21037 38985 48442 52005 60011 77177 8552/ 333 85630 88459 93103
AAXX 25004 17210 1//// /2200 10061 20053 39095 40132 5//// 60031
AAXX 25004 17234 12970 01701 10008 21026 30115 40185 52010 60001 333 91112
AAXX 25004 17260 11357 70000 10060 20056 39291 40108 56003 60011 71062 87700 333 85708 87625
AAXX 25004 17290 3//// /3408 10056 21015 30147 40179 52004 60001
AAXX 25004 17370 11560 71101 10115 20071 30083 40087 57003 60021 79598 85970 333 81925 84830 87459 92427
AAXX 25004 48431 31958 20706 10149 20105 39968 40191 52013 71000 80005 333 20148 58036
AAXX 25004 08001 12965 0//// 10083 20054 30263 40347 58005 60001 333 924/7
AAXX 25004 08055 NIL
AAXX 25004 08075 NIL
AAXX 25004 08084 06/// /2802 10027 20004 39925 40379 58003 60001 333 60007
AAXX 25004 08184 02965 23103 10051 20016 30148 40309 58003 60001 82030 333 60007
AAXX 25004 08202 02970 00704 11001 21017 39405 42927 56002 60001 333 60007
AAXX 25004 08235 NIL
AAXX 25004 08238 NIL
AAXX 25004 08280 12980 00000 11010 21027 39484 40351 52004 60001
AAXX 25004 08330 NIL
AAXX 25004 08348 NIL
AAXX 25004 08360 02965 00000 10068 20038 30279 40318 52002 60001 333 60007
AAXX 25004 08373 06/// /0000 10071 20060 30287 40309 50001 60001 333 60007
AAXX 25004 08410 06/// /0000 10042 20019 30193 40309 51010 60001 333 60007
AAXX 25004 08419 07/56 /1601 10024 20008 39626 40324 51006 60001 71011 333 60007
AAXX 25004 08451 01903 00000 10057 20057 30251 40285 50003 69901 74444 333 69907
AAXX 25004 08487 06/// /3605 10114 20067 30278 40304 51003 60001 333 60007
AAXX 25004 48380 31956 30000 10199 20162 30068 40165 52013 71021 80001 333 20195 58027
AAXX 25004 48350 31910 10000 10110 20106 39888 40206 52015 71000 80001 333 20107 58030
AAXX 25004 48419 31958 50402 10190 20147 30134 40142 52024 71011 80005 333 20190 58036
AAXX 25004 48360 31956 00000 10130 20097 39936 40210 52024 71000 333 20130 58035
AAXX 25004 71102 NIL
AAXX 25004 71105 NIL
AAXX 25004 71107 NIL
AAXX 25004 71110 NIL
AAXX 25004 71111 17866 81503 10064 20050 30053 40061 58008 60051 7004/ 333 10081 20018 70059
AAXX 25004 71112 17/// ///// 60111 7//4/ 333 70198
AAXX 25004 71113 17/// /1703 10058 20054 30270 40294 58005 60031 7//4/ 333 10061 20026 70116
AAXX 25004 71115 16/// /1002 11005 21017 39732 40330 55000 60001 333 10000 21028 70003
AAXX 25004 71116 16/// /3010 10033 21024 39176 40286 53018 60001 333 10072 21018 70000
AAXX 25004 71118 16/// /2807 10000 21057 39390 40225 51016 60001 333 10055 21025 70000
AAXX 25004 71121 17964 02506 11011 21100 39382 40215 50004 60001 745// 333 10052 21019 70000
AAXX 25004 71127 16/// /2405 10022 21072 39293 40201 50000 60001 333 10056 20017 70000
AAXX 25004 71130 15566 32815 10021 21013 39685 40144 53043 60001 333 10036 21053 70000
AAXX 25004 71132 17666 82707 11079 21094 39794 40110 51034 60001 771// 333 11051 21081 70000
AAXX 25004 71133 16/// /2707 11005 21063 39470 40182 51039 60001 333 10050 21006 7////
AAXX 25004 71139 16/// /3010 10022 21067 38782 40253 53019 60001 333 10038 20008 70000
AAXX 25004 71141 NIL
AAXX 25004 71142 15966 02516 10001 21040 39260 40242 51023 60001 333 10024 21025 70000
AAXX 25004 71143 NIL
AAXX 25004 71144 NIL
AAXX 25004 71147 16/// /2718 10042 21038 60001 333 10047 21130 70000
AAXX 25004 71149 16/// /3108 10025 21023 60001 333 10044 21075 70000
AAXX 25004 71397 11462 50602 11112 21148 30279 40315 51022 60011 78587 85500 333 11049 21115 43012 70048 90917 93101
AAXX 25004 71400 16/64 /2705 11146 21177 60001 333 11105 21163 70013
AAXX 25004 71403 46/// /3319 11071 21104 30261 40282 51027 6///1 333 11014 21072 7////
AAXX 25004 71411 16/// /3507 11085 21104 30286 40299 51024 60001 333 11019 21085 70000
AAXX 25004 71412 16/// /3320 11069 21122 30261 40271 52022 60001 333 11054 21078 70000 555 10010
AAXX 25004 71421 NIL
AAXX 25004 71430 16/// /1507 11031 21057 30202 40303 56012 60001 333 11031 21122 70000
AAXX 25004 71431 16/// /1710 11017 21057 30190 40289 56010 60001 333 11016 21115 70000
AAXX 25004 71432 NIL
AAXX 25004 71433 NIL
AAXX 25004 71435 NIL
AAXX 25004 71441 NIL
AAXX 25004 71443 NIL
AAXX 25004 71444 16/// /2806 11002 21047 39360 40131 53014 60001 333 10007 21172 70000
AAXX 25004 71447 NIL
AAXX 25004 71467 16/// /2801 11288 21316 30003 40124 51008 60001 333 11276 21337 70000
AAXX 25004 71472 NIL
AAXX 25004 71474 16964 01707 11017 21039 39007 40267 55005 60001 333 10011 21039 70000
AAXX 25004 71510 NIL
AAXX 25004 71538 12574 22106 10009 21047 30021 40257 56006 60001 82500 333 10022 21039 70010
AAXX 25004 71600 16564 83519 11019 21066 30241 40247 51028 60001 333 10041 21021 70010
AAXX 25004 71601 NIL
AAXX 25004 71864 NIL
AAXX 25004 71865 16/// /2911 10012 21043 39488 40173 51041 60001 333 10036 21031 70000
AAXX 25004 71866 46964 03011 10020 21057 39587 40208 52039 6///1 333 10069 21057 7////
AAXX 25004 71867 12774 23017 10008 21025 39757 40093 53034 60001 82500 333 10014 21103 70008
AAXX 25004 71868 NIL
AAXX 25004 71869 12774 13008 10032 21026 39645 40172 53046 60001 81501 333 10056 21048 70000
AAXX 25004 71871 15966 02710 11024 21070 39402 40218 51026 60001 333 10053 21024 70000
AAXX 25004 71877 12686 72305 10041 21056 38976 40255 50006 60001 81570 333 10068 20037 70000
AAXX 25004 71878 12974 72404 11010 21069 39155 40245 52003 60001 84071 333 10026 21045 70000
AAXX 25004 71879 16964 02104 10025 21070 39403 40213 50003 60001 333 10063 20011 70000
AAXX 25004 71880 12582 81611 10022 21021 39213 40348 53005 60001 885// 333 10022 21095 70000
AAXX 25004 71882 160// /1005 10002 21019 39795 40348 58003 69951 333 10003 21019 70010
AAXX 25004 71883 46/// /0000 11022 21026 39470 40311 56006 6///1 333 11020 21051 7////
AAXX 25004 71887 12786 71020 10025 21022 39864 40293 56009 60001 85570 333 10027 21014 70000
AAXX 25004 71889 12874 81817 10016 21047 39915 40344 55001 60001 8807/ 333 10016 21008 70000
AAXX 25004 71891 16964 31919 10073 20049 39986 40264 55002 60001 333 10093 20009 70000
AAXX 25004 71892 11774 60812 10087 20054 30277 40282 58016 60111 70162 82530 333 10091 20054 70206 90923
AAXX 25004 71500 NIL
AAXX 25004 71501 NIL
AAXX 25004 71502 NIL
AAXX 25004 71503 NIL
AAXX 25004 71504 NIL
AAXX 25004 71505 46/// /0601 11099 21117 39241 49966 58033 6///1 333 11035 21100 7////
AAXX 25004 71506 NIL
AAXX 25004 71507 NIL
AAXX 25004 71508 17/// ///// 11003 21062 30138 40280 58012 69961 7//4/ 333 11002 21063 70016
AAXX 25004 71509 NIL
AAXX 25004 71511 16/// /3015 10031 21043 39546 40187 51035 60001 333 10058 21028 70000
AAXX 25004 71512 NIL
AAXX 25004 71513 15966 03010 11198 21257 30250 40266 51018 60001 333 11179 21252 70000
AAXX 25004 71514 NIL
AAXX 25004 71515 NIL
AAXX 25004 71516 16/// /3207 11010 21054 60001 333 10053 21046 70000
AAXX 25004 71517 NIL
AAXX 25004 71518 NIL
AAXX 25004 71519 NIL
AAXX 25004 71520 NIL
AAXX 25004 71521 NIL
AAXX 25004 71522 NIL
AAXX 25004 71523 NIL
AAXX 25004 71524 16/// /1003 11173 21192 30324 40353 58011 60001 333 11147 21193 70000 555 10010
AAXX 25004 71525 NIL
AAXX 25004 71526 NIL
AAXX 25004 71527 15966 82411 11053 21067 39582 40094 56006 60001 333 11045 21079 70000
AAXX 25004 71528 NIL
AAXX 25004 71529 46/// /2807 11129 21153 39890 40122 51027 6///1 333 11120 21139 7////
AAXX 25004 71532 17466 81511 11056 21067 39914 40273 58007 60001 771// 333 11046 21145 70000
AAXX 25004 71534 16664 81408 11033 21061 39989 40272 58006 60001 333 11022 21163 70005
AAXX 25004 71535 NIL
AAXX 25004 71536 NIL
AAXX 25004 71537 NIL
AAXX 25004 71539 NIL
AAXX 25004 71540 NIL
AAXX 25004 71541 NIL
AAXX 25004 71542 16/// /2305 11008 21085 60001 333 10034 21019 70000
AAXX 25004 71543 NIL
AAXX 25004 71544 NIL
AAXX 25004 71545 16/// ///// 11028 21061 60001 333 10045 21028 70000
AAXX 25004 71546 NIL
AAXX 25004 71547 NIL
AAXX 25004 71548 NIL
AAXX 25004 71549 NIL
AAXX 25004 71744 NIL
AAXX 25004 71750 NIL
AAXX 25004 71751 NIL
AAXX 25004 71752 NIL
AAXX 25004 71753 16/// /3204 11094 21122 30254 40284 51020 60001 333 11043 21094 7////
AAXX 25004 71754 16/// /2806 10012 21067 39543 40212 51035 60001 333 10065 21010 70000
AAXX 25004 71755 43/// /2512 11052 21069 39672 40018 55003 6///1 333 11052 21168 7////
AAXX 25004 71756 17/// /0203 10006 20003 39172 40281 56004 60021 7//4/ 333 10007 21006 70115 555 10120
AAXX 25004 71758 NIL
AAXX 25004 71760 NIL
AAXX 25004 71761 NIL
AAXX 25004 71762 NIL
AAXX 25004 71763 NIL
AAXX 25004 71765 16/// /1917 10073 20040 39984 40260 55002 60001 333 10093 20008 70000
AAXX 25004 71766 16/// /1009 10078 20066 30182 40254 58009 60001 333 10093 20056 70022
AAXX 25004 71767 17/// /1812 10001 21014 39955 40221 58018 60021 7//4/ 333 10001 21082 70030 555 10090
AAXX 25004 71768 46/// /1710 10011 21053 39779 40341 53000 6///1 333 10012 21022 7////
AAXX 25004 71769 16/// /1122 10078 20068 30241 40257 58011 60001 333 10079 20065 70014
AAXX 25004 71770 NIL
AAXX 25004 71771 NIL
AAXX 25004 71772 17/// /1215 10080 20075 30261 40267 56009 69941 7//4/ 333 10082 20066 70012
AAXX 25004 71773 16/// /1805 11029 21059 39133 49982 58044 60001 333 11023 21069 70000
AAXX 25004 71774 46/// ///// 10045 6///1 333 10067 20040 7////
AAXX 25004 71775 46/// /0311 10068 20055 30280 40286 58016 6///1 333 10070 20041 7////
AAXX 25004 71776 46/// /0902 11008 21017 39701 40364 58000 6///1 333 11005 21041 7////
AAXX 25004 71777 17/// ///// 11002 21004 30039 40296 56007 60041 7//4/ 333 10002 21019 70116
AAXX 25004 71778 46/// /2610 6///1 333 7////
AAXX 25004 71779 16/// /1309 10052 21009 39531 40195 56021 60001 333 10056 21016 70000
AAXX 25004 71780 17/// /1902 10070 20065 30256 40284 56011 60021 7//4/ 333 10074 20056 70204
AAXX 25004 71781 46/// /1129 10079 20063 30222 40247 56011 6///1 333 10081 20065 7////
AAXX 25004 71782 46/// /1805 10018 21014 38977 40328 53006 6///1 333 10018 21021 7////
AAXX 25004 71783 17/// /0203 10073 20054 30199 40273 56013 69921 7//4/ 333 10094 20059 70052
AAXX 25004 71784 17/// /0504 10078 20054 30071 40277 58016 60151 7//4/ 333 10083 20060 70328
AAXX 25004 71785 17/// /0704 10079 20062 30274 40290 58016 60071 7//4/ 333 10093 20054 70160
AAXX 25004 71786 46/// /2813 11067 21079 38455 40342 53001 6///1 333 11066 21100 7////
AAXX 25004 71787 16/// /3208 11172 21184 39783 40298 51013 60001 333 11130 21176 70000
AAXX 25004 71788 NIL
AAXX 25004 71789 NIL
AAXX 25004 71791 NIL
AAXX 25004 71792 NIL
AAXX 25004 71793 NIL
AAXX 25004 71794 NIL
AAXX 25004 71795 NIL
AAXX 25004 71796 NIL
AAXX 25004 71797 NIL
AAXX 25004 71043 12983 60000 11295 21345 30076 40175 50001 60001 82032 333 11243 21309 48012 70028
AAXX 25004 71045 16/// /1104 11017 21068 39160 40014 57040 60001 333 11012 21099 70000
AAXX 25004 71050 46/// /0202 11013 21051 39100 40194 56025 6///1 333 10033 21099 7////
AAXX 25004 71051 NIL
AAXX 25004 71052 NIL
AAXX 25004 71066 12974 60000 11056 21107 39714 40138 50004 60001 80001 333 10029 21072 70000
AAXX 25004 71068 12974 71705 11007 21054 39475 40171 58008 60001 80002 333 10041 21012 70000
AAXX 25004 71069 16964 02805 11012 21034 39480 40188 58001 60001 333 10054 21012 70000
AAXX 25004 71076 16/// /2807 11100 21118 39732 40132 51033 60001 333 11078 21106 70000 555 10020
AAXX 25004 71077 16/// /2704 10011 21023 39624 40166 51029 60001 333 10029 21007 70000
AAXX 25004 71079 11474 83210 11032 21052 39766 40046 52041 69901 77151 886// 333 11024 21102 48010 70008 90943
AAXX 25004 71081 47559 63307 11221 21256 39881 49893 58015 6///1 745// 333 11219 21276 7////
AAXX 25004 71082 NIL
AAXX 25004 71083 11902 03425 11263 21303 39933 49976 53036 69901 77673 333 11127 21263 48056 70022 90983
AAXX 25004 71090 46564 82302 11289 21332 39943 49979 58002 6///1 333 11272 21312 7////
AAXX 25004 71091 460// /0511 11248 39716 49929 58012 6///1 333 7////
AAXX 25004 71092 46756 31116 11288 39263 49944 58016 6///1 333 11245 21289 7////
AAXX 25004 71093 460// /3011 11257 39445 49952 56005 6///1 333 11225 21257 7////
AAXX 25004 71094 46032 /3612 11220 39008 49915 58004 6///1 333 11199 21220 7////
AAXX 25004 71095 46964 01702 11358 21400 39898 49982 58002 6///1 333 11333 21362 7////
AAXX 25004 71101 160// /1604 30054 55009 60001 333 70085
AAXX 25004 71104 12874 71414 10033 21017 39103 40220 56012 60001 86071 333 10039 21013 79999
AAXX 25004 71108 11283 40806 10057 20050 30217 40291 58012 60061 70161 81674 333 10067 20036 70154 90923
AAXX 25004 71109 11580 71112 10083 20061 30160 40187 58004 60061 76122 87500 333 10084 20059 70170 90952
AAXX 25004 71603 11669 63612 11070 21106 30253 40308 53026 69901 78588 86500 333 11016 21070 42004 70022 90973
AAXX 25004 71607 16/// /3405 11164 21188 30301 40336 51015 60001 333 11109 21164 70003 555 10010
AAXX 25004 71609 11974 03506 11146 21180 30181 40323 51015 69901 70261 333 11028 21147 42003 70002 90962
AAXX 25004 71610 15966 00904 11193 21210 30028 40345 58001 60001 333 11149 21201 70000
AAXX 25004 71621 12474 71006 11064 21104 30198 40309 55008 60001 87500 333 11060 21128 70000
AAXX 25004 71623 NIL
AAXX 25004 71624 12569 61508 11008 21085 30056 40275 58012 60001 86500 333 11005 21087 70000
AAXX 25004 71625 16464 31504 11113 21132 30136 40306 58009 60001 333 11108 21215 70000
AAXX 25004 71627 12674 10907 11151 21194 30290 40337 58011 60001 81501 333 11130 21169 79999
AAXX 25004 71628 13460 50906 11150 21174 30177 40327 58004 60001 85500 333 11111 21170 70000
AAXX 25004 71630 NIL
AAXX 25004 71631 16/// /1806 11029 21064 39740 40254 58006 60001 333 11025 21092 70000
AAXX 25004 71633 11674 81517 11015 21053 39959 40238 58014 69901 77171 885// 333 11001 21079 47997 79999 90921
AAXX 25004 71705 11574 22706 11164 21180 30224 40317 51015 60001 70231 82500 333 11106 21174 70054
AAXX 25004 71706 11561 82907 11099 21134 30233 40296 52017 69901 78588 885// 333 11064 21102 47013 70044 90983
AAXX 25004 71707 11674 73206 11087 21137 30178 40257 51015 69901 78588 87500 333 11042 21089 48008 70020 90983
AAXX 25004 71709 11574 83422 11086 21138 30259 40273 51023 60011 78522 881// 333 11079 21103 46005 70036 90962 93101
AAXX 25004 71711 NIL
AAXX 25004 71714 16/// /2801 11261 21293 30271 40371 56003 60001 333 11140 21261 70000
AAXX 25004 71715 16/// /1603 11201 21235 30146 40341 50000 60001 333 11144 21201 70003
AAXX 25004 71718 11583 22107 11165 21212 30269 40339 51001 69901 70177 82500 333 11140 21175 48003 70004 90963
AAXX 25004 71719 16/// /3412 11111 21159 30300 40307 51020 60001 333 11102 21130 70000
AAXX 25004 71300 NIL
AAXX 25004 71301 16/// ///// 11114 21124 39802 40222 58029 60001 333 11114 21270 70016
AAXX 25004 71302 16/// /1816 10043 21008 39348 40166 56026 60001 333 10046 20013 70000
AAXX 25004 71303 46/// ///// 10020 21029 6///1 333 10026 21011 7////
AAXX 25004 71305 15666 12804 11126 21136 39862 40158 53030 60001 333 11031 21126 70000
AAXX 25004 71306 17404 81931 11090 21102 39983 40016 56058 60001 773// 333 11093 21168 70000
AAXX 25004 71307 NIL
AAXX 25004 71308 17/// /3215 11068 21109 30185 40272 53018 69941 7//4/ 333 11033 21075 70013 555 10180
AAXX 25004 71309 NIL
AAXX 25004 71310 17/// /3212 11087 21138 30246 40284 51018 69931 7//4/ 333 11067 21090 7//// 555 10070
AAXX 25004 71311 NIL
AAXX 25004 71312 NIL
AAXX 25004 71314 16/// /1609 11038 21059 39906 40271 58004 60001 333 11031 21129 70000 555 10010
AAXX 25004 71315 NIL
AAXX 25004 71316 NIL
AAXX 25004 71317 NIL
AAXX 25004 71318 16/// /2508 11024 21067 39279 40239 51014 60001 333 10053 21042 70000
AAXX 25004 71319 17/// /1602 11252 21275 39401 40334 51007 69951 7//4/ 333 11164 21284 70005
AAXX 25004 71320 16/// /3207 11220 21239 39885 49886 58015 60001 333 11219 21275 70003 555 10010
AAXX 25004 71321 NIL
AAXX 25004 71322 16/// /3526 11224 21243 30003 40016 52050 60001 333 11124 21224 70003
AAXX 25004 71323 16/// /2801 11202 21224 30037 40338 52005 60001 333 11146 21202 70000
AAXX 25004 71331 16/// /3106 10000 21046 60001 333 10008 21106 70013
AAXX 25004 71332 NIL
AAXX 25004 71334 NIL
AAXX 25004 71335 46964 0//// 11175 58002 6///1 333 11133 21193 7////
AAXX 25004 71336 46/// ///12 11101 21148 30142 40165 51027 6///1 333 11037 21102 7////
AAXX 25004 71337 46/// /2810 11147 21177 39918 40164 53013 6///1 333 11116 21155 7////
AAXX 25004 71338 46964 00000 11264 21299 39964 49971 56007 6///1 333 11229 21298 7////
AAXX 25004 71339 16964 02606 11220 21295 30140 40155 51014 60001 333 11180 21243 70005
AAXX 25004 71340 NIL
AAXX 25004 71341 NIL
AAXX 25004 71342 NIL
AAXX 25004 71343 NIL
AAXX 25004 71344 NIL
AAXX 25004 71345 NIL
AAXX 25004 71346 NIL
AAXX 25004 71347 NIL
AAXX 25004 71348 NIL
AAXX 25004 71349 NIL
AAXX 25004 71250 NIL
AAXX 25004 71251 16/// /2611 10050 21030 39329 40262 50009 60001 333 10082 20026 70000
AAXX 25004 71252 NIL
AAXX 25004 71253 46/// /0602 11109 21118 6///1 333 11013 21109 7//// 555 10010
AAXX 25004 71254 NIL
AAXX 25004 71255 16/// /2704 10003 21048 60001 333 10043 20001 70000
AAXX 25004 71256 46/// /2202 10023 21064 39259 40197 55003 6///1 333 10070 20003 7////
AAXX 25004 71257 NIL
AAXX 25004 71258 NIL
AAXX 25004 71259 NIL
AAXX 25004 71261 16/// /1609 11002 21027 39974 40241 58011 60001 333 10000 21049 70000
AAXX 25004 71263 13660 81308 11018 21071 39971 40270 58015 60001 885// 333 10003 21088 70000
AAXX 25004 71264 16/// /3509 11099 21140 30266 40299 51029 60001 333 11033 21100 70000
AAXX 25004 71265 15766 81209 11003 21073 30181 40278 58013 60001 333 10003 21071 70000
AAXX 25004 71266 NIL
AAXX 25004 71267 15966 82520 10064 21027 39171 40275 53009 60001 333 10075 20034 70000
AAXX 25004 71268 NIL
AAXX 25004 71269 NIL
AAXX 25004 71270 NIL
AAXX 25004 71271 16/// ///// 11002 21059 60001 333 10059 21003 70000
AAXX 25004 71272 17466 83408 11145 21166 39717 40074 52050 60001 771// 333 11035 21145 70000
AAXX 25004 71273 16/// /2606 10027 21059 39524 40185 51027 60001 333 10056 20016 70000
AAXX 25004 71274 NIL
AAXX 25004 71275 NIL
AAXX 25004 71276 NIL
AAXX 25004 71277 NIL
AAXX 25004 71278 NIL
AAXX 25004 71279 16/// /0101 11220 21266 30244 40316 53015 60001 333 11152 21322 70000
AAXX 25004 71281 NIL
AAXX 25004 71282 46/// /1209 11049 21052 30002 40283 58006 6///1 333 11035 21115 7////
AAXX 25004 71283 NIL
AAXX 25004 71284 16/// ///// 11015 21073 60001 333 10034 21015 70000
AAXX 25004 71285 NIL
AAXX 25004 71286 NIL
AAXX 25004 71287 NIL
AAXX 25004 71288 NIL
AAXX 25004 71289 NIL
AAXX 25004 71290 15566 81508 10020 20002 39324 40157 56032 60001 333 10018 21028 70000
AAXX 25004 71291 16/// /1605 11024 21047 39808 40101 58016 60001 333 11015 21078 70000
AAXX 25004 71292 15966 02922 10020 21025 39539 40150 53033 60001 333 10034 21057 70000
AAXX 25004 71294 NIL
AAXX 25004 71295 NIL
AAXX 25004 71296 NIL
AAXX 25004 71297 16/// /1103 11005 21073 60001 333 10008 21086 70000
AAXX 25004 71298 16/// /2106 10013 21025 30021 40260 56005 60001 333 10017 21053 70000
AAXX 25004 71299 NIL
AAXX 25004 71450 NIL
AAXX 25004 71451 NIL
AAXX 25004 71452 NIL
AAXX 25004 71453 16/// /2608 10028 21026 39337 40261 53018 60001 333 10051 20010 70000
AAXX 25004 71454 NIL
AAXX 25004 71455 NIL
AAXX 25004 71456 16/// /3010 10008 21033 39561 40162 53042 60001 333 10027 21032 70000
AAXX 25004 71457 16/// /1502 10013 21023 39342 40243 51011 60001 333 10059 21001 70000
AAXX 25004 71458 16/// /1906 11030 21057 39439 40220 51011 60001 333 10049 21041 70000
AAXX 25004 71459 16/// /2409 11028 21065 39427 40252 51026 60001 333 10030 21035 70000
AAXX 25004 71460 16/// /2124 10016 21008 39963 40210 58025 60001 333 10016 21123 70000
AAXX 25004 71461 NIL
AAXX 25004 71462 NIL
AAXX 25004 71463 46/// /1815 10010 21063 30046 40276 58014 6///1 333 10010 21053 7////
AAXX 25004 71464 NIL
AAXX 25004 71465 NIL
AAXX 25004 71466 NIL
AAXX 25004 71468 NIL
AAXX 25004 71470 NIL
AAXX 25004 71471 15966 11608 10043 21030 39357 40145 58026 60001 333 10054 21030 70000
AAXX 25004 71473 17/// /0911 10058 20045 30251 40281 56009 69981 7//4/ 333 10080 20045 70034
AAXX 25004 71475 NIL
AAXX 25004 71476 NIL
AAXX 25004 71477 17/// /1810 10059 20052 60031 7//4/ 333 10071 20017 70040
AAXX 25004 71478 NIL
AAXX 25004 71479 NIL
AAXX 25004 71480 NIL
AAXX 25004 71481 NIL
AAXX 25004 71482 NIL
AAXX 25004 71483 NIL
AAXX 25004 71484 NIL
AAXX 25004 71485 17/// /1236 10084 20063 30144 40164 58011 60021 7//4/ 333 10090 20059 70052
AAXX 25004 71486 16/// /1606 10034 21045 39031 40240 56002 60001 333 10047 21010 70000
AAXX 25004 71487 16/// /2710 11007 21042 39357 40238 51029 60001 333 10037 21049 70000
AAXX 25004 71489 NIL
AAXX 25004 71490 NIL
AAXX 25004 71491 NIL
AAXX 25004 71492 NIL
AAXX 25004 71493 16/// /3304 11135 21155 30270 40310 51025 60001 333 11075 21144 70000
AAXX 25004 71494 16/// /2301 11206 21222 39783 40341 53007 60001 333 11150 21209 70000
AAXX 25004 71495 NIL
AAXX 25004 71496 16/// /3111 10020 21048 39584 40201 53038 60001 333 10068 21058 70000
AAXX 25004 71497 46/// /0711 11148 21191 39856 40128 56005 6///1 333 11108 21148 7////
AAXX 25004 71498 NIL
AAXX 25004 71499 17566 83012 11042 21068 39486 40117 51042 60001 771// 333 11008 21042 70000
AAXX 25004 71726 16/// /0702 11221 21245 39734 40325 56009 60001 333 11162 21360 70044
AAXX 25004 71727 12974 21903 11232 21257 30137 40351 58007 60001 80002 333 11175 21255 79999
AAXX 25004 71728 12980 01703 11220 21268 30102 40342 57014 60001 333 11195 21259 70000
AAXX 25004 71730 11924 91613 11058 21061 39776 40217 57032 60011 77177 333 11058 21176 46003 70010 90973
AAXX 25004 71731 11674 81611 11076 21119 39779 40250 58017 69901 77172 8457/ 333 11076 21182 41997 79999 90910
AAXX 25004 71735 NIL
AAXX 25004 71738 11574 61808 11020 21052 39785 40143 56022 69941 72272 86500 333 11019 21096 47025 70004 90973 93101
AAXX 25004 71739 41472 81811 11081 21103 39809 40188 57033 6//// 77172 886// 333 11081 21237 4//// 7//// 90942
AAXX 25004 71749 16864 82304 11019 21050 39862 40110 58015 69951 333 11002 21048 70005
AAXX 25004 71799 11383 32404 10059 20053 30257 40281 56015 69961 70261 81171 333 10095 20040 70038 90936
AAXX 25004 71800 16/// /3510 11090 21111 30149 40183 53016 60001 333 11022 21092 70066
AAXX 25004 71801 11574 62912 11108 21147 30002 40180 51018 69901 72682 86500 333 11043 21108 70068 90916
AAXX 25004 71803 12580 22812 11150 21195 39996 40190 52022 60001 82500 333 11099 21150 70032
AAXX 25004 71807 NIL
AAXX 25004 71808 12974 02910 11214 21278 30172 40185 51013 60001 333 11177 21228 70000
AAXX 25004 71809 11566 82413 11121 21166 30181 40209 52013 69981 77177 885// 333 11079 21134 47004 70044 90983
AAXX 25004 71810 16/// /3204 11146 21202 30212 40283 51016 60001 333 11135 21232 70000
AAXX 25004 71811 NIL
AAXX 25004 71813 16/// /3010 11197 21254 30246 40260 51017 60001 333 11178 21253 70000
AAXX 25004 71814 16/// /3215 11206 21253 30213 40223 50016 60001 333 11179 21236 70000
AAXX 25004 71815 11469 83212 11106 21158 30195 40227 51013 69901 78522 885// 333 11063 21112 44008 70042 90952
AAXX 25004 71816 12974 02613 11204 21281 30149 40214 52017 60001 333 11195 21262 70000
AAXX 25004 71817 NIL
AAXX 25004 71818 12974 02508 11182 21216 30130 40149 51015 60001 333 11176 21245 70000
AAXX 25004 71822 12974 61505 11238 21282 39801 40321 57010 60001 80001 333 11202 21375 70000
AAXX 25004 71825 12074 02506 11262 21314 39563 40289 50000 60001 333 11246 21300 70000
AAXX 25004 71827 11574 81614 11162 21197 39906 40162 56038 69901 77177 885// 333 11139 21259 47020 79999 90973
AAXX 25004 71828 16964 02805 11262 21313 39567 40250 51005 60001 333 11222 21272 70000
AAXX 25004 71831 11359 81512 11064 21082 39866 40155 58030 69901 77122 885// 333 11064 21213 48039 79999 90921
AAXX 25004 71832 NIL
AAXX 25004 71834 11574 82210 11029 21053 39660 40093 58018 69901 77177 885// 333 11028 21116 48027 79999 90983
AAXX 25004 71841 NIL
AAXX 25004 71842 11474 32206 11054 21070 39610 40086 56009 69901 70177 82570 333 11049 21089 41089 79999 90963
AAXX 25004 71844 NIL
AAXX 25004 71845 11466 82308 11057 21068 39577 40057 57011 69901 77122 885// 333 11057 21101 44018 79999 90952
AAXX 25004 71850 11974 72007 11061 21077 39587 40093 58010 69901 73672 87070 333 11061 21076 48011 79999 90953
AAXX 25004 71852 17964 32813 10006 21039 39797 40094 55002 69951 7//44 333 10019 21102 70005
AAXX 25004 71854 12374 42310 11055 21077 39596 40074 55007 60001 84600 333 11055 21088 79999
AAXX 25004 71858 16/// /2907 10004 21021 39795 40077 53024 60001 333 10010 21098 70000
AAXX 25004 71861 NIL
AAXX 25004 71862 12974 12814 10023 21047 39497 40206 51024 60001 81071 333 10067 21038 70000
AAXX 25004 71863 46964 02813 11005 21049 39499 40206 53027 6///1 333 10045 21037 7////
AAXX 25004 71665 NIL
AAXX 25004 71666 16/// /3003 11159 21185 30267 40314 51016 60001 333 11111 21172 70004 555 10030
AAXX 25004 71667 NIL
AAXX 25004 71668 16/// /3109 11155 21190 30284 40330 51017 60001 333 11114 21156 70000
AAXX 25004 71669 NIL
AAXX 25004 71670 16/// ///// 11164 21187 60001 333 11118 21164 70018
AAXX 25004 71671 16/// /0305 11108 21131 30244 40307 51023 60001 333 11058 21116 70003
AAXX 25004 71672 16/// /1703 11054 21082 30024 40300 55000 60001 333 11043 21139 70003
AAXX 25004 71673 NIL
AAXX 25004 71674 NIL
AAXX 25004 71675 17466 82409 11054 21065 39726 40007 56012 60031 77144 333 11054 21191 70164
AAXX 25004 71679 NIL
AAXX 25004 71680 NIL
AAXX 25004 71681 46/// /2002 10020 21019 6///1 333 10053 21040 7////
AAXX 25004 71682 NIL
AAXX 25004 71683 NIL
AAXX 25004 71684 17666 81311 11097 21110 39916 40233 58030 60001 771// 333 11097 21246 70000
AAXX 25004 71685 15466 81108 10003 21013 39793 40347 58004 60001 333 10003 21021 70003
AAXX 25004 71686 469// /0604 11054 21061 39074 40027 56041 6///1 333 11051 21121
AAXX 25004 71687 17/// /3501 10006 20001 39490 40286 56005 60021 7//4/ 333 10010 20001 70135 555 10020
AAXX 25004 71688 16/// /0000 10001 20001 39228 40278 56002 60001 333 10009 21006 70000 555 10190
AAXX 25004 71689 15966 02503 11002 21048 39702 40159 51023 60001 333 10038 21002 70000
AAXX 25004 71690 NIL
AAXX 25004 71691 15966 02708 11197 21251 30309 40339 53005 60001 333 11149 21270 70000
AAXX 25004 71692 NIL
AAXX 25004 71694 16/// /1606 11053 21072 39903 40280 58007 60001 333 11036 21156 70000 555 10010
AAXX 25004 71695 16/// /2915 10007 21034 39754 40089 53035 60001 333 10014 21102 70006 555 10010
AAXX 25004 71696 16/// /3225 11154 21173 39975 40012 53059 60001 333 11053 21154 70012
AAXX 25004 71697 15566 11306 11027 21074 30112 40290 57007 60001 333 11023 21103 70000
AAXX 25004 71699 16/// /3405 11141 21165 30317 40325 51016 60001 333 11083 21141 70038 555 10010
AAXX 25004 71114 160// /0000 10044 20041 30253 40302 57003 60041 333 10050 20018 70085
AAXX 25004 71120 12974 12607 10015 21061 39537 40199 51023 60001 81070 333 10050 20002 70000
AAXX 25004 71122 16/// /2308 11017 21064 38660 40295 50005 60001 333 11007 7////
AAXX 25004 71123 12674 81605 11066 21100 39346 40228 50003 60001 81572 333 10038 21069 70000
AAXX 25004 71125 12674 12610 11007 21054 39598 40189 51029 60001 81500 333 70000
AAXX 25004 71129 12674 22203 11018 21074 39395 40240 51027 60001 81501 333 10073 21047 70000
AAXX 25004 71131 16/// /2511 11017 21042 38991 40272 52020 60001 333 10025 21067 70000
AAXX 25004 71135 16/// /2714 11008 21063 39147 40250 53024 60001 333 10028 21063 70000
AAXX 25004 71137 16/// /2912 11008 21035 39301 40264 53018 60001 333 10011 21047 70000
AAXX 25004 71140 12974 12717 11002 21034 39632 40142 5/010 81070 333 10025 21136 70000
AAXX 25004 71145 12474 72707 11039 21059 39737 40031 53012 60001 87500 333 11039 21107 70002
AAXX 25004 71148 16/// /2914 10022 21048 39555 40141 53008 60001 333 10042 21129 70000
AAXX 25004 71185 17462 63116 11145 30178 40203 53023 69951 745// 333 11122 21147 70010
AAXX 25004 71188 11574 72708 11130 21182 30252 40297 52011 69941 77122 87500 333 11120 21147 47016 70030 90966
AAXX 25004 71200 17/// /0206 10070 20050 69921 7//4/ 333 10093 20055 70056
AAXX 25004 71207 17/// /0000 10024 30232 40298 57004 60091 7//4/ 333 10027 20005 70417
AAXX 25004 71260 13/// ///// 11004 21024 39931 40171 57021 69921 333 11003 21077 46001 70008
AAXX 25004 71950 15966 61711 10030 21003 39448 40076 56045 60001 333 10034 21051 70000
AAXX 25004 71952 16/// /0501 11014 21034 39256 40114 56036 60001 333 10026 21099 70000
AAXX 25004 71954 46/// /3111 10008 21031 39716 40092 53035 6///1 333 10008 21133 7////
AAXX 25004 71956 NIL
AAXX 25004 71959 NIL
AAXX 25004 71960 460// /2712 11303 30033 40174 50003 6///1 333 11280 21307 7////
AAXX 25004 71962 16/// /2304 11039 21067 39685 40113 58004 60001 333 11019 21067 70011
AAXX 25004 71963 NIL
AAXX 25004 71967 16/// /0903 11211 21228 30245 40359 58009 60001 333 11146 21220 70000
AAXX 25004 71970 NIL
AAXX 25004 71971 16/// /0701 11336 21367 39943 49991 58002 60001 333 11321 21357 70000
AAXX 25004 71972 460// ///// 11133 39562 40030 56017 6///1 333 11130 21154 7////
AAXX 25004 71973 46/// /2609 11122 21159 30015 40210 51013 6///1 333 11111 21131 7////
AAXX 25004 71974 NIL
AAXX 25004 71975 460// /2524 11206 39224 49962 55004 6///1 333 11201 21226 7////
AAXX 25004 71976 NIL
AAXX 25004 71977 NIL
AAXX 25004 71978 NIL
AAXX 25004 71979 NIL
AAXX 25004 71980 46/// /0000 11195 21218 6///1 333 11153 21198 7////
AAXX 25004 71981 NIL
AAXX 25004 71982 NIL
AAXX 25004 71983 NIL
AAXX 25004 71984 16/// /2310 11268 21297 30150 40159 50005 60001 333 11263 21310 70000
AAXX 25004 71985 NIL
AAXX 25004 71986 NIL
AAXX 25004 71987 16/// /3118 11091 21119 30282 40292 51012 60001 333 11083 21103 70000
AAXX 25004 71988 NIL
AAXX 25004 71989 NIL
AAXX 25004 71990 NIL
AAXX 25004 71999 46/// ///// 10075 6///1 333 10078 20006 7////
AAXX 25004 71930 12974 82203 10025 21085 39264 40202 58003 60001 84071 333 10056 20005 70000
AAXX 25004 71931 16/// /2815 11113 21155 30148 53020 60001 333 7////
AAXX 25004 71934 11974 10000 11139 21166 39895 40159 51028 69901 70187 81030 333 11088 21160 47021 79999 90927
AAXX 25004 71935 12474 70000 11163 21186 39946 40160 51006 60001 87500 333 11104 21164 70000
AAXX 25004 71936 12474 23105 11209 21241 39878 40148 57016 60001 82500 333 11141 21209 70006
AAXX 25004 71937 NIL
AAXX 25004 71938 11832 82507 11266 21307 30127 40158 52007 69901 77177 8807/ 333 11266 21309 48025 70002 90947
AAXX 25004 71940 12882 70905 10020 21033 39360 40167 57023 60001 87070 333 10055 20007 70000
AAXX 25004 71943 NIL
AAXX 25004 71944 160// ///// 10014 56032 60001 333 10017 21028 70000
AAXX 25004 71945 NIL
AAXX 25004 71946 12974 10000 11209 21232 39925 40147 55004 60001 80001 333 11150 21209 79999
AAXX 25004 71948 46050 /2515 11290 30029 40149 53004 6///1 333 11290 21319 7////
AAXX 25004 71949 46/// /1102 11105 21119 39152 40026 58023 6///1 333 11069 21123 7////
AAXX 25004 71951 11156 81905 10017 20017 39818 40085 56033 60101 76176 887// 333 10019 20004 43016 70176 90983
AAXX 25004 71957 46864 83003 11295 21366 30100 40194 53001 6///1 333 11262 21316 7////
AAXX 25004 71964 12586 81912 11031 21072 39137 49986 58041 60001 8257/ 333 11022 21079 70000
AAXX 25004 71966 16/// /0000 11163 21183 39587 40059 56019 60001 333 11162 21223 70000
AAXX 25004 71968 460// /2407 11309 30127 40195 50001 6///1 333 11252 21309 7////
AAXX 25004 71914 46/// /0901 10059 20047 30061 6///1 333 20055 7////
AAXX 25004 71700 15966 03107 11152 21182 30308 40335 51020 60001 333 11116 21153 70006
AAXX 25004 71701 11974 03207 11162 21187 30268 40334 52021 69901 70177 333 11114 21162 47008 70024 90951
AAXX 25004 71702 16/// /3210 11111 21142 30279 40295 51014 60001 333 11078 21119 70009 555 10180
AAXX 25004 71703 NIL
AAXX 25004 71704 15566 81809 10004 21027 30023 40249 58011 60001 333 10021 21038 70000
AAXX 25004 71710 17/// /3422 11086 21114 30259 40269 51023 60011 7//4/ 333 11077 21101 70010
AAXX 25004 71712 16/// /0704 11158 21187 30267 40333 56016 60001 333 11126 21162 70000
AAXX 25004 71713 NIL
AAXX 25004 71716 NIL
AAXX 25004 71717 NIL
AAXX 25004 71720 17/// /1011 10074 20054 30112 40266 58010 60051 7//4/ 333 10082 20056 70092
AAXX 25004 71721 16/// /0000 11189 21208 30052 40316 57007 60001 333 11127 21238 70000
AAXX 25004 71723 NIL
AAXX 25004 71724 16/// /1407 11148 21164 30339 40347 58008 60001 333 11132 21197 70000
AAXX 25004 71732 NIL
AAXX 25004 71733 17/// /1412 11057 21060 39769 40219 58031 69991 7//4/ 333 11057 21174 70009 555 10020
AAXX 25004 71734 16/// /1407 11132 21170 39829 40243 56031 60001 333 11132 21257 70000
AAXX 25004 71736 NIL
AAXX 25004 71737 NIL
AAXX 25004 71741 16/// /1019 10022 21022 39861 40291 57007 60001 333 10023 21008 70000
AAXX 25004 71742 NIL
AAXX 25004 71743 NIL
AAXX 25004 71744 NIL
AAXX 25004 71745 NIL
AAXX 25004 71746 NIL
AAXX 25004 71747 NIL
AAXX 25004 71748 NIL
AAXX 25004 71051 NIL
AAXX 25004 71055 NIL
AAXX 25004 71057 NIL
AAXX 25004 71059 460// /0000 11269 30052 40147 50007 6///1 333 11266 21302 7////
AAXX 25004 71061 16/// /1003 11019 21061 39407 40193 58002 60001 333 10043 21026 70000
AAXX 25004 71062 46/// /2105 10044 21077 39119 40187 58001 6///1 333 10076 20008 7//// 555 10010
AAXX 25004 71064 460// /3218 11316 39876 40104 58002 6///1 333 11311 21336 7////
AAXX 25004 71065 NIL
AAXX 25004 71067 NIL
AAXX 25004 71070 NIL
AAXX 25004 71073 NIL
AAXX 25004 71074 NIL
AAXX 25004 71075 NIL
AAXX 25004 71078 NIL
AAXX 25004 71084 460// ///// 11324 30021 40071 51013 6///1 333 11295 21327 7////
AAXX 25004 71085 15666 82720 10041 21025 38892 40289 50003 60001 333 10058 20001 70000
AAXX 25004 71087 NIL
AAXX 25004 71088 460// /0914 11190 58009 6///1 333 11180 21260 7////
AAXX 25004 71089 NIL
AAXX 25004 71096 460// ///// 11237 39206 49949 58008 6///1 333 11195 21244 7////
AAXX 25004 71097 46964 02810 11166 39524 40004 58008 6///1 333 11158 21176 7////
AAXX 25004 71098 43/// /2506 11053 21071 39672 40034 53003 6///1 333 11052 21132 7////
AAXX 25004 71099 43/// /2311 11058 21072 39943 49963 56010 6///1 333 11058 21242 7////
AAXX 25004 71851 NIL
AAXX 25004 71857 NIL
AAXX 25004 71860 12783 72202 10022 21064 38844 40256 52001 60001 87501 333 10042 20012 70000
AAXX 25004 71876 15966 02807 10015 21053 39545 40215 51036 60001 333 10066 21009 70000
AAXX 25004 71885 NIL
AAXX 25004 71886 16/// /2920 10019 21034 39539 40149 53033 60001 333 10033 21057 70000
AAXX 25004 71888 NIL
AAXX 25004 71890 16/// /0507 11201 21256 30305 40334 52005 60001 333 11149 21277 70000
AAXX 25004 71895 NIL
AAXX 25004 71893 11274 81422 10078 20064 30222 40254 58009 60011 70162 88600 333 10082 20069 70070 90922
AAXX 25004 71894 17/// /1019 10085 20085 30225 40234 58005 60191 7//4/ 333 10093 20080 70568
AAXX 25004 71896 15966 81817 10042 21011 39336 40168 56027 60001 333 10043 20010 70000
AAXX 25004 71897 11442 81430 10070 20062 3//// 4//// 54000 60081 76152 887XX 333 10078 20064 70100 90955
AAXX 25004 71898 160// ///// 10076 53003 60121 333 10095 20055 70175
AAXX 25004 71899 11466 82420 10068 20066 3//// 4//// 57013 60061 70262 8227/ 333 10075 20043 70064 90923
AAXX 25004 71902 12974 02912 11180 21237 30159 40168 51022 60001 333 11170 21207 70000
AAXX 25004 71905 NIL
AAXX 25004 71906 12974 42212 11201 21262 30119 40172 58016 60001 82072 333 11181 21236 79999
AAXX 25004 71907 17004 91931 11112 21128 39982 40015 56059 60021 74544 333 11112 21199 70020
AAXX 25004 71909 17014 81804 11136 21151 39951 49995 5/021 60001 745// 333 70000
AAXX 25004 71910 47008 92118 11115 21127 39849 49911 58030 6///1 745// 333 11110 21186 7////
AAXX 25004 71911 46964 03113 11300 39954 40013 51016 6///1 333 11266 21323 7////
AAXX 25004 71912 11466 83416 11062 21091 39833 40017 53044 69961 77152 885// 333 11040 21115 47015 70010 90921 93101
AAXX 25004 71915 11559 83505 11166 21193 39787 49868 57022 60021 77177 88500 333 11141 21233 48043 70040 90983 93102
AAXX 25004 71917 11766 11003 11335 21382 30009 40024 52002 69901 77677 81500 333 11321 21422 48015 79999 90983
AAXX 25004 71922 12574 62909 10012 21020 39668 40135 52042 60001 86500 333 10029 21032 70000
AAXX 25004 71924 11974 03004 11353 21399 39928 40021 57002 69901 77677 333 11271 21356 48038 70004 90947
AAXX 25004 71925 11474 73108 11315 21362 30060 40103 51010 69901 77677 82570 333 11309 21332 42021 79999 90983
AAXX 25004 71926 11548 23125 11294 21351 30026 40051 53027 60001 73833 82500 333 11212 21296 79999
AAXX 25004 71928 NIL
AAXX 25004 71201 17/// ///// 10085 20047 60111 7//4/ 333 10085 20056 70272
AAXX 25004 71202 16/// ///// 11011 21063 60001 333 10051 21025 70007
AAXX 25004 71203 17666 81407 10013 21031 39804 40337 55001 60001 771// 333 10016 21006 70000
AAXX 25004 71209 46/// /0809 10082 6///1 333 10084 20055 7////
AAXX 25004 71211 46/// /3412 10068 20051 30270 40282 58012 6///1 333 10068 20044 7////
AAXX 25004 71212 NIL
AAXX 25004 71213 46/// /1410 11095 21104 39913 40229 58030 6///1 333 11095 21251 7////
AAXX 25004 71214 NIL
AAXX 25004 71215 46/// /1504 10009 21048 39997 40351 55003 6///1 333 10013 21018 7////
AAXX 25004 71216 16/// /0701 11006 21010 39714 40349 55000 60001 333 10006 21024 70021 555 10020
AAXX 25004 71217 NIL
AAXX 25004 71218 16/// /1007 10013 21018 39885 40323 56005 60001 333 10014 21019 70000 555 10010
AAXX 25004 71219 46/// /2219 10078 20057 30060 40066 55001 6///1 333 10099 20060 7////
AAXX 25004 71220 46/// /1915 10072 20059 6///1 333 10085 20059 7////
AAXX 25004 71221 NIL
AAXX 25004 71222 16/// /0603 11061 21069 39073 40045 56042 60001 333 11054 21141 70000
AAXX 25004 71223 NIL
AAXX 25004 71224 NIL
AAXX 25004 71225 NIL
AAXX 25004 71226 NIL
AAXX 25004 71227 NIL
AAXX 25004 71228 NIL
AAXX 25004 71229 NIL
AAXX 25004 71230 16/// /0905 10023 21048 39262 40155 58021 60001 333 10048 21007 70000
AAXX 25004 71231 16/// /2609 10041 21031 60001 333 10094 20018 70000
AAXX 25004 71232 16/// /2409 10028 21061 38737 40245 53003 60001 333 10048 20006 70000
AAXX 25004 71233 16/// /1903 10022 21085 60001 333 10090 20022 70000
AAXX 25004 71234 16/// /2622 10064 21043 39059 40252 53004 60001 333 10072 20018 70000
AAXX 25004 71235 16/// /2106 10015 21051 60001 333 10051 20014 70000
AAXX 25004 71236 46/// /3016 10023 21032 6///1 333 10042 21011 7////
AAXX 25004 71237 46/// /0000 10006 21036 39410 40233 50005 6///1 333 10050 21028 7////
AAXX 25004 71238 16/// /2801 11017 21065 60001 333 10060 21017 70000
AAXX 25004 71239 16/// /2813 10005 21047 39664 40129 53004 60001 333 10042 21116 70000
AAXX 25004 71240 16/// ///// 10000 21076 39386 40245 51024 60001 333 10085 21012 70000
AAXX 25004 71241 NIL
AAXX 25004 71242 16/// /1703 11021 21065 60001 333 10051 21022 70000
AAXX 25004 71243 NIL
AAXX 25004 71244 NIL
AAXX 25004 71245 NIL
AAXX 25004 71246 NIL
AAXX 25004 71247 15966 62408 10029 21026 39398 40261 52016 60001 333 10091 21011 70000
AAXX 25004 71248 16/// /1706 10030 21067 38923 40229 50001 60001 333 10058 21031 70000 555 10010
AAXX 25004 71249 NIL
AAXX 25004 71900 46/// /28// 11167 21246 30150 40163 51027 6///1 333 11166 21223 7////
AAXX 25004 71903 NIL
AAXX 25004 71904 NIL
AAXX 25004 71914 17/// /0901 10059 20047 30061 40285 56013 60021 7//4/ 333 10075 20055 70046
AAXX 25004 71916 NIL
AAXX 25004 71918 460// ///// 11291 6///1 333 7////
AAXX 25004 71920 NIL
AAXX 25004 71921 NIL
AAXX 25004 71923 NIL
AAXX 25004 71927 17/// /0000 10068 20055 30225 40283 57010 69971 7//4/ 333 10098 20037 70071
AAXX 25004 71941 15966 81611 11163 21193 39831 40275 58022 60001 333 11148 21269 70000
AAXX 25004 71947 15966 81613 11177 21202 39884 40256 58023 60001 333 11166 21330 70000
AAXX 25004 71401 17/// /2001 11023 21032 39659 40367 58003 69961 7//4/ 333 11022 21063 70026
AAXX 25004 71402 NIL
AAXX 25004 71404 NIL
AAXX 25004 71405 NIL
AAXX 25004 71406 NIL
AAXX 25004 71407 NIL
AAXX 25004 71408 NIL
AAXX 25004 71409 NIL
AAXX 25004 71410 15566 82908 11003 21032 39771 40051 53021 60001 333 11003 21094
AAXX 25004 71413 NIL
AAXX 25004 71414 NIL
AAXX 25004 71415 16/// /3418 11069 21097 30279 40282 51023 60001 333 11039 21071 70043
AAXX 25004 71417 NIL
AAXX 25004 71418 NIL
AAXX 25004 71419 46/// /3516 11060 21097 30255 40265 52022 6///1 333 11008 21060 7////
AAXX 25004 71423 NIL
AAXX 25004 71424 46/// /2606 6///1 333 7////
AAXX 25004 71425 NIL
AAXX 25004 71426 NIL
AAXX 25004 71427 16/// /2808 11154 21214 30321 40329 51007 60001 333 11130 21220 70000
AAXX 25004 71428 16/// /2615 11114 21173 30315 40322 51010 60001 333 11102 21149 70000
AAXX 25004 71429 16/// /2710 11140 21195 30269 40289 51010 60001 333 11111 21154 70000
AAXX 25004 71434 NIL
AAXX 25004 71436 15466 81103 11054 21072 30057 40302 56002 60001 333 11051 21120 70000
AAXX 25004 71437 46/// /1111 10002 21099 30171 40269 58011 6///1 333 10007 21056 7////
AAXX 25004 71438 NIL
AAXX 25004 71439 NIL
AAXX 25004 71440 NIL
AAXX 25004 71442 NIL
AAXX 25004 71445 NIL
AAXX 25004 71446 16/// /2718 10005 21051 39245 40235 51019 60001 333 10026 21027 70000
AAXX 25004 71448 16/// /2503 11013 21043 39755 40088 55001 60001 333 11013 21089 70000
AAXX 25004 71449 16/// /2306 11013 21044 39692 40099 58011 60001 333 11002 21097 70000
AAXX 25004 71604 17/// /3312 11119 21125 69981 7//4/ 333 11097 21134 70066 555 10080
AAXX 25004 71605 17/// /3002 10065 20065 30133 40285 58009 60141 7//4/ 333 10074 20052 70387
AAXX 25004 71611 16/// /0401 11191 21212 60001 333 11127 21193 70000
AAXX 25004 71612 NIL
AAXX 25004 71614 16/// /1103 11199 21224 30254 40324 58018 60001 333 11134 21208 70003
AAXX 25004 71616 16/// /0000 11209 21225 30227 40357 58005 60001 333 11138 21229 70000
AAXX 25004 71617 16/// /1304 11228 21255 30173 40363 58007 60001 333 11178 21256 70000
AAXX 25004 71618 NIL
AAXX 25004 71619 NIL
AAXX 25004 71622 NIL
AAXX 25004 71632 46/// /3411 11055 21075 39637 40079 53045 6///1 333 11029 21087 7//// 555 10010
AAXX 25004 71634 16/// /2903 11181 21203 30165 40328 51015 60001 333 11132 21186 70005 555 10020
AAXX 25004 71638 17/// /1101 10078 20057 30163 40269 58013 60071 7//4/ 333 10084 20053 70161
AAXX 25004 71639 12574 71205 11023 21085 30029 40280 58011 60001 87500 333 11023 21104 70000
AAXX 25004 71642 11474 81908 11047 21056 39603 40160 56025 69921 77122 885// 333 11047 21120 48022 79999 90952
AAXX 25004 71001 17256 83008 11160 21176 39023 40010 56018 60001 771// 333 11145 21228 70000
AAXX 25004 71002 15966 02904 11258 21292 39685 40267 53016 60001 333 11209 21311 70000
AAXX 25004 71003 15766 61502 11211 21249 39838 40242 58029 60001 333 11205 21265 70001
AAXX 25004 71005 16/// ///// 11015 21064 60001 333 10055 21054 70000
AAXX 25004 71006 NIL
AAXX 25004 71007 NIL
AAXX 25004 71008 NIL
AAXX 25004 71009 NIL
AAXX 25004 71010 NIL
AAXX 25004 71011 NIL
AAXX 25004 71012 NIL
AAXX 25004 71013 NIL
AAXX 25004 71014 NIL
AAXX 25004 71015 NIL
AAXX 25004 71016 NIL
AAXX 25004 71017 NIL
AAXX 25004 71018 NIL
AAXX 25004 71019 NIL
AAXX 25004 71020 NIL
AAXX 25004 71021 NIL
AAXX 25004 71022 17659 82009 10080 20071 30022 40065 55001 60111 7614/ 333 10093 20053 70166
AAXX 25004 71023 16964 02707 11001 21065 39411 40187 51025 60001 333 10039 21020 70005
AAXX 25004 71024 NIL
AAXX 25004 71026 NIL
AAXX 25004 71027 16/// /3002 11083 21104 30241 40251 51012 60001 333 11056 21090 70023 555 10020
AAXX 25004 71028 16/// /1712 10033 20022 39151 40190 58014 60001 333 10066 21012 70000
AAXX 25004 71029 16/// /3603 11270 21298 30070 40111 50006 60001 333 11270 21341 70007
AAXX 25004 71030 16/64 /3607 11121 21140 30220 40314 51014 60001 333 11080 21122 70009 555 10010
AAXX 25004 71032 46/// /0000 11016 21036 39472 40328 53001 6///1 333 11001 21071 7////
AAXX 25004 71033 46/// /3112 11044 21071 39486 40119 51042 6///1 333 11010 21045 7//// 555 10010
AAXX 25004 71035 NIL
AAXX 25004 71036 15766 82915 10025 21034 39737 40113 53029 60001 333 10039 21075 70000
AAXX 25004 71039 NIL
AAXX 25004 71040 46/// /1203 11244 21279 30127 40343 58007 6///1 333 11179 21252 7////
AAXX 25004 71041 17412 63306 11080 21094 30118 40265 51019 69931 771// 333 11040 21083 70006
AAXX 25004 71042 17/// /0901 10071 20060 30277 40281 58014 60101 7//4/ 333 10081 20041 70190
AAXX 25004 71044 16/// /0312 11231 21281 39822 40154 58003 60001 333 11216 21240 70000 555 10010
AAXX 25004 71046 460// /2614 11287 30185 40203 56002 6///1 333 11266 21288 7////
AAXX 25004 71047 16/// ///// 10009 21052 60001 333 10055 21021 70000
AAXX 25004 71048 NIL
AAXX 25004 71049 NIL
AAXX 25004 71060 NIL
AAXX 25004 71063 NIL
AAXX 25004 71812 47004 93429 11225 21261 30002 40016 51050 6///1 745// 333 7////
AAXX 25004 71819 15566 32813 11203 21240 30125 40169 50019 60001 333 11149 21219 70000
AAXX 25004 71820 16/// /0405 11098 21126 30191 40311 55007 60001 333 11071 21134 70000 555 10010
AAXX 25004 71823 16764 31902 11235 21285 39838 40244 58029 60001 333 11222 21278 70000
AAXX 25004 71824 46/// /1703 11225 21257 6///1 333 11197 21383 7////
AAXX 25004 71826 16/// /1304 11209 21247 39933 49977 58017 60001 333 11193 21215 70000
AAXX 25004 71829 16/// /2505 11188 21243 30156 40329 53007 60001 333 11146 21232 70000
AAXX 25004 71833 46/// /1507 11026 21065 6///1 333 11011 21117 7////
AAXX 25004 71835 16/// /2511 11057 21070 39568 40052 56011 60001 333 11057 21131 70000
AAXX 25004 71837 NIL
AAXX 25004 71839 NIL
AAXX 25004 71840 NIL
AAXX 25004 71846 16/// /2108 11058 21067 39726 40045 57021 60001 333 11051 21215 70000
AAXX 25004 71847 NIL
AAXX 25004 71848 NIL
AAXX 25004 71849 16/// /2712 10005 21037 39796 40096 55002 60001 333 10017 21102 70000
AAXX 25004 71150 46/// /2918 10000 21043 39447 40135 53017 6///1 333 10016 21149 7////
AAXX 25004 71151 NIL
AAXX 25004 71152 NIL
AAXX 25004 71153 16/// /2715 10054 21028 60001 333 10055 21001 70000
AAXX 25004 71154 16/// /2223 10034 21032 60001 333 10044 20006 70000
AAXX 25004 71155 NIL
AAXX 25004 71156 NIL
AAXX 25004 71157 NIL
AAXX 25004 71158 NIL
AAXX 25004 71159 NIL
AAXX 25004 71160 NIL
AAXX 25004 71161 16/// /0504 11126 21141 30154 40311 56009 60001 333 11086 21156 70000
AAXX 25004 71162 NIL
AAXX 25004 71163 46/// /3004 11235 21257 39793 40149 50011 6///1 333 11171 21236 7////
AAXX 25004 71164 NIL
AAXX 25004 71165 NIL
AAXX 25004 71166 NIL
AAXX 25004 71167 15966 81301 11010 21058 39104 40211 57005 60001 333 10065 21010 70000
AAXX 25004 71168 16/// /2608 10042 21070 39635 40231 53002 60001 333 10077 21102 70000
AAXX 25004 71170 NIL
AAXX 25004 71171 16/// /1304 11011 21089 30164 40265 58014 60001 333 10012 21062 70000
AAXX 25004 71172 16/// ///// 11027 21066 30017 40241 58012 60001 333 11012 21124 70000
AAXX 25004 71175 16/// /3502 11084 21109 30228 40264 51016 60001 333 11035 21084 70003 555 10020
AAXX 25004 71176 460// ///// 11207 39341 40042 57010 6///1 333 11162 21219 7////
AAXX 25004 71177 460// /3206 11181 39057 40094 53004 6///1 333 11171 21245 7////
AAXX 25004 71178 16/// /3018 11099 21154 30144 40177 51022 60001 333 11055 21100 70045
AAXX 25004 71179 460// /2733 11223 39245 40114 51019 6///1 333 11216 21297 7////
AAXX 25004 71180 16/// /3323 11083 21114 30197 40238 51014 60001 333 11068 21091 70006
AAXX 25004 71181 16564 33507 11109 21161 30148 40186 60001 333 11053 21110 70030
AAXX 25004 71183 16/// /0906 30291 58013 60001 333 70000
AAXX 25004 71184 46/// /1004 11179 21208 6///1 333 11124 21182 7////
AAXX 25004 71186 NIL
AAXX 25004 71187 15666 80501 10043 20042 30253 40302 57002 60001 333 10051 20017 70000
AAXX 25004 71189 NIL
AAXX 25004 71190 NIL
AAXX 25004 71191 NIL
AAXX 25004 71192 15966 81409 10053 21007 39534 40198 56022 60001 333 10056 21013 70000
AAXX 25004 71193 16/// /1611 11083 21100 39810 40188 56030 60001 333 11083 21241 70000
AAXX 25004 71196 16/// /1304 11140 21159 30094 40305 58009 60001 333 11124 21222 70000
AAXX 25004 71197 17448 63215 11089 21130 30185 40236 51013 69951 74544 333 11069 21096 70005
AAXX 25004 71198 46/// /1108 11142 21164 6///1 333 11133 21183 7////
AAXX 25004 71199 46/// /1002 11047 21057 39225 40067 58035 6///1 333 11047 21175 7////
AAXX 25004 71550 NIL
AAXX 25004 71551 NIL
AAXX 25004 71552 46/// /2609 11015 21041 6///1 333 11013 21080 7////
AAXX 25004 71553 17/// /3019 10011 21039 69971 7//4/ 333 10017 21139 70007
AAXX 25004 71554 16/// /1604 11163 21192 30334 40341 55000 60001 333 11130 21170 70000
AAXX 25004 71555 16/// /2618 10032 21048 38687 40269 53006 60001 333 10050 21008 70000
AAXX 25004 71556 NIL
AAXX 25004 71557 46/// /1703 10055 20005 6///1 333 10066 21003 7////
AAXX 25004 71558 46/// ///// 11203 21239 30122 40161 50019 6///1 333 11148 21221 7////
AAXX 25004 71559 46/// /2815 10024 21042 39494 40202 53025 6///1 333 10067 21035 7////
AAXX 25004 71560 NIL
AAXX 25004 71563 NIL
AAXX 25004 71564 NIL
AAXX 25004 71565 NIL
AAXX 25004 71566 NIL
AAXX 25004 71567 NIL
AAXX 25004 71568 17/// /1511 10086 20063 30221 40233 56017 60041 7//4/ 333 10086 20058 70220
AAXX 25004 71569 16/// /2715 10004 21054 39489 40199 53027 60001 333 10073 21048 70000
AAXX 25004 71570 16/// /2302 11027 21058 39776 40091 55003 60001 333 11027 21083 70000
AAXX 25004 71571 NIL
AAXX 25004 71572 NIL
AAXX 25004 71573 16/// /1504 10000 21040 39963 40254 58015 60001 333 10010 21098 70003
AAXX 25004 71574 12974 02707 11161 21180 30245 40323 51013 60001 333 11122 21163 70016
AAXX 25004 71575 16/// /2317 11113 21129 39841 49906 58029 60001 333 11109 21185 70000
AAXX 25004 71576 16/// /0000 11355 21394 39893 49982 58003 60001 333 11336 21362 70000
AAXX 25004 71577 46/// /2905 10006 21041 6///1 333 10009 21096 7////
AAXX 25004 71578 16/// /2304 11171 21194 60001 333 11132 21172 70013
AAXX 25004 71579 16/// /2804 10017 21048 39802 40088 55003 60001 333 10024 21094 70000
AAXX 25004 71580 NIL
AAXX 25004 71581 NIL
AAXX 25004 71582 17566 81714 10093 20079 30085 40138 56025 60071 7614/ 333 10097 20049 70149
AAXX 25004 71583 NIL
AAXX 25004 71584 15966 02806 11195 21239 30234 40285 51020 60001 333 11156 21243 70000
AAXX 25004 71585 NIL
AAXX 25004 71586 16/// /3008 10010 21019 39666 40132 51042 60001 333 10027 21033 70000
AAXX 25004 71587 NIL
AAXX 25004 71588 16/// /3206 11128 21167 60001 333 11114 21135 70000
AAXX 25004 71589 16/// /2707 11158 21183 30047 40185 51022 60001 333 11079 21158 70048 555 10040
AAXX 25004 71590 16/// /3302 11249 21271 30139 40346 52009 60001 333 11145 21252 70000
AAXX 25004 71592 NIL
AAXX 25004 71593 NIL
AAXX 25004 71596 NIL
AAXX 25004 71598 16/64 /3113 11120 21169 30306 40313 51020 60001 333 11108 21135 70006 555 10010
AAXX 25004 71599 NIL
AAXX 25004 71350 16/// /3209 11092 21140 30219 40287 51016 60001 333 11065 21101 70007 555 10060
AAXX 25004 71351 NIL
AAXX 25004 71352 16/// /1610 11027 21061 39794 40262 58005 60001 333 11017 21099 70006
AAXX 25004 71353 NIL
AAXX 25004 71354 NIL
AAXX 25004 71355 16/// /2301 11208 21233 39950 40038 50000 60001 333 11208 21286 70000
AAXX 25004 71356 16/// /3221 11298 21330 39988 40057 53025 60001 333 11215 21300 70000
AAXX 25004 71357 NIL
AAXX 25004 71358 16/// /2403 11287 21317 39942 49978 58002 60001 333 11271 21313 70014
AAXX 25004 71359 NIL
AAXX 25004 71360 NIL
AAXX 25004 71361 NIL
AAXX 25004 71362 NIL
AAXX 25004 71363 NIL
AAXX 25004 71364 NIL
AAXX 25004 71365 NIL
AAXX 25004 71368 17566 81408 11022 21058 39865 40268 58004 60001 771// 333 11005 21098 70000
AAXX 25004 71369 15966 82806 11005 21040 39480 40188 50000 60001 333 10055 21007 70000
AAXX 25004 71370 46/// /1202 11181 21206 30191 40337 58008 6///1 333 11142 21214 7////
AAXX 25004 71371 15966 01106 11173 21198 30305 40341 58014 60001 333 11142 21177 70000
AAXX 25004 71372 NIL
AAXX 25004 71373 16/// /1103 11169 21191 60001 333 11117 21180 70000
AAXX 25004 71374 NIL
AAXX 25004 71375 NIL
AAXX 25004 71376 16/// /0000 11189 21208 30021 40348 55004 60001 333 11113 21239 70000
AAXX 25004 71377 16/// /1006 11144 21164 30282 40334 58011 60001 333 11112 21170 70000
AAXX 25004 71378 16/// /1502 11233 21265 30111 40338 58013 60001 333 11159 21268 70000
AAXX 25004 71379 16/// /0101 11282 21315 30138 40325 58013 60001 333 11214 21300 70000
AAXX 25004 71380 NIL
AAXX 25004 71381 NIL
AAXX 25004 71382 NIL
AAXX 25004 71383 NIL
AAXX 25004 71384 16/// /3103 11168 21201 30345 40353 51008 60001 333 11118 21174 70000
AAXX 25004 71385 NIL
AAXX 25004 71386 16/// /1601 11209 21236 30107 40327 51008 60001 333 11154 21209 70000
AAXX 25004 71387 NIL
AAXX 25004 71388 NIL
AAXX 25004 71389 NIL
AAXX 25004 71390 46/// /3012 11157 6///1 333 11137 21204 7////
AAXX 25004 71391 16/// ///// 11152 21173 60001 333 11121 21191 70000
AAXX 25004 71392 NIL
AAXX 25004 71393 NIL
AAXX 25004 71395 11574 83407 11114 21147 30107 40293 51024 69901 70282 885// 333 11011 21115 79999 90932
AAXX 25004 71398 15866 81712 11093 21120 30141 40153 58035 60001 333 11078 21278 70000
AAXX 25004 71399 NIL
AAXX 25001 26231 21384 23403 10023 20016 30080 40095 52020 70261 82600 333 10037 20021 60007 82710 555 1/000 20021 3/000 50021
AAXX 25001 26106 41/95 82201 10015 20009 30066 40109 52012 72162 886//
AAXX 25001 26313 43/// /3203 10027 20019 30108 40115 52024
AAXX 25001 26346 41296 82202 11010 21011 39852 40101 52005 77176 8872/ 333 87703 93404
AAXX 25001 26406 41597 83103 10050 20018 30123 40129 52020 70262 885// 333 88626
AAXX 25001 26416 43/// /2802 10023 20018 39981 40122 52021
AAXX 25001 26544 41496 82002 11017 21020 39967 40123 57002 78582 889// 333 93403
AAXX 25001 26424 NIL
AAXX 25004 65352 31950 70402 10220 20001 3//// 4//// 70522 80002 333 5//// 87076
AAXX 25004 65361 32960 70000 10198 20078 3//// 4//// 80002 333 5//// 87076
AAXX 25004 65376 32958 52806 10244 20170 39647 40102 80002 333 59014 85076
AAXX 25004 65387 32458 72404 10280 20266 30074 40092 82502 333 59006 82610 87073
BBXX SHIP 25004 99433 70559 41697 60114 10045 20010 40165 54000 70222 8489/ 22264 04080 20502 80030
AAXX 25001 06447 36/// /2305 10061 20032 30174 40302 55008 60001 333 91110 91206
BBXX A8AX3 25003 99042 70091 41/// /9902 7//// 8//// 22234 2//// 30000
AAXX 25004 06030 01458 82115 10061 20047 30107 40123 57022 69921 76052 885// 333 69927 83610 87616
AAXX 25004 06060 01459 82214 10069 20058 30081 40146 58018 69921 76022 885// 333 69927 83610 87615
AAXX 25004 06070 05464 82207 10056 20033 30130 40161 57019 6///1 333 6///7 81/13 83/18 88/35 91118
AAXX 25004 06120 36461 82114 10057 20050 30155 40181 57014 333 81/12 83/15 85/18 88/34 91124
AAXX 25004 06180 02475 12109 10027 20016 30182 40188 58002 6///1 81501 333 6///7 81612
AAXX 25004 06193 07/62 02616 10045 20032 30183 40194 52011 6///1 70010 333 55300 20000 6///7
BBXX TBWUK03 25003 99130 70233 41398 10521 10243 20185 40152 52009 70200 81100 22253 20403 304// 40803 5//// 80204
BBXX DANM 25004 99400 70220 41597 71009 10155 20112 40350 54000 70311 8657/ 22265 00150 20301 80130
AAXX 25001 06432 35/66 /2206 10057 20034 30229 40308 58009 333 81/37 87/57 91109 91207
AAXX 25001 06458 35573 /2207 10057 20032 30148 40306 56010 333 81/34 87/43 91110 91207
AAXX 25001 06465 37774 /2205 10058 20029 30230 40298 57009 72185 333 81/56 85/66 87/72 91108 91205
AAXX 25001 06496 35264 /2304 10015 20010 39621 40318 58002 333 81/04 87/06 91108 91205
AAXX 25004 17042 11560 71002 10070 20058 30144 40184 52008 60031 78088 84250 333 84830 87358 92437
AAXX 25004 17074 3//// /2103 11011 21034 39234 40194 52006 60001
AAXX 25004 17086 11670 81012 10026 21032 39418 40140 51004 69921 70262 8652/ 333 86635 88460
AAXX 25004 17088 12670 63402 10005 21035 38741 48445 52008 60001 84540 333 84640 86360
AAXX 25004 17140 3//// /0402 11029 21035 38637 40140 5//// 60001
AAXX 25004 17155 3//// /3506 11021 21057 39044 4//// 52008 60001
AAXX 25004 17203 11530 80000 10003 20001 38820 48474 56003 60031 77166 8552/ 333 85632 88457 93101
AAXX 25004 17237 11665 82901 10008 21011 39662 40180 52005 60021 72272 8552/ 333 85633 88458 91110 93101
AAXX 25004 17250 3//// /0403 10001 21012 38722 40120 5//// 60001
AAXX 25004 17270 11530 80901 10069 20061 39471 40123 55003 69941 71062 8661/ 333 86720 88459
AAXX 25004 17295 12960 00507 10066 20003 30139 40146 52006 60001
AAXX 25004 17320 11670 63103 10086 20070 30089 40094 57003 60081 70182 84270 333 84836 86360 92438
AAXX 25004 17375 12670 43404 10108 21007 30095 40097 57003 60001 84200 333 84833 91113 92448
AAXX 25001 13168 11697 82503 10015 20008 30145 40256 51010 69931 70276 885//
AAXX 25001 13174 11696 82002 10009 21001 30141 40245 51006 69941 71076 885//
AAXX 25001 13269 11597 82802 10022 20010 30040 40261 52009 69931 76162 885//
AAXX 25001 13274 11696 82702 10007 21012 30092 40259 52011 69901 76062 885//
AAXX 25001 13278 NIL
AAXX 25001 13378 NIL
AAXX 25001 13397 NIL
AAXX 25001 13457 32970 51302 10080 21025 30178 40185 58001 85030 333 85360
AAXX 25001 13481 NIL
AAXX 25001 06428 35568 /2105 10060 20038 30248 40298 56008 333 81/30 83/57 87/67 91110 91206
AAXX 25001 10091 15969 02509 10036 20027 30158 40210 52007 60001 333 55/// 20090 30086 55300 20000 30000 91114 91212
AAXX 25004 17500 NIL
AAXX 25004 17501 11560 62206 10128 20063 30083 40102 53001 60031 78022 86900 333 82925 84830 92437
AAXX 25004 17505 11560 63320 10130 20055 39993 40106 55008 60061 70382 86900 333 82925 84830
AAXX 25004 17507 NIL
AAXX 25004 17510 NIL
AAXX 25004 17515 11560 61806 10092 20046 39946 40123 55001 60011 79591 86900 333 82925 84830
AAXX 25004 17521 11560 72708 10092 20061 39959 40098 57004 60001 71381 84950 333 81925 83830 85360
AAXX 25004 17530 11560 62919 10118 20043 30048 40105 56008 69921 70381 86900 333 82925 84830
AAXX 25004 17535 11560 62914 10109 20047 30047 40083 56003 69911 70382 86900 333 82925 84830
AAXX 25004 17540 NIL
AAXX 25004 17547 NIL
AAXX 25004 17550 11560 62810 10104 20066 39953 40099 52005 69911 70311 86900 333 82925 84830 92437
AAXX 25004 17572 NIL
AAXX 25001 15501 11958 80000 11037 21043 30196 40243 53002 60001 71011 80007 333 11014 21044 555 595//
AAXX 25001 15505 12968 01401 11048 21076 39849 40242 52003 60001 333 11044 21060 43010 555 581//
AAXX 25001 15511 12970 02303 11045 21054 30208 40250 52003 60001 333 11018 21048 41998 555 592// 92601
AAXX 25001 15514 12968 00000 11044 21057 30199 40237 52006 60001 333 11010 21045 41997 555 590// 92601
AAXX 25001 15530 11/05 90000 11085 21100 30004 40259 51004 60001 74941 333 11050 21085 43011 93501 555 589// 92721
AAXX 25001 15533 11/03 90000 11058 21065 30176 40210 58004 60001 74941 333 11018 21058 43003 555 594// 92721
AAXX 25001 15550 12665 83202 11010 21041 30211 40231 54000 60001 885// 333 11010 21015 41997 555 577//
AAXX 25001 15561 12475 52904 11026 21057 30228 40236 52010 60001 85500 222// 2//01 333 10006 21028 555 577// 92024 92428
AAXX 25001 15600 11989 03208 11100 21108 38288 48499 51011 60001 70300 333 11090 21100 48012 444 46145 555 596//
AAXX 25001 15601 12770 70000 11094 21102 39596 40259 53018 60001 87300 333 11056 21094 43002 555 593//
AAXX 25001 15605 12968 00000 11114 21114 39372 40280 52014 60001 333 11091 21116 44008 555 598//
AAXX 25001 15613 11984 03406 11122 21133 37651 47972 52001 60001 70200 333 11108 21122 48045 555 590//
AAXX 25001 15628 12975 00000 11126 21153 39985 40265 52002 60001 333 11084 21126 43011 555 581//
AAXX 25001 15642 12980 00000 11056 21063 30063 40241 52004 60001 333 11036 21058 555 595//
AAXX 25001 15661 12570 82903 11006 21046 30194 40231 52003 60001 885// 222// 20402 333 11006 21006 555 571// 92032 92438
AAXX 25001 15726 11980 03503 11092 21188 38223 48496 52006 60001 70200 333 11088 21114 48045 555 546//
AAXX 25004 60710 NIL
AAXX 25004 60714 NIL
AAXX 25004 60720 NIL
AAXX 25004 60728 NIL
AAXX 25004 60729 NIL
AAXX 25004 60731 05658 72720 10130 20047 30223 40230 50001 60003 333 59009 55067 60007 87/40 91032 91138
AAXX 25004 60732 NIL
AAXX 25004 60734 NIL
AAXX 25004 60738 12558 63220 10046 20046 38995 40264 58002 60003 86200 333 55000 20511
AAXX 25004 60739 NIL
AAXX 25004 60740 12560 43018 10141 20047 30231 40233 56002 60003 84200 333 55087 20912 83820
AAXX 25004 60742 NIL
AAXX 25004 60764 NIL
AAXX 25004 60770 NIL
AAXX 25004 60772 NIL
AAXX 25004 60775 NIL
AAXX 25004 60780 NIL
AAXX 25004 71864 NIL
AAXX 25004 71865 16/// /2911 10012 21043 39488 40173 51041 60001 333 10036 21031 70000
AAXX 25004 71866 46964 03011 10020 21057 39587 40208 52039 6///1 333 10069 21057 7////
AAXX 25004 71867 12774 23017 10008 21025 39757 40093 53034 60001 82500 333 10014 21103 70008
AAXX 25004 71868 NIL
AAXX 25004 71869 12774 13008 10032 21026 39645 40172 53046 60001 81501 333 10056 21048 70000
AAXX 25004 71871 15966 02710 11024 21070 39402 40218 51026 60001 333 10053 21024 70000
AAXX 25004 71877 12686 72305 10041 21056 38976 40255 50006 60001 81570 333 10068 20037 70000
AAXX 25004 71878 12974 72404 11010 21069 39155 40245 52003 60001 84071 333 10026 21045 70000
AAXX 25004 71879 16964 02104 10025 21070 39403 40213 50003 60001 333 10063 20011 70000
AAXX 25004 71880 12582 81611 10022 21021 39213 40348 53005 60001 885// 333 10022 21095 70000
AAXX 25004 71882 160// /1005 10002 21019 39795 40348 58003 69951 333 10003 21019 70010
AAXX 25004 71883 46/// /0000 11022 21026 39470 40311 56006 6///1 333 11020 21051 7////
AAXX 25004 71887 12786 71020 10025 21022 39864 40293 56009 60001 85570 333 10027 21014 70000
AAXX 25004 71889 12874 81817 10016 21047 39915 40344 55001 60001 8807/ 333 10016 21008 70000
AAXX 25004 71891 16964 31919 10073 20049 39986 40264 55002 60001 333 10093 20009 70000
AAXX 25004 71892 11774 60812 10087 20054 30277 40282 58016 60111 70162 82530 333 10091 20054 70206 90923
AAXX 25004 71043 12983 60000 11295 21345 30076 40175 50001 60001 82032 333 11243 21309 48012 70028
AAXX 25004 71045 16/// /1104 11017 21068 39160 40014 57040 60001 333 11012 21099 70000
AAXX 25004 71050 46/// /0202 11013 21051 39100 40194 56025 6///1 333 10033 21099 7////
AAXX 25004 71051 NIL
AAXX 25004 71052 NIL
AAXX 25004 71066 12974 60000 11056 21107 39714 40138 50004 60001 80001 333 10029 21072 70000
AAXX 25004 71068 12974 71705 11007 21054 39475 40171 58008 60001 80002 333 10041 21012 70000
AAXX 25004 71069 16964 02805 11012 21034 39480 40188 58001 60001 333 10054 21012 70000
AAXX 25004 71076 16/// /2807 11100 21118 39732 40132 51033 60001 333 11078 21106 70000 555 10020
AAXX 25004 71077 16/// /2704 10011 21023 39624 40166 51029 60001 333 10029 21007 70000
AAXX 25004 71079 11474 83210 11032 21052 39766 40046 52041 69901 77151 886// 333 11024 21102 48010 70008 90943
AAXX 25004 71081 47559 63307 11221 21256 39881 49893 58015 6///1 745// 333 11219 21276 7////
AAXX 25004 71082 NIL
AAXX 25004 71083 11902 03425 11263 21303 39933 49976 53036 69901 77673 333 11127 21263 48056 70022 90983
AAXX 25004 71090 46564 82302 11289 21332 39943 49979 58002 6///1 333 11272 21312 7////
AAXX 25004 71091 460// /0511 11248 39716 49929 58012 6///1 333 7////
AAXX 25004 71092 46756 31116 11288 39263 49944 58016 6///1 333 11245 21289 7////
AAXX 25004 71093 460// /3011 11257 39445 49952 56005 6///1 333 11225 21257 7////
AAXX 25004 71094 46032 /3612 11220 39008 49915 58004 6///1 333 11199 21220 7////
AAXX 25004 71095 46964 01702 11358 21400 39898 49982 58002 6///1 333 11333 21362 7////
AAXX 25004 71101 160// /1604 30054 55009 60001 333 70085
AAXX 25004 71104 12874 71414 10033 21017 39103 40220 56012 60001 86071 333 10039 21013 79999
AAXX 25004 71108 11283 40806 10057 20050 30217 40291 58012 60061 70161 81674 333 10067 20036 70154 90923
AAXX 25004 71109 11580 71112 10083 20061 30160 40187 58004 60061 76122 87500 333 10084 20059 70170 90952
AAXX 25004 71603 11669 63612 11070 21106 30253 40308 53026 69901 78588 86500 333 11016 21070 42004 70022 90973
AAXX 25004 71607 16/// /3405 11164 21188 30301 40336 51015 60001 333 11109 21164 70003 555 10010
AAXX 25004 71609 11974 03506 11146 21180 30181 40323 51015 69901 70261 333 11028 21147 42003 70002 90962
AAXX 25004 71610 15966 00904 11193 21210 30028 40345 58001 60001 333 11149 21201 70000
AAXX 25004 71621 12474 71006 11064 21104 30198 40309 55008 60001 87500 333 11060 21128 70000
AAXX 25004 71623 NIL
AAXX 25004 71624 12569 61508 11008 21085 30056 40275 58012 60001 86500 333 11005 21087 70000
AAXX 25004 71625 16464 31504 11113 21132 30136 40306 58009 60001 333 11108 21215 70000
AAXX 25004 71627 12674 10907 11151 21194 30290 40337 58011 60001 81501 333 11130 21169 79999
AAXX 25004 71628 13460 50906 11150 21174 30177 40327 58004 60001 85500 333 11111 21170 70000
AAXX 25004 71630 NIL
AAXX 25004 71631 16/// /1806 11029 21064 39740 40254 58006 60001 333 11025 21092 70000
AAXX 25004 71633 11674 81517 11015 21053 39959 40238 58014 69901 77171 885// 333 11001 21079 47997 79999 90921
AAXX 25004 71705 11574 22706 11164 21180 30224 40317 51015 60001 70231 82500 333 11106 21174 70054
AAXX 25004 71706 11561 82907 11099 21134 30233 40296 52017 69901 78588 885// 333 11064 21102 47013 70044 90983
AAXX 25004 71707 11674 73206 11087 21137 30178 40257 51015 69901 78588 87500 333 11042 21089 48008 70020 90983
AAXX 25004 71709 11574 83422 11086 21138 30259 40273 51023 60011 78522 881// 333 11079 21103 46005 70036 90962 93101
AAXX 25004 71711 NIL
AAXX 25004 71714 16/// /2801 11261 21293 30271 40371 56003 60001 333 11140 21261 70000
AAXX 25004 71715 16/// /1603 11201 21235 30146 40341 50000 60001 333 11144 21201 70003
AAXX 25004 71718 11583 22107 11165 21212 30269 40339 51001 69901 70177 82500 333 11140 21175 48003 70004 90963
AAXX 25004 71719 16/// /3412 11111 21159 30300 40307 51020 60001 333 11102 21130 70000
AAXX 25004 71726 16/// /0702 11221 21245 39734 40325 56009 60001 333 11162 21360 70044
AAXX 25004 71727 12974 21903 11232 21257 30137 40351 58007 60001 80002 333 11175 21255 79999
AAXX 25004 71728 12980 01703 11220 21268 30102 40342 57014 60001 333 11195 21259 70000
AAXX 25004 71730 11924 91613 11058 21061 39776 40217 57032 60011 77177 333 11058 21176 46003 70010 90973
AAXX 25004 71731 11674 81611 11076 21119 39779 40250 58017 69901 77172 8457/ 333 11076 21182 41997 79999 90910
AAXX 25004 71735 NIL
AAXX 25004 71738 11574 61808 11020 21052 39785 40143 56022 69941 72272 86500 333 11019 21096 47025 70004 90973 93101
AAXX 25004 71739 41472 81811 11081 21103 39809 40188 57033 6//// 77172 886// 333 11081 21237 4//// 7//// 90942
AAXX 25004 71749 16864 82304 11019 21050 39862 40110 58015 69951 333 11002 21048 70005
AAXX 25004 71799 11383 32404 10059 20053 30257 40281 56015 69961 70261 81171 333 10095 20040 70038 90936
AAXX 25004 71800 16/// /3510 11090 21111 30149 40183 53016 60001 333 11022 21092 70066
AAXX 25004 71801 11574 62912 11108 21147 30002 40180 51018 69901 72682 86500 333 11043 21108 70068 90916
AAXX 25004 71803 12580 22812 11150 21195 39996 40190 52022 60001 82500 333 11099 21150 70032
AAXX 25004 71807 NIL
AAXX 25004 71808 12974 02910 11214 21278 30172 40185 51013 60001 333 11177 21228 70000
AAXX 25004 71809 11566 82413 11121 21166 30181 40209 52013 69981 77177 885// 333 11079 21134 47004 70044 90983
AAXX 25004 71810 16/// /3204 11146 21202 30212 40283 51016 60001 333 11135 21232 70000
AAXX 25004 71811 NIL
AAXX 25004 71813 16/// /3010 11197 21254 30246 40260 51017 60001 333 11178 21253 70000
AAXX 25004 71814 16/// /3215 11206 21253 30213 40223 50016 60001 333 11179 21236 70000
AAXX 25004 71815 11469 83212 11106 21158 30195 40227 51013 69901 78522 885// 333 11063 21112 44008 70042 90952
AAXX 25004 71397 11462 50602 11112 21148 30279 40315 51022 60011 78587 85500 333 11049 21115 43012 70048 90917 93101
AAXX 25004 71400 16/64 /2705 11146 21177 60001 333 11105 21163 70013
AAXX 25004 71403 46/// /3319 11071 21104 30261 40282 51027 6///1 333 11014 21072 7////
AAXX 25004 71411 16/// /3507 11085 21104 30286 40299 51024 60001 333 11019 21085 70000
AAXX 25004 71412 16/// /3320 11069 21122 30261 40271 52022 60001 333 11054 21078 70000 555 10010
AAXX 25004 71421 NIL
AAXX 25004 71430 16/// /1507 11031 21057 30202 40303 56012 60001 333 11031 21122 70000
AAXX 25004 71431 16/// /1710 11017 21057 30190 40289 56010 60001 333 11016 21115 70000
AAXX 25004 71432 NIL
AAXX 25004 71433 NIL
AAXX 25004 71435 NIL
AAXX 25004 71441 NIL
AAXX 25004 71443 NIL
AAXX 25004 71444 16/// /2806 11002 21047 39360 40131 53014 60001 333 10007 21172 70000
AAXX 25004 71447 NIL
AAXX 25004 71467 16/// /2801 11288 21316 30003 40124 51008 60001 333 11276 21337 70000
AAXX 25004 71472 NIL
AAXX 25004 71474 16964 01707 11017 21039 39007 40267 55005 60001 333 10011 21039 70000
AAXX 25004 71510 NIL
AAXX 25004 71538 12574 22106 10009 21047 30021 40257 56006 60001 82500 333 10022 21039 70010
AAXX 25004 71600 16564 83519 11019 21066 30241 40247 51028 60001 333 10041 21021 70010
AAXX 25004 71601 NIL
AAXX 25001 12105 12467 52804 10045 20027 30164 40207 51021 60001 85500 333 85616 91110 93000
AAXX 25001 12195 11109 82503 10007 20007 39909 40141 53010 60021 75162 886// 333 93002
AAXX 25001 12235 11461 62903 10019 20015 39981 40196 52025 69921 70265 865// 333 91111 93092
AAXX 25001 12270 11465 83205 10030 20029 39985 40170 53027 69931 76154 8552/ 333 93093
AAXX 25001 12280 11330 83105 10038 20038 39990 40149 53019 69951 75165 886// 333 93095
AAXX 25001 12300 12365 82603 10022 20016 30149 40241 52026 60001 886// 333 91113 93000
AAXX 25001 12400 11562 72904 10033 20015 30010 40251 51023 69921 70262 875// 333 91009 91112 93092
AAXX 25001 12435 11465 82907 10034 20013 30045 40220 52030 60031 72162 875// 333 91113 93003
AAXX 25001 12495 11113 82203 10009 20008 39884 40184 52008 69931 75152 886// 333 93093
AAXX 25001 12530 11460 82905 10033 20026 30035 40239 51029 60011 76122 885// 333 84710 88695 91011 91113 93001
AAXX 25001 12570 11258 82706 10030 20029 39875 40199 52018 69941 72565 886// 333 93094
AAXX 25001 12580 11357 82103 10006 20003 39943 40210 52012 69941 76872 885// 333 84706 88611 93094
AAXX 25004 71816 12974 02613 11204 21281 30149 40214 52017 60001 333 11195 21262 70000
AAXX 25004 71817 NIL
AAXX 25004 71818 12974 02508 11182 21216 30130 40149 51015 60001 333 11176 21245 70000
AAXX 25004 71822 12974 61505 11238 21282 39801 40321 57010 60001 80001 333 11202 21375 70000
AAXX 25004 71825 12074 02506 11262 21314 39563 40289 50000 60001 333 11246 21300 70000
AAXX 25004 71827 11574 81614 11162 21197 39906 40162 56038 69901 77177 885// 333 11139 21259 47020 79999 90973
AAXX 25004 71828 16964 02805 11262 21313 39567 40250 51005 60001 333 11222 21272 70000
AAXX 25004 71831 11359 81512 11064 21082 39866 40155 58030 69901 77122 885// 333 11064 21213 48039 79999 90921
AAXX 25004 71832 NIL
AAXX 25004 71834 11574 82210 11029 21053 39660 40093 58018 69901 77177 885// 333 11028 21116 48027 79999 90983
AAXX 25004 71841 NIL
AAXX 25004 71842 11474 32206 11054 21070 39610 40086 56009 69901 70177 82570 333 11049 21089 41089 79999 90963
AAXX 25004 71844 NIL
AAXX 25004 71845 11466 82308 11057 21068 39577 40057 57011 69901 77122 885// 333 11057 21101 44018 79999 90952
AAXX 25004 71850 11974 72007 11061 21077 39587 40093 58010 69901 73672 87070 333 11061 21076 48011 79999 90953
AAXX 25004 71852 17964 32813 10006 21039 39797 40094 55002 69951 7//44 333 10019 21102 70005
AAXX 25004 71854 12374 42310 11055 21077 39596 40074 55007 60001 84600 333 11055 21088 79999
AAXX 25004 71858 16/// /2907 10004 21021 39795 40077 53024 60001 333 10010 21098 70000
AAXX 25004 71861 NIL
AAXX 25004 71862 12974 12814 10023 21047 39497 40206 51024 60001 81071 333 10067 21038 70000
AAXX 25004 71863 46964 02813 11005 21049 39499 40206 53027 6///1 333 10045 21037 7////
AAXX 25004 71930 12974 82203 10025 21085 39264 40202 58003 60001 84071 333 10056 20005 70000
AAXX 25004 71931 16/// /2815 11113 21155 30148 53020 60001 333 7////
AAXX 25004 71934 11974 10000 11139 21166 39895 40159 51028 69901 70187 81030 333 11088 21160 47021 79999 90927
AAXX 25004 71935 12474 70000 11163 21186 39946 40160 51006 60001 87500 333 11104 21164 70000
AAXX 25004 71936 12474 23105 11209 21241 39878 40148 57016 60001 82500 333 11141 21209 70006
AAXX 25004 71937 NIL
AAXX 25004 71938 11832 82507 11266 21307 30127 40158 52007 69901 77177 8807/ 333 11266 21309 48025 70002 90947
AAXX 25004 71940 12882 70905 10020 21033 39360 40167 57023 60001 87070 333 10055 20007 70000
AAXX 25004 71943 NIL
AAXX 25004 71944 160// ///// 10014 56032 60001 333 10017 21028 70000
AAXX 25004 71945 NIL
AAXX 25004 71946 12974 10000 11209 21232 39925 40147 55004 60001 80001 333 11150 21209 79999
AAXX 25004 71948 46050 /2515 11290 30029 40149 53004 6///1 333 11290 21319 7////
AAXX 25004 71949 46/// /1102 11105 21119 39152 40026 58023 6///1 333 11069 21123 7////
AAXX 25004 71951 11156 81905 10017 20017 39818 40085 56033 60101 76176 887// 333 10019 20004 43016 70176 90983
AAXX 25004 71957 46864 83003 11295 21366 30100 40194 53001 6///1 333 11262 21316 7////
AAXX 25004 71964 12586 81912 11031 21072 39137 49986 58041 60001 8257/ 333 11022 21079 70000
AAXX 25004 71966 16/// /0000 11163 21183 39587 40059 56019 60001 333 11162 21223 70000
AAXX 25004 71968 460// /2407 11309 30127 40195 50001 6///1 333 11252 21309 7////
AAXX 25004 71114 160// /0000 10044 20041 30253 40302 57003 60041 333 10050 20018 70085
AAXX 25004 71120 12974 12607 10015 21061 39537 40199 51023 60001 81070 333 10050 20002 70000
AAXX 25004 71122 16/// /2308 11017 21064 38660 40295 50005 60001 333 11007 7////
AAXX 25004 71123 12674 81605 11066 21100 39346 40228 50003 60001 81572 333 10038 21069 70000
AAXX 25004 71125 12674 12610 11007 21054 39598 40189 51029 60001 81500 333 70000
AAXX 25004 71129 12674 22203 11018 21074 39395 40240 51027 60001 81501 333 10073 21047 70000
AAXX 25004 71131 16/// /2511 11017 21042 38991 40272 52020 60001 333 10025 21067 70000
AAXX 25004 71135 16/// /2714 11008 21063 39147 40250 53024 60001 333 10028 21063 70000
AAXX 25004 71137 16/// /2912 11008 21035 39301 40264 53018 60001 333 10011 21047 70000
AAXX 25004 71140 12974 12717 11002 21034 39632 40142 5/010 81070 333 10025 21136 70000
AAXX 25004 71145 12474 72707 11039 21059 39737 40031 53012 60001 87500 333 11039 21107 70002
AAXX 25004 71148 16/// /2914 10022 21048 39555 40141 53008 60001 333 10042 21129 70000
AAXX 25004 71185 17462 63116 11145 30178 40203 53023 69951 745// 333 11122 21147 70010
AAXX 25004 71188 11574 72708 11130 21182 30252 40297 52011 69941 77122 87500 333 11120 21147 47016 70030 90966
AAXX 25004 71200 17/// /0206 10070 20050 69921 7//4/ 333 10093 20055 70056
AAXX 25004 71207 17/// /0000 10024 30232 40298 57004 60091 7//4/ 333 10027 20005 70417
AAXX 25004 71260 13/// ///// 11004 21024 39931 40171 57021 69921 333 11003 21077 46001 70008
AAXX 25004 71893 11274 81422 10078 20064 30222 40254 58009 60011 70162 88600 333 10082 20069 70070 90922
AAXX 25004 71894 17/// /1019 10085 20085 30225 40234 58005 60191 7//4/ 333 10093 20080 70568
AAXX 25004 71896 15966 81817 10042 21011 39336 40168 56027 60001 333 10043 20010 70000
AAXX 25004 71897 11442 81430 10070 20062 3//// 4//// 54000 60081 76152 887XX 333 10078 20064 70100 90955
AAXX 25004 71898 160// ///// 10076 53003 60121 333 10095 20055 70175
AAXX 25004 71899 11466 82420 10068 20066 3//// 4//// 57013 60061 70262 8227/ 333 10075 20043 70064 90923
AAXX 25004 71902 12974 02912 11180 21237 30159 40168 51022 60001 333 11170 21207 70000
AAXX 25004 71905 NIL
AAXX 25004 71906 12974 42212 11201 21262 30119 40172 58016 60001 82072 333 11181 21236 79999
AAXX 25004 71907 17004 91931 11112 21128 39982 40015 56059 60021 74544 333 11112 21199 70020
AAXX 25004 71909 17014 81804 11136 21151 39951 49995 5/021 60001 745// 333 70000
AAXX 25004 71910 47008 92118 11115 21127 39849 49911 58030 6///1 745// 333 11110 21186 7////
AAXX 25004 71911 46964 03113 11300 39954 40013 51016 6///1 333 11266 21323 7////
AAXX 25004 71912 11466 83416 11062 21091 39833 40017 53044 69961 77152 885// 333 11040 21115 47015 70010 90921 93101
AAXX 25004 71915 11559 83505 11166 21193 39787 49868 57022 60021 77177 88500 333 11141 21233 48043 70040 90983 93102
AAXX 25004 71917 11766 11003 11335 21382 30009 40024 52002 69901 77677 81500 333 11321 21422 48015 79999 90983
AAXX 25004 71922 12574 62909 10012 21020 39668 40135 52042 60001 86500 333 10029 21032 70000
AAXX 25004 71924 11974 03004 11353 21399 39928 40021 57002 69901 77677 333 11271 21356 48038 70004 90947
AAXX 25004 71925 11474 73108 11315 21362 30060 40103 51010 69901 77677 82570 333 11309 21332 42021 79999 90983
AAXX 25004 71926 11548 23125 11294 21351 30026 40051 53027 60001 73833 82500 333 11212 21296 79999
AAXX 25004 71928 NIL
AAXX 25004 71893 11274 81422 10078 20064 30222 40254 58009 60011 70162 88600 333 10082 20069 70070 90922
AAXX 25004 71894 17/// /1019 10085 20085 30225 40234 58005 60191 7//4/ 333 10093 20080 70568
AAXX 25004 71896 15966 81817 10042 21011 39336 40168 56027 60001 333 10043 20010 70000
AAXX 25004 71897 11442 81430 10070 20062 3//// 4//// 54000 60081 76152 887XX 333 10078 20064 70100 90955
AAXX 25004 71898 160// ///// 10076 53003 60121 333 10095 20055 70175
AAXX 25004 71899 11466 82420 10068 20066 3//// 4//// 57013 60061 70262 8227/ 333 10075 20043 70064 90923
AAXX 25004 71902 12974 02912 11180 21237 30159 40168 51022 60001 333 11170 21207 70000
AAXX 25004 71905 NIL
AAXX 25004 71906 12974 42212 11201 21262 30119 40172 58016 60001 82072 333 11181 21236 79999
AAXX 25004 71907 17004 91931 11112 21128 39982 40015 56059 60021 74544 333 11112 21199 70020
AAXX 25004 71909 17014 81804 11136 21151 39951 49995 5/021 60001 745// 333 70000
AAXX 25004 71910 47008 92118 11115 21127 39849 49911 58030 6///1 745// 333 11110 21186 7////
AAXX 25004 71911 46964 03113 11300 39954 40013 51016 6///1 333 11266 21323 7////
AAXX 25004 71912 11466 83416 11062 21091 39833 40017 53044 69961 77152 885// 333 11040 21115 47015 70010 90921 93101
AAXX 25004 71915 11559 83505 11166 21193 39787 49868 57022 60021 77177 88500 333 11141 21233 48043 70040 90983 93102
AAXX 25004 71917 11766 11003 11335 21382 30009 40024 52002 69901 77677 81500 333 11321 21422 48015 79999 90983
AAXX 25004 71922 12574 62909 10012 21020 39668 40135 52042 60001 86500 333 10029 21032 70000
AAXX 25004 71924 11974 03004 11353 21399 39928 40021 57002 69901 77677 333 11271 21356 48038 70004 90947
AAXX 25004 71925 11474 73108 11315 21362 30060 40103 51010 69901 77677 82570 333 11309 21332 42021 79999 90983
AAXX 25004 71926 11548 23125 11294 21351 30026 40051 53027 60001 73833 82500 333 11212 21296 79999
AAXX 25004 71928 NIL
AAXX 25004 60020 NIL
AAXX 25004 60030 NIL
AAXX 25004 60040 06/// /0309 10186 20114 30229 40254 58004 60001 333 60007
AAXX 25004 60338 NIL
AAXX 25003 91551 11498 80000 10295 20260 40062 51007 60014 78022 8692/ 333 20/// 5699/ 58018 60014 81712 84818 81925 88461
AAXX 25003 91553 11598 60208 10315 20272 40064 51005 60104 70288 84901 333 20245 561/9 58015 60104 84820 81925 86080
AAXX 25003 91554 11598 40509 10290 20269 40057 51002 60064 70282 84200 333 20235 561// 58014 60064 84820
AAXX 25003 91555 11598 33604 10305 20271 40059 51006 69964 70111 83931 333 20250 56899 58011 69964 82825 81930
AAXX 25003 91557 31598 73107 10313 20260 40036 51004 70322 84931 333 20237 56799 58008 84820 81925 86080
AAXX 25003 91565 11598 70310 10305 20264 40043 58001 60044 72588 8297/ 333 20230 5619/ 59005 60044 82820 81922 87461
AAXX 25003 91568 11598 80708 10288 20256 40064 51008 60114 72568 888// 333 20240 561// 59002 60114 85823 88640
AAXX 25003 91551 11498 80000 10295 20260 40062 51007 60014 78022 8692/ 333 20/// 5699/ 58018 60014 81712 84818 81925 88461
AAXX 25003 91553 11598 60208 10315 20272 40064 51005 60104 70288 84901 333 20245 561/9 58015 60104 84820 81925 86080
AAXX 25003 91554 11598 40509 10290 20269 40057 51002 60064 70282 84200 333 20235 561// 58014 60064 84820
AAXX 25003 91555 11598 33604 10305 20271 40059 51006 69964 70111 83931 333 20250 56899 58011 69964 82825 81930
AAXX 25003 91557 31598 73107 10313 20260 40036 51004 70322 84931 333 20237 56799 58008 84820 81925 86080
AAXX 25003 91565 11598 70310 10305 20264 40043 58001 60044 72588 8297/ 333 20230 5619/ 59005 60044 82820 81922 87461
AAXX 25003 91568 11598 80708 10288 20256 40064 51008 60114 72568 888// 333 20240 561// 59002 60114 85823 88640
AAXX 25001 02019 07/11 /1913 11015 21040 39221 49833 58042 69901 78581 333 69905 90710 91122
AAXX 25001 02081 05/99 /2003 11060 21092 39493 49898 58013 60001 333 60005 90710 91107
AAXX 25001 02095 05983 /1501 11101 21112 39731 49938 58005 60001 333 60005 83/59 87/69 90710 91103
AAXX 25001 02101 45684 ///// 11012 21065 39348 49903 56039 8//// 333 86/42 88/50
AAXX 25001 02119 05599 /3301 11050 21055 39527 49913 58027 60001 333 60005 87/24 87/60 90710 91104
AAXX 25001 02124 05999 /1703 11044 21105 39399 49924 58033 60001 333 60005 87/59 90710 91106
AAXX 25001 02126 05999 /1102 11046 21061 39605 49945 58039 60001 333 60005 82/59 84/69 90710 91105
AAXX 25001 02151 35984 71503 11047 21055 39592 49929 58024 60001 333 60005 87/61 91004 90710 91104 90710 91203
AAXX 25001 02186 35983 02004 11028 21048 39942 49967 58007 60001 333 60005 91005 90710 91105 90710 91204
AAXX 25001 02197 07/61 /2103 11028 21036 39948 49967 50006 60001 70010 333 60005 90710 91104
AAXX 25001 02207 07799 /2106 11001 21049 39230 49922 56025 69931 70070 333 60005 87/50 90710 91118
AAXX 25001 02219 07/62 /1205 11043 21070 39247 49914 58043 60001 70010 333 60005 90710 91111
AAXX 25001 02226 45984 /1708 11027 21069 39493 49948 56040 8////
AAXX 25001 02243 07/59 /1502 11075 21081 39700 49973 58040 60001 71010 333 60005 90710 91106
AAXX 25001 02269 05982 /2010 10023 21005 60001 333 60005 85/71 86/74 90710 91114
AAXX 25001 02287 05/72 /2206 10003 21017 39992 40002 58012 60001 333 60005 90710 91113
AAXX 25001 02297 05/99 /2108 11026 21040 39944 49990 58009 60001 333 60005 90710 91111
AAXX 25001 02308 05999 /2003 11050 21072 39110 49975 56030 60001 333 60005 82/70 90710 91108
AAXX 25001 02327 05/99 /0802 11083 21091 39560 40003 58034 60001 333 60005 90710 91103
AAXX 25001 02355 05/99 /2004 11008 21052 30017 40029 58025 60001 333 60005 90710 91108
AAXX 25001 02366 45983 /3502 11099 21106 30004 40010 58030 8////
AAXX 25001 02407 07369 ///// 11006 21014 39659 40031 58039 69921 77170 333 69925 87/09
AAXX 25001 02418 45473 /2005 10021 20008 39940 40073 56024 8//// 333 81/13 83/59
AAXX 25001 02435 45984 /1602 11012 21048 39867 40057 58024 8////
AAXX 25001 02440 05999 /2502 11039 21048 60001 333 60005 83/62 90710 91106
AAXX 25001 02452 05275 /2002 11014 21014 60001 333 60005 87/05 90710 91107
AAXX 25001 02456 05/99 /2002 11022 21032 30037 40080 58014 60001 333 60005 90710 91104
AAXX 25001 02469 07/99 /2302 11023 21033 60001 70031 333 60005 90710 91104
AAXX 25001 02498 05/83 /2408 10019 21008 30086 40103 50003 60001 333 60005 90710 91110
AAXX 25001 02518 465// /2211 10057 20041 333 88/31 90710 91113
AAXX 25001 02520 35467 62008 10028 20013 30033 40101 58024 60001 333 60005 82/13 86/63 91011 90710 91111 90710 91208
AAXX 25001 02550 45267 /2205 10007 20007 39855 40134 58005 8//// 333 88/04
AAXX 25001 02562 35984 02205 10001 21016 30004 40121 58009 60001 333 60005 91007 90710 91108 90710 91206
AAXX 25001 02563 05/99 /2504 10001 21009 30102 40125 57002 60001 333 60005 90710 91107
AAXX 25001 02565 07/64 /2401 11032 21035 30026 40149 54001 60001 70010 333 60005 90710 91103
AAXX 25001 02589 05/82 /2706 10021 20005 30098 40120 52007 60001 333 60005 90710 91110
AAXX 25001 02590 45983 /2604 10019 20002 30074 40137 52008 8////
AAXX 25001 02618 07/58 /2103 10018 20018 39991 40158 58002 60001 71010 333 60005 90710 91106
AAXX 25001 02664 37259 82502 11002 21007 30102 40175 51009 60001 71000 333 60005 88/03 91002 90710 91104 90710 91202
AAXX 25001 02679 05/99 /3004 10015 20008 30102 40147 51013 60001 333 60005 90710 91107
AAXX 25003 78970 12465 50000 10254 20218 30112 40137 60001 70522 81842 333 0299 10323 20234 58013 81818 85080
AAXX 25003 78962 11450 60608 10245 20222 30139 40147 69901 71682 83802 333 02209 10303 20229 58017 83812 85080 90950
AAXX 25001 12120 11570 32803 10038 20026 30176 40183 51023 69911 70261 83500 333 91108 93091
AAXX 25001 12250 11565 42803 10036 20029 30102 40192 52027 60021 70165 84500 333 91110 93002
AAXX 25001 12295 11107 82202 10009 20009 39962 40150 53004 60011 75164 886// 333 88702 93001
AAXX 25001 12330 11560 73007 10036 20013 30117 40228 51027 60021 70262 875// 333 91112 93002
AAXX 25001 12375 11250 82704 10048 20047 30035 40167 52015 60011 76165 8772/ 333 87704 93001
AAXX 25001 12424 11599 73005 10041 20011 30092 40248 52029 60031 70162 875// 333 91113 93003
AAXX 25001 12160 12465 73005 10040 20023 30118 40172 51027 69971 875// 333 91111 93001
AAXX 25001 12205 12462 22204 10020 20016 30226 40234 52019 60001 82500 333 91110 93000
AAXX 25001 12465 11263 82905 10027 20023 39962 40200 51031 60021 76165 877// 333 87706 91111 93002
AAXX 25001 12566 11360 82407 10022 20015 39924 40226 52024 60011 76162 875// 333 85708 87612 93001
AAXX 25001 01441 16/// /2605 10021 20002 39040 40016 55006 60041 333 91116
AAXX 25001 01199 16/// /1105 11082 21093 39434 49906 56008 6//// 333 91108
AAXX 25004 68299 16/// /1302 10125 20117 38978 48559 53001 60113 333 10148 20124 91003 555 20118 91024
BBXX UBQE6 25001 99219 70176 41998 00000 10150 2//// 40202 58010 70200 80000 22244 00014
AAXX 25004 64600 33960 00206 10192 20173 39455 40097 333 58000
AAXX 25004 64601 33960 03616 10210 20014 38997 48516 333 59003
AAXX 25004 64605 33960 00000 10172 20139 39360 40093 333 58000
AAXX 25004 64610 NIL
AAXX 25004 64650 32956 40000 10225 20210 39692 40099 80002 333 59003 84080
AAXX 25004 64654 33960 00000 10198 20145 39536 40095 333 59008
AAXX 25004 64655 33960 00000 10197 20186 39449 40085 333 59009
AAXX 25004 64656 NIL
AAXX 25004 64659 NIL
AAXX 25004 64660 33960 60000 10240 20206 39561 40076 86030 333 59008 86365
AAXX 25004 64662 NIL
AAXX 25004 64665 33960 00000 10226 20211 3//// 4//// 333 5////
AAXX 25004 91487 NIL
AAXX 25004 91490 NIL
AAXX 25004 91533 NIL
AAXX 25004 91601 NIL
AAXX 25004 91610 11599 40710 10305 20232 40061 58011 60001 70220 83101 333 20258 562/9 70000 =3D 91623 NIL
AAXX 25004 91629 NIL
AAXX 25004 91701 NIL
BBXX DEGI 25003 99201 70175 41997 00817 10190 20155 40190 57010 70200 80000 22243 04193 29904 399// 4//03 80168
BBXX DDIJ 25003 99249 71146 41998 23420 10178 20060 40185 54000 7//00 81051 22274 04230 29904 333// 40807 80115
BBXX DGPT2 25004 99340 70157 41597 81314 10170 20119 40290 54000 70222 881// 22213 00180 20604 80140
AAXX 25004 78988 02480 21208 10263 20224 30126 40137 52015 60001 82200 333 10281 20232 58011 60007 70018 82816
AAXX 25004 78990 01/80 /0100 10262 20224 30137 52015 60001 70000 333 10291 20000 58010 60007
AAXX 25001 02464 45984 /1802 11016 21025 30086 40104 57004 8////
AAXX 25001 02500 07258 /2113 10066 20054 30020 40063 58036 69901 72386 333 69905 81/06 83/09 87/13 90710 91119
AAXX 25001 02513 NIL
AAXX 25001 02615 05/62 /2409 10046 20033 30189 40193 50000 60001 333 60005 90710 91112
AAXX 25001 02635 05/60 /2302 10031 20019 60001 333 60005 90710 91106
BBXX PBEO 25003 99531 10044 41/97 /2411 10114 20076 40233 56019 700// 8//// 22212 02074 20503 30000 80094
AAXX 25004 78905 11476 70810 10258 20201 30145 40168 69901 70222 87200 333 10291 20240 58005 70010 87817
AAXX 25001 13180 32697 82701 10000 21003 30143 40258 52010 885//
AAXX 25001 13173 11697 82302 10011 20004 30145 40249 52009 69911 70262 885//
AAXX 25001 13266 32697 82702 10015 20008 30154 40258 58014 885//
AAXX 25001 13384 32997 80000 11022 21029 30103 40263 52011 8807/
AAXX 25001 13369 32697 81601 11078 21086 39017 48473 52012 885//
AAXX 25001 13383 32997 60000 11034 21044 30047 40261 52011 80006
AAXX 25001 13389 32997 33401 11048 21057 39966 40264 52013 83030
AAXX 25001 13278 31696 80000 11005 21029 30029 40264 50000 71022 885//
AAXX 25001 13378 32397 80503 11075 21086 38265 48482 53011 885//
AAXX 25001 13397 32998 51101 11074 21091 39696 40268 52010 85050
AAXX 25001 26825 41330 81904 11003 21009 39955 40141 54000 71062 886// 333 88707 93403 555 14100
AAXX 25001 02947 47/75 72602 11015 21015 40050 52008 70000 87/// 92351
AAXX 25001 33088 32597 82203 11041 21053 30004 40204 58002 885//
AAXX 25001 33177 /1496 82001 10003 21008 39953 40196 51001 71052 8872/ 333 93402 555 69931
AAXX 25001 33261 31/93 90000 11079 21079 30048 40242 52002 74942
AAXX 25001 33275 32397 83302 11060 21071 30001 40236 52002 8665/ 333 86707
AAXX 25001 33301 /1397 82003 11034 21038 39913 40206 58003 77172 8672/ 333 86708 555 69901
AAXX 25001 33325 32997 02201 11082 21101 39946 40231 58003
AAXX 25001 33377 31/93 90000 11076 21076 30034 40240 52004 74942
AAXX 25001 33415 /1396 81802 11048 21058 39806 40222 58002 77172 8772/ 333 86709 555 69901
AAXX 25001 33429 32697 61903 11073 21090 39783 40230 58002 86500 333 86646
AAXX 25001 33466 31957 00000 11084 21090 30041 40241 52003 71000
AAXX 25001 33526 /1328 80000 11036 21044 39866 40221 54000 77172 8672/ 333 86708 555 69931
AAXX 25001 33562 32997 02002 11096 21112 39856 40242 54000
AAXX 25001 33614 32570 80202 11033 21057 30115 40224 52005 885// 333 88623
AAXX 25001 33761 31996 03001 11085 21092 39998 40236 52002 71011
AAXX 25001 33902 32597 80105 11015 21049 30139 40208 52009 883//
AAXX 25001 33983 /1297 83105 10014 20000 30093 40155 52012 70262 886// 333 88704 555 60011
AAXX 25001 34415 32497 80504 11036 21054 30116 40217 52006 886//
AAXX 25001 34523 /1497 80702 11020 21041 30119 40198 52008 70372 8772/ 333 87715 555 69951
AAXX 25001 34712 /1496 80403 10000 21003 30079 40167 52009 71052 886// 333 88713 555 69901
AAXX 25004 48481 31957 12704 10212 20138 30094 40123 52009 70500 80001 333 20200 58015
AAXX 25004 96481 12462 73401 10259 20241 30067 40086 60034 8387/ 333 20241 50270 55009 58007 70032 82817 86364
AAXX 25004 96481 12462 73401 10259 20241 30067 40086 60034 8387/ 333 20241 50270 55009 58007 70032 82817 86364
AAXX 25001 01400 41498 52512 10091 20075 40109 52004 76062 84720 90010 22200 06081 10708 70040 333 91118
AAXX 25001 01300 41497 82515 10075 20018 49963 52014 78082 88/// 22200 02068 10913 70064 333 91123
AAXX 25004 08306 12565 10401 10058 20051 30304 40310 51004 60001 81800
AAXX 25001 14024 46/// ///// 1//// 2//// 3//// 4//// 5////
AAXX 25004 65351 NIL
AAXX 25004 65355 32960 70606 10216 20038 39596 40106 80002 333 59009 87073
AAXX 25004 65357 32960 70804 10230 20036 39725 40111 80002 333 59008 87076
AAXX 25004 65380 32960 70000 10253 20248 3//// 4//// 80002 333 5//// 87076
AAXX 25004 60101 32456 40912 10138 20100 40273 56002 84200 333 84816
AAXX 25004 60135 15450 71503 10099 20083 40262 56005 60001 875// 333 87616
AAXX 25004 60156 15458 40504 10092 20080 40267 56006 60001 84600 333 84710
AAXX 25004 60230 12958 01502 10087 20072 40257 56001 60001
AAXX 25004 65306 32960 50000 10185 20046 39790 40121 80002 333 0//00 59008 85076
AAXX 25004 65319 33958 50000 10210 20048 39605 40115 80002 333 0//00 59004 85076
AAXX 25004 65330 31920 50806 10238 20032 39669 40101 70522 80002 333 0//00 59001 85076
AAXX 25004 65335 33958 50804 10231 20126 39877 40098 80002 333 0//00 59013 85076
AAXX 25004 65344 32458 62206 10286 20264 30084 40095 82502 333 0//00 59005 82612 85076
AAXX 25004 60714 12560 53123 1//// 2//// 30228 40234 58009 60003 85800 333 55057 20784 84820
AAXX 2500/ 89872 46/// ///// 11010 39842 4//// 5////
AAXX 2500/ 89327 46/// ///// 11011 39489 4//// 5////
AAXX 2500/ 89332 46/// ///// 11019 39205 4//// 5////
AAXX 2500/ 89769 46/// ///// 10018 39875 4//// 5////
AAXX 2500/ 89108 46/// ///// 11141 36992 4//// 5////
AAXX 2500/ 89329 46/// ///// 11036 38769 4//// 5////
AAXX 2500/ 89799 46/// ///// 11115 4//// 5////
AAXX 2500/ 89314 46/// ///// 11036 38268 4//// 5////
AAXX 2500/ 89866 46/// ///// 11006 39777 4//// 5////
AAXX 25004 89667 46/// /3104 10014 29058 39886 4//// 5////
AAXX 25004 91371 32474 20916 10306 20284 30098 40101 81100 333 20267 562// 58002 82815 555 92500
AAXX 25001 91938 02480 52207 10305 20201 30122 40124 56019 60001 85800 333 60007 82816 83640 90710 91119 555 60005 12319
AAXX 25001 91944 06/// /0916 10281 20204 30138 40141 56016 60011 333 60017 90710 91122 555 60005
AAXX 25001 91958 02583 30609 10265 20215 30190 40192 58015 60024 83800 333 20206 56100 59009 60007 83823 90710 91111 555 60005 10612
AAXX 25001 91925 01465 60308 10265 20210 30036 40096 58017 60004 71511 86800 333 20223 56800 59002 60007 84816 90710 91119 555 60005 10319
AAXX 25001 91929 04571 /0815 10302 20234 30115 40118 57017 60001 700// 333 60007 90710 91121 555 60005
AAXX 25001 91948 01481 61109 10251 20201 30077 40179 57015 60034 72586 86800 333 20224 56200 59004 60017 85818 83656 90710 91117 555 69905 11123
AAXX 25001 91954 06/// /0514 10285 20208 30162 40165 56012 69924 333 20260 58006 60007
AAXX 25001 91945 36/// /0716 10297 20234 30143 40148 57018 333 20251 59001
AAXX 25003 NIL
AAXX 25004 68004 36/// /2005 10189 20044 38539 48494 57010 333 10339 20181 91008 555 91017
AAXX 25004 68006 36/// /1903 10223 20135 38913 48493 58001 333 10336 20223 91008 555 91014
AAXX 25004 68018 36/// /0905 10227 20181 38899 48505 57012 333 10311 20227 91007 555 91016
AAXX 25004 68098 36/// /2503 10136 20115 30044 40153 58003 333 10223 20135 91004 555 91015
AAXX 25004 68102 36/// /2103 10183 21013 38741 48489 57007 333 10333 20183 91005 555 91015
AAXX 25004 68112 16/// /0704 10192 20089 38337 48520 56000 69923 333 10333 20188 91005 555 20002 91021
AAXX 25004 68116 16/// /2803 10175 20144 38580 48527 52011 69963 333 10323 20175 91006 555 20006 69945 91021
AAXX 25004 68212 36/// /2304 10266 20040 38894 48517 53001 333 10396 20266 91006 555 91016
AAXX 25004 68312 36/// /2009 10224 20079 38934 48499 50000 333 10384 20224 91013 555 91015
AAXX 25004 86330 11997 81210 10160 20124 40194 51001 60011 70262 8807/ 333 10170 20150
AAXX 25004 86360 NIL
AAXX 25004 86460 32998 11904 10194 20072 40211 53004 80005 333 1//// 20122
AAXX 25004 86490 32997 01508 10172 20088 40220 54003 333 10245 20166
AAXX 25004 86530 32597 31810 10182 20081 40211 53003 83205 333 10232 20170
AAXX 25004 86545 32997 10000 10138 20104 40233 52005 80005 333 10220 20138
AAXX 25004 86565 32597 20000 10146 20100 40231 52006 82401 333 10204 20146
AAXX 25004 86580 42797 11201 10162 20118 40235 51001 81100 333 10200 20154
AAXX 25004 NIL
AAXX 25004 94500 NIL
AAXX 25004 94510 46/// /0205 10286 20154 39737 40076
AAXX 25004 94515 46/// /3604 10255 20152 39740 40081
AAXX 25004 94552 46/// /1315 10247 20126 39632 40088
AAXX 25004 94578 46/// /1313 10259 20157 30071 40082
AAXX 25004 94584 46/// /1533 10241 20169 39946 40054
AAXX 25004 94601 46/// /1019 10190 20109 30192 40209
AAXX 25004 94610 46/// /0908 10207 20104 30145 40168
AAXX 25004 94637 46/// /1313 10187 20073 39738 40157
AAXX 25004 94638 46/// /1111 10192 20118 30162 40194
AAXX 25004 94642 NIL
AAXX 25004 94643 NIL
AAXX 25004 94647 46/// /1812 10192 20122 30024 40143
AAXX 25004 94651 46/// /1818 10198 20144 30054 40130
AAXX 25004 94653 46/// /1815 10210 20156 30082 40100
AAXX 25004 94659 46/// /0907 10330 20100 39866 40056
AAXX 25004 94672 46/// /2508 10229 20167 30048 40058
AAXX 25004 94691 46/// /3412 10322 20108 39746 40064
AAXX 25004 94693 46/// /2708 10328 20119 39999 40059
AAXX 25004 94700 NIL
AAXX 25004 94703 46/// /0505 10311 20151 39963 40085
AAXX 25004 94710 46/// /0209 10314 20132 39834 40080
AAXX 25004 94729 46/// /0206 10243 20132 39265 40096
AAXX 25004 94750 46/// /0406 10262 20178 39983 40105
AAXX 25004 94767 46/// /0413 10265 20170 30112 40118
AAXX 25004 94776 46/// /0909 10257 20170 30110 40120
AAXX 25004 94791 NIL
AAXX 25004 94802 46/// /1606 10177 20108 30131 40213
AAXX 25004 94804 46/// /1615 10189 20148 30054 40091
AAXX 25004 94807 NIL
AAXX 25004 94821 46/// /1615 10213 20156 39976 40057
AAXX 25004 94842 46/// /1216 10171 20163 39976 40074
AAXX 25004 94847 NIL
AAXX 25004 94850 46/// /1010 10172 20167 30036 40081
AAXX 25004 94865 46/// /1408 10249 20181 30029 40053
AAXX 25004 94866 46/// /0221 10272 20149 39912 40050
AAXX 25004 94875 46/// /0111 10202 20174 39953 40086
AAXX 25004 68014 36/// /2604 10187 20170 38597 48513 58002 333 10300 20185 91007 555 91019
AAXX 25004 68110 36/// /0202 10185 20054 38282 48502 50000 333 10343 20185 91004 555 91019
AAXX 25004 94102 46/// /2415 10319 20282 30038 40047
AAXX 25004 94103 NIL
AAXX 25004 94120 46/// /1514 10288 20228 39982 40022
AAXX 25004 94122 46/// /1606 10302 20231 30010 40018
AAXX 25004 94131 46/// /1111 10298 20225 39881 40031
AAXX 25004 94132 NIL
AAXX 25004 94147 NIL
AAXX 25004 94150 46/// /0511 10261 20244 39987 40046
AAXX 25004 94151 46/// /0509 10289 20242 30027 4////
AAXX 25004 94170 46/// /0302 10277 20235 30046 40068
AAXX 25004 94200 NIL
AAXX 25004 94203 46/// /2110 10323 20251 30051 40061
AAXX 25004 94206 46/// /2405 10346 2//// 39917 40045
AAXX 25004 94207 46/// /2514 10294 30045 40053 51009
AAXX 25004 94211 NIL
AAXX 25004 94212 46/// /0403 10335 20162 39586 40048
AAXX 25004 94216 46/// /2105 10325 20211 39994 40044
AAXX 25004 94236 NIL
AAXX 25004 94238 46/// /0304 10331 20173 39639 40052
AAXX 25004 94248 NIL
AAXX 25004 94255 46/// /0412 10341 20124 39796 40052
AAXX 25004 94268 NIL
AAXX 25004 94287 46/// /0108 10307 20217 30058 40067
AAXX 25004 94290 NIL
AAXX 25004 94294 46/// /0610 10296 20211 30063 40073
AAXX 25004 94296 35/// /1906 10271 30045 40055 52011
AAXX 25004 94298 46/// /1817 10267 30048 40054 53011
AAXX 25004 95641 NIL
AAXX 25004 89564 45/// /0506 11012 21050 39787 49807 53021
AAXX 25004 89570 46/// /0725 11063 21098 39162 52016 333 21100
AAXX 25004 89571 41675 60519 11005 21089 39801 49829 52014 70222 85552
AAXX 25004 89573 NIL
AAXX 25004 89610 NIL
AAXX 25004 89611 41780 71806 10007 21034 39823 49875 58002 70222 85531
AAXX 25004 89614 NIL
AAXX 25004 89615 468// 81028 11030 21086 38977 56005 333 21059
AAXX 25004 89807 NIL
AAXX 25004 89809 46/// /1603 10032 20017 39425 50003 333 21047
AAXX 25004 94893 46/// /0313 10200 20176 3//// 4////
AAXX 25004 94907 46/// /0909 10210 20191 30074 40084
AAXX 25004 94910 46/// /0108 10278 20153 39848 40093
AAXX 25004 94926 46/// /3305 10243 20140 39445 40100
AAXX 25004 94935 46/// /0805 10221 20170 30074 40100
AAXX 25004 94954 46/// /2305 10173 20153 39987 40096
AAXX 25004 94956 46/// /2408 10191 20141 30064 40090
AAXX 25004 94975 46/// /1409 10202 20157 30059 40091
AAXX 25004 94983 46/// /0305 10218 20197 30064 40089
AAXX 25004 94995 46/// /0926 10221 20169 30105 40113
AAXX 25004 94996 46/// /0821 10206 20175 39993 40121
AAXX 25004 94997 NIL
AAXX 25004 94998 46/// /3106 10075 20068 30065 40076
AAXX 25004 95111 46/// /1904 10316 20226 39999 40035
AAXX 25004 95205 46/// /2212 10333 20234 30046 40053
AAXX 25004 95322 NIL
AAXX 25004 95448 46/// /1113 10243 20119 39539 40089
AAXX 25004 95458 46/// /2312 10339 20105 39805 40058
AAXX 25004 95480 46/// /3315 10384 20072 30006 40064
AAXX 25004 95481 46/// /3412 10381 20112 30021 40065
AAXX 25004 95482 46/// /0111 10377 20085 30008 40062
AAXX 25004 95485 46/// /3513 10339 2//// 39875 40073
AAXX 25004 95492 46/// /0106 10319 20145 39931 40082
AAXX 25004 95527 46/// /0805 10261 20161 39851 40099
AAXX 25004 95634 46/// /1014 10196 20077 39765 40160
AAXX 25004 95637 46/// /1009 10181 20097 39855 40185
AAXX 25004 95646 46/// /1613 10204 20116 39958 40142
AAXX 25004 95666 NIL
AAXX 25004 95719 46/// /0106 10262 20156 39778 40101
AAXX 25004 95762 46/// /0906 10256 20138 39654 40101
AAXX 25004 95826 NIL
AAXX 25004 95839 46/// /3512 10310 20128 39865 40021
AAXX 25004 95864 NIL
AAXX 25004 95909 NIL
AAXX 25004 95954 NIL
AAXX 25004 95966 46/// /3308 10215 20126 39889 40087
AAXX 25004 96995 46/// /3004 10246 20240 39792 40086
AAXX 25004 96996 41459 71115 10270 20240 30064 40068 53016 70511 82201
BBXX VRAE3 25004 99030 31432 41596 83609 10265 20245 40083 50027 76203 8877/ 22234 00310 20301 3//// 40402 5//// 80251
BBXX V2OG2 25003 99296 31133 41998 61915 10235 20199 40152 53006 70000 80008 22273 20403 318// 40505 80210
BBXX ZCGY8 25004 99209 31149 41498 12412 10290 20245 40046 5/010 70300 81100 22200 20702 324// 40702 80258
BBXX PCAM 25003 99341 31634 41/97 70918 10215 20166 40171 54000 7//22 87700 22273 29902 399// 4//// 80183
BBXX VRWW8 25004 99369 31780 41597 71613 10180 20131 40232 54004 70222 862// 22273 00200 20403 309// 40604 5//// 80150
BBXX VNVF 25004 99189 31175 41398 22810 10276 20256 40049 53011 70100 82172 22253 00289 20501 307// 40402 80262
BBXX VNSZ 24234 99412 31464 46/// /0105 10201 20156 30076 40102 52006 22200 04197 85172
BBXX C6FS9 24234 99390 31436 46/// /1117 10173 20166 30048 40084 57002 22263 04175 85168
BBXX VNSZ 24224 99412 31464 46/// /1802 10183 20156 30079 40105 52013 22200 04198 85166
BBXX 9HA2479 24224 99223 31664 46/// /1012 10250 20231 30005 40034 52002 22200 04260 85236
BBXX C6FS9 24224 99390 31439 46/// /1422 10171 20165 30049 40085 54000 22263 04179 85167
BBXX VROB 24224 99350 31509 46/// /0213 10210 20187 30092 40117 52017 22283 04211 85195
BBXX A8VJ2 25003 99214 31503 41598 41712 10280 20221 40067 53/// 70111 83105 22283 00240 20301 30000 80240
BBXX VRZN7 25004 99387 31481 41697 72808 10200 2018/ 40103 52008 78061 85628 22253 04230 20202 311// 41202 5//// 85185
AAXX 25004 94299 46/// /2111 10294 20220 30059 40069
AAXX 25004 94300 46/// /1821 10266 20188 30075 40085
AAXX 25004 94302 46/// /1916 10309 20161 30048 40054
AAXX 25004 94312 46/// /3112 10317 20249 30040 40049
AAXX 25004 94313 NIL
AAXX 25004 94317 46/// /0908 10375 20100 39468 40037
AAXX 25004 94319 46/// /2607 10367 20163 39709 40030
AAXX 25004 94324 NIL
AAXX 25004 94326 46/// /0408 10357 20016 39458 40057
AAXX 25004 94327 46/// /0306 10351 20091 39698 40062
AAXX 25004 94332 46/// /0708 10322 20113 39677 40053
AAXX 25004 94333 NIL
AAXX 25004 94341 46/// /0706 10339 20123 39822 40051
AAXX 25004 94346 46/// /3501 10330 20146 39844 40058
AAXX 25004 94363 46/// /1906 10279 20174 39862 40074
AAXX 25004 94366 NIL
AAXX 25004 94367 46/// /1510 10280 20213 30033 40074
AAXX 25004 94374 46/// /1507 10268 20172 30058 40074
AAXX 25004 94388 46/// /1815 10251 20200 30054 40059
AAXX 25004 94393 46/// /2124 10259 30016 40028 51005
AAXX 25004 94394 46/// /1932 10243 39993 40001 52006
AAXX 25004 94403 46/// /1511 10238 20144 30084 40125
AAXX 25004 94429 46/// /1011 10275 20131 39647 40100
AAXX 25004 94430 46/// /1313 10310 20098 39505 40073
AAXX 25004 94449 46/// /1314 10178 20133 39604 40123
AAXX 25004 94451 NIL
AAXX 25004 94461 46/// /3611 10351 21011 39398 40049
AAXX 25004 94462 46/// /0407 10354 20048 39519 40059
AAXX 25004 94477 NIL
AAXX 25004 94488 NIL
AAXX 25004 94893 46/// /0313 10200 20176 3//// 4////
AAXX 25004 94907 46/// /0909 10210 20191 30074 40084
AAXX 25004 94910 46/// /0108 10278 20153 39848 40093
AAXX 25004 94926 46/// /3305 10243 20140 39445 40100
AAXX 25004 94935 46/// /0805 10221 20170 30074 40100
AAXX 25004 94954 46/// /2305 10173 20153 39987 40096
AAXX 25004 94956 46/// /2408 10191 20141 30064 40090
AAXX 25004 94975 46/// /1409 10202 20157 30059 40091
AAXX 25004 94983 46/// /0305 10218 20197 30064 40089
AAXX 25004 94995 46/// /0926 10221 20169 30105 40113
AAXX 25004 94996 46/// /0821 10206 20175 39993 40121
AAXX 25004 94997 NIL
AAXX 25004 94998 46/// /3106 10075 20068 30065 40076
AAXX 25004 95111 46/// /1904 10316 20226 39999 40035
AAXX 25004 95205 46/// /2212 10333 20234 30046 40053
AAXX 25004 95322 NIL
AAXX 25004 95448 46/// /1113 10243 20119 39539 40089
AAXX 25004 95458 46/// /2312 10339 20105 39805 40058
AAXX 25004 95480 46/// /3315 10384 20072 30006 40064
AAXX 25004 95481 46/// /3412 10381 20112 30021 40065
AAXX 25004 95482 46/// /0111 10377 20085 30008 40062
AAXX 25004 95485 46/// /3513 10339 2//// 39875 40073
AAXX 25004 95492 46/// /0106 10319 20145 39931 40082
AAXX 25004 95527 46/// /0805 10261 20161 39851 40099
AAXX 25004 95634 46/// /1014 10196 20077 39765 40160
AAXX 25004 95637 46/// /1009 10181 20097 39855 40185
AAXX 25004 95646 46/// /1613 10204 20116 39958 40142
AAXX 25004 95666 NIL
AAXX 25004 95719 46/// /0106 10262 20156 39778 40101
AAXX 25004 95762 46/// /0906 10256 20138 39654 40101
AAXX 25004 95826 NIL
AAXX 25004 95839 46/// /3512 10310 20128 39865 40021
AAXX 25004 95864 NIL
AAXX 25004 95909 NIL
AAXX 25004 95954 NIL
AAXX 25004 95966 46/// /3308 10215 20126 39889 40087
AAXX 25004 96995 46/// /3004 10246 20240 39792 40086
AAXX 25004 96996 41459 71115 10270 20240 30064 40068 53016 70511 82201
AAXX 25004 94500 NIL
AAXX 25004 94510 46/// /0205 10286 20154 39737 40076
AAXX 25004 94515 46/// /3604 10255 20152 39740 40081
AAXX 25004 94552 46/// /1315 10247 20126 39632 40088
AAXX 25004 94578 46/// /1313 10259 20157 30071 40082
AAXX 25004 94584 46/// /1533 10241 20169 39946 40054
AAXX 25004 94601 46/// /1019 10190 20109 30192 40209
AAXX 25004 94610 46/// /0908 10207 20104 30145 40168
AAXX 25004 94637 46/// /1313 10187 20073 39738 40157
AAXX 25004 94638 46/// /1111 10192 20118 30162 40194
AAXX 25004 94642 NIL
AAXX 25004 94643 NIL
AAXX 25004 94647 46/// /1812 10192 20122 30024 40143
AAXX 25004 94651 46/// /1818 10198 20144 30054 40130
AAXX 25004 94653 46/// /1815 10210 20156 30082 40100
AAXX 25004 94659 46/// /0907 10330 20100 39866 40056
AAXX 25004 94672 46/// /2508 10229 20167 30048 40058
AAXX 25004 94691 46/// /3412 10322 20108 39746 40064
AAXX 25004 94693 46/// /2708 10328 20119 39999 40059
AAXX 25004 94700 NIL
AAXX 25004 94703 46/// /0505 10311 20151 39963 40085
AAXX 25004 94710 46/// /0209 10314 20132 39834 40080
AAXX 25004 94729 46/// /0206 10243 20132 39265 40096
AAXX 25004 94750 46/// /0406 10262 20178 39983 40105
AAXX 25004 94767 46/// /0413 10265 20170 30112 40118
AAXX 25004 94776 46/// /0909 10257 20170 30110 40120
AAXX 25004 94791 NIL
AAXX 25004 94802 46/// /1606 10177 20108 30131 40213
AAXX 25004 94804 46/// /1615 10189 20148 30054 40091
AAXX 25004 94807 NIL
AAXX 25004 94821 46/// /1615 10213 20156 39976 40057
AAXX 25004 94842 46/// /1216 10171 20163 39976 40074
AAXX 25004 94847 NIL
AAXX 25004 94850 46/// /1010 10172 20167 30036 40081
AAXX 25004 94865 46/// /1408 10249 20181 30029 40053
AAXX 25004 94866 46/// /0221 10272 20149 39912 40050
AAXX 25004 94875 46/// /0111 10202 20174 39953 40086
AAXX 25004 94299 46/// /2111 10294 20220 30059 40069
AAXX 25004 94300 46/// /1821 10266 20188 30075 40085
AAXX 25004 94302 46/// /1916 10309 20161 30048 40054
AAXX 25004 94312 46/// /3112 10317 20249 30040 40049
AAXX 25004 94313 NIL
AAXX 25004 94317 46/// /0908 10375 20100 39468 40037
AAXX 25004 94319 46/// /2607 10367 20163 39709 40030
AAXX 25004 94324 NIL
AAXX 25004 94326 46/// /0408 10357 20016 39458 40057
AAXX 25004 94327 46/// /0306 10351 20091 39698 40062
AAXX 25004 94332 46/// /0708 10322 20113 39677 40053
AAXX 25004 94333 NIL
AAXX 25004 94341 46/// /0706 10339 20123 39822 40051
AAXX 25004 94346 46/// /3501 10330 20146 39844 40058
AAXX 25004 94363 46/// /1906 10279 20174 39862 40074
AAXX 25004 94366 NIL
AAXX 25004 94367 46/// /1510 10280 20213 30033 40074
AAXX 25004 94374 46/// /1507 10268 20172 30058 40074
AAXX 25004 94388 46/// /1815 10251 20200 30054 40059
AAXX 25004 94393 46/// /2124 10259 30016 40028 51005
AAXX 25004 94394 46/// /1932 10243 39993 40001 52006
AAXX 25004 94403 46/// /1511 10238 20144 30084 40125
AAXX 25004 94429 46/// /1011 10275 20131 39647 40100
AAXX 25004 94430 46/// /1313 10310 20098 39505 40073
AAXX 25004 94449 46/// /1314 10178 20133 39604 40123
AAXX 25004 94451 NIL
AAXX 25004 94461 46/// /3611 10351 21011 39398 40049
AAXX 25004 94462 46/// /0407 10354 20048 39519 40059
AAXX 25004 94477 NIL
AAXX 25004 94488 NIL
AAXX 25004 89564 45/// /0506 11012 21050 39787 49807 53021
AAXX 25004 89570 46/// /0725 11063 21098 39162 52016 333 21100
AAXX 25004 89571 41675 60519 11005 21089 39801 49829 52014 70222 85552
AAXX 25004 89573 NIL
AAXX 25004 89610 NIL
AAXX 25004 89611 41780 71806 10007 21034 39823 49875 58002 70222 85531
AAXX 25004 89614 NIL
AAXX 25004 89615 468// 81028 11030 21086 38977 56005 333 21059
AAXX 25004 89807 NIL
AAXX 25004 89809 46/// /1603 10032 20017 39425 50003 333 21047
BBXX VRAE3 25004 99030 31432 41596 83609 10265 20245 40083 50027 76203 8877/ 22234 00310 20301 3//// 40402 5//// 80251
BBXX V2OG2 25003 99296 31133 41998 61915 10235 20199 40152 53006 70000 80008 22273 20403 318// 40505 80210
BBXX ZCGY8 25004 99209 31149 41498 12412 10290 20245 40046 5/010 70300 81100 22200 20702 324// 40702 80258
BBXX PCAM 25003 99341 31634 41/97 70918 10215 20166 40171 54000 7//22 87700 22273 29902 399// 4//// 80183
BBXX VRWW8 25004 99369 31780 41597 71613 10180 20131 40232 54004 70222 862// 22273 00200 20403 309// 40604 5//// 80150
BBXX VNVF 25004 99189 31175 41398 22810 10276 20256 40049 53011 70100 82172 22253 00289 20501 307// 40402 80262
BBXX VNSZ 24234 99412 31464 46/// /0105 10201 20156 30076 40102 52006 22200 04197 85172
BBXX C6FS9 24234 99390 31436 46/// /1117 10173 20166 30048 40084 57002 22263 04175 85168
BBXX VNSZ 24224 99412 31464 46/// /1802 10183 20156 30079 40105 52013 22200 04198 85166
BBXX 9HA2479 24224 99223 31664 46/// /1012 10250 20231 30005 40034 52002 22200 04260 85236
BBXX C6FS9 24224 99390 31439 46/// /1422 10171 20165 30049 40085 54000 22263 04179 85167
BBXX VROB 24224 99350 31509 46/// /0213 10210 20187 30092 40117 52017 22283 04211 85195
BBXX A8VJ2 25003 99214 31503 41598 41712 10280 20221 40067 53/// 70111 83105 22283 00240 20301 30000 80240
BBXX VRZN7 25004 99387 31481 41697 72808 10200 2018/ 40103 52008 78061 85628 22253 04230 20202 311// 41202 5//// 85185
AAXX 25004 94102 46/// /2415 10319 20282 30038 40047
AAXX 25004 94103 NIL
AAXX 25004 94120 46/// /1514 10288 20228 39982 40022
AAXX 25004 94122 46/// /1606 10302 20231 30010 40018
AAXX 25004 94131 46/// /1111 10298 20225 39881 40031
AAXX 25004 94132 NIL
AAXX 25004 94147 NIL
AAXX 25004 94150 46/// /0511 10261 20244 39987 40046
AAXX 25004 94151 46/// /0509 10289 20242 30027 4////
AAXX 25004 94170 46/// /0302 10277 20235 30046 40068
AAXX 25004 94200 NIL
AAXX 25004 94203 46/// /2110 10323 20251 30051 40061
AAXX 25004 94206 46/// /2405 10346 2//// 39917 40045
AAXX 25004 94207 46/// /2514 10294 30045 40053 51009
AAXX 25004 94211 NIL
AAXX 25004 94212 46/// /0403 10335 20162 39586 40048
AAXX 25004 94216 46/// /2105 10325 20211 39994 40044
AAXX 25004 94236 NIL
AAXX 25004 94238 46/// /0304 10331 20173 39639 40052
AAXX 25004 94248 NIL
AAXX 25004 94255 46/// /0412 10341 20124 39796 40052
AAXX 25004 94268 NIL
AAXX 25004 94287 46/// /0108 10307 20217 30058 40067
AAXX 25004 94290 NIL
AAXX 25004 94294 46/// /0610 10296 20211 30063 40073
AAXX 25004 94296 35/// /1906 10271 30045 40055 52011
AAXX 25004 94298 46/// /1817 10267 30048 40054 53011
AAXX 25004 95641 NIL
AAXX 25004 41024 32960 00604 10230 20180 30117 40136 333 58016
AAXX 25004 41030 32960 00000 10240 20190 39858 40126 333 58015
AAXX 25004 41036 31950 00000 10130 20110 38574 48524 71000 333 58007 555 04410 50126
AAXX 25004 41055 32960 00000 10156 20080 38372 48518 333 58006 555 04410 50125
AAXX 25004 41061 NIL
AAXX 25004 41084 32960 00000 10124 20010 38869 48524 333 58005 555 04410 50129
AAXX 25004 41112 32960 00000 10105 20000 37954 48522 333 58007 555 04410 50155
AAXX 25004 41114 NIL
AAXX 25004 41128 32960 00000 10108 21040 38822 48526 333 58006 555 04410 50153
AAXX 25004 41136 32960 00000 10126 21010 39328 40142 333 59002
AAXX 25004 41140 32960 00406 10239 20200 30123 40133 333 58008
AAXX 25004 40356 32960 02305 10040 20000 39163 48468 333 58009 555 04410 50143
AAXX 25004 40357 32960 02909 10070 20020 39508 40143 333 58015
AAXX 25004 40360 32960 02406 10078 20000 39557 40137 333 58010
AAXX 25004 40361 32960 02708 10066 21040 39380 40150 333 58016
AAXX 25004 40362 32960 02706 10108 21030 39612 40121 333 58004
AAXX 25004 40373 NIL
AAXX 25004 40375 32960 00000 10090 20010 39275 40147 333 58016
AAXX 25004 40377 NIL
AAXX 25004 40394 32960 01806 10094 20040 39017 48500 333 58011 555 04410 50130
AAXX 25004 40400 32960 00404 10158 20090 30139 40167 333 58024
AAXX 25004 40401 NIL
AAXX 25004 40405 32960 00000 10140 20110 39394 40121 333 59003
AAXX 25004 40416 32960 09903 10130 20100 30118 40138 333 59010
AAXX 25004 40417 32960 01408 10123 20070 30134 40149 333 59012
AAXX 25004 40420 32960 01906 10110 20050 39940 40148 333 59020
AAXX 25004 40430 42960 02804 10210 20110 39422 40127 333 58006
AAXX 25004 40435 NIL
AAXX 25004 40437 32960 00000 10125 20050 39450 40145 333 59007
AAXX 25004 40439 NIL
AAXX 25004 94310 46/// /2911 10301 20263 30035 40046 52011 333 20278
AAXX 25004 95283 46/// /0000 10276 20238 30065 40072
AAXX 25004 95288 46/// /0000 10289 30051 40066 51009
AAXX 25004 95675 46/// /2110
AAXX 25004 95872 46/// /1109
AAXX 25004 95961 35/// /1806 10190 30054 40095 57008
AAXX 25001 38141 42598 80000 11053 21099 39964 40128 52001 885// 555 1/105
AAXX 25001 38149 42598 80000 11022 21065 30051 40129 52002 885// 555 14102
AAXX 25001 38178 429// 32303 11031 21129 39842 40135 53001 83070 555 10108
AAXX 25001 38262 426// 80000 11026 21071 30038 40121 53002 885// 555 14103
AAXX 25001 38264 41580 70000 10002 21061 30037 40131 52006 70522 875// 333 04001 87624 555 14100
AAXX 25001 38396 42596 70000 10021 21071 30013 40139 52004 875// 333 00002 87624 555 10002
AAXX 25001 38403 426// 70000 11049 21116 30013 40139 52008 87500 555 10109
AAXX 25001 38413 429// 80902 11045 21087 39854 40155 52013 8802/ 555 14111
AAXX 25001 38457 42597 80903 10070 21036 39574 40169 57005 889// 555 11001
AAXX 25001 38462 426// 80000 11001 21047 38754 48487 52008 86920 555 1/104
AAXX 25001 38565 329// 01808 10115 21078 34563 40133 51005 555 10005
AAXX 25001 38579 325// 82301 10062 21062 39739 40156 52002 889// 333 04000 555 14000
AAXX 25001 38583 32697 81604 10038 21058 39834 40158 58011 8657/ 333 04101 555 14000
AAXX 25001 38611 42997 73202 10010 21066 39634 40216 52002 88070 333 04101 555 14102
AAXX 25001 38618 429// 80000 11024 21051 39497 40208 52001 8807/ 333 04104 555 14104
AAXX 25001 38683 41996 80904 10032 21047 39870 40149 54000 72582 8433/ 333 00001 84942 555 10002
AAXX 25001 38696 415// 60000 10064 20033 39309 40160 53002 72582 86900 333 01101 555 11101
AAXX 25001 38812 42997 80604 10075 20017 39602 40132 57010 8805/ 555 10004
AAXX 25001 38927 31958 50802 10010 21016 39795 40179 56004 71022 85030 555 14101
AAXX 25001 37395 41596 82403 10082 20074 30035 40175 52028 78088 8692/ 555 11008
AAXX 25001 37409 41/91 92708 10008 20008 38714 48438 52002 76164 333 95090 555 1/103
AAXX 25001 37432 42697 60000 10010 21016 38912 48450 52005 86500 555 11101
AAXX 25001 37545 425// 80000 10030 20025 39618 40137 52008 8802/
AAXX 25001 37621 426// 30000 10033 21011 39497 40143 52009 80030 555 12101
AAXX 25001 37484 NIL
AAXX 25001 37514 NIL
AAXX 25004 40550 37/50 /2202 10122 20090 40140 50000 71011 333 0/010 55300 00000 10183 20000 30000 41120 51303 60000 55407 40000 90069 90467 91003 91111 91205 91303
AAXX 25004 40551 36/// /1907 10115 20046 333 0//// 90467 91007 91119 91215 91309
AAXX 25004 40552 35/69 /1706 10114 20060 40138 58003 333 0/010 55300 90069 90467 91009 91113 91211 91307
AAXX 25004 40553 37/26 /2009 10128 20108 40137 58001 71011 333 0/012 55300 90069 90467 91011 91119 91213 91307
AAXX 25004 40568 36/// /1102 10154 20145 333 0//// 90467 91003 91117 91215 91307
AAXX 25004 40569 NIL
AAXX 25004 40570 35/70 /2204 10151 20031 40139 57003 333 0/012 55300 90069 90467 91005 91113 91209 91305
AAXX 25004 40571 NIL
AAXX 25004 40572 NIL
AAXX 25004 40573 36/// /2308 10133 20035 333 0//// 90467 91009 91115 91211 91307
AAXX 25004 40580 36/// /1701 10133 20104 333 0/010 553// 00000 10199 20000 30000 41120 51319 60000 55407 40000 90467 91001 91115 91207 91303
AAXX 25004 40581 36/// /2003 10165 20103 333 0//// 90467 91005 91115 91205 91303
AAXX 25004 40582 31940 02403 10126 20102 40141 51003 71000 333 00010 55300 00000 10193 20000 30000 41132 51325 60000 55407 40000 90467 91005 91119 91213 91307
AAXX 25004 40583 NIL
AAXX 25004 40585 36/// /1913 10166 20134 222// 1//// 3//// 4//// 70/// 333 0//// 90467 91015 91119 91213 91311
AAXX 25004 40586 36/// /2702 10124 20070 333 0//// 90467 91001 91113 91207 91301
AAXX 25004 40587 36/// /0305 10110 20071 333 0/009 553// 00000 10149 20000 30000 41119 51268 60000 55407 40000 90467 91007 91117 91209 91303
AAXX 25004 40588 37/25 /1505 10157 20144 40138 58001 71011 333 0/014 55300 90069 90467 91005 91115 91209 91307
AAXX 25004 40589 NIL
AAXX 25004 40590 36/// /3206 10119 20054 333 0//// 90467 91007 91121 91215 91311
AAXX 25004 40591 NIL
AAXX 25004 40592 37/27 /1504 10119 20097 40136 58005 71011 333 0/010 55300 00000 10181 20000 30000 41125 51305 60000 55407 40000 90069 90467 91005 91115 91209 91305
AAXX 25004 40593 36/// /1815 10167 20110 333 0//// 90467 91019 91119 91215 91309
AAXX 25004 40594 36/// /1505 10131 20096 333 0//// 90467 91009 91113 91207 91305
AAXX 25004 40596 46/// /1615 10199 20141 333 0//// 90467 91017 91123 91217 91315
AAXX 25004 16263 11/00 90813 10038 20034 38872 48439 55009 69941 76164 333 89/00 92841
AAXX 25004 48375 31950 00000 10200 20192 39904 40134 52019 71000 333 20190 58021
AAXX 25004 48569 11558 60000 10242 20216 30060 40100 52007 60014 71022 82246 333 20237 58013 70010
AAXX 25004 41241 36/// /1506 10171 20088 30116 40154 333 0E020 59008
AAXX 25004 41242 36/// /2004 10165 20102 30140 40164 333 0E018 59007
AAXX 25004 41244 NIL
AAXX 25004 41246 32960 02504 10165 20101 30146 40151 333 59008
AAXX 25004 41251 NIL
AAXX 25004 41252 36/// /1602 10123 20005 39781 40071 333 0E015 59007
AAXX 25004 41253 36/// /1704 10135 20098 39778 40161 333 0E014 59010
AAXX 25004 41254 36/// /2804 10078 21193 38006 48011 333 0E004 59033
AAXX 25004 41255 36/// /0000 10109 20022 39621 40193 333 0E017 59012
AAXX 25004 41256 32960 00000 10155 20103 30142 40152 333 59012
AAXX 25004 41257 NIL
AAXX 25004 41258 NIL
AAXX 25004 41259 NIL
AAXX 25004 41262 NIL
AAXX 25004 41263 36/// /3602 10123 21009 39477 40168 333 0E012 59007
AAXX 25004 41264 NIL
AAXX 25004 41265 36/// /9902 10116 20037 39618 40170 333 0E020 59005
AAXX 25004 41267 35/// /2902 10179 20100 30135 40151 333 0E017 59011
AAXX 25004 41268 NIL
AAXX 25004 41270 NIL
AAXX 25004 41275 NIL
AAXX 25004 41287 NIL
AAXX 25004 41288 NIL
AAXX 25004 41290 NIL
AAXX 25004 41295 36/// /2104 10130 20088 39974 40159 333 0E017 59002
AAXX 25004 41304 NIL
AAXX 25004 41312 36/// /2806 10191 20091 30111 40151 333 0E/// 58000
AAXX 25004 41314 32960 01803 10128 20035 39659 40179 333 58000
AAXX 25004 41315 36/// /0208 10135 20031 39159 42799 333 0E/// 59003
AAXX 25004 41316 32960 03307 10187 20045 30125 40151 333 59001
AAXX 25004 48581 11540 80908 10248 20213 30060 40102 52008 60024 71022 82447 333 20244 58007 70015
AAXX 25001 50468 NIL
AAXX 25001 50953 NIL
AAXX 25001 51076 NIL
AAXX 25001 51243 NIL
AAXX 25001 51288 32980 00904 11136 21211 38336 57002 333 05552 92507
AAXX 25001 51463 NIL
AAXX 25001 51573 NIL
AAXX 25001 51709 NIL
AAXX 25001 52533 NIL
AAXX 25001 52652 NIL
AAXX 25001 52866 NIL
AAXX 25001 52983 NIL
AAXX 25001 53463 NIL
AAXX 25001 53513 NIL
AAXX 25001 53588 NIL
AAXX 25001 53772 NIL
AAXX 25001 53915 NIL
AAXX 25001 54218 NIL
AAXX 25001 54337 NIL
AAXX 25001 54342 NIL
AAXX 25001 54401 NIL
AAXX 25001 54471 NIL
AAXX 25001 54497 NIL
AAXX 25001 54511 NIL
AAXX 25001 54823 NIL
AAXX 25001 56080 NIL
AAXX 25001 56096 NIL
AAXX 25001 57083 NIL
AAXX 25004 81225 11670 60000 10244 20235 40126 60061 70382 82552 333 10320 56229 58014 70057 82635 85360
AAXX 25004 81200 11570 30000 10264 20229 40125 60011 70281 81502 333 10/// 56309 58020 70019 81625 83080
AAXX 25004 81202 12470 60812 10270 20235 40128 60001 84832 333 10293 56299 58018 70101 82815 83635 85080
AAXX 25004 81209 NIL
AAXX 25004 81251 NIL
AAXX 25004 48433 31950 20403 10138 20103 30015 40189 52011 71000 80005 333 20134 58035
AAXX 25004 06670 32570 11302 11007 21018 39835 40373 52/// 81500 333 55300 20000 81621 91111 91207
AAXX 25004 06700 32982 02301 11020 21048 39849 40370 53/// 333 55300 20000 91106 91203
AAXX 25004 06680 03/// /2607 11128 21129 37555 47073 57/// 69931 333 55300 20000 69915 91123 91213
AAXX 25004 06990 31450 80000 11016 21016 39796 40373 52/// 76022 887// 333 55300 20000 88712 91108 91203
AAXX 25004 06760 33/// /0606 10070 21123 39820 40275 50/// 333 55300 20000 91114 91206
AAXX 25004 06720 32970 0//// 11027 21040 39762 40371 52/// 333 55300 20000
AAXX 25004 06610 32975 21301 11022 21030 39762 40380 52/// 80001 333 55300 20000 82068 91105 91203
AAXX 25004 89002 42699 80915 11027 21040 39680 49734 57014 885// 333 11008 21028
AAXX 25004 91371 32474 20916 10306 20284 30098 40101 81100 333 20267 562// 58002 82815 555 92500
AAXX 25001 80001 11470 20806 10274 20237 30115 40116 60021 70155 81201 333 10289 563/0 58003 81818
AAXX 25001 80002 NIL
AAXX 25001 80009 31560 40402 10276 20208 30073 40078 70500 82804 333 10318 560/0 58010 82820 84070
AAXX 25001 80022 31465 70000 10266 20240 30080 40082 70522 81476 333 10308 56990 58003 81617 86270
AAXX 25001 80028 31460 40104 10262 20233 30062 40097 70500 81505 333 10300 561/9 58010 81620 83270
AAXX 25001 80035 31965 41303 10254 20220 30114 40119 70522 333 10310 58004
AAXX 25001 80036 31568 70407 10274 20183 70522 80008 333 10334 56//0 87270
AAXX 25001 80063 31465 60000 10268 20252 70522 83510 333 10314 56000 83620 84460
AAXX 25001 80084 31457 80000 10252 20243 71522 8481/ 333 10295 5609/ 84815 88459
AAXX 25001 80091 NIL
AAXX 25001 80094 31258 53104 10210 20201 38791 74010 82570 333 10260 5679/ 59007 82606 84357
AAXX 25001 80097 NIL
AAXX 25001 80099 31564 30000 10256 20221 39930 40075 70522 83602 333 10311 563/9 58023 83720
AAXX 25001 80110 NIL
AAXX 25001 80112 31570 31102 10186 20137 37887 70521 81205 333 10222 56090 57895 59001 81820 83070
AAXX 25001 80139 NIL
AAXX 25001 80144 31456 70000 10252 20243 70522 87200 333 10278 560// 87815
AAXX 25001 80210 01563 50000 10219 20192 38642 69931 72052 82831 333 10271 56000 58007 69937 82820 83358
AAXX 25001 80211 01565 70000 10214 20200 69941 75092 84970 333 10282 5652/ 57951 69997 84923 84360
AAXX 25001 80214 31560 53602 10244 20217 39091 70520 82835 333 10294 56559 58003 82820 83360
AAXX 25001 80222 31565 30803 10149 20088 37509 70522 83805 333 10214 569/9 58006 83820
AAXX 25001 80234 NIL
AAXX 25001 80252 NIL
AAXX 25001 80259 11560 53306 10236 20183 39024 69901 70552 83830 333 10299 5626/ 58005 83825 83358
AAXX 25001 80315 01665 60000 10278 20233 39558 40052 69901 70352 81150 333 10326 5609/ 58013 69907 81835 86360
AAXX 25001 80342 NIL
AAXX 25001 80370 NIL
AAXX 25001 80372 NIL
AAXX 25001 80398 31470 50000 10262 20248 39997 40092 70192 82570 333 10320 5609/ 58000 82615 85458
AAXX 25001 11157 17/// /2504 10017 21016 39521 40312 53008 69901 721// 333 91115
AAXX 25001 03966 17231 /2307 10098 20092 30123 40216 50004 60011 75285 88/// 333 81/03 83/07 85/09
AAXX 25004 81225 11670 60000 10244 20235 40126 60061 70382 82552 333 10320 56229 58014 70057 82635 85360
AAXX 25004 81200 11570 30000 10264 20229 40125 60011 70281 81502 333 10/// 56309 58020 70019 81625 83080
AAXX 25004 81202 12470 60812 10270 20235 40128 60001 84832 333 10293 56299 58018 70101 82815 83635 85080
AAXX 25004 81209 NIL
AAXX 25004 81251 NIL
BBXX 44139 25001 99442 70571 46/// /3512 11006 40219 52022 22200 00089 10606 70031 333 91215
AAXX 25001 80001 11470 20806 10274 20237 30115 40116 60021 70155 81201 333 10289 563/0 58003 81818
AAXX 25001 80002 NIL
AAXX 25001 80009 31560 40402 10276 20208 30073 40078 70500 82804 333 10318 560/0 58010 82820 84070
AAXX 25001 80022 31465 70000 10266 20240 30080 40082 70522 81476 333 10308 56990 58003 81617 86270
AAXX 25001 80028 31460 40104 10262 20233 30062 40097 70500 81505 333 10300 561/9 58010 81620 83270
AAXX 25001 80035 31965 41303 10254 20220 30114 40119 70522 333 10310 58004
AAXX 25001 80036 31568 70407 10274 20183 70522 80008 333 10334 56//0 87270
AAXX 25001 80063 31465 60000 10268 20252 70522 83510 333 10314 56000 83620 84460
AAXX 25001 80084 31457 80000 10252 20243 71522 8481/ 333 10295 5609/ 84815 88459
AAXX 25001 80091 NIL
AAXX 25001 80094 31258 53104 10210 20201 38791 74010 82570 333 10260 5679/ 59007 82606 84357
AAXX 25001 80097 NIL
AAXX 25001 80099 31564 30000 10256 20221 39930 40075 70522 83602 333 10311 563/9 58023 83720
AAXX 25001 80110 NIL
AAXX 25001 80112 31570 31102 10186 20137 37887 70521 81205 333 10222 56090 57895 59001 81820 83070
AAXX 25001 80139 NIL
AAXX 25001 80144 31456 70000 10252 20243 70522 87200 333 10278 560// 87815
AAXX 25001 80210 01563 50000 10219 20192 38642 69931 72052 82831 333 10271 56000 58007 69937 82820 83358
AAXX 25001 80211 01565 70000 10214 20200 69941 75092 84970 333 10282 5652/ 57951 69997 84923 84360
AAXX 25001 80214 31560 53602 10244 20217 39091 70520 82835 333 10294 56559 58003 82820 83360
AAXX 25001 80222 31565 30803 10149 20088 37509 70522 83805 333 10214 569/9 58006 83820
AAXX 25001 80234 NIL
AAXX 25001 80252 NIL
AAXX 25001 80259 11560 53306 10236 20183 39024 69901 70552 83830 333 10299 5626/ 58005 83825 83358
AAXX 25001 80315 01665 60000 10278 20233 39558 40052 69901 70352 81150 333 10326 5609/ 58013 69907 81835 86360
AAXX 25001 80342 NIL
AAXX 25001 80370 NIL
AAXX 25001 80372 NIL
AAXX 25001 80398 31470 50000 10262 20248 39997 40092 70192 82570 333 10320 5609/ 58000 82615 85458
BBXX 44139 25001 99442 70571 46/// /3512 11006 40219 52022 22200 00089 10606 70031 333 91215
AAXX 25001 48900 31496 43605 10190 20160 30115 40125 52012 71000 84800 333 20190 58022 81894 83696
AAXX 25001 48917 32598 60506 10231 20175 30116 40122 53016 81208 222// 00267 2//01 333 00022 20229 3/022 58016 81895 86299
AAXX 25001 48918 32470 70203 10246 20198 30113 40124 52008 83208 222// 00239 2//02 333 00025 20240 3/023 58014 81894 87299
AAXX 25001 48914 32998 70203 10218 20169 30123 40125 52015 80008 333 00022 20217 3/021 58022 87299
AAXX 25001 48877 32570 73607 10220 20160 30158 40163 53016 878// 333 00022 20217 3/021 58022 83895 86697
AAXX 25001 48887 32570 70202 10206 20161 30115 40121 52014 81208 333 00021 20203 3/018 58015 81895 87299
AAXX 25001 48870 32474 83202 10205 20141 30178 40185 53019 888// 333 00019 20202 3/016 58016 84894 88696
AAXX 25001 48920 32698 83615 10252 20228 30098 40101 53014 889// 222// 00279 2//08 333 20252 58012 83996 85697 91119 91536
AAXX 25001 48919 32598 70515 10252 20216 30089 40111 53016 83208 22200 02267 2//05 333 20251 58011 83895 87299 91118 91505
AAXX 25001 48916 32698 70207 10242 20187 30065 40112 53012 875// 333 00/// 20240 3//// 58020 87696
AAXX 25001 48892 32598 70207 10254 20221 30110 40115 53017 879// 333 20247 58010 83995 85697
BBXX VOXS 25004 99467 70480 41598 83120 11015 2108/ 40160 51025 70222 885// 22200 04018 20504 332// 40806 81034
AAXX 25004 81225 11670 60000 10244 20235 40126 60061 70382 82552 333 10320 56229 58014 70057 82635 85360
AAXX 25004 81200 11570 30000 10264 20229 40125 60011 70281 81502 333 10/// 56309 58020 70019 81625 83080
AAXX 25004 81202 12470 60812 10270 20235 40128 60001 84832 333 10293 56299 58018 70101 82815 83635 85080
AAXX 25004 81209 NIL
AAXX 25004 81251 NIL
BBXX VOXS 25004 99467 70480 41598 83120 11015 2108/ 40160 51025 70222 885// 22200 04018 20504 332// 40806 81034
AAXX 25001 01046 41989 11505 10002 21070 39838 49845 58024 70110 80002 333 91110
BBXX SFIR 25004 99475 70182 43/95 82128 10124 40296 58005 22223 00120 2//// 4////
AAXX 25004 71807 16/// /3317 11094 21133 30184 40203 52021 60001 333 11045 21096 70036
AAXX 25004 71868 16/// /2904 10028 21015 39683 40124 51039 60001 333 10034 21084 70000
AAXX 25004 71441 46/// /2817 10033 21050 39797 40109 53002 6///1 333 10044 21119 7////
AAXX 25004 71443 16/// /2107 10003 21015 39710 40125 53038 60001 333 10021 21100 70000
AAXX 25004 71447 16/// /2714 10029 21036 39613 40161 53011 60001 333 10048 21077 70000
AAXX 25004 71472 17/// /2016 10075 20062 60021 7//4/ 333 10084 20044 70026
AAXX 25004 71510 17/// /2808 10005 21059 39503 40221 53029 69961 7//4/ 333 10065 21055 70006
AAXX 25004 71837 16/// ///// 10039 60001 333 10050 20008 7////
AAXX 25004 71839 16/// ///// 10045 60001 333 10053 20005 70000
AAXX 25004 71840 46/// /2720 10024 21044 6///1 333 10038 21103 7////
AAXX 25004 71212 16/// /2901 11268 21301 39465 40343 50006 60001 333 11130 21333 70005
AAXX 25004 71246 16/// /2103 10003 21065 39509 40174 50005 60001 333 10045 21019 70000
AAXX 25004 71945 12974 70000 11049 21115 39627 40102 57027 60001 80001 333 11015 21128 70000
AAXX 25004 71311 16/// /3312 11131 21159 30287 40313 51021 60001 333 11085 21134 70010 555 10050
AAXX 25004 71312 16/// /3114 10022 21014 39684 40142 53044 60001 333 10035 21056 70000
AAXX 25004 71316 16/// /2506 11014 21075 39508 40198 51018 60001 333 10051 21014 70000
AAXX 25004 71317 16/// /3105 11106 21137 30249 40298 51020 60001 333 11051 21106 70000
AAXX 25004 71321 17/// /1403 11136 21145 39968 40012 58020 69951 7//4/ 333 11135 21199 70005 555 10010
AAXX 25004 71334 46/// /3506 11145 21173 39742 40075 51050 6///1 333 11037 21145 7////
AAXX 25004 71357 16/// /0000 11256 21281 39968 49975 56007 60001 333 11229 21297 70020
AAXX 25004 71362 16/// /3202 11143 21164 39889 40151 51029 60001 333 11085 21143 70000
AAXX 25004 71372 16/// /0502 11183 21205 60001 333 11128 21723 70000
AAXX 25004 71382 16/// /2103 11260 21283 39316 40370 50001 60001 333 11154 21333 70000
AAXX 25004 71388 46/// /1503 11257 21289 30145 40350 58006 6///1 333 11191 21284 7////
AAXX 25004 71389 46/// /0000 11225 21250 6///1 333 11098 21250 7////
AAXX 25004 71920 16/// /3408 11065 21080 30295 40301 52030 60001 333 10006 21065 70008
AAXX 25004 71732 16/// /1510 11075 21104 60001 333 11075 21181 70000
AAXX 25004 71736 46/// ///// 10040 21029 6///1 333 10059 20002 7////
AAXX 25004 71742 46/// /2710 11148 21181 39997 40191 53023 6///1 333 11100 21148 7////
AAXX 25004 71744 16/// /3103 11161 21198 30277 40321 50012 60001 333 11117 21161 70000 555 10010
AAXX 25004 71747 16/// /2405 11039 21061 39624 40104 56009 60001 333 10006 21062 7////
AAXX 25004 71151 16/// /1908 11063 21075 39578 40088 56010 60001 333 11062 21076 70000
AAXX 25004 71157 46/// ///// 10021 21048 6///1 333 10061 20012 7////
AAXX 25004 71158 16/// /2712 11010 21031 39786 40063 53009 60001 333 11006 21091 70000
AAXX 25004 71159 17/// /3211 11110 21144 30145 40220 51013 69951 7//4/ 333 11101 21116 70008
AAXX 25004 71160 16/// /2904 11171 21194 39901 40121 53027 60001 333 11143 21171 70000
AAXX 25004 71162 16/// /3113 11162 21184 39920 40135 51021 60001 333 11114 21162 70000
AAXX 25004 71164 46/// /0101 11301 21335 30108 40194 58003 6///1 333 11246 21330 7////
AAXX 25004 71166 46/// /1001 39492 56004 6///1 333 7////
AAXX 25004 71402 46/// /2818 11124 21170 30051 40169 52017 6///1 333 11093 21124 7////
AAXX 25004 71442 16/// /3011 10017 21037 39776 40092 53017 60001 333 10017 21101 70000
AAXX 25004 71075 16/// /3008 11087 21100 39487 40097 52040 60001 333 11046 21087 70000 555 10750
AAXX 25004 71087 46/// /0803 11162 21188 39944 40154 53008 6///1 333 11122 21162 7////
AAXX 25004 71750 16/// /2209 11004 21048 39879 40115 57018 60001 333 11001 21068 70039 555 10060
AAXX 25004 71771 46/// /1609 10082 20059 30043 40063 58003 6///1 333 10092 20050 7////
AAXX 25004 71450 16/// /2913 10013 21056 39494 40221 53030 60001 333 10067 21030 70000
AAXX 25004 71451 16/// /2810 11015 21050 39669 40097 51043 60001 333 10013 21091 70006
AAXX 25004 71452 46/// /2913 10021 21049 39487 40206 51028 6///1 333 10083 21033 7//// 555 10010
AAXX 25004 71455 46/// /3014 10017 21049 39422 40228 53026 6///1 333 10045 21029 7////
AAXX 25004 71465 46/// /2113 10024 21035 30037 40258 58008 6///1 333 10025 21025 7////
AAXX 25004 71470 16/// /3403 11244 21269 39475 40123 51011 60001 333 11222 21244 70000
AAXX 25004 71475 17/// /1005 10075 20068 30170 40265 58012 60031 7//4/ 333 10076 20022 70222
AAXX 25004 71476 17/// /2015 30046 58002 60131 7//4/ 333 70154
AAXX 25004 71478 17/// /1736 10089 20087 30005 40141 56017 60041 7//4/ 333 10090 20073 70098
AAXX 25004 71479 16/// /1132 10083 20083 30051 40172 58005 60001 333 10088 20073 70000
AAXX 25004 71482 46/// /0510 10053 30109 40147 58027 6///1 333 10062 20041 7////
AAXX 25004 71484 16/// /2020 10082 20074 30047 40065 53012 60001 333 10083 20063 70000
AAXX 25004 71489 16/// /2305 11024 21072 39415 40221 51029 60001 333 10059 21036 70000
AAXX 25004 71492 46/// ///10 11289 21316 39399 40128 51004 6///1 333 11281 21316 7////
AAXX 25004 71551 16/// /2810 10008 21046 39552 40212 53031 60001 333 10067 21009 70000
AAXX 25004 71556 16/// /2810 11002 21041 39583 40195 53032 60001 333 10056 21032 70000 555 10010
AAXX 25004 71564 16/// /2914 10034 21053 39746 40114 53005 60001 333 10048 21121 70000
AAXX 25004 71580 11574 13308 11275 21318 39979 40016 51013 69901 72270 81500 333 11243 21279 48032 79999 90920
AAXX 25004 71581 16/// /1101 11139 21155 39778 40289 55002 60001 333 11071 70000
AAXX 25004 71599 16/// /0203 11106 21116 30097 40308 51022 60001 333 11047 21106 70007 555 10030
AAXX 25004 71141 16/// /3209 11294 21324 30032 40060 51007 60001 333 11286 21328 70000
AAXX 25004 71501 16/// /3114 11284 21315 30185 40187 58004 60001 333 11253 21286 7//// 555 10020
AAXX 25004 71512 16/// /3003 11256 21276 30278 40294 53018 60001 333 11148 21283 70000
AAXX 25004 71515 16/// /2816 10011 21037 39474 40181 53024 60001 333 10034 21033 70000
AAXX 25004 71851 16/// /2711 10039 21030 39770 40107 53006 60001 333 10039 21084 70000
AAXX 25004 71885 16/// ///// 10052 60001 333 10057 21007 70000
AAXX 25004 71928 16/// /2105 10034 21075 39051 40220 58003 60001 333 10061 21026 70000
AAXX 25004 71861 16/// /2912 10018 21041 39436 40165 53023 60001 333 10028 21031 70000
AAXX 25004 71667 16/// /2204 11018 21053 39857 40105 58014 60001 333 11002 21047 70000 555 10040
AAXX 25004 71669 16/// /2402 10023 21046 38631 40269 53003 60001 333 10040 21022 70000
AAXX 25004 71015 16/// ///// 10031 60001 333 10036 21005 70000
AAXX 25004 71017 16/// /2712 11328 21362 30051 40066 50003 60001 333 11278 21336 70000
AAXX 25004 71018 16/// ///06 11354 21390 39930 40021 56001 60001 333 11271 21357 70000
AAXX 25004 71019 46/// /3403 11196 21216 30015 40337 51007 6///1 333 11147 21208 7////
AAXX 25004 71020 46/// /0201 11191 21209 39855 40118 58003 6///1 333 11136 21192 7////
AAXX 25004 71021 46/// /0000 11148 21165 39734 40090 56005 6///1 333 11049 21154 7////
AAXX 25004 71039 46/// /2802 11163 6///1 333 11106 21203 7////
AAXX 25004 71956 17/// /2016 10011 21028 39956 40192 58021 69931 7//4/ 333 10012 21081 70014
AAXX 25004 71959 16/// ///// 11071 21091 60001 333 11049 21080 70038 555 10050
AAXX 25004 71970 16/// /2609 11008 21053 39594 40185 51030 60001 333 10057 21014 70000
AAXX 25004 71977 46/// /3402 11305 21305 39416 40164 50000 6///1 333 11247 21318 7//// 555 10010
AAXX 25004 71978 46/// /2203 11348 21383 39843 40176 58001 6///1 333 11267 21351 7////
AAXX 25004 71989 16/// /0203 11324 21356 30122 40139 51010 60001 333 11309 21375 70000 555 10020
AAXX 25004 71250 16/// /3108 11105 21146 30035 40175 51021 60001 333 11037 21105 70044
AAXX 25004 71254 16/// /2503 11038 21069 60001 333 10050 21038 70000
AAXX 25004 71270 16/// /1611 11025 21066 30029 40258 58011 60001 333 10005 21104 70000
AAXX 25004 71288 16/// /3108 11314 21345 30071 40097 52011 60001 333 11308 21331 70000
AAXX 25004 71294 16/// /1903 11108 21134 39877 40303 55000 60001 333 11067 70000
AAXX 25004 71295 16/// /2304 11055 21075 39631 40081 55004 60001 333 11049 21086 70000
AAXX 25004 71296 16/// /1509 11037 21061 39949 40266 58008 60001 333 11026 70000
BBXX 9V9243 25003 99150 10622 41/97 /0418 10242 40120 56012 7//// 8//// 22224 00267 2////
BBXX SERW 25003 99182 70225 43/97 /0315 10225 2//// 40186 50002 70222 8//// 22252 06222 2//// 3//// 4////
AAXX 25001 37279 41494 81301 10080 20076 30013 40156 52021 76166 8872/
AAXX 25001 37308 415// 80000 10036 20029 39504 40159 52009 76366 8672/
AAXX 25001 37531 415// 81203 10045 20040 39440 40167 53017 76072 8802/
AAXX 25001 37553 425// 83601 10015 20007 39478 40134 52004 83530 333 55/// 555 11000
AAXX 25001 37651 16/// ///00 10021 20005 3//// 4//// 5//// 60001 333 55///
AAXX 25001 37492 NIL
BBXX SBLW 25003 99152 70975 43/98 20005 10274 40121 55005 22274 00292 2//// 4////
BBXX SJCD 25001 99543 71649 43/97 63414 11044 40111 50000 22264 00047
BBXX SMGW 25001 99343 71602 43/98 72022 10176 40280 58026 22224 00185 20503 41108
AAXX 25004 04211 47/74 /0708 11179 21203 39752 49919 57006 77777
AAXX 25004 04220 07450 83003 11114 21152 39843 49896 57005 69911 78587 333 55300 20004 69907 81/19 83/24 85/31 88/40
AAXX 25004 04221 45677 80910 11161 21219 39859 49898 57005 333 83/41 85/50 88/56
AAXX 25004 04231 11530 70702 11181 21207 39845 49922 57005 69921 77177 875// 333 83621 85627 87643
AAXX 25004 04234 47581 73014 11101 21166 39909 49919 57001 78588 333 87/28 87/59 91133 91219
AAXX 25004 04241 45981 31108 11107 21179 39875 49915 52005 333 83/68
AAXX 25004 04250 07958 53523 11116 21153 39787 49894 52001 69921 78587 333 55300 20000 69917 85/69
AAXX 25004 04254 47950 33616 11116 21170 39796 49914 52013 78588 333 83/68
AAXX 25004 04260 45783 21202 11109 21200 39844 49889 52002 333 81/56 82/70
AAXX 25004 04270 45/84 /0801 11138 21258 39831 49871 57004
AAXX 25004 04272 05/84 0//// 11115 21148 39791 49865 57002 6///1 333 6///7
AAXX 25004 04312 46/// ///// 11180 21203 39778 49820 52008
AAXX 25004 04320 47/// /3332 11096 21109 39670 49685 57007 772// 333 55300 91146 91239 91046
AAXX 25004 04339 45/84 ///// 11131 21179 39652 49743 52009 333 55300 20000
AAXX 25004 04360 06/// /2904 11161 21238 39660 49732 57010 6///1 333 55300 20000 6///7
AAXX 25004 04361 465// 12505 11160 21222 39676 49730 57015 333 81/32
AAXX 25004 04390 07/67 02716 11065 21180 39726 49820 57015 60031 72487 333 60017
AAXX 25004 71807 16/// /3317 11094 21133 30184 40203 52021 60001 333 11045 21096 70036
AAXX 25004 91753 01563 83102 10270 20250 30047 40079 58004 60061 76086 85831 333 60057 83833 83641 87076 90710 91112 555 60055
AAXX 25004 91754 06/// /0306 10279 20239 30037 40078 58003 60244 333 20244 58022 60007 555 60005
AAXX 25004 71441 46/// /2817 10033 21050 39797 40109 53002 6///1 333 10044 21119 7////
AAXX 25004 71443 16/// /2107 10003 21015 39710 40125 53038 60001 333 10021 21100 70000
AAXX 25004 71447 16/// /2714 10029 21036 39613 40161 53011 60001 333 10048 21077 70000
AAXX 25004 71472 17/// /2016 10075 20062 60021 7//4/ 333 10084 20044 70026
AAXX 25004 71510 17/// /2808 10005 21059 39503 40221 53029 69961 7//4/ 333 10065 21055 70006
AAXX 25004 71945 12974 70000 11049 21115 39627 40102 57027 60001 80001 333 11015 21128 70000
AAXX 25004 71928 16/// /2105 10034 21075 39051 40220 58003 60001 333 10061 21026 70000
AAXX 25004 71868 16/// /2904 10028 21015 39683 40124 51039 60001 333 10034 21084 70000
AAXX 25004 71861 16/// /2912 10018 21041 39436 40165 53023 60001 333 10028 21031 70000
BBXX VCXF 25004 99464 70484 41598 83219 11016 2106/ 40147 52027 70222 885// 22200 02017 20504 322// 40806 81030
BBXX 44150 25001 99425 70640 46/// /0210 10013 40264 5//// 22200 00104 11005 70024 333 91212
BBXX VCXF 25004 99464 70484 41598 83219 11016 2106/ 40147 52027 70222 885// 22200 02017 20504 322// 40806 81030
BBXX 44150 25001 99425 70640 46/// /0210 10013 40264 5//// 22200 00104 11005 70024 333 91212
AAXX 25004 68398 16/// /3605 10195 20190 39410 48550 58001 60103 333 10208 20192 91006 555 20102 91018
AAXX 25004 68298 16/// /0703 1//// 2//// 39534 4//// 57003 60123 333 1//// 2//// 91004 555 20120 91020
AAXX 25001 40706 11335 80202 10032 20023 38608 40131 51004 60021 78088 8532X 333 82710 83935 88458
AAXX 25001 40718 11558 83002 10108 20092 30151 40122 53008 60001 71022 8552/ 333 85625 88458
AAXX 25001 40732 12960 00000 10084 20067 30131 40106 54000 60001 333
AAXX 25001 40745 11957 02302 10006 21060 39003 40151 50001 60001 70500 333
AAXX 25001 40754 12660 73002 10051 21078 38799 40144 55001 60001 82520 333 82640 87460
AAXX 25001 40766 12660 71303 10088 20002 38675 40129 58006 60001 84320 333 81935 83640 87458
AAXX 25001 40800 12960 00000 10010 21026 38435 40150 56001 60001 333
AAXX 25001 40811 11950 00902 10114 20086 30117 40144 58003 60001 71010 333
AAXX 25001 40841 12960 00000 11020 21131 38251 40153 53003 60001 333
AAXX 25001 40848 12965 00000 10010 21047 38530 40172 53002 60001 333
AAXX 25001 40856 11940 01802 11040 21316 38617 40169 58003 60001 70500 333
AAXX 25001 40875 11950 03503 10120 20092 30143 40155 54000 60001 71000 333
AAXX 25001 40706 11335 80202 10032 20023 38608 40131 51004 60021 78088 8532X 333 82710 83935 88458
AAXX 25001 40718 11558 83002 10108 20092 30151 40122 53008 60001 71022 8552/ 333 85625 88458
AAXX 25001 40732 12960 00000 10084 20067 30131 40106 54000 60001 333
AAXX 25001 40745 11957 02302 10006 21060 39003 40151 50001 60001 70500 333
AAXX 25001 40754 12660 73002 10051 21078 38799 40144 55001 60001 82520 333 82640 87460
AAXX 25001 40766 12660 71303 10088 20002 38675 40129 58006 60001 84320 333 81935 83640 87458
AAXX 25001 40800 12960 00000 10010 21026 38435 40150 56001 60001 333
AAXX 25001 40811 11950 00902 10114 20086 30117 40144 58003 60001 71010 333
AAXX 25001 40841 12960 00000 11020 21131 38251 40153 53003 60001 333
AAXX 25001 40848 12965 00000 10010 21047 38530 40172 53002 60001 333
AAXX 25001 40856 11940 01802 11040 21316 38617 40169 58003 60001 70500 333
AAXX 25001 40875 11950 03503 10120 20092 30143 40155 54000 60001 71000 333
BBXX 44067 25001 99384 70770 46/// /1403 10054 40307 51013 90000
BBXX 41053 25001 99185 70661 46/// /0708 10265 40173 53013 90000 22200 00271 10703 70016 333 91210
AAXX 25001 56778 32660 82501 10061 20046 38141 52009 885// 333 05305
AAXX 25001 57265 32964 70000 10004 21030 30213 40329 52014 8703/ 333 00002 31029
AAXX 25001 57494 32962 70201 11004 21005 30299 40330 52013 8703/ 333 00103 31023
AAXX 25001 57687 32962 70000 10020 21018 30243 40331 52013 86042 333 00001 31018
AAXX 25001 58102 32968 32501 11027 21080 30280 40331 52016 80002 333 00100 31016
AAXX 25001 58150 31950 22501 11028 21077 30328 40332 52025 70500 80002 333 00451 31019
AAXX 25001 58221 31957 70000 11022 21053 30304 40334 52014 71000 80002 333 00200
AAXX 25001 58238 31957 71401 11017 21057 30293 40340 52021 71000 80002 333 00351 31039
AAXX 25001 58251 31920 50000 11028 21047 30327 40332 52022 71000 80002 333 00351 31034
AAXX 25001 58606 31959 01401 10022 21031 30272 40333 52014 71000 333 00101 31047
AAXX 25001 59287 32964 20403 10063 21045 30196 40285 52013 80002 333 00252 30018
AAXX 25001 59431 31950 10000 10017 20008 30133 40287 52016 71000 81042 333 05156 30011
AAXX 25001 59758 32964 20706 10139 20053 30169 40247 52011 80002 333 00001
AAXX 25001 53588 32980 02505 11156 21212 37795 52016 333 00402
AAXX 25001 53772 31958 01401 11090 21140 39393 40368 52020 70400 333 00301
AAXX 25001 54337 32960 30902 11148 21196 30251 40341 52021 80002 333 00553
AAXX 25001 54342 31958 00701 11198 21222 30275 40343 52019 71000 333 00651
AAXX 25001 54511 32962 02001 11050 21143 30272 40314 52016 333 00352
AAXX 25001 56080 32970 00000 11169 21211 37150 52002 333 05102
AAXX 25001 57083 32964 62502 10033 21130 30179 40320 52016 80002 333 00102 31029
AAXX 25001 50468 32970 63204 11231 21272 30061 40293 52014 80002 333 00405 79999 92508
AAXX 25001 50953 32970 02501 11226 21274 30129 40329 52015 333 00500
AAXX 25001 52866 32965 03401 11167 21198 37730 57003 333 05200
AAXX 25001 53463 32970 00701 11128 21182 39053 40384 52016 333 00301
AAXX 25001 53513 32970 02202 11131 21190 39072 40375 52007 333 00200
AAXX 25001 54218 32970 22002 11158 21216 39489 40357 52013 80002 333 00402
AAXX 25001 54471 32960 00702 11134 21179 30333 40339 52022 333 00552
AAXX 25001 54497 32970 03402 11125 21233 30312 40330 52020 333 00653
AAXX 25001 54823 32980 01102 11014 21115 30104 40324 52019 333 00202
AAXX 25001 52533 32980 02501 11160 21191 38584 40390 54000 333 05251
AAXX 25001 52652 32980 21802 11195 21230 38596 40397 57005 80002 333 05301
AAXX 25001 52983 32980 02702 11139 21171 38153 52002 333 05201
AAXX 25001 53915 32980 03202 11087 21135 38738 40362 52003 333 05100
AAXX 25001 54401 32970 03403 11107 21186 39429 40345 52017 333 00300
AAXX 25001 56096 32775 60402 11016 21088 39024 40312 52003 85502 333 05202
AAXX 25004 43400 NIL
AAXX 25004 43404 NIL
AAXX 25004 43410 NIL
AAXX 25004 43413 NIL
AAXX 25004 43415 22470 10000 10218 20209 39976 40084 81100 333 5//// 60007 81818
AAXX 25004 43418 22470 63204 10245 20221 3//// 4//// 83122 333 5//// 60007 83818 84458
AAXX 25004 43421 22460 30000 10221 20212 39978 40080 83100 333 59002 60007 83818
AAXX 25004 43422 NIL
AAXX 25004 43424 22968 00206 10228 20207 30069 40071 333 59002 60007
AAXX 25004 43436 22470 63206 10252 20229 30068 40071 8113/ 333 59002 60007 81818 86360
AAXX 25004 43441 22470 336// 10238 20211 39939 40068 83600 333 5//// 60002 83716
AAXX 25004 43444 22470 60000 10198 20192 39545 40078 86100 333 59007 60007 86818
AAXX 25004 43467 22960 03606 10242 20215 30069 40074 333 58000 60007
AAXX 25004 43473 22970 00000 10102 20087 38105 48475 333 58000 60007
AAXX 25004 43475 NIL
AAXX 25004 43476 NIL
AAXX 25004 43479 21430 80000 10197 20189 39238 705// 872// 333 5//// 69908 87816
AAXX 25004 43486 22470 40000 10232 20227 39983 40077 84100 333 58002 60007 84814
AAXX 25004 43495 22960 5//// 10237 20222 30055 40071 85030 333 58001 60007 85358
AAXX 25004 43497 22472 20504 10243 20223 30049 40067 82100 333 58004 60007 82818
AAXX 25001 56187 31950 43401 11006 21028 39636 40312 52006 71000 84040 333 05102 30010
AAXX 25001 57461 31958 73401 10043 20003 30160 40329 52007 71000 8703/ 333 05104 30010
AAXX 25001 57516 31720 80000 10068 20045 39985 40305 52008 71000 885// 333 05201
AAXX 25001 57816 31658 80203 10017 21046 38864 40299 52007 71000 885// 333 05201 30011 79999
AAXX 25001 58040 31956 00000 11046 21072 30310 40324 52018 71000 333 00351
AAXX 25001 58457 31930 31801 10005 21057 30286 40341 52021 71000 80002 333 00300 31045
AAXX 25001 58847 32967 03201 10066 21039 30216 40322 52019 333 00400 30017
AAXX 25001 59117 31959 02001 10027 20003 30187 40298 52016 71000 333 00254 30017
AAXX 25001 59134 32965 00409 10081 21025 30116 40290 52013 333 00351
AAXX 25001 59316 32960 00901 10085 21019 30267 40272 52016 333 00351 30046
AAXX 25001 59644 32960 40202 10088 21025 30250 40267 52016 80002 333 00000 30050
AAXX 25001 58362 31950 22501 11011 21033 30323 40332 52020 71000 80001 333 00453 31030
AAXX 25001 58752 32961 02702 10032 21017 30290 40338 52019 333 00553 31023
AAXX 25001 50136 31/04 92201 11411 21462 39779 40418 52014 74740 333 00500 92510
AAXX 25001 50745 32965 22901 11261 21311 30131 40341 52013 80002 333 00501
AAXX 25001 50774 11660 82504 11250 21286 39954 40296 52013 69941 77077 885// 333 00310 70005 92514
AAXX 25001 50788 11962 82708 11201 21225 30110 40204 52012 69911 77070 8802/ 333 00106 70004 92501
AAXX 25001 51133 32980 00402 11082 21178 39576 40252 57003 333 05452 31048 92510
AAXX 25001 51431 NIL
AAXX 25001 51747 NIL
AAXX 25001 52203 NIL
AAXX 25001 52418 32980 00401 11160 21191 38953 40373 52004 333 05501
AAXX 25001 52681 32980 02501 11151 21211 38709 40391 52001 333 05200
AAXX 25001 53564 32965 00000 11169 21190 39300 40407 52016 333 00200
AAXX 25001 53614 32970 13602 11120 21140 39001 40376 52004 80002 333 00051
AAXX 25001 53646 32970 00000 11141 21168 38952 40389 52014 333 00251
AAXX 25001 53798 32960 00000 11031 21106 30222 40323 52023 333 00251
AAXX 25001 53845 32968 02501 11108 21140 39186 40380 52005 333 00051
AAXX 25001 53959 32965 02002 11066 21100 39884 40353 52010 333 00000 31041
AAXX 25001 54094 32960 72704 11232 21297 39966 40300 52017 80002 333 00451 92504
AAXX 25001 54102 11980 02002 11216 21240 39086 40402 52017 69901 70070 333 00403 79999
AAXX 25001 54161 31958 02501 11235 21287 30022 40350 52015 70400 333 00651
AAXX 25001 54292 32980 02709 11211 21302 39940 40291 52013 333 00553
AAXX 25001 54374 32965 03601 11248 21282 39841 40357 52022 333 00755 92504
AAXX 25001 54423 32980 13601 11146 21179 39801 40357 52021 80002 333 00451
AAXX 25001 54618 32962 60701 11046 21127 30301 40320 52024 80002 333 00302
AAXX 25001 54843 32968 02001 11028 21106 30288 40317 52014 333 00300
AAXX 25001 54909 32961 71801 11045 21076 30252 40319 52020 80002 333 00101 31023
AAXX 25001 56029 32980 00000 11149 21217 36449 52009 333 00302
AAXX 25001 57127 32960 80701 10003 21018 39694 40328 52007 8807/ 333 05203 31021
AAXX 25001 57131 32962 13401 11034 21070 39835 40353 52009 81030 333 05151
BBXX 44255 25001 99473 70573 46/// /3111 11076 40214 52017 22200 00038 10604 70018 333 91214
BBXX 44255 25001 99473 70573 46/// /3111 11076 40214 52017 22200 00038 10604 70018 333 91214
AAXX 25004 43466 22470 40205 10240 20216 30064 40076 81132 333 58004 60007 81818 83360
OOXX AAUNI 25004 99798 50833 56093 07671 46/// /2322 11048 21106 38982 49859 57001 90000
AAXX 25000 44203 329// 10000 11258 21276 38431 40455 54000 81040 333 21282 47006 555 31330
AAXX 25000 44207 329// 31804 11183 21233 38328 40371 54000 83080 333 21235 47008 55/// 555 31274
AAXX 25000 44212 32999 60000 11262 21287 39262 40529 52003 86070 333 21317 47011 55000 555 31345
AAXX 25000 44213 32999 00000 11318 21351 38875 40567 52002 333 21327 47011 555 31376
AAXX 25000 44215 32998 00000 11275 21299 38458 40510 52002 333 21278 46001 555 31294
AAXX 25000 44218 329// 02102 11274 21298 38664 40495 58003 333 21277 46002 55054 555 3////
AAXX 25000 44225 329// 00000 11328 21344 38335 40609 54000 333 21330 48015 555 31///
AAXX 25000 44230 329// 23604 11183 21218 38830 40421 51001 80008 333 21194 47009 555 31213
AAXX 25000 44232 329// 00000 11247 21274 39153 40407 52004 333 21252 43008 555 31288
AAXX 25000 44237 32999 02303 11141 21202 38516 40356 53002 333 21180 47014 555 31233
AAXX 25000 44239 329// 23403 11220 21260 38833 40398 51004 80002 333 21233 43008 555 31290 99601 99905
AAXX 25000 44241 329// 21801 11279 21303 39321 40418 52004 82040 333 21286 47005 555 31308
AAXX 25000 44256 11999 30000 11343 21364 39405 40386 53018 69932 70270 83070 333 21345 47006 555 31352 93100
AAXX 25000 44265 329// 00000 11233 21258 38880 40419 56003 333 21255 43004 555 31289
AAXX 25000 44272 329// 01801 11256 21294 38263 40477 57002 333 21269 47005 55049 555 31312
AAXX 25000 44275 32998 00000 11274 21285 37752 40518 56003 333 21231 47002 555 31340
AAXX 25000 44282 32999 02304 11115 21211 38326 40360 53008 333 21125 41998 55069 555 31205
AAXX 25000 44284 32999 02001 11268 21300 37882 40580 51003 333 21277 47009 555 31310
AAXX 25000 44285 32999 00000 11220 21252 38357 40458 53004 333 21231 44005 555 31274
AAXX 25000 44287 32999 00603 11195 21241 38153 40470 53007 333 21200 46002 55048 555 31231
AAXX 25000 44294 329// 00000 11325 21360 38603 40538 52008 333 21338 43003 555 31338
AAXX 25000 44298 32999 03603 11218 21224 38762 40406 52010 333 21270 47004 555 31290
AAXX 25000 44302 32999 22706 11234 21272 39153 40377 52009 82044 333 21237 48010 555 31253
AAXX 25000 44305 32999 32907 11219 21252 39093 40357 52013 83040 333 21241 42006 555 31252
AAXX 25000 44313 32999 00000 11334 21376 39453 40415 53006 333 21341 47009 555 3////
AAXX 25000 44314 32998 52902 11191 21224 39165 40335 52002 83018 333 21241 46003 555 31273
AAXX 25000 44317 32998 32705 11183 21216 38967 40340 52006 83040 333 21205 47003 555 31207
AAXX 25000 44336 329// 03202 11240 21268 38748 40482 53007 333 21259 43002 555 31282
AAXX 25000 44341 329// 00000 11222 21247 38651 40457 51008 333 21222 42002 555 31277
AAXX 25000 44347 32999 00000 11201 21234 38770 40421 53010 333 21201 555 31232
AAXX 25000 44352 32999 03205 11186 21212 38956 40364 53011 333 21248 42004 555 31260
AAXX 25000 44358 32998 23204 11220 21232 39150 40415 52023 80004 333 21222 41000 555 31262
AAXX 25000 44214 32998 03503 11223 21266 38314 40484 57001 333 21223 46001 555 31264
AAXX 25000 44231 329// 20000 11186 21244 38766 40437 53003 80001 333 21195 47009 55034 555 31347
AAXX 25000 44259 32997 00701 11279 21311 39368 40387 53027 333 21279 47012 555 31301
AAXX 25000 44277 329// 02302 11205 21245 37824 40503 57002 333 21220 46000 555 31264
AAXX 25000 44288 32999 02702 11132 21215 38196 40399 53005 333 21167 41998 555 31225
AAXX 25000 44292 319// 01001 11288 21312 38755 40490 53012 70400 333 21289 47007 55032 555 31322
AAXX 25000 44304 32999 52304 11273 21304 39048 40421 52015 85050 333 21284 47011 555 31297
AAXX 25000 44354 32999 22905 11219 21251 39170 40401 52020 80004 333 21234 46002 555 31261
AAXX 25000 44373 32999 12001 11185 21223 38587 40419 53009 80004 333 21185 43005 55079 555 31269
AAXX 25004 47401 11/10 81505 11017 21027 39894 49909 52021 60102 78688 883// 333 21022 4/063 70185
AAXX 25004 47412 11/60 72204 11025 21096 39964 49997 53019 69902 70282 8327/ 333 21060 4/027 79999
AAXX 25004 47420 15/70 /2414 11028 21123 39920 49954 56001 60002 333 21061
AAXX 25004 47426 17/29 /2824 11021 21066 39970 40018 53012 69902 77170 333 21051
AAXX 25004 47582 11/60 72824 11010 21082 30072 40100 53005 60022 78582 873// 333 21034 4/012 70025
AAXX 25004 47590 11/80 62809 10012 21091 30039 40094 51006 69902 70281 86300 333 21022 79999
AAXX 25004 47600 17/70 /3010 10010 21026 30134 40142 53005 60022 77176 333 20000
AAXX 25004 47648 12/80 12810 10051 21034 30079 40114 53017 60002 81100 333 20023 70000
AAXX 25004 47662 12/84 13204 10040 21077 30071 40116 51017 60002 81200 333 20028 70000
AAXX 25004 47678 17/70 /2815 10086 20008 39938 40127 51018 69952 72360 333 20052
AAXX 25004 47740 17/82 /3009 10008 21016 30143 40179 53013 60122 72487 333 21001
AAXX 25004 47778 15/70 /3014 10053 21040 30090 40176 51012 60002 333 20029
AAXX 25004 47807 11/70 63414 10045 21064 30243 40262 53021 69902 70282 86200 333 20039 79999
AAXX 25004 47827 11/70 73513 10049 20003 30217 40257 53020 69902 78382 87200 333 20033 70010
AAXX 25004 47843 17/81 /3510 10053 21040 30241 40275 53024 69902 78087 333 20049
AAXX 25004 47893 12/81 12805 10052 21086 30200 40206 51014 60002 81200 333 20008 70000
AAXX 25004 47909 11/70 73411 10131 20048 30242 40252 53023 60032 72581 872// 333 20116 70085
AAXX 25004 47918 11/75 70211 10160 20064 30245 40263 53017 69902 70262 878// 333 20143 70005
AAXX 25004 47936 11/80 70110 10143 20059 30198 40258 53017 69902 72162 878// 333 20140 70005
AAXX 25004 47945 11/65 60113 10174 20096 30203 40228 51019 69902 72161 86800 333 20151 79999
AAXX 25004 47971 11/75 62005 10192 20105 30163 40173 53025 69902 72581 86230 333 20175 70015
AAXX 25004 47991 16/// /2112 10276 20236 30130 40140 51012 69902 333 20246 70015
AAXX 25004 78397 112570 13107 10282 20227 30138 40154 60001 81801 333 01009 10335 20227 58006 81822
AAXX 25004 47407 11/08 81510 11062 21079 39798 49975 53011 60052 78622 883// 333 21080 4/046 70050
AAXX 25004 47409 12/80 22212 11042 21143 39886 49941 53003 60002 81232 333 21066 4/013 70000
AAXX 25004 47418 12/82 32617 11026 21140 39922 49972 53013 60002 82232 333 21048 4/004 70000
AAXX 25004 47421 17/21 /2609 11033 21071 39977 40021 51013 60032 77170 333 21058
AAXX 25004 47430 11/65 22810 11041 21099 39989 40045 51014 60022 72681 82300 333 21063 4/024 70025
AAXX 25004 47570 17/70 /2406 11017 21052 39853 40120 52002 69902 72470 333 21026
AAXX 25004 47575 11/60 72216 11044 21070 30064 40069 51013 69952 78583 873// 333 21057 4/048 70020
AAXX 25004 47584 11/58 22507 11039 21073 39886 40082 53007 69952 78588 823// 333 21051 4/007 70005
AAXX 25004 47604 11/65 73109 10011 21036 30117 40126 57002 69952 72782 86202 333 20000 4/001 70050
AAXX 25004 47605 11/05 82204 10003 21005 30105 40148 53005 60092 78682 882// 333 20001 4/005 70195
AAXX 25004 47610 11/70 70703 11012 21050 39617 40134 53006 69952 70282 82231 333 21038 4/001 70005
AAXX 25004 47624 12/82 13105 10025 21077 39977 40119 51010 60002 81101 333 21005 70000
AAXX 25004 47629 12/80 10102 10015 21034 30076 40115 52016 60002 81200 333 21022 70000
AAXX 25004 47636 11/30 82807 10020 20002 30087 40158 53018 69902 78582 882// 333 20015 79999
AAXX 25004 47651 12/75 22810 10046 21041 30137 40160 52015 60002 82400 333 20026 79999
AAXX 25004 47655 15/70 /2816 10039 21027 30084 40142 53019 60002 333 20018
AAXX 25004 47675 17/70 /0709 10060 20002 30020 40113 53017 69902 70060 333 20051
AAXX 25004 47741 11/40 72516 10008 21014 30171 40199 53018 60102 78582 872// 333 20002 4/004 70110
AAXX 25004 47746 11/60 72811 10013 21026 30167 40187 53012 60362 78582 872// 333 20001 4/021 70440
AAXX 25004 47750 11/40 81603 10008 21003 30142 40171 53010 60212 78582 882// 333 20002 4/006 70210
AAXX 25004 47765 11/80 30802 10020 21039 30157 40225 53017 69902 72681 83200 333 20007 70005
AAXX 25004 47772 12/81 22715 10038 21042 30077 40180 53013 60002 82800 333 20025 79999
AAXX 25004 47800 15/84 /3314 10012 21103 30265 40270 53025 60002 333 20011
AAXX 25004 47815 12/75 23010 10046 21063 30227 40244 53016 69902 82200 333 20017 79999
AAXX 25004 47817 11/80 63508 10048 21030 30222 40267 53018 69902 72682 86200 333 20028 70025
AAXX 25004 47830 12/80 12709 10054 21071 30225 40244 51020 60002 81400 333 20012 70000
AAXX 25004 47887 11/70 42705 10032 21062 30189 40232 53017 69902 70281 84200 333 20026 79999
AAXX 25004 47891 12/75 52710 10036 21066 30189 40207 53019 60002 85200 333 20029 79999
AAXX 25004 47895 12/80 22812 10041 21049 30182 40190 53014 60002 82200 333 20023 79999
AAXX 25004 47927 11/70 70211 10156 20058 30215 40265 53019 69902 72582 878// 333 20146 79999
AAXX 25001 10270 16959 02503 10017 20013 30204 40261 53011 60001 222// 06042 333 55300
AAXX 25004 40100 11550 62305 10130 20109 30090 40122 51001 60111 79196 86900 900// 333 82920 84826 91135 92436
AAXX 25004 40101 11550 82308 10063 20047 39047 48447 56005 60151 79596 889// 900// 333 81923 87826
AAXX 25004 40102 NIL
AAXX 25004 40103 NIL
AAXX 25004 78397 112570 13107 10282 20227 30138 40154 60001 81801 333 01009 10335 20227 58006 81822
AAXX 25001 08501 32/// /1707 10171 20155 30268 40304 54000 333 91111
AAXX 25001 08505 32470 31205 10168 20142 30279 40329 58005 83800 333 83814
AAXX 25001 08509 32460 11402 10142 20135 30274 40339 57004 81100 333 81814
AAXX 25001 08512 11375 71006 10153 20144 30256 40342 54000 69901 70282 878// 333 81708 83813 85645
AAXX 25001 08515 11470 60903 10154 20137 30222 40345 51002 69931 78082 86800 333 83819 84641 910// 911//
AAXX 25001 08533 32/// /0702 10085 20055 30256 40286 52002
AAXX 25001 08541 NIL
AAXX 25001 08545 31965 00503 10082 20003 30246 40332 52003 70100 333 91106
AAXX 25001 08548 32/// /0502 10086 20012 30108 40319 52005 333 91108
AAXX 25001 08554 32965 00603 10122 20061 30278 40287 52006 333 91105
AAXX 25001 08558 32/// /9903 10055 20012 30006 40310 52005 333 91105
AAXX 25001 08560 32/// /0607 10052 20001 39558 40338 52003 333 91013 91113
AAXX 25001 08567 32/// /0403 10051 20010 39680 40366 54000
AAXX 25001 08570 NIL
AAXX 25001 08575 32/// /0000 10018 21001 39535 40381 52002
AAXX 25001 08579 NIL
AAXX 25001 40703 12660 60000 11026 21041 38881 40161 52016 60001 82570 333 82640 86359
AAXX 25001 40712 11560 52202 11002 21002 38629 40134 50001 60021 70181 85300 333 81930 84635
AAXX 25001 40729 12660 40000 10036 21074 38300 40116 54000 60001 84400 333 84635
AAXX 25001 40736 11559 80000 10088 20080 30139 40114 52009 60001 71000 8262/ 333 82720 88459
AAXX 25001 40739 12965 00000 11016 21091 38658 40174 56008 60001 333
AAXX 25001 40743 12965 00703 10016 21092 39051 40178 51002 60001 333
AAXX 25001 40762 12962 03002 11040 21163 38535 40179 54000 60001 333
AAXX 25001 40768 11662 40904 10050 20004 38225 40113 57009 60001 70281 84300 333 81935 83640
AAXX 25001 40769 12960 00000 10056 21006 38271 40112 56006 60001 333
AAXX 25001 40785 12960 00000 10020 21037 39060 40164 54000 60001 333
AAXX 25001 40809 12960 01202 11034 21145 38493 40173 58001 60001 333
AAXX 25001 40821 12960 01302 10056 21115 38773 40141 54000 60001 333
AAXX 25001 40831 12960 01702 10144 20130 30139 40146 51003 60001 333
AAXX 25001 40703 12660 60000 11026 21041 38881 40161 52016 60001 82570 333 82640 86359
AAXX 25001 40712 11560 52202 11002 21002 38629 40134 50001 60021 70181 85300 333 81930 84635
AAXX 25001 40729 12660 40000 10036 21074 38300 40116 54000 60001 84400 333 84635
AAXX 25001 40736 11559 80000 10088 20080 30139 40114 52009 60001 71000 8262/ 333 82720 88459
AAXX 25001 40739 12965 00000 11016 21091 38658 40174 56008 60001 333
AAXX 25001 40743 12965 00703 10016 21092 39051 40178 51002 60001 333
AAXX 25001 40762 12962 03002 11040 21163 38535 40179 54000 60001 333
AAXX 25001 40768 11662 40904 10050 20004 38225 40113 57009 60001 70281 84300 333 81935 83640
AAXX 25001 40769 12960 00000 10056 21006 38271 40112 56006 60001 333
AAXX 25001 40785 12960 00000 10020 21037 39060 40164 54000 60001 333
AAXX 25001 40809 12960 01202 11034 21145 38493 40173 58001 60001 333
AAXX 25001 40821 12960 01302 10056 21115 38773 40141 54000 60001 333
AAXX 25001 40831 12960 01702 10144 20130 30139 40146 51003 60001 333
BBXX FLAO 2500/ 99764 70847 46/// ///// 11380 49996 54000
BBXX 41053 25001 99185 70661 46/// /0708 10265 40173 92350 333 91210
BBXX 41053 25001 99185 70661 46/// /0807 10265 40173 92340 333 91209
AAXX 25004 61974 11460 61205 10274 20249 40082 69951 71582 85842 333 0//13 58002 84816 83650
AAXX 25004 61986 12470 21009 10268 20227 40107 60001 82200 333 58009 82818
AAXX 25004 61988 12470 31312 10244 20208 40142 60001 83800 333 58005 83818 91123
AAXX 25004 61989 NIL
AAXX 25004 61990 11465 40903 10244 20223 40137 69981 71581 84800 333 0//11 58001 84817
AAXX 25004 61995 11465 31106 10210 20194 39656 60001 71500 83800 333 58006 83817 91123
AAXX 25004 48373 31930 30000 10170 20134 30097 40162 52020 71011 82035 333 20168 58029
AAXX 25004 48433 31950 20403 10138 20103 30015 40189 52011 71000 80005 333 20134 58035
AAXX 25004 48557 11558 50000 10230 20227 30058 40093 52015 60204 71011 82106 333 20227 58005 70203
AAXX 25001 45032 36/// /1501 10058 21011 30255 40272 54000
AAXX 25001 45035 36/// /0502 10093 21039 30230 40274 54000
AAXX 25001 45039 36/// /0203 10101 21029 30253 40268 52001
AAXX 25001 45044 36/// /0007 10096 21026 30164 40262 52001
AAXX 25001 45032 36/// /1501 10058 21011 30255 40272 54000
AAXX 25001 45035 36/// /0502 10093 21039 30230 40274 54000
AAXX 25001 45039 36/// /0203 10101 21029 30253 40268 52001
AAXX 25001 45044 36/// /0007 10096 21026 30164 40262 52001
AAXX 25003 64800 NIL
AAXX 25003 64820 NIL
AAXX 25003 64860 32960 60000 10208 20080 39837 40105 80002 333 0//00 59004 86080
AAXX 25003 64861 NIL
AAXX 25003 64870 NIL
AAXX 25003 64871 NIL
AAXX 25003 64892 NIL
AAXX 25003 64893 NIL
AAXX 25003 64894 NIL
AAXX 25003 64910 NIL
AAXX 25003 64911 NIL
AAXX 25003 64950 NIL
AAXX 25003 87007 31570 70505 10137 20055 36740 47141 52020 71492 84975 333 10215 20110 56880 57924 84930
AAXX 25003 87148 11250 81813 10158 20155 30062 40173 53008 69911 75152 886// 333 10174 20158 56499 88704
AAXX 25001 40716 12660 70000 10018 21008 38866 40137 51002 60001 83470 333 83840 87359
AAXX 25001 40719 11530 79901 10098 20086 30131 40121 53006 60001 71022 84570 333 84620 87359
AAXX 25001 40721 12960 01403 10124 21027 39580 40119 56001 60001 333
AAXX 25001 40858 11950 01202 10150 20100 30148 40158 53002 60001 70500 333
AAXX 25001 40872 12960 03402 10148 20089 30152 40157 57004 60001 222// 00/// 20301 333
AAXX 25001 40877 12960 00000 10050 21034 39577 40123 54000 60001 333
AAXX 25001 40898 12960 02802 10170 20079 30130 40139 56002 60001 222// 00232 10700 333
AAXX 25004 NIL
AAXX 25004 NIL
AAXX 25004 70133 32966 80204 11200 21239 30129 40137 58001 92353 333 11194 21289 555 92500
AAXX 25004 70174 32666 23503 11289 21322 39868 40132 58004 92353 333 11256 21317 4/074 555 92500
AAXX 25004 70200 32666 23103 11278 21311 30120 40126 55003 92353 333 11250 21317 4/066 555 92500
AAXX 25004 70219 32966 02808 11267 21294 30029 40089 58011 92353 333 11239 21278 4/003 555 92500
AAXX 25004 70231 12366 40000 11300 21333 39931 40069 58021 69901 92353 333 11267 21328 4/097 555 92500
AAXX 25004 70261 32961 40000 11294 21322 39891 40079 56016 92353 333 11261 21322 555 92500
AAXX 25004 70267 31104 90000 11239 21256 39566 40087 56013 741// 92353 333 11189 21261 555 92500
AAXX 25004 70271 11516 80000 11128 21144 39389 49997 58023 60011 771// 92353 333 11128 21194 4/013 96010 555 92500
AAXX 25004 70273 32166 60106 11117 21150 39902 49961 58032 92353 333 11100 21122 4/063 555 92500
AAXX 25004 70316 11558 83218 11067 21106 30070 40107 56004 69901 771// 92353 333 11056 21089 91025 555 92500
AAXX 25004 70326 12466 83408 11172 21194 30018 40030 58006 69901 92354 333 11144 21222 4/005 555 92500
AAXX 25004 70340 32366 82704 11150 21172 39962 40025 58018 92353 333 11144 21172 4/010 555 92500
AAXX 25004 70350 11559 83016 11067 21122 39929 49969 58019 69901 771// 92353 333 11039 21089 91022 555 92500
AAXX 25004 70361 11566 81104 10017 20000 39897 49908 56047 60031 761// 92353 333 10028 20006 4/038 555 92500
AAXX 25004 70381 11562 61215 10022 20011 39963 49972 56025 60021 761// 92353 333 10044 20022 91024 555 92500
AAXX 25004 70414 35666 80619 10000 21072 30156 40193 51004 92356 333 10000 21011 555 92500
AAXX 25004 NIL
AAXX 25004 NIL
AAXX 25004 82022 32570 72002 10251 20226 30009 40106 84230 333 10294 59017
AAXX 25004 82193 32570 50307 10275 20232 30091 40109 82230 333 10324 59014
AAXX 25004 82281 32970 00409 10269 20200 30047 40109 333 10319 58006
AAXX 25004 82332 32970 50702 10260 20229 30016 40109 85030 333 10299 58023
AAXX 25004 82398 32470 30910 10262 20223 30092 40121 83500 333 10297 58004
AAXX 25004 82400 NIL
AAXX 25004 82579 32970 00000 10290 20239 30012 40089 333 10357 59002
AAXX 25004 82917 32570 33502 1//// 2//// 39855 4//// 81230 333 10000 59000
AAXX 25004 82965 NIL
AAXX 25004 82993 32570 21005 10244 20222 30013 40149 82100 333 10290 58011
AAXX 25004 83208 NIL
AAXX 25004 83349 32570 40605 10271 20220 30151 40157 82201 333 10298 58006
AAXX 25004 83362 32570 23606 10251 20198 39900 40115 82100 333 10318 59020
AAXX 25004 83378 21540 72108 10183 20173 38980 48540 79596 84920 333 10281 58011 60311
AAXX 25004 83460 32570 20505 10245 20217 30098 40155 82200 333 10281 58000
AAXX 25004 83497 NIL
AAXX 25004 83566 32570 51502 10220 20168 39222 48540 83130 333 10280 59001
AAXX 25004 83599 NIL
AAXX 25004 83612 32970 60901 10264 20197 39489 48530 52019 82231 333 10320
AAXX 25004 83649 32870 10412 10256 20213 30147 40152 51021 81030 333 10319
AAXX 25004 83650 NIL
AAXX 25004 83780 21359 81807 10212 20186 39261 48560 51018 72196 8652/ 333 10294 60021
AAXX 25004 83827 32470 61305 10227 20217 39841 40114 55000 81130 333 10295
AAXX 25004 83840 21358 71404 10189 20184 39157 48560 53011 76196 85520 333 10296 60181
AAXX 25004 83899 21225 71611 10207 20197 30184 40190 52023 76362 885// 333 10290 60041
AAXX 25004 83925 NIL
AAXX 25004 83970 NIL
AAXX 25004 83971 21458 71209 10182 20159 30206 40210 51011 76162 885// 333 10207 69921
AAXX 25004 NIL
AAXX 25004 82143 NIL
AAXX 25004 82599 32570 21412 10267 20224 30070 40130 82100 333 10304 59007
AAXX 25004 82824 42570 61004 10272 20245 39985 40086 83230 333 10338 59004
AAXX 25004 82899 32570 31410 10270 20214 30130 40142 83200 333 10295 58007
AAXX 25004 83117 NIL
AAXX 25004 83248 32470 31606 10273 20236 30132 40154 83100 333 10289 59016
AAXX 25004 83746 NIL
AAXX 25004 83384 NIL
AAXX 25004 83386 NIL
AAXX 25004 83388 NIL
AAXX 25004 83393 NIL
AAXX 25004 83442 NIL
AAXX 25004 83479 NIL
AAXX 25004 83483 NIL
AAXX 25004 83531 NIL
AAXX 25004 83538 NIL
AAXX 25004 83574 NIL
AAXX 25004 83582 NIL
AAXX 25004 83595 NIL
AAXX 25004 83687 NIL
AAXX 25004 83692 NIL
AAXX 25004 83695 329// 01404 10280 20225 39998 40133 52014 333 10345 29068 55107
AAXX 25004 83718 325// 60000 10238 20213 39572 40134 52219 86800 333 10306 29/// 55086
AAXX 25004 NIL
AAXX 25004 NIL
AAXX 25004 83437 NIL
AAXX 25004 83550 329// 0//// 10244 20217 30104 40134 333 10310 29075 55101 59010
AAXX 25004 83552 NIL
AAXX 25004 83565 NIL
AAXX 25004 83579 NIL
AAXX 25004 83592 NIL
AAXX 25004 83623 NIL
AAXX 25004 83630 NIL
AAXX 25004 83676 NIL
AAXX 25004 83698 32/// 00000 10246 20221 30110 40124 51010 333 10340 29072 55///
AAXX 25004 83702 NIL
AAXX 25004 83704 NIL
AAXX 25004 83716 NIL
AAXX 25004 83726 NIL
AAXX 25004 83738 21/// 80903 10226 20221 39648 40138 52010 71390 889// 333 10352 29075 55099 60061
AAXX 25004 87022 32560 81804 10180 20145 39664 40174 53016 8357/ 333 10205 20180 56499 83630 88360
AAXX 25004 87046 32562 81810 10172 20105 39166 48540 53017 8357/ 333 10210 20142 56099 83625 88358
AAXX 25004 87047 32465 80904 10142 20110 38842 48552 53008 8567/ 333 10170 20128 56009 82710 83615 88360
AAXX 25004 87097 32560 61408 10240 20218 39817 40124 53001 82570 333 10302 20240 56460 82630 86360
AAXX 25004 87121 32965 82306 10186 20111 39686 40205 53008 8807/ 333 10220 20147 56059 88360
AAXX 25004 87129 32665 71607 10218 20062 39978 40212 53011 8457/ 333 10241 20177 84640
AAXX 25004 87155 11256 81604 10165 20158 30106 40168 53008 69921 75055 886// 333 10181 20165 56399 88704
AAXX 25004 87162 11370 81813 10196 20186 30073 40141 53015 69911 70252 886// 333 10240 20185 56299 88707
AAXX 25004 87166 11250 81609 10166 20159 30090 40164 53008 69931 75352 886// 333 10182 20166 56499 88705
AAXX 25004 87178 11470 81108 10214 20194 39997 40142 52019 69931 70262 8552/ 333 10237 20212 56379 85610 88540 96421
AAXX 25004 87217 32970 70904 10225 20108 39697 40187 52010 87050 333 10263 20180 56010 87360
AAXX 25004 87222 32970 80204 10208 20096 39662 40185 52008 8807/ 333 10230 20163 56069 88359
AAXX 25004 87257 32965 61403 10188 20116 30110 40215 53001 86070 333 10220 20150 56040 86360
AAXX 25004 87270 32965 81410 10180 20121 30130 40193 55001 8807/ 333 10180 20147 56059 88360
AAXX 25004 87289 31362 81419 10166 20138 30112 40196 52007 70252 8677/ 333 10166 20156 56309 86708 88360
AAXX 25004 87311 32965 02008 10224 20042 39498 40175 53007 333 10275 20178
AAXX 25004 87320 32975 30000 10207 20049 39676 40207 53008 80006 333 10254 20183 56008 83275
AAXX 25004 87328 32980 02708 10223 20025 39538 40184 53009 333 10273 20203 95000
AAXX 25000 44210 32999 00000 11250 21261 38579 53003 333 21255 555 31296
AAXX 25000 44216 32999 03402 11310 21336 39111 40548 58002 333 21321 47005 555 31330
AAXX 25000 44217 32998 00000 11282 21294 37869 40542 58004 333 21283 47001 555 31351
AAXX 25000 44219 NIL
AAXX 25000 44221 329// 00000 11345 21367 38655 40561 57002 333 21360 47016 555 31390
AAXX 25000 44224 329// 00000 11315 21345 38100 40588 54000 333 21353 48015 555 31394
AAXX 25000 44229 32999 00000 11227 21259 37958 40482 51003 333 21229 48007 555 31287
AAXX 25000 44242 329// 42001 11291 21319 39380 40417 52003 84040 333 21311 47014 555 31327
AAXX 25000 44243 329// 61101 11295 21326 39479 40423 51004 83078 333 21307 47006 555 31325
AAXX 25000 44254 32998 02903 11201 21230 39070 40342 53013 333 21209 47011 555 31261
AAXX 25000 44257 329// 20000 11271 21299 39016 40432 52018 81041 333 21284 48010 555 31312
AAXX 25000 44263 32988 00000 11248 21287 38092 40522 54000 333 21259 43015 555 31293
AAXX 25000 44266 329// 00000 11211 21244 37784 40433 57003 333 21222 46001 555 31281
AAXX 25000 44286 329// 02707 11155 21202 38673 40363 52002 333 21162 44009 555 31191
AAXX 25000 44291 319// 01602 11343 21381 38793 40547 51011 70400 333 21344 47010 555 31326
AAXX 25000 44325 329// 00903 11199 21218 38902 40409 58002 333 21222 47002 555 31239
AAXX 25000 44329 32998 00000 11184 21225 37786 40426 56001 333 21186 46003 555 31250
AAXX 25000 44338 32999 02001 11200 21233 38511 40411 52004 333 21216 555 31248
AAXX 25000 44348 32997 03207 11152 21172 38734 40352 53008 333 21188 46001 555 31230
AAXX 25000 44374 32999 02003 11146 21204 38290 40411 54000 333 21156 555 31190
AAXX 25000 44385 32999 02702 11120 21192 38996 40393 53013 333 21125 555 31178
AAXX 25000 44386 32999 10000 11188 21221 39119 40400 52017 81040 333 21201 47001 55/// 555 31210
AAXX 25001 48855 11597 83201 10169 20164 30201 40209 53010 60132 76066 8682/ 333 02018 20168 3/017 58009 8289 5 84697 88499 96160
AAXX 25001 48848 32565 83203 10148 20114 30218 40226 52013 888// 333 01013 20140 3/012 58003 82895 88697
AAXX 25001 26997 41319 82001 11103 21103 30001 40235 54000 71042 886// 333 88706
AAXX 25001 27595 41597 82801 11092 21108 30041 40193 52004 77172 8850/ 333 88626
AAXX 25001 27612 413// 82202 11069 21086 39988 40190 54000 71022 887//
AAXX 25001 27707 41550 72503 11083 21089 39906 40215 54000 71022 87500 333 87620
AAXX 25001 27719 42997 72303 11068 21092 39953 40215 58002 87030
AAXX 25001 27786 42497 83003 11072 21085 30040 40207 52007 885// 333 88614
AAXX 25001 27857 42997 82501 11087 21098 30056 40228 52005 8802/
AAXX 25001 27906 41596 81702 11122 21128 39977 40236 54000 78542 8532/
AAXX 25001 27928 42697 22401 11060 21104 30011 40227 54000 82500
AAXX 25001 27947 42497 73202 11089 21104 30063 40231 52004 875// 333 87611
AAXX 25001 27962 41397 82702 11090 21097 39991 40223 52007 70272 885// 333 88609
AAXX 25001 27983 42568 70000 11057 21068 30068 40201 52005 875// 333 87626
AAXX 25001 27995 42571 82501 11051 21058 40205 52005 885//
AAXX 25001 28506 41996 83203 11079 21094 30065 40182 52008 77172 8802/
AAXX 25001 28704 41997 83403 11063 21081 30095 40194 52007 77172 8807/ 333 88400
AAXX 25001 28711 42297 82603 11076 21081 39800 40189 52005 886// 333 88706
AAXX 25001 28807 41396 80000 11052 21059 30149 40202 51003 77177 886// 333 88708
AAXX 25001 34009 41597 70000 11096 21112 39917 40239 52005 70242 87500
AAXX 25001 34110 42597 70102 11083 21097 39945 40238 52007 82330
AAXX 25001 34123 42997 00000 11090 21106 30034 40228 52004
AAXX 25001 34152 42470 83502 11056 21067 30016 40220 52010 889//
AAXX 25001 34163 42498 72502 11070 21079 40221 52004 875// 333 87620
AAXX 25001 34171 42560 83203 11038 21060 30013 40212 52006 885// 333 88631
AAXX 25001 34186 41230 80000 11049 21059 30070 40213 52006 71022 8802/ 333 88505
AAXX 25001 34247 42564 80102 11048 21072 30102 40220 54000 885// 333 88623
AAXX 25001 34336 41597 80402 11043 21062 30109 40217 52008 70282 8532/
AAXX 25001 34391 41496 81601 11063 21063 30182 40214 52006 77177 887// 333 88515 93505
AAXX 25001 35011 41950 80000 11081 21108 30038 40198 52003 77177 8802/
AAXX 25001 35121 41498 82401 11134 21166 30039 40195 57002 77872 885// 333 88711
AAXX 25004 40439 32960 02603 10194 20150 30126 40136 333 58015
BBXX PHET 25001 99239 70753 41/99 60712 10249 20199 7//// 8/58/ 22234 29901 3//// 4//// 5////
BBXX C6PZ8 25004 99252 70773 41/// 00523 10250 2022/ 40240 54/// 7//// 8//// 22281 00250 2//// 3//// 4//// 5//// 6//// 80230 ICE /////
BBXX 3EMK6 25004 99266 70925 41/// /1108 10235 20221 40222 51/// 7//// 8//// 22200 00228 20402 304// 40504 5//// 6//// 80225 ICE /////
BBXX C6YA5 25004 99520 50579 41598 42242 10026 2//// 40010 54000 70200 83/7/ 22243 00110 20305 322// 4//// 5//// 6//// 8//// ICE /////
BBXX WCX9106 25003 99603 71465 41094 80805 10011 2//// 49900 57030 77322 88/// 22200 0//// 2//00 322// 4//01 5//// 6//// 8//// ICE /////
BBXX C6VG7 25004 99239 70815 415// 41120 10240 2//// 40210 5/010 7//11 84/8/ 22214 0//// 20602 3//// 40602 50602 6//// 8//// ICE /////
AAXX 25001 30372 31994 20000 11432 21456 39429 40469 52007 74640 80001 333 21432 47009 55024
AAXX 25001 30433 32699 73501 11216 21241 39669 40316 58003 82530 333 21233 47004 55000
AAXX 25001 30554 129// 00000 11371 21395 39183 40450 52010 69902 333 21371 47009 55000
AAXX 25001 30635 118// 81203 11232 21257 39707 40334 52006 60012 73673 8801/ 333 21234 47029
AAXX 25001 30673 31992 00000 11410 21421 39533 40444 53015 74640 333 21411 47008 55045
AAXX 25001 30692 41995 00000 11385 21408 39804 40386 52/// 71000 333 21389 55041
AAXX 25001 30758 11920 30000 11308 21339 39476 40409 52020 69922 70500 80001 333 21330 47005 55000
AAXX 25001 30802 32999 62901 11133 21176 38708 48490 58001 82031 333 21150 46003 55010
AAXX 25001 30823 11699 20802 11192 21211 39639 40325 52004 69962 70180 81902 333 21200 47016 55000
AAXX 25001 30879 31/05 00000 11381 21403 39538 40429 52007 74440 333 21384 47005 55053
AAXX 25001 30935 11999 50000 11181 21207 39345 40352 52009 69922 70172 82032 333 21182 47013 55010
AAXX 25001 30949 32999 00000 11270 21282 39179 40397 52016 333 21270 47003 55046
AAXX 25001 30965 11999 71201 11326 21348 39471 40416 52019 69912 70272 83042 333 21353 47005 55060
AAXX 25001 31168 32999 80202 11109 21145 30278 40290 54000 8801/ 333 21142 47025 55000
AAXX 25001 31300 11996 80403 11178 21204 39976 40288 52012 69902 77173 8802/ 333 21193 47013 91112
AAXX 25001 31329 32999 80000 11185 21211 39557 40273 52016 8807/ 333 21186 55000
AAXX 25001 31369 11597 80208 11063 21090 30083 40169 53006 60010 78583 8597/ 333 21063 47051 85923 91013 91113
AAXX 25001 31416 11998 83606 11117 21145 30130 40223 53009 69900 70273 8802/ 333 21132 47017 55000 91113
AAXX 25001 31484 11996 80000 11123 21123 39867 40219 52007 60020 77372 8802/ 333 21123 47022
AAXX 25001 31512 129// 53303 10223 21272 30103 40286 53013 69902 83041 333 21226 47///
AAXX 25001 31538 12999 80000 11282 21300 39774 40257 53017 69900 82041 333 21290 47023
AAXX 25001 31707 12999 83208 11209 21249 30119 40218 52016 69900 81071 333 21225 47005
AAXX 25001 31735 11519 82702 11166 21186 30063 40157 52013 60030 78682 8592/ 333 21200 47021 85926
AAXX 25001 31770 11594 83614 11041 21050 39984 40014 52020 60010 78683 889// 333 21043 91020 91124 47021 55000
AAXX 25001 20107 41597 71303 11009 21044 39562 49654 52008 72583 82530 333 91005 91112
AAXX 25001 22113 41484 72103 11003 21015 39839 49901 52008 70282 87900 333 91006 91110
AAXX 25001 22217 41480 80000 11002 21005 39905 49937 52008 70282 889// 333 85622 91001
AAXX 25001 22235 41468 82403 11007 21014 39739 49932 51001 78582 889// 333 91005
AAXX 25001 22349 41498 72307 10007 21004 39952 49964 58002 70282 87900 333 91009 91115
AAXX 25001 22408 42484 82302 11006 21018 39827 49976 52002 885// 333 88614
AAXX 25001 22602 41458 82403 11010 21020 39778 40004 52008 77175 885// 333 88618
AAXX 25001 22619 41480 22802 11004 21013 39845 40005 52003 70271 82500
AAXX 25001 22721 41497 80000 11007 21011 39918 40019 58001 70272 887// 333 86713
AAXX 25001 22802 41582 52101 10004 20004 30018 40041 52007 70282 85500
AAXX 25001 22820 41484 72404 11014 21025 39893 40032 54000 70272 84530
AAXX 25001 26059 41395 82102 10002 21001 30049 40074 52005 74274 8872/ 333 87707 93604
AAXX 25001 26063 41496 82202 10007 21004 30057 40065 52006 77172 8872/
AAXX 25001 26094 41456 82103 11028 21035 30008 40085 54000 77172 8872/ 333 88712
AAXX 25001 26157 41295 82104 10003 20000 30033 40083 52004 78582 889// 333 86706 93403
AAXX 25001 26167 41357 82103 11017 21016 39975 40093 52002 77176 8872/ 333 88707
AAXX 25001 26258 41496 82002 11007 21011 30045 40101 52002 77176 8872/ 333 93403
AAXX 25001 26298 41496 82103 11046 21059 39894 40131 54000 71072 886//
AAXX 25001 26359 41468 81904 11025 21041 39984 40122 54000 70262 8872/ 333 91111 93401
AAXX 25001 26702 41496 73102 10046 20031 30128 40154 52028 71062 87500 333 91004 91106
AAXX 25001 26781 42397 82003 11063 21078 39883 40188 58004 8802/ 333 88510
AAXX 25001 27208 41396 82004 11057 21072 39955 40138 57002 77172 8872/
AAXX 25001 27402 42497 82003 11064 21080 39980 40168 58002 886// 333 88710
AAXX 25001 22028 41582 22607 10003 21014 39858 49896 52011 70281 81532 333 91009 91119
AAXX 25001 22106 41598 62301 11010 21017 39829 49907 51005 70182 82930 333 91003 93703
AAXX 25001 22127 41496 70000 11055 21062 39716 49918 52008 78581 86930 333 84627 91001
AAXX 25001 22324 41584 72205 10006 21011 39892 49941 52002 70281 87900 333 91008 91110
AAXX 25001 22621 41498 72202 11007 21014 39863 40002 51002 72682 87900 333 84917
AAXX 25001 22831 41496 82102 11022 21028 39991 40051 57002 78582 889//
AAXX 25001 22892 41397 83101 10006 20000 30041 40057 52018 70262 886// 333 88708
AAXX 25001 26275 41397 81704 11029 21042 30083 40115 52003 77176 8872/ 333 88707
AAXX 25001 26389 41496 82002 11051 21065 39867 40139 58003 78582 889//
AAXX 25001 26499 41497 82005 11066 21090 39930 40169 58002 78582 889// 333 86913
AAXX 25001 26695 41396 82203 11072 21081 39880 40202 58003 71022 886// 333 88707
AAXX 25001 26882 42484 72404 11080 21094 39923 40214 58003 87500 333 87611
AAXX 25004 NIL
AAXX 25004 91212 32566 41007 10283 20222 31375 40110 51020 92354 333 10289 20256 555 92500
AAXX 25004 91165 12566 80519 10233 20172 30172 40208 58023 69901 92353 333 10250 91025 555 92500
AAXX 25004 91182 12566 40514 10272 20161 30184 40188 58027 69901 92353 333 10272 20217 91024 555 92500
AAXX 25004 91190 32566 40519 10233 20183 30178 40196 58023 92354 333 10256 20194 91025 555 92500
AAXX 25004 91285 11558 83205 10217 20194 30181 40196 56014 60011 761// 92353 333 10239 20178 96010 555 92500
AAXX 25004 91371 32474 20916 10306 20284 30098 40101 81100 333 20267 562// 58002 82815 555 92500
AAXX 25004 78526 11566 80711 10256 20211 30163 40183 53013 69901 761// 92356 333 10283 20244 555 92500
AAXX 25004 78543 15766 80510 10250 20206 30098 40179 53014 69901 92353 333 10294 20233 555 92500
AAXX 25004 91245 32966 00816 10290 20240 30134 92350 555 92500
AAXX 25001 28676 429// 00000 11216 21237 30050 40188 57010 555 1/122
AAXX 25001 28766 419// 21601 11232 21241 39981 40188 57010 71000 80001 555 1/125
AAXX 25001 28867 42998 00000 11211 21244 39896 40190 57006 555 1/123
AAXX 25001 28879 429// 01201 11162 21207 39880 40185 57015 555 1/120
AAXX 25001 28952 419// 00000 11218 21236 39979 40187 57007 77600 555 1/124
AAXX 25001 28966 429// 00000 11226 21252 39886 40195 57015 555 1/125
AAXX 25001 29802 429// 01302 11215 21239 30077 40233 57010 555 1/124
AAXX 25001 29807 429// 01401 11201 21220 30087 40215 57019 555 1/122
AAXX 25001 34691 42998 30501 11092 21148 30218 40205 52020 80002 555 1/110
AAXX 25001 35067 429// 00000 11241 21269 39888 40191 57006 555 1/124
AAXX 25001 35078 429// 00601 11235 21261 39788 40202 57011 555 1/125
AAXX 25001 35085 429// 01701 11176 21204 39695 40202 57012 555 1/121
AAXX 25001 35108 415// 80000 11068 21101 30160 40207 52004 71072 886//
AAXX 25001 35188 429// 01603 11123 21183 39750 40204 57002 555 1/116
AAXX 25001 35217 425// 80502 11102 21130 30162 40203 52003 885// 555 1/112
AAXX 25001 35229 429// 53201 11170 21189 39896 40188 53001 85070 555 1/119
AAXX 25001 35302 425// 80000 11074 21100 30192 40214 52008 885// 555 1/108
AAXX 25001 35357 429// 01402 11213 21238 39733 40203 57005 555 1/124
AAXX 25001 35394 42998 01803 11090 21174 39507 40204 57012 555 1/115
AAXX 25001 35406 429// 80401 11150 21177 30198 40200 52006 8807/ 555 1/117
AAXX 25001 35416 429// 23303 11190 21231 30061 40191 53007 80005 555 1/120
AAXX 25001 35426 429// 83305 11130 21156 39869 40175 53002 8801/ 555 1/113
AAXX 25001 35497 429// 00000 11101 21152 39387 40212 57005 555 1/113
AAXX 25001 35532 41496 81603 11120 21155 39657 40170 57009 77077 8802/ 555 1/112
AAXX 25001 35671 41996 00000 11234 21252 39744 40213 57005 71000 555 1/127
AAXX 25001 35700 42998 00302 11151 21157 30212 40187 52009 555 1/117
AAXX 25001 35746 429// 60204 11113 21141 30074 40144 57004 86070 555 1/111
AAXX 25001 35796 42997 00404 11197 21229 39785 40255 53001 555 1/121
AAXX 25001 35849 42598 70701 11090 21134 30037 40125 57004 87500 555 1/108
AAXX 25001 35925 NIL
AAXX 25001 35953 425// 80904 11121 21148 39996 40131 57006 885// 555 1/112
AAXX 25001 35969 429// 00902 11122 21167 39985 40168 57009 555 1/113
AAXX 25001 36003 42998 01503 11191 21215 30067 40230 57006 555 1/125
AAXX 25001 36152 419// 01406 11189 21230 30039 40241 57008 73633 555 1/121
AAXX 25001 36177 429// 01104 11187 21220 30013 40278 57008 555 1/120
AAXX 25001 36208 429// 00902 11140 21173 39261 40292 57013 555 1/120
AAXX 25001 36397 419// 01616 11156 21198 39697 40294 57014 70230 333 91018 91118 555 1/118
AAXX 25001 36428 429// 00202 11281 21306 39796 40356 57006 333 95090 555 1/132
AAXX 25001 36535 429// 00000 11329 21357 39660 40384 57011 555 1/137
AAXX 25001 36639 429// 00000 11204 21230 39625 40279 53003 555 1/124
AAXX 25001 36821 419// 00000 11141 21157 39712 40228 54000 71000 333 91103
AAXX 25001 36859 429// 00000 11130 21157 39445 40270 53004 333 91103 555 1/118
AAXX 25001 36864 429// 00000 11137 21164 39304 40248 53005 555 91103
AAXX 25001 36870 429// 00000 11065 21113 39173 40212 53002 333 91102 555 1/114
AAXX 25001 38001 NIL
AAXX 25001 38062 429// 61201 11102 21146 39964 40133 57008 86080 555 1/110
AAXX 25001 38069 429// 61102 11030 21068 39944 40138 54000 86080
AAXX 25001 38196 42998 22301 10025 21109 39181 40153 56003 80002
AAXX 25001 38198 429// 81507 11007 21056 39896 40157 58006 8805/ 555 1/103
AAXX 25001 38222 42997 00000 11112 21140 39623 40209 53002 555 1/116
AAXX 25001 38232 NIL
AAXX 25001 38328 425// 31903 10074 21019 39434 40147 53004 82530 555 1/000
AAXX 25001 38334 42998 21904 10085 21060 39208 40144 58002 82070 555 1/001
AAXX 25001 38341 42997 51801 10000 21070 39387 40177 53001 85030 555 1/105 91106
AAXX 25001 38343 42997 22902 11072 21101 39333 40203 53006 80001
AAXX 25001 38439 42998 61508 10046 21059 39813 40149 53003 83071 555 10001
AAXX 25001 22271 42498 72308 11001 21021 39939 49949 52001 87300
AAXX 25001 22520 41598 82503 10006 21014 39962 49971 57001 70282 885// 333 88621
AAXX 25001 22550 41423 82103 11027 21046 39998 40008 58006 77372 8802/ 333 88514
AAXX 25001 22583 42484 71602 11094 21106 39970 40053 57009 875// 333 87611
AAXX 25001 22768 41497 81905 11048 21061 30019 40076 58007 70272 885// 333 88612
AAXX 25001 22845 41396 81904 11047 21057 39914 40074 57004 77173 8672/ 333 86709
AAXX 25001 22887 42397 72003 11118 21131 30050 40123 58008 8665/ 333 86709 91106
AAXX 25001 23205 41498 82005 11083 21111 39988 40003 57009 73632 8653/ 333 86618 91109
AAXX 25001 23219 NIL
AAXX 25001 23418 42965 01503 11139 21159 30036 40114 54000
AAXX 25001 23606 42460 11903 11131 21137 39939 40121 56001 81700
AAXX 25001 23711 41497 81702 11098 21110 39968 40149 53005 78582 889// 333 88916
AAXX 25001 23804 42997 62101 11169 21188 39984 40144 54000 82031
AAXX 25001 27037 41497 82002 11064 21080 39968 40135 58004 77172 8672/ 333 86713
AAXX 25001 27199 41998 82402 11148 21161 39965 40175 52004 77172 8807/
AAXX 25001 27271 41597 71302 11121 21134 30006 40171 58003 72687 87900
AAXX 25001 27459 42398 80000 11090 21097 39988 40193 54000 886// 333 93400
AAXX 25001 27730 42998 82504 11065 21106 30002 40205 52002 8803/
AAXX 25004 71120 12974 12607 10016 21061 39537 40199 51023 60001 81070 333 10050 20002 70000
AAXX 25001 28676 429// 00000 11216 21237 30050 40188 57010 555 1/122
AAXX 25001 28766 419// 21601 11232 21241 39981 40188 57010 71000 80001 555 1/125
AAXX 25001 28867 42998 00000 11211 21244 39896 40190 57006 555 1/123
AAXX 25001 28879 429// 01201 11162 21207 39880 40185 57015 555 1/120
AAXX 25001 28952 419// 00000 11218 21236 39979 40187 57007 77600 555 1/124
AAXX 25001 28966 429// 00000 11226 21252 39886 40195 57015 555 1/125
AAXX 25001 29802 429// 01302 11215 21239 30077 40233 57010 555 1/124
AAXX 25001 29807 429// 01401 11201 21220 30087 40215 57019 555 1/122
AAXX 25001 34691 42998 30501 11092 21148 30218 40205 52020 80002 555 1/110
AAXX 25001 35067 429// 00000 11241 21269 39888 40191 57006 555 1/124
AAXX 25001 35078 429// 00601 11235 21261 39788 40202 57011 555 1/125
AAXX 25001 35085 429// 01701 11176 21204 39695 40202 57012 555 1/121
AAXX 25001 35108 415// 80000 11068 21101 30160 40207 52004 71072 886//
AAXX 25001 35188 429// 01603 11123 21183 39750 40204 57002 555 1/116
AAXX 25001 35217 425// 80502 11102 21130 30162 40203 52003 885// 555 1/112
AAXX 25001 35229 429// 53201 11170 21189 39896 40188 53001 85070 555 1/119
AAXX 25001 35302 425// 80000 11074 21100 30192 40214 52008 885// 555 1/108
AAXX 25001 35357 429// 01402 11213 21238 39733 40203 57005 555 1/124
AAXX 25001 35394 42998 01803 11090 21174 39507 40204 57012 555 1/115
AAXX 25001 35406 429// 80401 11150 21177 30198 40200 52006 8807/ 555 1/117
AAXX 25001 35416 429// 23303 11190 21231 30061 40191 53007 80005 555 1/120
AAXX 25001 35426 429// 83305 11130 21156 39869 40175 53002 8801/ 555 1/113
AAXX 25001 35497 429// 00000 11101 21152 39387 40212 57005 555 1/113
AAXX 25001 35532 41496 81603 11120 21155 39657 40170 57009 77077 8802/ 555 1/112
AAXX 25001 35671 41996 00000 11234 21252 39744 40213 57005 71000 555 1/127
AAXX 25001 35700 42998 00302 11151 21157 30212 40187 52009 555 1/117
AAXX 25001 35746 429// 60204 11113 21141 30074 40144 57004 86070 555 1/111
AAXX 25001 35796 42997 00404 11197 21229 39785 40255 53001 555 1/121
AAXX 25001 35849 42598 70701 11090 21134 30037 40125 57004 87500 555 1/108
AAXX 25001 35925 NIL
AAXX 25001 35953 425// 80904 11121 21148 39996 40131 57006 885// 555 1/112
AAXX 25001 35969 429// 00902 11122 21167 39985 40168 57009 555 1/113
AAXX 25001 36003 42998 01503 11191 21215 30067 40230 57006 555 1/125
AAXX 25001 36152 419// 01406 11189 21230 30039 40241 57008 73633 555 1/121
AAXX 25001 36177 429// 01104 11187 21220 30013 40278 57008 555 1/120
AAXX 25001 36208 429// 00902 11140 21173 39261 40292 57013 555 1/120
AAXX 25001 36397 419// 01616 11156 21198 39697 40294 57014 70230 333 91018 91118 555 1/118
AAXX 25001 36428 429// 00202 11281 21306 39796 40356 57006 333 95090 555 1/132
AAXX 25001 36535 429// 00000 11329 21357 39660 40384 57011 555 1/137
AAXX 25001 36639 429// 00000 11204 21230 39625 40279 53003 555 1/124
AAXX 25001 36821 419// 00000 11141 21157 39712 40228 54000 71000 333 91103
AAXX 25001 36859 429// 00000 11130 21157 39445 40270 53004 333 91103 555 1/118
AAXX 25001 36864 429// 00000 11137 21164 39304 40248 53005 555 91103
AAXX 25001 36870 429// 00000 11065 21113 39173 40212 53002 333 91102 555 1/114
AAXX 25001 38001 NIL
AAXX 25001 38062 429// 61201 11102 21146 39964 40133 57008 86080 555 1/110
AAXX 25001 38069 429// 61102 11030 21068 39944 40138 54000 86080
AAXX 25001 38196 42998 22301 10025 21109 39181 40153 56003 80002
AAXX 25001 38198 429// 81507 11007 21056 39896 40157 58006 8805/ 555 1/103
AAXX 25001 38222 42997 00000 11112 21140 39623 40209 53002 555 1/116
AAXX 25001 38232 NIL
AAXX 25001 38328 425// 31903 10074 21019 39434 40147 53004 82530 555 1/000
AAXX 25001 38334 42998 21904 10085 21060 39208 40144 58002 82070 555 1/001
AAXX 25001 38341 42997 51801 10000 21070 39387 40177 53001 85030 555 1/105 91106
AAXX 25001 38343 42997 22902 11072 21101 39333 40203 53006 80001
AAXX 25001 38439 42998 61508 10046 21059 39813 40149 53003 83071 555 10001
BBXX 44033 25001 99441 70690 46/30 /0108 11075 40335 51017 90004 22200 00063 10301 70005 333 91210 555 11091 22094
BBXX 44034 25001 99441 70681 46/20 /3608 11090 40330 53019 90004 22200 00081 10502 70012 333 91211 555 11098 22102
BBXX 41052 25001 99183 70648 46/// /0709 10266 40168 53011 90000 22200 00271 333 91211
AAXX 25001 38598 426// 70909 10015 21005 40207 52002 84531
AAXX 25001 38599 NIL
AAXX 25001 38725 425// 80000 11019 21108 37743 48480 58002 8592/
AAXX 25001 38734 NIL
AAXX 25001 38744 426// 80000 11104 21149 38039 48570 58005 889//
AAXX 25001 38836 425// 70000 10024 21039 39252 40204 56002 87900
AAXX 25001 38838 NIL
AAXX 25001 38844 426// 80707 11035 21091 48510 54000 889//
AAXX 25001 38846 NIL
AAXX 25001 38847 NIL
AAXX 25001 38932 NIL
AAXX 25001 38933 429// 80501 10002 21025 39677 40204 57004 8805/
AAXX 25001 38944 426// 70000 11006 21021 39628 40179 52004 87500
AAXX 25001 38954 NIL
BBXX 46111 25001 99481 71227 46/// /2703 10090 40273 54000 90000 22200 00054
BBXX 46112 25001 99481 71227 46/// /1302 10109 40271 58005 90000
AAXX 25004 60633 36/// /1005 10136 21059
AAXX 25001 08579 32/// /2404 10104 20026 30184 40312 52006 333 91008 91108
AAXX 25004 60660 36/// /1702 10139 21013
AAXX 25004 78922 46/// /1018 10244 20205 30118 40163 53012
AAXX 25004 60692 36/// /0417 10171 20017
AAXX 25004 60672 36/// /0000 10088 21025
AAXX 25004 60621 36/// /0509 10106 20016
AAXX 25001 08521 11465 60104 10172 20108 30223 40294 58001 69911 70282 86800 333 85816
AAXX 25001 08524 32465 60203 10158 20093 30200 40299 52002 86800 333 84815 84630 91108
AAXX 25004 60676 36/// /0411 10090 21017
AAXX 25001 89064 16/// /0802 11001 29088 49825 52008 60021 333 10033
AAXX 25004 60664 36/// /0000 10063 21018
BBXX SERW 25003 99182 70225 43/97 /0315 10225 2//// 40186 50002 70222 8//// 22252 06222 2//// 3//// 4////
BBXX 9V9243 25003 99150 10622 41/97 /0418 10242 40120 56012 7//// 8//// 22224 00267 2////
BBXX KABP 25003 99283 10333 43/95 /2819 10180 2007/ 40210 52020 7//// 8//// 22211 0//// 2//// 3//// 4//// 5//// 6//// 80120 ICE /////
BBXX DEGI 25003 99201 70175 41997 00817 10190 20155 40190 57010 70200 80000 22243 04193 29904 399// 4//03 80168
BBXX UBQE6 25001 99219 70176 41998 00000 10150 2//// 40202 58010 70200 80000 22244 00014
BBXX A8AX3 25003 99042 70091 41/// /9902 7//// 8//// 22234 2//// 30000
BBXX TBWUK03 25003 99130 70233 41398 10521 10243 20185 40152 52009 70200 81100 22253 20403 304// 40803 5//// 80204
BBXX TBWUK18 25004 99343 30157 41/98 11520 10194 20173 40157 57021 70211 80008 22222 00210 20303 3//// 4//// 5//// 80181
BBXX UBAU 25001 99128 70176 41/98 90705 10240 40163 52010 70022 22221 04245 20301
BBXX A8KH9 25004 99328 30348 41/98 80520 10200 20153 40175 58005 70322 8471/ 22214 20604 32200 41206 5//// 80170
BBXX A8IQ2 25001 99275 30432 41798 71308 10245 20209 40160 54000 70311 8702/ 2225/ 21205 323// 41505 5//// 80220
BBXX C6IO9 25004 99173 70229 41697 82713 10220 20166 40184 54000 70222 8//// 22253 06230 20804 302// 41003 5//// 80187
BBXX A8UU3 25004 99126 70186 41398 30319 10240 20211 40170 54000 7//00 83700 22233 2//// 308// 40505 80220
BBXX 9VAY4 25004 99115 10624 417// 50510 10270 2021/ 4//// 54/// 7//11 852// 22264 00270 20510 3//// 4////505 10 6/ ///0230 ICE 0/0//
BBXX PBDH 25003 99099 10622 41598 40318 10266 20218 40092 56018 70261 8/3// 22234 00278 20404 303// 40704 80232
BBXX VRGJ6 25003 99135 10505 41998 01412 10235 20162 40137 56002 702// 80000 22225 04255 2//// 3//// 4//// 5//// 80190
AAXX 25004 60691 36/// /0515 10143 21003
AAXX 25004 60612 36/// /0610 10083 21011
AAXX 25004 60667 36/// /0000 10100 21007
AAXX 25004 60662 36/// /0000 10076 21024
AAXX 25004 65501 42960 70000 10171 20027 39817 40132 80002 333 0//00 59005 87076
AAXX 25004 65502 32960 40000 10200 21039 39744 40129 80002 333 0//00 59010 84076
AAXX 25004 65503 32960 30402 10204 20044 39781 40124 80002 333 0//00 59009 83076
AAXX 25004 65505 32960 50806 10216 20018 39785 40121 80002 333 0//00 59005 85076
AAXX 25004 65507 32960 70402 10214 20011 39770 40117 80002 333 0//00 59007 87076
AAXX 25004 65510 32960 50406 10230 20010 39605 40114 80002 333 0//00 59006 85076
AAXX 25004 65516 32960 50000 10208 20010 39813 40118 80002 333 0//00 59006 85076
AAXX 25004 65518 32965 53602 10221 21017 39750 40110 80002 333 0//00 59003 85076
AAXX 25004 65522 32960 70000 10192 20062 39791 40119 80002 333 0//00 59003 87076
BBXX C6YA5 25004 99520 50579 41598 42242 10026 2//// 40010 54000 70200 83/7/ 22243 00110 20305 322// 4//// 5//// 6//// 8//// ICE /////
BBXX WCX8884 25004 99535 11754 41498 70919 10010 2102/ 40210 54000 75022 86748 22255 00049 20404 308// 40608 5//// 6//// 80000 ICE /////
BBXX OZBY2 25004 99377 11614 41/// /0152 10100 2004/ 40010 53010 7//22 8//// 22224 00190 20618 3//// 4//// 5//// 6//// 80070 ICE /////
BBXX PHPP 25004 99071 10779 41/97 20422 10265 20200 40079 53004 70011 8//// 22274 00290 20204 80220
BBXX AUYR 25004 99174 10728 31597 40112 10280 20295 40142 54006 70100 82312 22273
BBXX DGZR2 25003 99134 11101 41396 80130 10230 20161 40155 52025 70522 886// 22283 00240 20909 80185
BBXX A8QR9 25003 99122 11141 41/97 80230 10260 40110 53010 703// 8/7// 22213 04250 2//// 302// 40508
BBXX DFNB2 25003 99058 10857 41/98 73425 10270 20236 40045 56013 70282 878// 22224 00270 2//04 303// 40705 80245
BBXX 41053 25001 99185 70661 46/// /0807 10265 40173 92340 333 91209
BBXX 41053 25001 99185 70661 46/// /0708 10265 40173 92350 333 91210
BBXX FLAO 2500/ 99764 70847 46/// ///// 11380 49996 54000
BBXX 44255 25001 99473 70573 46/// /3111 11076 40214 52017 22200 00038 10604 70018 333 91214
BBXX 44067 25001 99384 70770 46/// /1403 10054 40307 51013 90000
BBXX 41053 25001 99185 70661 46/// /0708 10265 40173 53013 90000 22200 00271 10703 70016 333 91210
BBXX WPGK 25004 99348 70714 41498 33509 10133 2008/ 40250 54000 70200 83800 22235 00250 20504 3//// 4//// 5//// 6//// 80106 ICE /////
BBXX SHIP 25004 99230 70858 41/98 30918 10250 2022/ 40170 52020 70300 83/// 22283 00270 2//// 3//// 4//// 5//// 6//// 80225 ICE /////
BBXX 44150 25001 99425 70640 46/// /0210 10013 40264 5//// 22200 00104 11005 70024 333 91212
BBXX VCXF 25004 99464 70484 41598 83219 11016 2106/ 40147 52027 70222 885// 22200 02017 20504 322// 40806 81030
BBXX SJCD 25001 99543 71649 43/97 63414 11044 40111 50000 22264 00047
BBXX SMGW 25001 99343 71602 43/98 72022 10176 40280 58026 22224 00185 20503 41108
BBXX VOXS 25004 99467 70480 41598 83120 11015 2108/ 40160 51025 70222 885// 22200 04018 20504 332// 40806 81034
BBXX 44139 25001 99442 70571 46/// /3512 11006 40219 52022 22200 00089 10606 70031 333 91215
BBXX PJFF 25004 99202 70606 41/98 /3010 10250 40190 54000 702// 8/5// 22254 04280 2//// 30000 81030
BBXX A8EH2 25003 99544 71739 41298 60220 11020 21023 40170 54000 71562 82768 22264 00031 20403 336// 40504 82020
BBXX WDB9986 25004 99367 71287 41598 72212 10130 2009/ 40290 52010 70322 87/4/ 22225 00120 205// 3//// 412// 5//// 6//// 80110 ICE /////
BBXX DDIJ 25003 99249 71146 41998 23420 10178 20060 40185 54000 7//00 81051 22274 04230 29904 333// 40807 80115
BBXX SHIP 25004 99433 70559 41697 60114 10045 20010 40165 54000 70222 8489/ 22264 04080 20502 80030
BBXX C6PZ8 25004 99252 70773 41/// 00523 10250 2022/ 40240 54/// 7//// 8//// 22281 00250 2//// 3//// 4//// 5//// 6//// 80230 ICE /////
BBXX DQXQ 25004 99318 71502 41598 70420 10188 20110 40300 56015 70311 85208 22224 00190 20402 33136 41210 51008 80142
BBXX 3EMK6 25004 99266 70925 41/// /1108 10235 20221 402220 51/// 7//// 8//// 22200 00228 20402 304// 40504 5//// 6//// 80225 ICE /////
BBXX WCX9106 25003 99603 71465 41094 80805 10011 2//// 49900 57030 77322 88/// 22200 0//// 2//00 322// 4//01 5//// 6//// 8//// ICE /////
BBXX PHET 25001 99239 70753 41/99 60712 10249 20199 7//// 8/58/ 22234 29901 3//// 4//// 5////
BBXX A8IN7 25004 99180 70757 41397 31805 10280 20205 40150 53020 70311 82445 22214 06290 20406 80230
BBXX A8JS7 25003 99290 71731 41298 71619 10240 20176 40235 58030 705// 8662/ 22264 04240 20702 307// 40704 5//// 80200
BBXX DPCK 25003 99544 71709 41297 80220 11030 21030 40155 57015 77072 887// 22225 00040 20405 3//// 4//// 5//// 81030
BBXX C6KD8 25003 99336 70382 41297 41620 10205 20169 40263 56002 70111 83765 22254 02210 20805 311// 41104 5//// 80183
BBXX DHBN 25001 99335 71305 41598 72102 10155 20102 40285 58015 70222 83123 22224 00170 20301 328// 41005 5//// 80125
BBXX C6KD4 25003 99225 70569 41598 60618 10240 20176 40202 52010 70322 84245 22254 04257 20406 305// 40406 80200
BBXX DMRX 25004 99298 71173 41598 33210 10170 20119 40245 51004 700// 8314/ 22234 00170 20402 80140
BBXX A8KW3 25003 99228 71213 41697 50723 10189 20099 40285 54000 70311 8417/ 22264 04210 20201 306// 40504 5//// 80141
BBXX PCEX 25003 99249 70885 41498 21108 10248 20209 40195 55000 70300 82200 22274 02255 20201 303// 40303 80221
BBXX 46053 25001 99342 71198 46/// /2803 10146 40267 54000 92350 22200 00147 11602 335// 41602 70011 333 91203 555 11031 22032 32338 43004 62349 282029 303033 312030 314028 312026 308024
BBXX WDB6831 25004 99452 70831 41/98 82031 10011 2//// 40193 57030 70322 8//// 22262 0//// 2//05 3//// 4//// 5//// 6//// 8//// ICE /////
BBXX 46042 25001 99368 71224 46/// /3305 10120 40278 56007 92350 22200 00132 11606 20401 330// 41606 70030 333 91206 555 11050 22052 32250 43206 62349 330048 328046 331044 337041 346042 353043
BBXX 44008 25001 99405 70692 46/// /0108 10016 21047 40303 51027 92350 22200 00111 10803 20503 301// 40802 70015 333 91211 555 11081 22084 32335 40111 62349 011077 006083 355087 357077 009078 002080
BBXX 46089 25001 99459 71258 46/// /1708 10093 20086 40261 56018 92350 22200 00093 11206 20503 328// 41205 70029 333 91209 555 11080 22085 32310 41709 62349 169074 171071 172074 172072 172079 172074
BBXX 46083 25001 99582 71380 46/// /1315 10039 20031 49897 56035 92350 22200 00066 11009 20707 300// 41005 70043 333 91218 555 11158 22169 32338 41321 62349 127148 130160 131154 130165 126156 128164 81318 92338
BBXX 46001 25001 99563 71480 46/// /2911 10013 49958 52007 92350 22200 00045 11106 20705 300// 41104 70032 333 91213 555 11116 22122 32324 43015 62349 292111 298110 298114 302108 300107 303109
BBXX WXJ63 25003 99611 71464 41/97 80506 11017 21055 49922 57/// 715// 8//// 222// 00044 2//// 3//// 4//// 5//// 6//// 8//// ICE /////
BBXX NWS0029 25004 99415 70707 43/// /0204 11017 21087 40315 5//// 7//// 8//// 222// 04076 2//// 3//// 4//// 5//// 6//// 8//// ICE /////
BBXX NWS0020 25004 99304 70460 43/// /0918 10216 20179 40205 5//// 7//// 8//// 222// 04227 2//// 3//// 4//// 5//// 6//// 8//// ICE /////
BBXX NWS0003 25004 99539 71665 43/// /0000 11030 21078 40121 5//// 7//// 8//// 222// 0//// 2//// 3//// 4//// 5//// 6//// 8//// ICE /////
BBXX 41041 25001 99142 70460 46/// /0706 1//// 40159 53014 92350 22200 00264 333 91207 555 11064 22068
BBXX SBLW 25003 99152 70975 43/98 20005 10274 40121 55005 22274 00292 2//// 4////
BBXX C6OT4 25004 99168 71290 41397 80827 10219 20199 40148 56028 75865 887// 22223 04232 20908 307// 41207 5//// 80206
BBXX VRZN7 25004 99387 31481 41697 72808 10200 20180 40103 52008 78061 85628 22253 04230 20202 311// 41202 5//// 85185
BBXX 9V8797 25004 99013 11032 43/94 80321 10264 40100 53018 22234 00275 2//// 4////
BBXX C6UA2 25004 99252 31628 41797 60517 10260 2//// 40020 54/// 7//22 86660 22254 02260 2//06 3//// 4//// 5//// 6//// 8//// ICE /////
BBXX VRZN7 25004 99387 31481 41697 72808 10200 2018/ 40103 52008 78061 85628 22253 04230 20202 311// 41202 5//// 85185
BBXX A8VJ2 25003 99214 31503 41598 41712 10280 20221 40067 53/// 70111 83105 22283 00240 20301 30000 80240
BBXX VNVF 25004 99189 31175 41398 22810 10276 20256 40049 53011 70100 82172 22253 00289 20501 307// 40402 80262
BBXX V2OG2 25003 99296 31133 41998 61915 10235 20199 40152 53006 70000 80008 22273 20403 318// 40505 80210
BBXX VRWW8 25004 99369 31780 41597 71613 10180 20131 40232 54004 70222 862// 22273 00200 20403 309// 40604 5//// 80150
BBXX ZCGY8 25004 99209 31149 41498 12412 10290 20245 40046 5/010 70300 81100 22200 20702 324// 40702 80258
BBXX VRAE3 25004 99030 31432 41596 83609 10265 20245 40083 50027 76203 8877/ 22234 00310 20301 3//// 40402 5//// 80251
BBXX PCAM 25003 99341 31634 41/97 70918 10215 20166 40171 54000 7//22 87700 22273 29902 399// 4//// 80183
BBXX VRET5 25003 99221 31537 43597 32022 10260 2023/ 40040 5//// 7//// 82588 22254 00220 20705 32019 40705 50705 6//// 80240 ICE /////
BBXX PCCL 25003 99353 31724 41698 61210 10209 20117 40215 54000 70222 81108 22242 04184 20401 319// 41002 80154
BBXX MIBR 25003 99025 11049 41596 80215 10265 20228 40100 54000 70222 887// 22244 00276 20301 301// 40808 5//// 80240
BBXX DCQR2 25003 99357 31504 41997 10311 10217 20168 40100 54000 70200 80005 22282 04190 20402 306// 40602 5//// 80187
BBXX PCDE 25003 99238 31520 41598 32314 10262 20208 40065 54000 7//00 8/1// 22283 20602 308// 40705 80224
BBXX KAOU 25004 99005 10815 43/// /2910 10269 20245 40068 5//// 7//// 8//// 222// 04286 2//// 3//// 4//// 5//// 6//// 8//// ICE /////
AAXX 2500/ 41858 NIL
AAXX 2500/ 41863 NIL
AAXX 2500/ 41886 NIL
AAXX 2500/ 41895 NIL
AAXX 2500/ 41909 NIL
AAXX 2500/ 41915 NIL
AAXX 2500/ 41926 NIL
AAXX 2500/ 41929 NIL
AAXX 2500/ 41933 NIL
AAXX 2500/ 41939 NIL
AAXX 2500/ 41941 NIL
AAXX 2500/ 41946 NIL
AAXX 2500/ 41947 NIL
AAXX 2500/ 41951 NIL
AAXX 2500/ 41953 NIL
AAXX 2500/ 41958 NIL
AAXX 2500/ 41960 NIL
AAXX 2500/ 41963 NIL
AAXX 2500/ 41964 NIL
AAXX 2500/ 41965 NIL
AAXX 2500/ 41966 NIL
AAXX 2500/ 41984 NIL
AAXX 2500/ 41989 NIL
AAXX 2500/ 41998 NIL
BBXX 41052 25001 99183 70648 46/// /0709 10266 40168 92350 333 91211
BBXX 41052 25001 99183 70648 46/// /0609 10264 40166 92340 333 91211
BBXX SFIR 25004 99475 70182 43/95 82128 10124 40296 58005 22223 00120 2//// 4////
BBXX 62023 25003 99514 70079 46/96 /2425 10107 2//// 40277 5//// 22200 10606 70030 555 70048 81019
BBXX V7CY9 25003 99466 70073 41898 32813 10111 2009/ 40350 5//// 7//10 81145 22213 0//// 20401 331// 40802 5//// 6//// 80100 ICE /////
BBXX 62087 25001 99547 10068 46/// /0806 10084 20072 4//// 5//// 22270 00080
BBXX LAHV 25001 99589 10057 43/// /2506 10090 20070 40055 222// 04086 1////
BBXX LDGJ 25001 99603 10053 43/// /1803 10085 20038 40015 5//// 222/0 04098 1//// 3//// 4//// 5////
BBXX LF4H 25004 99596 10022 46/97 12529 10084 20034 40015 52013 8//// 22200 06084 10709 70044 333 91136
BBXX LMEL 25001 99603 10053 43/// /2005 10083 20047 40013 5//// 222/0 04099 1//// 3//// 4//// 5////
BBXX PBEN 25003 99368 10013 41/98 23606 10150 20097 40300 52015 7//22 821// 22263 20501 336// 40601 80120
BBXX PHAM 25003 99490 70049 41597 42710 10130 20118 40340 57010 7//// 8/400 22213 20801 80123 90749
BBXX UCKG 25001 99662 10032 41/96 52218 10030 49664 57040 75055 22232 00020 20606 32400 40808
BBXX PCIH 25003 99358 70330 41597 21306 10188 20163 40280 58010 70200 22284 20201 80172
BBXX UCKD 25001 99559 10020 41/97 92314 10098 40129 57003 70022 89/// 22213 00090 20803
BBXX MGGK4 25000 99429 70106 41298 40612 10130 20121 40349 55/// 70011 82178 22284 00148 20102 3//// 40204 5//// 80125
BBXX DCUJ2 25003 99369 10120 41/98 82928 10140 20064 40198 57007 70311 8//// 22234 00150 2//// 80100
AAXX 25004 71120 12974 12607 10016 21061 39537 40199 51023 60001 81070 333 10050 20002 70000
AAXX 25004 60360 12560 53119 10129 20053 40243 56002 60001 85800 333 0//00 82830 84640 95990
AAXX 25004 60390 12560 49902 10097 20089 40309 52002 60001 82830 333 81820 84358 95990
AAXX 25004 60402 11556 72406 10113 20107 40306 51002 60031 70166 878// 333 0//65 83820 85640 95990
AAXX 25004 60419 12550 52806 10067 20051 40287 58001 60001 85800 333 84820 83626 95990
AAXX 25004 60475 12660 53217 10055 20032 39310 48559 51005 60001 85200 333 85833 95990
AAXX 25004 60490 12558 20303 10060 20048 40295 50000 60001 82500 333 82620 95990
AAXX 25004 60525 12960 00000 10100 20041 40254 52006 60001 333 0//00 95990
AAXX 25004 60531 12560 20000 10082 20076 40297 50002 60001 82500 333 0//00 82630 95990
AAXX 25004 60566 42960 00000 10083 20029 40281 50001 60001 333 0//00
AAXX 25004 60571 12962 00806 10070 20039 39331 48582 52010 60001 333 0//00 95990
AAXX 25004 60580 12960 00000 10084 20062 40268 58001 60001
AAXX 25004 60590 12960 00000 10056 20027 40273 50000 60001 333 0//00
AAXX 25004 60611 12960 00505 10062 20015 40268 58005 60001 333 0//00
AAXX 25004 60620 12960 00312 10117 20017 40233 50000 60001 333 0//00
AAXX 25004 60630 12960 00620 10152 20047 40221 58000 60001 333 0//00
AAXX 25004 60656 12965 00000 10105 21019 40224 50004 60001 333 0//00
AAXX 25004 60670 12970 00000 10080 21011 39118 48557 58005 60001 333 0//00 95990
AAXX 25004 60680 12970 01206 10063 21042 38674 48544 56004 60001 333 0//00 95990
AAXX 25004 60351 12558 83413 10138 20099 40280 51001 69911 70226 888// 333 0//16 84820 86633 95990
AAXX 25004 60355 NIL
AAXX 25004 60445 12458 73208 10048 20020 39110 48578 58000 60001 872// 333 82710 86826 95990
AAXX 25004 60468 12560 70304 10060 20045 39321 48576 51001 60001 87200 333 0//00 87826 95990
AAXX 25004 60507 12960 00000 10043 20036 40304 51006 60001 333 95990
AAXX 25004 60511 12960 10000 10003 21010 39156 48574 54000 60001 80002 333 0//00 81071 95990
AAXX 25004 60536 12960 00000 10037 20032 39408 48582 54000 60002 333 95990
AAXX 25004 60550 12960 00000 10006 21003 38744 48578 57004 60001 333 0//00 95990
AAXX 25004 60555 NIL
AAXX 25004 60559 12960 00000 10094 20040 40265 58003 60001 333 0//00
AAXX 25004 60581 12960 00000 10065 20034 40266 50000 60001 333 0//00
AAXX 25004 60607 12960 00110 10106 20017 40246 53002 60001 333 0//00
AAXX 25004 60640 12960 00904 10080 21002 40249 50005 60001 333 0//00
AAXX 25004 60360 12560 53119 10129 20053 40243 56002 60001 85800 333 0//00 82830 84640 95990
AAXX 25004 60390 12560 49902 10097 20089 40309 52002 60001 82830 333 81820 84358 95990
AAXX 25004 60402 11556 72406 10113 20107 40306 51002 60031 70166 878// 333 0//65 83820 85640 95990
AAXX 25004 60419 12550 52806 10067 20051 40287 58001 60001 85800 333 84820 83626 95990
AAXX 25004 60475 12660 53217 10055 20032 39310 48559 51005 60001 85200 333 85833 95990
AAXX 25004 60490 12558 20303 10060 20048 40295 50000 60001 82500 333 82620 95990
AAXX 25004 60525 12960 00000 10100 20041 40254 52006 60001 333 0//00 95990
AAXX 25004 60531 12560 20000 10082 20076 40297 50002 60001 82500 333 0//00 82630 95990
AAXX 25004 60566 42960 00000 10083 20029 40281 50001 60001 333 0//00
AAXX 25004 60571 12962 00806 10070 20039 39331 48582 52010 60001 333 0//00 95990
AAXX 25004 60580 12960 00000 10084 20062 40268 58001 60001
AAXX 25004 60590 12960 00000 10056 20027 40273 50000 60001 333 0//00
AAXX 25004 60611 12960 00505 10062 20015 40268 58005 60001 333 0//00
AAXX 25004 60620 12960 00312 10117 20017 40233 50000 60001 333 0//00
AAXX 25004 60630 12960 00620 10152 20047 40221 58000 60001 333 0//00
AAXX 25004 60656 12965 00000 10105 21019 40224 50004 60001 333 0//00
AAXX 25004 60670 12970 00000 10080 21011 39118 48557 58005 60001 333 0//00 95990
AAXX 25004 60680 12970 01206 10063 21042 38674 48544 56004 60001 333 0//00 95990
AAXX 25004 60351 12558 83413 10138 20099 40280 51001 69911 70226 888// 333 0//16 84820 86633 95990
AAXX 25004 60355 NIL
AAXX 25004 60445 12458 73208 10048 20020 39110 48578 58000 60001 872// 333 82710 86826 95990
AAXX 25004 60468 12560 70304 10060 20045 39321 48576 51001 60001 87200 333 0//00 87826 95990
AAXX 25004 60507 12960 00000 10043 20036 40304 51006 60001 333 95990
AAXX 25004 60511 12960 10000 10003 21010 39156 48574 54000 60001 80002 333 0//00 81071 95990
AAXX 25004 60536 12960 00000 10037 20032 39408 48582 54000 60002 333 95990
AAXX 25004 60550 12960 00000 10006 21003 38744 48578 57004 60001 333 0//00 95990
AAXX 25004 60555 NIL
AAXX 25004 60559 12960 00000 10094 20040 40265 58003 60001 333 0//00
AAXX 25004 60581 12960 00000 10065 20034 40266 50000 60001 333 0//00
AAXX 25004 60607 12960 00110 10106 20017 40246 53002 60001 333 0//00
AAXX 25004 60640 12960 00904 10080 21002 40249 50005 60001 333 0//00
AAXX 25001 40701 12660 50000 11010 21028 38539 40145 53004 60001 85500 333 85640
AAXX 25001 40704 11660 73006 10030 20016 38559 40109 53001 69941 70261 84520 333 84640 84458
AAXX 25001 40708 12660 32203 10080 21011 38602 40078 54000 60001 81403 333 81640 83070
AAXX 25001 40710 12675 73002 10026 21014 38272 40128 53001 60001 82570 333 82635 87459
AAXX 25001 40713 12660 72202 10052 20015 38618 40115 53001 60001 83306 333 81935 82640 87259
AAXX 25001 40719 11530 79901 10098 20086 30131 40121 53006 60001 71022 84570 333 84620 87359
AAXX 25001 40731 12960 70000 10038 21032 38704 40141 58001 60001 81570 333 81640 86460
AAXX 25001 40738 11901 00000 10042 20042 30111 40113 56002 60001 74200 333
AAXX 25001 40740 12962 00902 11014 21039 38690 40139 56002 60001 333
AAXX 25001 40747 12660 21706 10074 20018 38591 40167 56005 60001 82500 333 82640
AAXX 25001 40757 12962 00000 10000 21060 38874 40171 57005 60001 333
AAXX 25001 40763 12962 00000 10010 21092 38892 40165 54000 60001 333
AAXX 25001 40782 12660 60000 10060 20038 38856 40138 58010 60001 83570 333 83640 86359
AAXX 25001 40783 12665 11003 10060 21010 37965 40107 58006 60001 81500 333 81640
AAXX 25001 40789 12965 00000 10006 21076 39176 40164 58003 60001 333
AAXX 25001 40798 12660 12308 10074 21009 37950 40112 57006 60001 81400 333 81640
AAXX 25001 40818 12970 00000 10016 21049 37983 40147 54000 60001 333
AAXX 25001 40827 11958 00000 11020 21150 38828 40223 58004 60001 70500 333
AAXX 25001 40836 12965 00000 10038 21048 38205 40162 54000 60001 333
AAXX 25001 40851 12960 00000 11012 21148 38263 40157 54000 60001 333
AAXX 25001 40853 12960 03304 10054 21105 37755 40129 54000 60001 333
AAXX 25001 40854 12960 02802 10054 21147 38927 40128 55001 60001 333
AAXX 25001 40857 12960 00703 10152 20102 30148 40157 54000 60001 222// 00/// 20301 333
AAXX 25001 40859 NIL
AAXX 25001 40878 12960 03303 10006 21176 38835 40185 56003 60001 333
AAXX 25001 40879 12960 03502 10074 21223 39480 40162 58004 60001 333
AAXX 25001 40883 12960 03303 10170 20131 30129 40152 58002 60001 333
AAXX 25001 40898 12960 02802 10170 20079 30130 40139 56002 60001 222// 00232 10700 333
BBXX UITJ 25001 99599 10040 41498 52424 10100 40010 52014 70222 85700 22242 00090 21112
BBXX A8IN9 25003 99467 70119 41/97 /2519 10128 20063 40352 57007 70022 8//// 22214 06140 20303 329// 41206 5//// 80097
BBXX PFBF 25003 99139 31694 41698 40603 10296 20198 40068 50010 70211 83281 22233 02301 2//00 330// 4//06 5//// 80228
BBXX A8NO8 25004 99373 10043 41/98 50223 10130 20074 40300 52020 7//11 8/2// 22265 04180 20409 80100
BBXX DGZL 25003 99389 70098 41/98 10614 10135 20099 40300 51005 70000 8//// 22284 00150 2//// 80115
BBXX MGRH9 25004 99344 31660 41298 31029 10205 20146 40188 58/// 70311 83750 22273 04180 20404 308// 40804 5//// 80170
BBXX PCBU 25003 99113 31504 41698 39904 10300 20239 40070 53012 70100 82145 22223 02302 20000 322// 40602 80255
AAXX 25001 40701 12660 50000 11010 21028 38539 40145 53004 60001 85500 333 85640
AAXX 25001 40704 11660 73006 10030 20016 38559 40109 53001 69941 70261 84520 333 84640 84458
AAXX 25001 40708 12660 32203 10080 21011 38602 40078 54000 60001 81403 333 81640 83070
AAXX 25001 40710 12675 73002 10026 21014 38272 40128 53001 60001 82570 333 82635 87459
AAXX 25001 40713 12660 72202 10052 20015 38618 40115 53001 60001 83306 333 81935 82640 87259
AAXX 25001 40719 11530 79901 10098 20086 30131 40121 53006 60001 71022 84570 333 84620 87359
AAXX 25001 40731 12960 70000 10038 21032 38704 40141 58001 60001 81570 333 81640 86460
AAXX 25001 40738 11901 00000 10042 20042 30111 40113 56002 60001 74200 333
AAXX 25001 40740 12962 00902 11014 21039 38690 40139 56002 60001 333
AAXX 25001 40747 12660 21706 10074 20018 38591 40167 56005 60001 82500 333 82640
AAXX 25001 40757 12962 00000 10000 21060 38874 40171 57005 60001 333
AAXX 25001 40763 12962 00000 10010 21092 38892 40165 54000 60001 333
AAXX 25001 40782 12660 60000 10060 20038 38856 40138 58010 60001 83570 333 83640 86359
AAXX 25001 40783 12665 11003 10060 21010 37965 40107 58006 60001 81500 333 81640
AAXX 25001 40789 12965 00000 10006 21076 39176 40164 58003 60001 333
AAXX 25001 40798 12660 12308 10074 21009 37950 40112 57006 60001 81400 333 81640
AAXX 25001 40818 12970 00000 10016 21049 37983 40147 54000 60001 333
AAXX 25001 40827 11958 00000 11020 21150 38828 40223 58004 60001 70500 333
AAXX 25001 40836 12965 00000 10038 21048 38205 40162 54000 60001 333
AAXX 25001 40851 12960 00000 11012 21148 38263 40157 54000 60001 333
AAXX 25001 40853 12960 03304 10054 21105 37755 40129 54000 60001 333
AAXX 25001 40854 12960 02802 10054 21147 38927 40128 55001 60001 333
AAXX 25001 40857 12960 00703 10152 20102 30148 40157 54000 60001 222// 00/// 20301 333
AAXX 25001 40859 NIL
AAXX 25001 40878 12960 03303 10006 21176 38835 40185 56003 60001 333
AAXX 25001 40879 12960 03502 10074 21223 39480 40162 58004 60001 333
AAXX 25001 40883 12960 03303 10170 20131 30129 40152 58002 60001 333
AAXX 25001 40898 12960 02802 10170 20079 30130 40139 56002 60001 222// 00232 10700 333
AAXX 25001 40701 12660 50000 11010 21028 38539 40145 53004 60001 85500 333 85640
AAXX 25001 40704 11660 73006 10030 20016 38559 40109 53001 69941 70261 84520 333 84640 84458
AAXX 25001 40708 12660 32203 10080 21011 38602 40078 54000 60001 81403 333 81640 83070
AAXX 25001 40710 12675 73002 10026 21014 38272 40128 53001 60001 82570 333 82635 87459
AAXX 25001 40713 12660 72202 10052 20015 38618 40115 53001 60001 83306 333 81935 82640 87259
AAXX 25001 40719 11530 79901 10098 20086 30131 40121 53006 60001 71022 84570 333 84620 87359
AAXX 25001 40731 12960 70000 10038 21032 38704 40141 58001 60001 81570 333 81640 86460
AAXX 25001 40738 11901 00000 10042 20042 30111 40113 56002 60001 74200 333
AAXX 25001 40740 12962 00902 11014 21039 38690 40139 56002 60001 333
AAXX 25001 40747 12660 21706 10074 20018 38591 40167 56005 60001 82500 333 82640
AAXX 25001 40757 12962 00000 10000 21060 38874 40171 57005 60001 333
AAXX 25001 40763 12962 00000 10010 21092 38892 40165 54000 60001 333
AAXX 25001 40782 12660 60000 10060 20038 38856 40138 58010 60001 83570 333 83640 86359
AAXX 25001 40783 12665 11003 10060 21010 37965 40107 58006 60001 81500 333 81640
AAXX 25001 40789 12965 00000 10006 21076 39176 40164 58003 60001 333
AAXX 25001 40798 12660 12308 10074 21009 37950 40112 57006 60001 81400 333 81640
AAXX 25001 40818 12970 00000 10016 21049 37983 40147 54000 60001 333
AAXX 25001 40827 11958 00000 11020 21150 38828 40223 58004 60001 70500 333
AAXX 25001 40836 12965 00000 10038 21048 38205 40162 54000 60001 333
AAXX 25001 40851 12960 00000 11012 21148 38263 40157 54000 60001 333
AAXX 25001 40853 12960 03304 10054 21105 37755 40129 54000 60001 333
AAXX 25001 40854 12960 02802 10054 21147 38927 40128 55001 60001 333
AAXX 25001 40857 12960 00703 10152 20102 30148 40157 54000 60001 222// 00/// 20301 333
AAXX 25001 40859 NIL
AAXX 25001 40878 12960 03303 10006 21176 38835 40185 56003 60001 333
AAXX 25001 40879 12960 03502 10074 21223 39480 40162 58004 60001 333
AAXX 25001 40883 12960 03303 10170 20131 30129 40152 58002 60001 333
AAXX 25001 40898 12960 02802 10170 20079 30130 40139 56002 60001 222// 00232 10700 333
BBXX AVMI 25003 99330 31517 41398 60912 10250 20/// 40214 55002 70311 84221 22200 00220
BBXX DDPH 25004 99343 31528 41998 10217 10220 20186 40130 54000 70100 8///3 22263 04241 20403 80197
BBXX 46207 25001 99509 71299 46/// /1912 10095 40116 57015 22200 00082 11207 70033 333 91215
AAXX 25004 91943 36/// /0911 10291 20216 30113 40115 57021 333 58001
AAXX 25004 91945 36/// /0716 10297 20234 30143 40148 57018 333 20251 59001
AAXX 25004 87344 32960 00906 10177 20058 39672 40223 53005 333 10228 20165
AAXX 25004 87349 32970 00903 10188 20043 39816 40211 56007 333 10236 20167
AAXX 25004 87371 32962 61811 10196 20091 30201 40223 52005 86070 333 10248 20166 56060 86360
AAXX 25004 87374 32965 61809 10178 20088 30128 40215 53005 86070 333 10230 20159 56070 86360
AAXX 25004 87395 32965 20904 10180 20102 30158 40204 53003 82070 333 10229 20158 56040 82360
AAXX 25004 87418 31960 00000 10214 20040 39388 40180 53004 70400 333 10272 20175
AAXX 25004 87436 32970 00913 10214 20052 39370 40173 53007 333 10280 20189
AAXX 25004 87448 32965 00915 10191 20052 39644 40205 53007 333 10260 20176
AAXX 25004 87453 32965 00210 10178 20060 39726 40218 53008 333 10231 20170
AAXX 25004 87467 32970 00905 10168 20075 30085 40222 55007 333 10225 20160
AAXX 25004 87497 32965 01403 10178 20084 30192 40219 53004 333 10229 20175
AAXX 25004 87506 31962 00507 10172 20054 38618 48542 54000 70500 333 10212 20113 95000
AAXX 25004 87509 32970 01404 10202 20044 39338 40187 53001 333 10255 20158
AAXX 25004 87532 32980 00000 10198 20041 30046 40217 55000 333 10252 20163
AAXX 25004 87534 32960 00504 10177 20068 30058 40221 53003 333 10252 20171
AAXX 25004 87548 32962 01103 10175 20031 30129 40226 52004 333 10232 20160
AAXX 25004 87576 32960 00705 10194 20098 30214 40238 52005 333 10239 20168
AAXX 25004 87582 32960 00907 10185 20079 30232 40239 53003 333 10206 20163
AAXX 25004 87585 32960 00907 10184 20094 30202 40232 54000 333 10228 20166
AAXX 25003 87480 32965 00905 10190 20055 30194 40224 53007 333 10234 20172
AAXX 25001 48852 11460 80000 10155 20150 30204 40214 53010 60092 76166 8672/ 333 01016 20151 3/016 58010 8689 4 88499 96160
BBXX 46207 25001 99509 71299 46/// /1912 10095 40116 57015 22200 00082 11207 70033 333 91215
BBXX 3ERR2 25004 99635 10053 43/// /2440 10073 20008 49833 52012 22200 11013 70063 333 91166
BBXX LF3F 25004 99643 10078 43/// /2339 10067 20009 49824 52004 22200 04092 10914 70071 333 91151
BBXX LF3N 25004 99653 10073 41497 62434 10057 20003 49760 57005 72582 869// 22200 00092 10913 70063
BBXX LF4B 25004 99606 10037 47/97 /2632 10083 49993 52017 700// 22200 00066 10810 70052 333 91141
BBXX LF4C 25004 99584 10019 43/// /2732 10093 20032 40055 52012 22200 10707 70034 333 91138
BBXX LF5T 25004 99660 10081 43/// /2532 10058 20025 49743 52003 22200 11013 70065 333 91153
AAXX 25001 22282 NIL
AAXX 25001 22438 NIL
AAXX 25001 22471 41225 82005 11044 21057 39970 49994 58004 77372 8872/ 333 86703
AAXX 25001 22563 41497 82103 11041 21053 39979 40018 57003 70282 889// 333 86914
AAXX 25001 22641 41397 81702 11019 21025 39992 40008 57002 77173 885// 333 86709 91105
AAXX 25001 22695 42998 61802 11168 21181 39936 40099 57010 86030
AAXX 25001 22867 41498 82103 11053 21071 39982 40099 57004 78582 889// 333 88914 91107
AAXX 25001 22939 41396 81905 11054 21068 39931 40098 57004 77373 8872/ 333 84709
AAXX 25001 22996 41596 62002 11144 21157 39959 40161 52002 78582 86900
AAXX 25001 23324 42980 02003 11121 21141 30017 40098 57008
AAXX 25001 27051 41496 82404 11067 21087 39955 40127 58005 78583 8655/ 333 84915
AAXX 25001 27225 NIL
AAXX 25001 27252 41996 82304 11080 21086 39963 40156 57003 71022 8807/
AAXX 25001 27333 42384 82604 11064 21083 39998 40161 57003 887//
AAXX 25001 27369 41997 81501 11103 21109 30044 40189 52001 77072 8801/
AAXX 25001 27393 41498 82702 11152 21165 30012 40191 52007 78581 8395/
AAXX 25001 27479 41497 82703 11086 21097 30054 40194 52003 77172 8872/ 333 88710
AAXX 25001 27532 41496 82305 11062 21074 39962 40183 54000 71022 8657/
AAXX 25001 27648 41396 81801 11090 21101 30032 40209 54000 71022 886// 333 88708
AAXX 25001 27675 42597 82602 11091 21102 30027 40205 52001 885// 333 88622
AAXX 25001 27679 42598 82801 11099 21111 39975 40211 52002 885// 333 88623
AAXX 25001 28214 41996 00000 11150 21156 39959 40185 52008 70171
AAXX 25001 22165 41496 81808 10008 21012 39850 49911 58001 78582 889//
AAXX 25001 22676 41484 81805 11073 21082 39985 40064 57008 70272 885//
AAXX 25001 22954 41397 82005 11067 21083 39852 40109 57003 77173 887// 333 86708
AAXX 25001 23405 41958 81503 11104 21124 39954 40057 57012 77172 8802/
AAXX 25001 23412 41399 71303 11157 21170 39994 40097 57006 70272 87300 333 84709
AAXX 25001 23803 42699 80000 11107 21120 39960 40148 58001 885// 333 88635
AAXX 25001 27066 42998 32101 11148 21161 39965 40154 57004 83030
AAXX 25001 27083 41559 82102 11116 21129 39921 40155 52001 77172 8802/
AAXX 25001 27113 41421 82003 11056 21074 39970 40120 57004 77372 8372/
AAXX 25001 27242 42398 82403 11066 21078 30022 40155 57001 887// 333 88710
AAXX 25001 27329 42584 82602 11067 21083 30037 40167 54000 885//
AAXX 25001 27355 42497 81802 11080 21090 30011 40183 53001 885//
AAXX 25001 27373 41296 80000 11123 21136 39954 40185 52002 70272 886// 333 88705
AAXX 25001 27665 42997 82602 11098 21115 39928 40214 52002 8802/
AAXX 25001 27835 NIL
AAXX 25001 28009 41496 82702 11113 21126 39958 40179 52005 78582 889//
AAXX 25001 28411 41497 80000 11062 21070 39972 40172 52003 77172 8872/ 333 88710
AAXX 25001 28418 NIL
AAXX 25001 34560 42997 60701 11041 21045 30035 40207 52009 80001
AAXX 25001 34720 42999 00603 11003 21031 30124 40165 53008
AAXX 25001 34730 42997 60708 11024 21052 30076 40171 52010 86030
AAXX 25001 34740 42998 41004 11037 21056 30069 40169 52011 80001
AAXX 25001 34824 41596 80402 10015 20004 30140 40146 52016 71026 885//
AAXX 25001 34858 41996 01302 11048 21061 30070 40182 53011 71000
AAXX 25001 34866 42998 00802 11076 21090 30204 40194 53008
AAXX 25001 34880 42997 00302 11091 21126 30222 40195 53013
AAXX 25001 37018 41598 82405 10068 20042 30071 40147 52023 70282 889//
AAXX 25001 37054 41496 80703 11016 21026 39778 40173 52010 71022 885//
AAXX 25001 37472 41596 73301 10010 21029 30195 40172 52015 71022 85630
AAXX 25004 64500 32460 62008 10270 20237 30094 40107 86500 92351 333 0//00 59004 83610 85633
AAXX 25003 64501 32458 52006 10256 20236 3//// 4//// 83502 333 0//00 5//// 83610 85073
AAXX 25004 64570 32565 62204 10245 20230 39609 40115 86500 333 0//00 59008 83630 86640
BBXX BATFR28 25004 99025 11016 46/// /0612 10270 20212 40088 53009 22272 00294
BBXX BATFR56 25004 99092 30738 46/// /1314 10269 20267 40077 56015 22213 00297
BBXX BATFR43 25004 99207 51676 46/// /3308 10282 20239 40084 56009 22263 00284
BBXX BATFR19 25004 99066 30057 46/// /1814 10239 20207 40131 58004 2228/ 00257
BBXX BATFR08 25004 99274 30649 46/// /0817 10222 20155 40202 57006 22273 00230
BBXX BATFR55 25004 99073 30405 44/97 00805 10284 20244 40103 70000 22222 00292 20802
BBXX A8QJ7 25004 99300 70156 41/98 /0312 10190 20190 40262 58012 70322 8/7// 22283 06180 2//// 3//// 4//// 5//// 80190
BBXX A8AX3 25003 99042 70091 41/// /9902 7//// 8//// 22234 2//// 30000
BBXX TBWUK03 25003 99130 70233 41398 10521 10243 20185 40152 52009 70200 81100 22253 20403 304// 40803 5//// 80204
BBXX UBQE6 25001 99219 70176 41998 00000 10150 2//// 40202 58010 70200 80000 22244 00014
BBXX DEGI 25003 99201 70175 41997 00817 10190 20155 40190 57010 70200 80000 22243 04193 29904 399// 4//03 80168
AAXX 25001 26424 41/// /2904 10023 20018 30060 40114 52017 7616/
AAXX 25001 40001 31570 80305 10082 20060 40123 58002 70520 83510 333 83626 88460
AAXX 25001 40007 11558 81302 10075 20068 40109 55007 60023 76362 8657/ 333 86626 88360
AAXX 25001 40025 11560 52707 10146 20060 40091 58004 60041 70299 85900 333 82926 84630
AAXX 25001 40045 32970 40000 10052 20029 40132 55000 84040 333 84360
AAXX 25001 40061 32970 32402 10067 20028 40116 55000 83050 333 83360
AAXX 25001 40080 11560 62305 10082 20074 39415 40120 51001 69931 70296 85800 333 83826 85630
AAXX 25001 40087 NIL
AAXX 25001 40095 NIL
BBXX FVNM 25004 99089 70795 46/// /0514 10279 20234 40086 53019 22200 00279
BBXX SHIP 25004 99433 70559 41697 60114 10045 20010 40165 54000 70222 8489/ 22264 04080 20502 80030
BBXX DDIJ 25003 99249 71146 41998 23420 10178 20060 40185 54000 7//00 81051 22274 04230 29904 333// 40807 80115
BBXX 61001 25004 99434 10078 46/// /0426 10138 20015 40230 52016 22200 00146 10705 70024 555 1/032
BBXX BATFR32 25004 99426 10082 46/// /0721 10134 21010 4//// 5//// 7//// 8//// 22283 00154
BBXX BAREU06 25004 99402 70256 46/// ///// 40339 52004 22224
BBXX BAREU62 25004 99390 10261 46/// ///// 40215 57005 22234
BBXX BATFR14 25004 99481 70091 44/98 82517 10119 20072 40344 56014 70022 8//// 22214 00132 331// 41204 5////
BBXX BATFR09 25004 99362 70035 46/// /0925 10157 20110 40290 50002 22223 00172
BBXX BATFR31 25004 99426 10074 46/// /0115 10130 20124 40232 53044 22283 00147
BBXX BATFR01 25004 99395 10137 46/// /2718 10140 20087 40115 58018 22271 00162
BBXX BATFR60 25004 99500 70018 46/// /2525 10114 20077 40311 55007 22222 00112
BBXX BATEU04 25004 99629 70214 46/// /2626 10017 21022 4//// 22261
BBXX BATFR46 25004 99384 10001 44996 20012 10142 20077 40314 50/// 70111 82122 22253 00169 20510
BBXX BATEU05 25004 99584 70012 46/// /2532 10087 40050 52020 22222
BBXX BATFR21 25004 99438 10083 46/// /0027 20140 40245 51022 222//
BBXX PCEO 25003 99504 10004 41/97 82512 10102 20059 40282 58004 76166 8//// 22264 04115 20802 3//// 4//// 5//// 80080
BBXX PHQX 25003 99429 70150 41597 50000 10110 20050 40370 70222 83175 22264 2//00 3//// 4//// 5//// 80080
BBXX BATFR20 25004 99431 10087 46/// ///// 10130 20007 40202 51008 22263
BBXX BATUK01 25004 99560 70032 46/// /2605 10094 20050 40122 53015 22200 00055
BBXX 61002 25004 99421 10047 46/// ///37 10109 2//// 40274 52002 22200 00138 10810 70048 555 1/050
BBXX DANM 25004 99400 70220 41597 71009 10155 20112 40350 54000 70311 8657/ 22265 00150 20301 80130
BBXX DGPT2 25004 99340 70157 41597 81314 10170 20119 40290 54000 70222 881// 22213 00180 20604 80140
BBXX PBEO 25003 99531 10044 41/97 /2411 10114 20076 40233 56019 700// 8//// 22212 02074 20503 30000 80094
BBXX IDDUK02 25004 99517 50578 46/// ///// 40065 222//
BBXX 2BLY5 25003 99342 50531 41698 51711 10185 20090 40230 54000 7//11 8/184 22253 00216 20301 80135
AAXX 25004 60395 12660 20000 10100 20094 40297 51009 60001 82200 333 0//00 82840 95990
AAXX 25004 60444 NIL
AAXX 25004 60452 12560 3//// 10130 20090 40292 50005 60001 83200 222// 2//// 333 83820 91826
AAXX 25004 60457 12960 00000 10053 20046 40293 53002 60001 333 95990
AAXX 25004 40153 11008 92415 10070 20068 39058 48455 52003 60111 76098 88///
AAXX 25004 40179 11560 72812 10137 20103 30116 40153 52004 60021 79162 877//
AAXX 25004 40180 11460 82511 10135 20091 30109 40158 53008 60011 76162 84350
AAXX 25004 40190 16/// ///// 10109 20031 39832 40168 52002 60001
AAXX 25004 40199 12970 00302 10122 20024 30153 40176 54000 60001
AAXX 25004 64400 32458 71406 10247 20237 30095 40114 878// 333 0//00 59002 82810 87626
AAXX 25003 64401 32560 52206 10230 20218 39740 40111 85500 333 0//00 59005 85620
AAXX 25004 64450 32959 70000 10257 20238 39745 40094 5703/ 333 0//00 59009 87363
AAXX 25003 64458 32960 00000 10235 20225 39704 40097 333 0//00 58001
AAXX 25003 64459 31460 32802 10235 20225 39749 40106 71300 82902 333 0//00 59003 82610 81930 83078 94943 95833
AAXX 25001 14235 12760 8//// 10000 21031 39080 48520 52013 69931 8807/
AAXX 25001 14246 NIL
AAXX 25001 14314 NIL
AAXX 25001 14323 NIL
AAXX 25001 14324 NIL
AAXX 25001 14328 NIL
AAXX 25001 14330 NIL
AAXX 25001 14438 NIL
AAXX 25001 14443 NIL
AAXX 25001 14447 NIL
AAXX 25001 14472 NIL
AAXX 25001 40009 32565 71801 10083 20075 40090 51002 84530 333 84630 87360
AAXX 25001 40016 NIL
AAXX 25001 40022 11565 62101 10150 20107 40084 56003 60021 79599 86900 222// 20000 333 83930 86632
AAXX 25001 40030 11570 60000 10104 20075 40099 57012 60021 70266 83570 333 83630 85360
AAXX 25001 40039 32570 30000 10084 20062 40104 57004 83500 333 83630
AAXX 25001 40066 NIL
AAXX 25001 40072 NIL
AAXX 25001 40083 11570 51401 10040 20011 48422 50000 60012 72262 85800 333 82826 84630
AAXX 25001 08501 32/// /1707 10171 20155 30268 40304 54000 333 91111 555 60005
AAXX 25001 08505 32470 31205 10168 20142 30279 40329 58005 83800 333 83814 555 60007
AAXX 25001 08506 32/// /1708 10166 20136 30261 40333 57008 555 60005
AAXX 25001 08509 32460 11402 10142 20135 30274 40339 57004 81100 333 81814 555 60007
AAXX 25001 08511 32/// /1701 10149 20149 30232 40341 57002 555 60005
AAXX 25001 08512 11375 71006 10153 20144 30256 40342 54000 69901 70282 878// 333 81708 83813 85645 555 60005
AAXX 25001 08515 11470 60903 10154 20137 30222 40345 51002 69931 78082 86800 333 83819 84641 910// 911// 555 69927 912//
AAXX 25001 08521 11465 60104 10172 20108 30223 40294 58001 69911 70282 86800 333 85816 555 69917
AAXX 25001 08522 32/// /9902 10170 20090 30221 40291 57002 555 60005
AAXX 25001 08524 32465 60203 10158 20093 30200 40299 52002 86800 333 84815 84630 91108 555 60005
AAXX 25001 08530 NIL
AAXX 25001 08531 32/// /0803 10091 20059 30275 40314 52006 555 60005
AAXX 25001 08532 NIL
AAXX 25001 08533 32/// /0702 10085 20055 30256 40286 52002 555 60005
AAXX 25000 08534 32965 00804 10100 20084 30293 40311 53005 555 60007
AAXX 25001 08535 32/// /0406 10112 20027 30216 40310 52004 333 91010 91110 555 60005
AAXX 25001 08537 NIL
AAXX 25001 08540 32960 09901 10042 20019 30243 40315 52004 555 60007
AAXX 25001 08541 NIL
AAXX 25001 08544 32960 00101 10036 20022 30299 40321 53003 555 60007
AAXX 25001 08545 31965 00503 10082 20003 30246 40332 52003 70100 333 91106 555 60005
AAXX 25001 08548 32/// /0502 10086 20012 30108 40319 52005 333 91108 555 60005
AAXX 25001 08551 32/// /1002 10048 20036 30275 40335 57001 333 91105 555 60005
AAXX 25001 08554 32965 00603 10122 20061 30278 40287 52006 333 91105 555 60005
AAXX 25001 08558 32/// /9903 10055 20012 30006 40310 52005 333 91105 555 60005
AAXX 25001 08560 32/// /0607 10052 20001 39558 40338 52003 333 91013 91113 555 60005
AAXX 25001 08561 32970 01002 10056 20034 30059 40300 52007 555 60007
AAXX 25001 08562 32/// /0703 10075 20032 30000 40302 52006 333 91107 555 60005
AAXX 25001 08567 32/// /0403 10051 20010 39680 40366 54000 555 60005
AAXX 25001 08568 32/// /1704 10030 21121 38750 48614 52002 333 91006 91106 555 60005
AAXX 25001 08570 NIL
AAXX 25001 08571 32/// /0709 10087 21007 39595 40309 52002 333 91013 91115 555 60005
AAXX 25001 08575 32/// /0000 10018 21001 39535 40381 52002 555 60005
AAXX 25001 08579 32/// /2404 10104 20026 30184 40312 52006 333 91008 91108 555 60005
AAXX 25001 60370 36/// /0000 10120 20096
AAXX 25001 60371 16/// /1701 10128 20111 60011
AAXX 25001 60372 NIL
AAXX 25001 60373 NIL
AAXX 25001 60374 NIL
AAXX 25001 60376 NIL
AAXX 25001 60379 NIL
AAXX 25001 60380 NIL
AAXX 25001 60381 NIL
AAXX 25001 60393 NIL
AAXX 25001 60394 NIL
AAXX 25001 60593 NIL
AAXX 25001 60595 NIL
AAXX 25001 60605 NIL
AAXX 25001 60613 NIL
AAXX 25001 60623 NIL
AAXX 25004 60624 36/// /0000 10166 21033
AAXX 25004 60639 NIL
AAXX 25004 60645 36/// /0000 10145 20015
BBXX SBLI 25001 99320 11406 43/98 72913 10121 40222 53019 22263 00207 2//// 4//// 426621110
BBXX SKOZ 25004 99522 70468 43/98 63026 10021 49957 53076 22214 00069 2//// 4////
AAXX 25004 60369 11559 51404 10146 20093 40297 51002 69921 70162 83280 333 0//53 83826 91836
AAXX 25004 60403 NIL
AAXX 25004 60425 12960 10000 10095 20076 40298 50002 60001 80002 333 0//00 81073 95990
AAXX 25001 28676 429// 00000 11216 21237 30050 40188 57010 555 1/122
AAXX 25001 28766 419// 21601 11232 21241 39981 40188 57010 71000 80001 555 1/125
AAXX 25001 28867 42998 00000 11211 21244 39896 40190 57006 555 1/123
AAXX 25001 28879 429// 01201 11162 21207 39880 40185 57015 555 1/120
AAXX 25001 28952 419// 00000 11218 21236 39979 40187 57007 77600 555 1/124
AAXX 25001 28966 429// 00000 11226 21252 39886 40195 57015 555 1/125
AAXX 25001 29802 429// 01302 11215 21239 30077 40233 57010 555 1/124
AAXX 25001 29807 429// 01401 11201 21220 30087 40215 57019 555 1/122
AAXX 25001 34691 42998 30501 11092 21148 30218 40205 52020 80002 555 1/110
AAXX 25001 35067 429// 00000 11241 21269 39888 40191 57006 555 1/124
AAXX 25001 35078 429// 00601 11235 21261 39788 40202 57011 555 1/125
AAXX 25001 35085 429// 01701 11176 21204 39695 40202 57012 555 1/121
AAXX 25001 35108 415// 80000 11068 21101 30160 40207 52004 71072 886//
AAXX 25001 35188 429// 01603 11123 21183 39750 40204 57002 555 1/116
AAXX 25001 35217 425// 80502 11102 21130 30162 40203 52003 885// 555 1/112
AAXX 25001 35229 429// 53201 11170 21189 39896 40188 53001 85070 555 1/119
AAXX 25001 35302 425// 80000 11074 21100 30192 40214 52008 885// 555 1/108
AAXX 25001 35357 429// 01402 11213 21238 39733 40203 57005 555 1/124
AAXX 25001 35394 42998 01803 11090 21174 39507 40204 57012 555 1/115
AAXX 25001 35406 429// 80401 11150 21177 30198 40200 52006 8807/ 555 1/117
AAXX 25001 35416 429// 23303 11190 21231 30061 40191 53007 80005 555 1/120
AAXX 25001 35426 429// 83305 11130 21156 39869 40175 53002 8801/ 555 1/113
AAXX 25001 35497 429// 00000 11101 21152 39387 40212 57005 555 1/113
AAXX 25001 35532 41496 81603 11120 21155 39657 40170 57009 77077 8802/ 555 1/112
AAXX 25001 35671 41996 00000 11234 21252 39744 40213 57005 71000 555 1/127
AAXX 25001 35700 42998 00302 11151 21157 30212 40187 52009 555 1/117
AAXX 25001 35746 429// 60204 11113 21141 30074 40144 57004 86070 555 1/111
AAXX 25001 35796 42997 00404 11197 21229 39785 40255 53001 555 1/121
AAXX 25001 35849 42598 70701 11090 21134 30037 40125 57004 87500 555 1/108
AAXX 25001 35925 415// 80703 11088 21099 30032 40147 52005 71022 886// 555 1/108
AAXX 25001 35953 425// 80904 11121 21148 39996 40131 57006 885// 555 1/112
AAXX 25001 35969 429// 00902 11122 21167 39985 40168 57009 555 1/113
AAXX 25001 36003 42998 01503 11191 21215 30067 40230 57006 555 1/125
AAXX 25001 36152 419// 01406 11189 21230 30039 40241 57008 73633 555 1/121
AAXX 25001 36177 429// 01104 11187 21220 30013 40278 57008 555 1/120
AAXX 25001 36208 429// 00902 11140 21173 39261 40292 57013 555 1/120
AAXX 25001 36397 419// 01616 11156 21198 39697 40294 57014 70230 333 91018 91118 555 1/118
AAXX 25001 36428 429// 00202 11281 21306 39796 40356 57006 333 95090 555 1/132
AAXX 25001 36535 429// 00000 11329 21357 39660 40384 57011 555 1/137
AAXX 25001 36639 429// 00000 11204 21230 39625 40279 53003 555 1/124
AAXX 25001 36821 419// 00000 11141 21157 39712 40228 54000 71000 333 91103
AAXX 25001 36859 429// 00000 11130 21157 39445 40270 53004 333 91103 555 1/118
AAXX 25001 36864 429// 00000 11137 21164 39304 40248 53005 555 91103
AAXX 25001 36870 429// 00000 11065 21113 39173 40212 53002 333 91102 555 1/114
AAXX 25001 38001 42597 80505 11047 21078 30197 40164 52003 885// 555 10104
AAXX 25001 38062 429// 61201 11102 21146 39964 40133 57008 86080 555 1/110
AAXX 25001 38069 429// 61102 11030 21068 39944 40138 54000 86080
AAXX 25001 38196 42998 22301 10025 21109 39181 40153 56003 80002
AAXX 25001 38198 429// 81507 11007 21056 39896 40157 58006 8805/ 555 1/103
AAXX 25001 38222 42997 00000 11112 21140 39623 40209 53002 555 1/116
AAXX 25001 38232 41495 73503 11038 21038 30039 40140 52004 71022 87600 555 14103
AAXX 25001 38328 425// 31903 10074 21019 39434 40147 53004 82530 555 1/000
AAXX 25001 38334 42998 21904 10085 21060 39208 40144 58002 82070 555 1/001
AAXX 25001 38341 42997 51801 10000 21070 39387 40177 53001 85030 555 1/105 91106
AAXX 25001 38343 42997 22902 11072 21101 39333 40203 53006 80001
AAXX 25001 38439 42998 61508 10046 21059 39813 40149 53003 83071 555 10001
AAXX 25004 41923 31/02 90000 10132 20130 30108 40119 74544 89/// 333 56999 59002 70000
AAXX 25004 41936 31906 20000 10104 20100 40129 74000 82030 333 59002 70000 82362
AAXX 25001 40700 11556 80000 10056 20047 30050 40139 51011 60001 71022 886// 333 88720
AAXX 25001 40723 12860 10000 11018 21050 38877 40158 50000 60001 80070 333
AAXX 25001 40726 11550 50000 10048 20020 38602 40107 58007 60101 72162 84370 333 82930 82635 84458
AAXX 25001 40727 12960 00000 10008 21002 38440 40130 54000 60001 333
AAXX 25001 40734 11957 89901 10098 20090 30144 40118 55000 60001 71022 886// 333 88719
AAXX 25001 40737 12960 00000 10060 20056 30096 40110 58002 60001 333
AAXX 25001 40741 12960 00000 10001 21033 39808 40143 57010 60001 333
AAXX 25001 40780 12660 61402 10076 20007 38661 40128 58002 69951 83370 333 81930 83635 86358
AAXX 25001 40791 12965 00000 10034 21120 39328 40159 58004 60001 333
AAXX 25001 40792 12970 00602 10034 21100 38709 40155 54000 60001 333
AAXX 25001 40794 NIL
AAXX 25001 40812 12960 40000 10130 20038 39771 40143 54000 60001 84030 333 84360
AAXX 25001 40829 11930 01002 11020 21177 39610 40201 54000 60001 70500 333
AAXX 25001 40833 12960 11504 10122 20072 30127 40159 54000 60001 80001 92350 333 81070
AAXX 25001 40835 12960 00000 10080 20008 39333 40163 57005 60001 333
AAXX 25001 40845 NIL
AAXX 25001 40882 11956 02903 10182 20140 30114 40149 56006 60001 70500 333
AAXX 25001 40889 NIL
AAXX 25001 40890 NIL
AAXX 25001 40893 12960 03404 10175 20110 30136 40142 56003 60001 222// 00/// 20501 333
AAXX 25001 40897 NIL
AAXX 25001 28676 429// 00000 11216 21237 30050 40188 57010 555 1/122
AAXX 25001 28766 419// 21601 11232 21241 39981 40188 57010 71000 80001 555 1/125
AAXX 25001 28867 42998 00000 11211 21244 39896 40190 57006 555 1/123
AAXX 25001 28879 429// 01201 11162 21207 39880 40185 57015 555 1/120
AAXX 25001 28952 419// 00000 11218 21236 39979 40187 57007 77600 555 1/124
AAXX 25001 28966 429// 00000 11226 21252 39886 40195 57015 555 1/125
AAXX 25001 29802 429// 01302 11215 21239 30077 40233 57010 555 1/124
AAXX 25001 29807 429// 01401 11201 21220 30087 40215 57019 555 1/122
AAXX 25001 34691 42998 30501 11092 21148 30218 40205 52020 80002 555 1/110
AAXX 25001 35067 429// 00000 11241 21269 39888 40191 57006 555 1/124
AAXX 25001 35078 429// 00601 11235 21261 39788 40202 57011 555 1/125
AAXX 25001 35085 429// 01701 11176 21204 39695 40202 57012 555 1/121
AAXX 25001 35108 415// 80000 11068 21101 30160 40207 52004 71072 886//
AAXX 25001 35188 429// 01603 11123 21183 39750 40204 57002 555 1/116
AAXX 25001 35217 425// 80502 11102 21130 30162 40203 52003 885// 555 1/112
AAXX 25001 35229 429// 53201 11170 21189 39896 40188 53001 85070 555 1/119
AAXX 25001 35302 425// 80000 11074 21100 30192 40214 52008 885// 555 1/108
AAXX 25001 35357 429// 01402 11213 21238 39733 40203 57005 555 1/124
AAXX 25001 35394 42998 01803 11090 21174 39507 40204 57012 555 1/115
AAXX 25001 35406 429// 80401 11150 21177 30198 40200 52006 8807/ 555 1/117
AAXX 25001 35416 429// 23303 11190 21231 30061 40191 53007 80005 555 1/120
AAXX 25001 35426 429// 83305 11130 21156 39869 40175 53002 8801/ 555 1/113
AAXX 25001 35497 429// 00000 11101 21152 39387 40212 57005 555 1/113
AAXX 25001 35532 41496 81603 11120 21155 39657 40170 57009 77077 8802/ 555 1/112
AAXX 25001 35671 41996 00000 11234 21252 39744 40213 57005 71000 555 1/127
AAXX 25001 35700 42998 00302 11151 21157 30212 40187 52009 555 1/117
AAXX 25001 35746 429// 60204 11113 21141 30074 40144 57004 86070 555 1/111
AAXX 25001 35796 42997 00404 11197 21229 39785 40255 53001 555 1/121
AAXX 25001 35849 42598 70701 11090 21134 30037 40125 57004 87500 555 1/108
AAXX 25001 35925 415// 80703 11088 21099 30032 40147 52005 71022 886// 555 1/108
AAXX 25001 35953 425// 80904 11121 21148 39996 40131 57006 885// 555 1/112
AAXX 25001 35969 429// 00902 11122 21167 39985 40168 57009 555 1/113
AAXX 25001 36003 42998 01503 11191 21215 30067 40230 57006 555 1/125
AAXX 25001 36152 419// 01406 11189 21230 30039 40241 57008 73633 555 1/121
AAXX 25001 36177 429// 01104 11187 21220 30013 40278 57008 555 1/120
AAXX 25001 36208 429// 00902 11140 21173 39261 40292 57013 555 1/120
AAXX 25001 36397 419// 01616 11156 21198 39697 40294 57014 70230 333 91018 91118 555 1/118
AAXX 25001 36428 429// 00202 11281 21306 39796 40356 57006 333 95090 555 1/132
AAXX 25001 36535 429// 00000 11329 21357 39660 40384 57011 555 1/137
AAXX 25001 36639 429// 00000 11204 21230 39625 40279 53003 555 1/124
AAXX 25001 36821 419// 00000 11141 21157 39712 40228 54000 71000 333 91103
AAXX 25001 36859 429// 00000 11130 21157 39445 40270 53004 333 91103 555 1/118
AAXX 25001 36864 429// 00000 11137 21164 39304 40248 53005 555 91103
AAXX 25001 36870 429// 00000 11065 21113 39173 40212 53002 333 91102 555 1/114
AAXX 25001 38001 42597 80505 11047 21078 30197 40164 52003 885// 555 10104
AAXX 25001 38062 429// 61201 11102 21146 39964 40133 57008 86080 555 1/110
AAXX 25001 38069 429// 61102 11030 21068 39944 40138 54000 86080
AAXX 25001 38196 42998 22301 10025 21109 39181 40153 56003 80002
AAXX 25001 38198 429// 81507 11007 21056 39896 40157 58006 8805/ 555 1/103
AAXX 25001 38222 42997 00000 11112 21140 39623 40209 53002 555 1/116
AAXX 25001 38232 41495 73503 11038 21038 30039 40140 52004 71022 87600 555 14103
AAXX 25001 38328 425// 31903 10074 21019 39434 40147 53004 82530 555 1/000
AAXX 25001 38334 42998 21904 10085 21060 39208 40144 58002 82070 555 1/001
AAXX 25001 38341 42997 51801 10000 21070 39387 40177 53001 85030 555 1/105 91106
AAXX 25001 38343 42997 22902 11072 21101 39333 40203 53006 80001
AAXX 25001 38439 42998 61508 10046 21059 39813 40149 53003 83071 555 10001
AAXX 25001 40700 11556 80000 10056 20047 30050 40139 51011 60001 71022 886// 333 88720
AAXX 25001 40723 12860 10000 11018 21050 38877 40158 50000 60001 80070 333
AAXX 25001 40726 11550 50000 10048 20020 38602 40107 58007 60101 72162 84370 333 82930 82635 84458
AAXX 25001 40727 12960 00000 10008 21002 38440 40130 54000 60001 333
AAXX 25001 40734 11957 89901 10098 20090 30144 40118 55000 60001 71022 886// 333 88719
AAXX 25001 40737 12960 00000 10060 20056 30096 40110 58002 60001 333
AAXX 25001 40741 12960 00000 10001 21033 39808 40143 57010 60001 333
AAXX 25001 40780 12660 61402 10076 20007 38661 40128 58002 69951 83370 333 81930 83635 86358
AAXX 25001 40791 12965 00000 10034 21120 39328 40159 58004 60001 333
AAXX 25001 40792 12970 00602 10034 21100 38709 40155 54000 60001 333
AAXX 25001 40794 NIL
AAXX 25001 40812 12960 40000 10130 20038 39771 40143 54000 60001 84030 333 84360
AAXX 25001 40829 11930 01002 11020 21177 39610 40201 54000 60001 70500 333
AAXX 25001 40833 12960 11504 10122 20072 30127 40159 54000 60001 80001 92350 333 81070
AAXX 25001 40835 12960 00000 10080 20008 39333 40163 57005 60001 333
AAXX 25001 40845 NIL
AAXX 25001 40882 11956 02903 10182 20140 30114 40149 56006 60001 70500 333
AAXX 25001 40889 NIL
AAXX 25001 40890 NIL
AAXX 25001 40893 12960 03404 10175 20110 30136 40142 56003 60001 222// 00/// 20501 333
AAXX 25001 40897 NIL
BBXX 46035 25001 99571 71778 46/// /0111 1//// 40230 57004 92350 22200 10805 20805 70023 333 91214 555 11107 22114 32259 40114 62349 014106 001106 013099 031093 025095 020102 80212 92300
BBXX A8EH2 25003 99544 71739 41298 60220 11020 21023 40170 54000 71562 82768 22264 00031 20403 336// 40504 82020
BBXX A8XD5 25004 99414 71517 41297 32818 10140 20105 40250 52/// 70311 83142 22223 04150 20306 327// 40306 80120
BBXX C6SI3 25004 99499 71515 41398 72724 10020 21030 40110 5//// 7//77 87/4/ 22223 0//// 20412 32729 40512 5//// 6//// 80000 ICE /////
BBXX DPCK 25003 99544 71709 41297 80220 11030 21030 40155 57015 77072 887// 22225 00040 20405 3//// 4//// 5//// 81030
BBXX DQXQ 25004 99318 71502 41598 70420 10188 20110 40300 56015 70311 85208 22224 00190 20402 33136 41210 51008 80142
BBXX NWS0003 25004 99539 71665 43/// /0000 11030 21078 40121 5//// 7//// 8//// 222// 0//// 2//// 3//// 4//// 5//// 6//// 8//// ICE /////
BBXX SJCD 25001 99543 71649 43/97 63414 11044 40111 50000 22264 00047
BBXX SMGW 25001 99343 71602 43/98 72022 10176 40280 58026 22224 00185 20503 41108
AAXX 25001 50844 32962 00000 11286 21331 40351 52016 333 00500
AAXX 25001 50854 32970 00000 11264 21299 40338 52016 333 00501
AAXX 25001 50968 32962 22203 11269 21304 40344 52020 80002 333 00600
AAXX 25001 51379 NIL
AAXX 25001 51467 NIL
AAXX 25001 51495 NIL
AAXX 25001 53480 32975 02201 11133 21194 40378 52016 333 00401
AAXX 25001 53673 32961 00000 11115 21152 40369 52020 333 00351
AAXX 25001 53698 32962 00000 11033 21113 40328 52026 333 00355
AAXX 25001 53898 32966 63202 11044 21082 40320 52018 80002 333 00101
AAXX 25001 54308 32980 43201 11170 21204 40361 52022 80002 333 00401
AAXX 25001 54602 32960 50403 11043 21137 40319 52019 80002 333 00403
AAXX 25001 54725 32962 02901 11056 21104 40325 52025 333 00302
AAXX 25001 54751 11563 32906 10014 21053 40304 52011 69901 70080 81440 333 00400 31037 79999
AAXX 25001 54916 32960 00701 11057 21066 40325 52018 333 00201
AAXX 25001 57014 32962 32902 11092 21107 40362 52003 83030 333 05201
AAXX 25001 57025 32962 03402 11056 21109 40346 52003 333 05100
AAXX 25001 57046 32974 03202 11058 21192 37989 52006 333 00105
AAXX 25001 58208 32965 62501 11034 21042 40335 52017 81042 333 00152
AAXX 25003 91802 NIL
AAXX 25003 91809 NIL
AAXX 25003 91831 36/// /0410 10289 20235 40130 52003 333 2////
AAXX 25003 91841 36/// /0408 10299 20228 40120 57017 333 20294
AAXX 25003 91843 31598 70215 10283 20237 40116 56010 60001 70322 83207 333 20223 561/9 333 70062 83823 87279
AAXX 25003 91848 36/// /0309 10301 20234 40147 52035 333 20296
AAXX 25004 89022 42984 12313 11036 21055 39747 49784 57028 81071 333 11015 21036 81358 92912
AAXX 25004 89062 46/// /0814 11013 21018 39763 49803 57002 333 11005 21014
AAXX 25004 87593 32960 00902 10162 20091 30209 40237 56001 333 10219 20156
AAXX 25004 87623 32980 00505 10194 20044 39994 40219 53004 333 10261 20176
AAXX 25004 87641 32965 00903 10184 20094 30057 40232 53003 333 10250 20144
AAXX 25004 87645 32970 01402 10167 20093 30028 40236 53001 333 10222 20150
AAXX 25004 87648 32960 00000 10153 20094 30220 40231 54000 333 10222 20153
AAXX 25004 87692 32960 01403 10152 20113 30225 40250 51001 333 10205 20152
AAXX 25004 87715 31957 00505 10250 20014 39861 40173 55001 70400 333 10286 20179 972/6
AAXX 25004 87750 32965 03406 10236 20007 30113 40211 57003 333 10280 20172
AAXX 25004 87765 NIL
AAXX 25004 87784 32980 03214 10280 21151 30158 40182 57007 333 10314 20194
AAXX 25004 87800 32980 00000 10241 20044 39778 40171 57004 333 10290 20110
AAXX 25004 87803 32980 02914 10224 21003 39254 40158 55004 333 10260 20100
AAXX 25004 87828 32980 21410 10255 20024 30081 40131 55001 80002 333 10322 20190 56000 82070
AAXX 25004 87860 32680 60505 10218 20083 30062 40116 57011 86800 333 10276 20187 56500 81835 86645
AAXX 25004 87904 32680 32517 10192 21019 39904 40144 52013 81464 333 10223 20148 56666 81640
AAXX 25004 87909 32980 20508 10166 20038 30073 40147 51007 81061 333 10210 20163 56000 81360
AAXX 25004 87925 32580 31816 10156 21004 30110 40133 52012 81406 333 10224 20100 56000 81625
AAXX 25004 87938 32680 22332 10091 20023 30012 40082 50001 82100 333 10120 20075 56000 82840
AAXX 25003 87791 32980 13206 10235 21011 30169 40177 57011 80001 333 10310 20190 56000 81070
AAXX 25004 87078 11330 81804 10170 20157 30033 40186 52025 69901 75352 887// 333 10208 20170 56499 88708
AAXX 25004 87244 32670 10000 10180 20077 39824 40224 5//// 81070 333 10233 20155 56060 81549
AAXX 25004 87393 32570 81408 10182 20129 30130 40195 54000 8457/ 333 10187 20150 56309 84622 88360
AAXX 25004 87416 32965 00000 10213 20047 39438 40178 53007 333 10260 20183
AAXX 25004 87563 32965 00000 10204 20033 30160 40202 56002 333 10245 20160
AAXX 25004 87640 32965 00000 10157 20063 30118 40231 52008 333 10253 20157
AAXX 25004 87688 32965 00905 10172 20053 30094 40233 54000 333 10236 20161
AAXX 25004 87774 32982 00000 10220 21021 39191 48560 5//// 333 10260 20013
AAXX 25004 87852 32584 52527 10190 20074 39650 40151 56006 81131 333 10252 20122 56566 81830 83360
AAXX 25003 87016 11460 81406 10190 20153 39773 40183 53019 69911 70252 888// 333 10230 20190 83810 88630
AAXX 25003 87896 32680 20508 10147 20040 30052 40148 58004 81502 333 10251 2//// 56605 81640
AAXX 25001 48845 32798 80000 10137 20100 30232 40239 52011 885// 333 01013 20134 3/013 58001 88697
AAXX 25001 48803 31440 80000 10100 20095 30144 40264 52020 71022 888// 333 00012 20100 3/010 59003 84894 8869 6
AAXX 25001 23914 41496 82302 11106 21116 39897 40166 52005 77372 8872/
AAXX 25001 23921 41497 80000 11190 21202 30029 40157 52005 78581 889// 333 88918
AAXX 25001 23955 11456 81801 11102 21112 30132 40196 52002 69922 77787 886// 333 21111 47034 55000 85710
AAXX 25001 23966 11999 00000 11178 21197 30056 40190 52004 69972 70281 333 21178 47047 55000
AAXX 25001 28138 42599 82401 11106 21115 39579 40171 54000 885//
AAXX 25001 28224 41597 82301 11082 21092 39948 40170 52001 77172 8802/
AAXX 25001 28255 42594 80000 11117 21135 30022 40157 57002 885// 333 88629
AAXX 25001 28440 41597 83202 11078 21100 39802 40163 54000 78582 889//
AAXX 25001 28645 42497 70000 11166 21179 39867 40182 57001 87300
AAXX 25001 28661 42997 51702 11209 21228 30074 40174 57010 80001
AAXX 25001 28722 41597 81601 11088 21103 30041 40177 54000 78582 889//
AAXX 25001 28748 42963 82902 11215 21233 39916 40177 57007 80006
AAXX 25001 28838 42996 80000 11157 21163 39677 40184 57004 8807/
AAXX 25001 29231 32998 01901 11178 21190 30123 40227 52003 333 21181 47026 55000
AAXX 25001 29313 32998 81901 11174 21197 30095 40226 53002 85032 333 21176 47023 55020
AAXX 25001 29612 32998 01502 11197 21223 30080 40244 57008 333 21201 48018 55048
AAXX 25001 29638 32998 01503 11150 21210 30092 40268 57009 333 21158 47014 55040
AAXX 25001 29838 32997 01601 11234 21259 30042 40299 57005 333 21236 47018 55061
AAXX 25001 29846 31942 30000 11186 21192 39891 40308 57005 71011 80001 333 21188 47009
AAXX 25001 36061 32999 00000 11263 21281 39878 40333 57003 333 21264 47043 55058
AAXX 25001 48840 32998 03202 10102 20081 30241 40247 52012 333 00010 20100 3/010 58002
AAXX 25004 08314 02567 13521 10108 20016 30192 40297 50003 60001 81800 333 60007
AAXX 25001 34357 41597 80000 11032 21032 30044 40204 52009 78588 889//
AAXX 25001 34363 41295 80701 11031 21031 30057 40214 53007 78587 883//
AAXX 25001 34545 42598 81002 11016 21027 30079 40194 52008 886//
AAXX 25001 34579 42998 80801 11049 21087 30162 40208 53004 80002
AAXX 25001 34838 42997 81403 10012 21010 30049 40147 52015 8005/
AAXX 25001 34927 41496 81101 10053 20042 30098 40135 53015 71062 886//
AAXX 25001 34949 42498 71405 11021 21031 39601 40159 52011 82530
AAXX 25001 37001 41496 83602 10035 20028 30099 40140 52023 76162 8872/
AAXX 25001 37031 41597 81402 10021 20006 39947 40144 52016 70382 86904
AAXX 25001 37061 41958 81203 11038 21052 30008 40180 52008 71011 8805/
AAXX 25001 37085 42596 81002 11015 21033 30211 40239 52011 885//
AAXX 25001 37126 42998 81801 11032 21060 37863 48436 52009 86031
AAXX 25001 37171 42696 82803 10073 20062 30138 40157 52020 78082 889// 333 88920
AAXX 25001 37228 41494 80000 11003 21014 39305 40152 52012 71022 886//
AAXX 25001 37470 42596 83302 10033 21006 30184 40162 53013 885//
AAXX 25001 37663 41991 00801 11040 21043 38947 48418 53006 74540
AAXX 25001 23909 41597 82601 11105 21117 39901 40159 52003 77172 8551/
AAXX 25001 28044 42997 12802 11116 21126 39984 40155 52005 80001
AAXX 25001 28116 41896 80000 11124 21137 39927 40171 52003 77172 8807/
AAXX 25001 28240 41598 82501 11082 21098 39828 40162 54000 70282 889//
AAXX 25001 28522 41996 82301 11093 21103 39908 40176 53001 77172 8802/
AAXX 25001 28621 41996 81801 11088 21099 39934 40176 53002 77172 8802/
AAXX 25001 29023 11398 81601 11153 21173 30111 40213 52008 69922 70281 889// 333 21168 47035 55002 87707
AAXX 25001 29122 12499 81701 11123 21150 30139 40216 51001 69902 885// 333 21125 47022 88618
AAXX 25001 29328 32998 71802 11198 21242 30091 40242 54000 84031 333 21198 47014 55000
AAXX 25001 29348 32997 72102 11114 21200 30096 40248 53008 87030 333 21114 47024
AAXX 25001 29405 32997 31501 11205 21224 30067 40226 57005 80001 333 21205 47022 55008
AAXX 25001 29418 32998 01501 11194 21243 30064 40236 57006 333 21195 47016 55000
AAXX 25001 29430 32998 02201 11174 21215 30070 40259 54000 333 21174 47038 55014
AAXX 25001 29524 32998 01702 11171 21221 30076 40251 57003 333 21172 47026
AAXX 25001 29605 32998 81402 11213 21232 30067 40221 57008 80001 333 21226 47018 55056
AAXX 25001 29631 32997 02002 11157 21217 30063 40261 57006 333 21157 47016
AAXX 25001 29645 32998 21501 11190 21231 30086 40288 58005 80001 333 21190 47031 55006
AAXX 25001 29706 32998 01502 11206 21231 30077 40237 57009 333 21206 55067
AAXX 25001 29736 32998 00000 11259 21284 30026 40305 57007 333 21261 47017
AAXX 25001 29937 32997 02801 11244 21276 30054 40300 57008 333 21244 47013
AAXX 25001 36034 32998 00402 11239 21257 39990 40294 57009 333 21261 48019
AAXX 25001 36096 32997 50000 11303 21328 39576 40459 52002 82031 333 21303 47010 55012 95090
AAXX 25004 71752 16/// /1206 11016 21079 30048 40272 58011 60001 333 10002 21071 70000
AAXX 25004 71155 16/// ///// 11065 21086 60001 333 10040 21067 70000
AAXX 25004 71156 16/// /0000 10000 21058 39102 40204 58005 60001 333 10056 21005 70000
AAXX 25004 71165 46/// ///01 11249 21279 39861 40156 51015 6///1 333 11155 21250 7////
AAXX 25004 71186 46/// /2903 11185 21240 6///1 333 11165 21218 7////
AAXX 25004 71190 46/// /2917 11130 21180 6///1 333 11113 21158 7////
AAXX 25004 71191 16/// ///// 11159 21177 60001 333 11090 21159 70000 555 10010
AAXX 25004 71361 16/// /1702 11161 21190 39938 40151 51007 60001 333 11103 21162 70000
AAXX 25004 71363 16/// /3416 11297 21329 39972 40029 51018 60001 333 11248 21341 70000
AAXX 25004 71364 16/// /2904 11284 21314 30046 40187 53001 60001 333 11263 21290 70000
AAXX 25004 71365 16/// /3002 11207 21225 39921 40141 55002 60001 333 11148 21210 70000
AAXX 25004 71374 46/// /3221 11174 21200 6///1 333 11158 21205 7////
AAXX 25004 71381 46/// /0903 11232 21266 6///1 333 11192 21267 7////
AAXX 25004 71387 16/// /0000 11289 21317 39930 40361 58001 60001 333 11175 21340 70000
AAXX 25004 71393 16/// ///// 10030 21048 38967 40248 50005 60001 333 10063 20027 70000
AAXX 25004 71903 47/// /2416 10063 20053 39979 40028 5/005 6///1 7//4/ 333 10073 20041 7////
AAXX 25004 71421 16/// ///// 11279 21309 39522 40298 51018 60001 333 11232 21330 7////
AAXX 25004 71432 16/// /1109 11012 21070 30174 40274 58012 60001 333 10004 21046 70000
AAXX 25004 71435 16/// /2005 11052 21068 39493 40093 56017 60001 333 11045 21070 70000
AAXX 25004 71480 16/// /0103 11313 21347 30039 40168 58002 60001 333 11249 21340 70004 555 10010
AAXX 25004 71665 16/// /1905 11206 21267 30153 40163 51022 60001 333 11161 21209 70000
AAXX 25004 71682 16/// /1101 11219 21233 39907 40145 58005 60001 333 11142 21220 70000
AAXX 25004 71550 16/// /2814 10026 21035 39739 40114 53028 60001 333 10037 21083 70000
AAXX 25004 71585 16/// /2503 11014 21054 39694 40148 51024 60001 333 10039 7////
AAXX 25004 71503 46/// /2403 11280 21311 39879 40164 50006 6///1 333 11220 21280 7////
AAXX 25004 71506 46/// /3602 11255 21276 39186 40112 58003 6///1 333 11246 21280 7////
AAXX 25004 71514 16/// /2812 11006 21050 39499 40207 53027 60001 333 10046 21036 70000
AAXX 25004 71522 46/// /0000 11277 21314 39812 40346 58007 6///1 333 11207 21334 7////
AAXX 25004 71539 16/// /2817 10018 21050 39516 40220 51027 60001 333 10065 21013 70000
AAXX 25004 71269 16/// /2511 10016 21030 60001 333 10033 21025 7////
AAXX 25004 71285 46/// /2505 11020 21055 6///1 333 10034 21024 7////
AAXX 25004 71299 16/// /1611 11065 21079 39866 40150 58032 60001 333 11064 21209 70000 555 10010
AAXX 25004 71622 16/// ///// 11008 21030 39914 40261 58007 60001 333 11003 21075 70000 555 10010
AAXX 25004 71063 16/// /0804 11133 21151 30221 40327 57002 60001 333 11088 21165 70000 555 10010
AAXX 25004 71407 16/// /3516 11265 21297 39950 49971 51011 60001 333 11214 21302 70000
AAXX 25004 71423 16/// /3013 11139 21169 30252 40262 51011 60001 333 11124 21155 70000
AAXX 25004 71976 46/// /2127 11209 21232 39368 40015 58039 6///1 333 11209 21273 7////
AAXX 25004 71300 16/// /0401 11153 21165 30191 40321 57002 60001 333 11092 21167 70000 555 10010
AAXX 25004 71309 16/// /1606 11093 21126 30139 40151 58035 60001 333 11078 21302 70014
AAXX 25004 71332 16/// /2608 11269 21298 30116 40147 51007 60001 333 11267 21313 70000 555 10010
AAXX 25004 71340 16/// /2307 11007 21056 60001 333 10036 21007 70000
AAXX 25004 71341 16/// /2315 10046 21026 60001 333 10056 20019 7////
AAXX 25004 71342 16/// /2708 10000 21063 60001 333 10064 21035 70000
AAXX 25004 71344 16/// /2610 10011 21051 60001 333 10037 21001 70000
AAXX 25004 71347 16/// /1305 11003 21046 60001 333 10029 21010 7////
AAXX 25004 71348 16/// /1404 10002 21032 60001 333 20002 7////
AAXX 25004 71349 16/// ///// 11007 21071 60001 333 10044 21011 70000
AAXX 25001 28049 42997 01702 11119 21128 39982 40154 52003
AAXX 25001 28144 41598 70000 11144 21155 39992 40159 54001 70371 84550
AAXX 25001 28319 41496 80000 11094 21106 30004 40176 53003 77177 8802/
AAXX 25001 28321 41996 81702 11090 21097 39959 40170 52002 71082 8802/
AAXX 25001 28334 41996 82501 11094 21110 39863 40179 58001 70272 8802/
AAXX 25001 28434 41996 80000 11088 21103 39909 40176 54000 77172 8802/
AAXX 25001 28552 42998 00000 11210 21231 30048 40171 57006
AAXX 25001 28666 42999 01401 11205 21225 39989 40178 58007
AAXX 25001 28825 41996 82001 11103 21117 30005 40185 54000 77187 8802/
AAXX 25001 29111 32498 82101 11106 21138 30115 40206 58002 886// 333 21109 47030 55000 88713
AAXX 25001 29209 32998 21601 11206 21218 30085 40222 53002 80002 333 21206 47024
AAXX 25001 29551 32997 51901 11101 21212 30071 40261 54000 82032 333 21103 47012
AAXX 25001 29602 32999 01602 11201 21227 30075 40227 57010 333 21201 47017
AAXX 25001 29636 32998 01302 11190 21248 30042 40278 57005 333 21190 47016
AAXX 25001 29654 32999 30101 11135 21187 39647 40294 57006 81071 333 21144 48098
AAXX 25001 29712 32998 01402 11181 21207 30092 40246 57011 333 21185 47015
AAXX 25001 29724 32997 01302 11197 21223 30047 40267 57006 333 21202 47003
AAXX 25001 29726 32998 00000 11238 21263 30098 40282 57008 333 21240 47016
AAXX 25001 29814 32999 01203 11197 21223 30092 40251 57009 333 21202 48012
AAXX 25001 29827 32997 00701 11222 21240 30105 40274 57009 333 21233 47009
AAXX 25001 29923 32999 00000 11254 21278 39995 40300 53004 333 21258 43029 55063
AAXX 25001 29939 32997 01001 11260 21277 39995 40310 57005 333 21265 47027
AAXX 25001 35026 41996 70501 11127 21140 39512 40180 57003 71022 87030
AAXX 25001 36021 32999 11604 11177 21211 30062 40255 57009 80001 333 21192 47009
AAXX 25001 36022 32998 01202 11168 21202 39997 40278 57005 333 21182 47024
AAXX 25001 36038 32999 00000 11239 21257 39818 40306 57008 333 21244 48044 55052
AAXX 25001 36058 32999 01004 11164 21183 39777 40336 57004 333 21164 47006 55033
AAXX 25001 36064 31999 00904 11054 21135 39699 40311 58006 73630 333 21057 47021 55058
AAXX 25001 36229 32999 00000 11302 21303 39146 40476 53002 333 21302 47016 55071
AAXX 25001 36259 32999 00000 11320 21357 38282 48576 57003 333 21320 47002 55055
AAXX 25004 71107 16/// /3021 10073 20068 39975 40087 55015 60001 333 10080 20067 70000
AAXX 25001 13463 32970 42701 10035 21015 30140 40201 52004 84030
AAXX 25001 13459 32670 30204 10040 21034 39425 40199 52006 82530 333 81696 91114
AAXX 25001 13461 NIL
AAXX 25001 13363 NIL
AAXX 25004 16310 11497 80615 10104 20092 39893 40115 55008 60051 76162 888// 333 83815 85620 555 0////
AAXX 25004 71832 16/// /1707 11038 21051 39783 40115 56032 60001 333 11038 21144 70000
AAXX 25004 71737 16/// /0000 11212 21248 39755 40319 58011 60001 333 11145 21299 70000
AAXX 25004 71743 16/// /1812 11203 21239 39900 40126 58036 60001 333 11183 21243 70000
AAXX 25004 71746 16/// /1809 10005 21028 30017 40243 58011 60001 333 10021 21037 70000
AAXX 25004 71748 16/// /2908 10004 21039 39800 40090 53007 60001 333 10007 21108 70000
AAXX 25004 71228 16/// /2406 11019 21071 60001 333 10044 21028 70000
AAXX 25004 71243 16/// /2615 10064 21034 39187 40269 53009 60001 333 10083 20041 70000
AAXX 25004 71421 16/// ///// 11279 21309 39522 40298 51018 60001 333 11232 21330 7////
AAXX 25004 71432 16/// /1109 11012 21070 30174 40274 58012 60001 333 10004 21046 70000
AAXX 25004 71435 16/// /2005 11052 21068 39493 40093 56017 60001 333 11045 21070 70000
AAXX 25001 26424 41495 82904 10023 20018 30060 40114 52017 76166 8802/ 333 88511
AAXX 25004 71832 16/// /1707 11038 21051 39783 40115 56032 60001 333 11038 21144 70000
BBXX C6SI6 25004 99344 11351 46/// /2616 10047 21028 40186 51012 7//// 8//// 22283 0//// 2////
BBXX DGBE 25003 99363 11480 41/95 82823 10108 20084 40055 55027 71798 8/7// 22214 29903 311// 40705 80095
BBXX DGTX 25003 99336 11352 41698 53330 10065 21021 40170 52020 70211 852// 22274 00200 20606 332// 40605 80030
BBXX DGXS 25004 99358 11322 41298 73128 10035 21001 40195 57017 77072 8/77/ 22214 29905 302// 4//// 5//// 80020
BBXX SBLI 25001 99320 11406 43/98 72913 10121 40222 53019 22263 00207 2//// 4////
BBXX UFLC 25000 99432 11345 42697 53409 11154 40126 57012 82844 22212 06024 20402
AAXX 25004 71228 16/// /2406 11019 21071 60001 333 10044 21028 70000
AAXX 25004 71243 16/// /2615 10064 21034 39187 40269 53009 60001 333 10083 20041 70000
AAXX 24124 91636 11599 30108 10269 20248 40048 60001 70202 82130 333 10315 5689/
AAXX 24124 91648 11498 80818 10259 20248 40057 69901 78022 83370 333 10309 5629/
AAXX 24184 91631 11599 10815 10280 20237 40070 60001 70200 81100 333 562//
AAXX 24184 91636 11599 40210 10280 20229 40057 60001 70300 84200 333 568//
AAXX 24184 91648 11498 70000 10267 20246 40058 69931 71428 83370 333 5629/
AAXX 25004 91631 11599 20913 10300 20240 40070 60001 70200 82100 333 20251 562// 70000
AAXX 25004 91636 11599 20312 10319 20247 40072 60001 70100 82100 333 20275 561// 70000
AAXX 25004 91648 11498 73010 10292 20238 40064 60001 71422 83278 333 20249 56799 70007
AAXX 25001 28216 42998 00000 11118 21131 39874 40270 52003
AAXX 25001 28428 41496 81902 11087 21094 39989 40181 52002 77172 8802/
AAXX 25001 28451 42996 82701 11118 21143 39994 40161 57004 8807/
AAXX 25001 28537 41496 72301 11096 21112 39742 40177 54000 70282 82340
AAXX 25001 28541 42583 83102 11092 21103 39658 40167 54000 885//
AAXX 25001 28615 41597 82602 11075 21089 30016 40178 52003 78582 889//
AAXX 25001 28655 42998 02101 11201 21221 39936 40177 57010
AAXX 25001 28756 42997 00000 11250 21273 30021 40185 57008
AAXX 25001 29557 32998 02304 11071 21223 39989 40264 54000 333 21076 48010
AAXX 25001 29625 32998 01901 11189 21215 30068 40260 57005 333 21189 47021
AAXX 25001 29813 32999 01404 11196 21215 30043 40237 57013 333 21203 47014
AAXX 25001 29822 32997 01603 11206 21231 30103 40280 57011 333 21233 47016 55053
AAXX 25001 29915 32998 01203 11196 21222 30077 40249 57011 333 21202 48013
AAXX 25001 36020 32998 01603 11142 21185 30055 40268 57008 333 21176 48017 55070
AAXX 25004 41244 36/// /0102 10124 20097 39817 47965 333 0E014 58000
AAXX 25004 41257 36/// /0000 10128 20095 39674 40162 333 0E012 59009
AAXX 25001 23226 41450 81707 11155 21182 39872 40100 57010 77172 8552/ 333 85610 93609
AAXX 25001 23701 41471 81902 11132 21145 39988 40125 54000 70272 8572/ 333 85711
AAXX 25001 28909 41399 80000 11068 21076 30093 40196 52002 70272 8472/
AAXX 25004 64700 31958 20208 10200 21041 39789 40126 70600 80002 333 0//00 58003 82075
AAXX 25004 64750 32960 60000 10205 20082 39682 40085 80002 92358 333 0//00 58000 86075
AAXX 25004 60595 36/// /0000 11451
AAXX 25004 60381 36/// /0401 10114 20102
AAXX 25004 60639 36/// /0807 10091 20020
AAXX 25004 60605 36/// /1405 10122 20002
BBXX 46249 25001 99338 71197 46/// ///// 1//// 90010 22200 00151 11703 21001 325// 41702 70013
BBXX 46248 25001 99461 71247 46/// ///// 1//// 90004 22200 00095 11406 21004 328// 41404 70029
BBXX 46244 25001 99409 71244 46/// ///// 1//// 90005 22200 00094 11405 20903 329// 41404 70026
BBXX 46241 25001 99330 71173 46/// ///// 1//// 92341 22200 00145 11802 20401 326// 41801 70008
AAXX 25001 56146 32780 20702 11061 21130 36726 52022 81102 333 00205
AAXX 25001 56444 32780 32703 11035 21175 36802 52002 83100 333 00152
AAXX 25001 56492 11440 81801 10053 20033 39893 40315 52007 69901 76060 885// 333 00051 79999
AAXX 25001 56571 32665 80000 10045 21009 38438 52010 888// 333 05200
AAXX 25001 57799 32961 00000 10001 21016 30238 40332 52018 333 00151 31038
AAXX 25001 57866 32960 00000 10005 21038 30113 40329 52015 333 00051 31020
AAXX 25001 57957 32765 60202 10060 21069 30102 40307 52009 86500 333 05100 30003
AAXX 25001 57993 32960 30401 10002 21023 30147 40322 52015 83040 333 00153 31039
AAXX 25001 58027 31959 00000 11028 21071 30268 40322 52018 71000 333 00200 31031
AAXX 25001 58141 31915 32501 11028 21048 30312 40332 52019 71000 80002 333 00351 31013
AAXX 25001 58265 31950 02701 11006 21070 30329 40337 52023 70500 333 00400 31038
AAXX 25001 58472 32965 63404 10041 21065 30233 40331 52018 86040 333 00501 31005
AAXX 25001 58477 32965 13601 10023 21047 30280 40327 52014 81040 333 00452 31031
AAXX 25001 58527 32965 00401 10000 21043 30255 40335 52014 333 00200 31023
AAXX 25001 58633 31940 00401 11011 21028 30233 40339 52016 71000 333 00300 31032
AAXX 25001 58666 32960 03607 10057 21029 30221 40327 52018 333 00401 30020
AAXX 25001 58725 31958 00000 11028 21042 30060 40338 52014 71000 333 00352 31027
AAXX 25001 58921 31440 40901 10004 21007 30067 40328 52019 71000 84600 333 00352 31016
AAXX 25001 59082 31957 01602 11001 21018 30157 40312 52014 71000 333 00256 31009
AAXX 25001 59211 32960 73601 10089 20062 30067 40282 52014 8704/ 333 05200
AAXX 25001 59265 31957 10902 10048 21006 30148 40292 52013 71000 81030 333 00153 30017
AAXX 25001 59293 32966 00201 10030 21014 30206 40296 52018 333 00255 30014
AAXX 25001 59501 32964 00702 10092 21058 30246 40268 52015 333 00251 30043
AAXX 25001 59663 32963 20408 10088 21078 30156 40268 52010 80002 333 00151
AAXX 25001 59838 32960 30406 10130 20052 30223 40234 52010 80002 333 00052
AAXX 25001 59948 32475 70408 10115 20056 39732 40234 52014 81102 333 00251
AAXX 25001 59981 32573 80406 10216 20154 30184 40191 52019 888// 333 00100 79999
BBXX 46240 25001 99366 71219 46/// ///// 1//// 90012 22200 00124 11202 21001 335// 41202 70011
BBXX 46237 25001 99378 71226 46/// ///// 1//// 90010 22200 00109 11506 21002 324// 41505 70028
BBXX 46212 25001 99408 71243 46/// ///// 1//// 90012 22200 00098 11306 21003 330// 41305 70029
BBXX 46217 25001 99342 71194 46/// ///// 1//// 90012 22200 00146 11702 21001 326// 41701 70008
BBXX 46216 25001 99343 71198 46/// ///// 1//// 92357 22200 00147 11402 21001 326// 41402 70010
BBXX 46223 25001 99335 71178 46/// ///// 1//// 90000 22200 00155 11702 20901 327// 41701 70008
BBXX 46231 25001 99327 71174 46/// ///// 1//// 92354 22200 00149 11802 21001 328// 41802 70011
BBXX 46222 25001 99336 71183 46/// ///// 1//// 92356 22200 00150 11702 21001 326// 41702 70011
BBXX 46242 25001 99332 71174 46/// ///// 1//// 92358 22200 00145 11501 20601 321// 41501 70007
BBXX 46211 25001 99469 71242 46/// ///// 1//// 90006 22200 00083 11406 21004 327// 41404 70029
AAXX 25001 78458 21458 50903 10240 20215 40195 52016 76022 83820 333 10280 20200 30/// 56220 58004 69990 83618 83457
AAXX 25001 78460 31460 11003 10220 20199 40186 52020 70544 81100 333 10287 20171 30/// 56300 58001 81818
AAXX 25001 78467 32466 20903 10256 20219 40183 52008 82200 333 10286 20197 30/// 56200 58005 82818
AAXX 25001 78479 32566 40706 10260 20213 40155 52007 84200 333 10294 20240 30/// 56200 58004 84822
AAXX 25001 78482 32466 20000 10254 20211 40183 53012 82200 333 10315 20170 30/// 56000 58003 82818
AAXX 25001 78485 32566 20404 10229 20187 40179 52023 82200 333 10307 20187 30/// 56000 58003 82820
AAXX 25001 78486 32566 30202 10252 20206 40166 52024 83200 333 10318 20223 30/// 56200 58007 83820
AAXX 25001 78488 32466 20000 10230 20223 40180 52018 82800 333 10305 20165 30/// 56000 58005 82612
AAXX 25001 78458 21458 50903 10240 20215 40195 52016 76022 83820 333 10280 20200 30/// 56220 58004 69990 83618 83457
AAXX 25001 78460 31460 11003 10220 20199 40186 52020 70544 81100 333 10287 20171 30/// 56300 58001 81818
AAXX 25001 78467 32466 20903 10256 20219 40183 52008 82200 333 10286 20197 30/// 56200 58005 82818
AAXX 25001 78479 32566 40706 10260 20213 40155 52007 84200 333 10294 20240 30/// 56200 58004 84822
AAXX 25001 78482 32466 20000 10254 20211 40183 53012 82200 333 10315 20170 30/// 56000 58003 82818
AAXX 25001 78485 32566 20404 10229 20187 40179 52023 82200 333 10307 20187 30/// 56000 58003 82820
AAXX 25001 78486 32566 30202 10252 20206 40166 52024 83200 333 10318 20223 30/// 56200 58007 83820
AAXX 25001 78488 32466 20000 10230 20223 40180 52018 82800 333 10305 20165 30/// 56000 58005 82612
AAXX 25003 91802 NIL
AAXX 25003 91809 NIL
AAXX 25003 91831 36/// /0410 10289 20235 40130 52003 333 2////
AAXX 25003 91841 36/// /0408 10299 20228 40120 57017 333 20294
AAXX 25003 91843 31598 70215 10283 20237 40116 56010 60001 70322 83207 333 20223 561/9 70062 83823 87279
AAXX 25003 91848 36/// /0309 10301 20234 40147 52035 333 20296
AAXX 25004 04203 46/// /1006 11186 21231 39925 49943 52002
AAXX 25004 04205 45/84 /0000 11260 21329 39924 49948 54000
AAXX 25004 04208 46/// /2909 11188 21224 39876 49922 57011
AAXX 25004 04213 46/// /1705 11162 21199 39797 49911 57004
AAXX 25004 04214 46/// /0412 11152 21229 39871 49904 57005
AAXX 25004 04224 47650 82807 11109 21179 39859 49892 57006 78587 333 88/35
AAXX 25004 04228 NIL
AAXX 25004 04242 46/// /0711 11106 21168 39905 49921 52008
AAXX 25004 04253 46/// /0804 11102 21149 39867 49894 52003
AAXX 25004 04266 NIL
AAXX 25004 04285 46/// /3120 11059 21106 39831 49850 57002
AAXX 25004 04301 46/// /2618 11234 21270 39994 49999 52006
AAXX 25004 04313 46/// /3646 11121 21139 39697 49708 57004
AAXX 25004 04330 46/// /0605 11085 21104 39691 49708 52003
AAXX 25004 04351 46/// /3412 11173 21273 39737 49753 57003
AAXX 25004 04373 46/// /3247 11123 21202 39629 49721 57006
AAXX 25004 04382 46/// /1606 11082 21182 39733 49781 57007
AAXX 25004 04416 NIL
AAXX 25001 78458 21458 50903 10240 20215 40195 52016 76022 83820 333 10280 20200 30/// 56220 58004 69990 83618 83457
AAXX 25001 78460 31460 11003 10220 20199 40186 52020 70544 81100 333 10287 20171 30/// 56300 58001 81818
AAXX 25001 78467 32466 20903 10256 20219 40183 52008 82200 333 10286 20197 30/// 56200 58005 82818
AAXX 25001 78479 32566 40706 10260 20213 40155 52007 84200 333 10294 20240 30/// 56200 58004 84822
AAXX 25001 78482 32466 20000 10254 20211 40183 53012 82200 333 10315 20170 30/// 56000 58003 82818
AAXX 25001 78485 32566 20404 10229 20187 40179 52023 82200 333 10307 20187 30/// 56000 58003 82820
AAXX 25001 78486 32566 30202 10252 20206 40166 52024 83200 333 10318 20223 30/// 56200 58007 83820
AAXX 25001 78488 32466 20000 10230 20223 40180 52018 82800 333 10305 20165 30/// 56000 58005 82612
AAXX 25001 50353 11970 63602 11240 21294 30067 40315 52017 69941 72277 86030 333 00507 70004 92508
AAXX 25001 50557 32970 02001 11322 21360 39988 40337 52016 333 00402 92503
AAXX 25001 50756 32960 22701 11273 21316 39987 40326 52015 80002 333 00504 92510
AAXX 25001 50949 32965 02501 11241 21300 30154 40346 52016 333 00652
AAXX 25001 50963 11962 72508 11255 21291 30156 40312 52016 69901 77000 87010 333 00501 79999 92501
AAXX 25001 50978 11978 72506 11220 21257 39863 40248 52013 69901 70070 80002 333 00202 79999
AAXX 25001 51087 NIL
AAXX 25001 51156 NIL
AAXX 25001 51644 NIL
AAXX 25001 51656 NIL
AAXX 25001 51886 32980 20401 11193 21309 37106 57004 80002 333 00001
AAXX 25001 52602 32980 23401 11229 21331 37265 57002 80002 333 00052
AAXX 25001 52713 32980 00202 11193 21285 36901 52004 333 00101
AAXX 25001 52754 32980 03404 11176 21260 36783 52001 333 05101
AAXX 25001 52818 32980 01401 11143 21244 37240 52007 333 00101
AAXX 25001 52836 32980 22002 11171 21260 36893 57005 80002 333 00201
AAXX 25001 52955 32980 01601 11203 21255 36974 52016 333 00002
AAXX 25001 53068 32980 03203 11203 21231 39150 40400 52025 333 00551
AAXX 25001 53276 32980 02503 11172 21217 38931 40393 52022 333 00451
AAXX 25001 54135 32973 02902 11195 21261 30106 40352 52016 333 00552
AAXX 25001 54236 31958 03202 11201 21242 30233 40350 52021 70400 333 00653
AAXX 25001 54539 32970 00702 11075 21118 30307 40322 52020 333 00400
AAXX 25001 54662 32965 00402 11055 21105 30203 40324 52023 333 00500
AAXX 25001 54753 32965 02203 11018 21114 30306 40313 52014 333 00554 31046
AAXX 25001 54857 31958 03402 11005 21061 30224 40321 52012 70500 333 00301
AAXX 25001 57067 32970 70000 11073 21100 39642 40364 52014 8703/ 333 00001
AAXX 25001 57178 32960 70000 10001 21047 30169 40336 52016 80002 333 00101 31008
AAXX 25001 57245 32963 81401 10005 21020 39963 40329 52009 8807/ 333 05202 31014
AAXX 25001 57297 32960 02901 11023 21053 30186 40333 52016 333 00100 31048
AAXX 25004 61401 NIL
AAXX 25004 61404 NIL
AAXX 25004 61415 32958 53612 10181 20138 30188 40193 80002 333 0//00 59018 85080
AAXX 25004 61421 NIL
AAXX 25004 61437 NIL
AAXX 25004 61442 32957 30508 10220 21076 30166 40170 83080 333 0//00 29018 83363
AAXX 25004 61450 NIL
AAXX 25004 61461 NIL
AAXX 25004 61489 NIL
AAXX 25004 61492 NIL
AAXX 25004 61497 NIL
AAXX 25004 61498 NIL
AAXX 25004 61499 NIL
AAXX 25001 38954 428// 80000 11067 21186 38001 48610 52003 8651/
AAXX 25004 91943 36/// /0911 10291 20216 30113 40115 57021 333 58001
AAXX 25004 91945 36/// /0716 10297 20234 30143 40148 57018 333 20251 59001
AAXX 25001 89062 46/// /0814 11013 21018 39763 49803 57002 333 11005 21014
AAXX 25001 48823 32997 03401 10095 20076 30252 40255 52018 333 00009 20094 3/008 58005 96122
BBXX 62123 25004 99563 10022 41/96 /2429 10098 40139 53002 70222 8//// 22200 20301 325// 40610 5////
BBXX 2AUO5 25003 99607 10017 41397 52548 10076 20014 49965 51022 72566 8/7// 22261 20809 325// 41012 80051
BBXX 62301 25004 99524 70047 46/// /2420 10101 20084 40238 50003 22200 00084 10606 70028 333 90710 91128
BBXX 62303 25004 99516 70051 46/// /2521 10115 20090 40264 51003 22200 00111 10707 70035 333 90710 91129
BBXX 64046 25004 99606 70049 46/// /2643 10077 20023 49952 52024 22200 00079 11224 70118
BBXX 62001 25004 99453 70050 46/// /0803 10112 20021 40378 57004 22200 00140 10805 70025
BBXX 62163 25004 99475 70084 46/// /2416 10111 20055 40356 57007 22200 00126 10806 70031
BBXX 62029 25004 99487 70125 46/// /2320 10124 20089 40312 57004 22200 00129 10808 70041 333 90710 91128
BBXX 62442 25004 99490 70164 46/// /2125 1//// 2//// 40270 57013 22200 00126 333 90710 91136
BBXX 62081 25004 99510 70134 46/// ///// 10121 20112 40240 58009 22200 00121 10810 70048
BBXX 62105 25004 99554 70122 46/// /2213 10106 20100 40098 58016 22200 00107 11013 70064 333 90710 91126
BBXX 64045 25004 99591 70117 46/// /2629 10067 20035 49998 52010 22200 00100 11220 70098 333 90710 91145
BBXX 62305 25004 99504 10000 46/98 /2629 10113 20080 40301 57009 22200 00118 10703 70014 333 90710 91138
BBXX 62304 25004 99511 10018 46/98 /2531 10101 20067 40279 56010 22200 00109 10503 70013 333 90710 91138
BBXX 62170 25004 99514 10020 46/97 /2428 10096 20073 40274 57008 22200 00106 10602 70012 333 90710 91136
BBXX 62105 25004 99554 70122 46/// /2213 10103 20096 40098 58016 22200 00107 11013 70064 333 90710 91126
BBXX 63057 25004 99592 10015 47496 /2633 10080 20025 40028 52018 700// 22200 10810 70050
BBXX 63110 25004 99595 10015 47697 /2629 10090 20037 40012 52016 700// 22200 10810 70048
BBXX 63056 25004 99597 10016 47697 /2532 10082 20036 49994 52014 700// 22200 10809 70043
BBXX 62128 25004 99587 10014 47597 /2528 10086 20038 40048 52020 700// 22200 10708 70040
BBXX 62111 25004 99580 70003 46/// /2822 10088 20041 40089 52023 22200 10606 70029
BBXX PJAI 25004 99581 70014 47997 /2518 10088 20032 40068 53014 700// 22200
BBXX 62112 25004 99584 70002 47797 /2820 10087 20033 40062 52019 700// 22200
BBXX 63055 25004 99606 10016 47997 /2728 10076 20029 49985 52017 700// 22200 10709 70045
BBXX 62129 25004 99584 10003 46/// ///// 10089 20033 40073 52025 22200
BBXX 63108 25004 99608 10017 47997 /2733 10069 20013 49970 52016 700// 22200 10911 70055
BBXX 63106 25004 99610 10017 46/// /2532 10073 49945 53012 22200
BBXX 63105 25004 99610 10017 47596 ///// 10075 20026 49946 53013 700// 22200
BBXX 63113 25004 99610 10017 46/// /2630 10076 20024 49969 52011 22200 10813 70063
BBXX 63112 25004 99611 10010 47496 /2739 10084 20004 49935 52014 740// 22200 10913 70063
BBXX 63107 25004 99611 10017 46/// /2534 10075 49942 52011 22200
BBXX 63101 25004 99612 10009 46/// /2837 10080 20018 49923 52009 22200
BBXX 63103 25004 99612 10011 46/// /2740 10080 20004 49953 52016 22200 10913 70067
BBXX 63104 25004 99612 10016 47597 /2534 10079 20017 49926 51010 704// 22200
BBXX 63117 25004 99613 10011 47697 /2638 10118 21007 49932 52011 700// 22200
BBXX 63115 25004 99616 10013 47697 /2436 10074 20006 49918 52012 700// 22200 10916 70079
BBXX MWYG6 25004 99603 70040 47997 /2627 10091 700// 22200
BBXX 64041 25004 99607 70026 47496 /2437 10068 20012 49950 53024 700// 22200 11115 70075
BBXX PJGO 25004 99571 10022 47997 /2428 10096 20077 40101 53009 700// 22200
BBXX 62133 25004 99571 10009 46/// /2426 10096 20065 40094 53014 22200 10607 70033
BBXX 62119 25004 99570 10019 47497 /2632 10097 20071 40113 53016 700// 22200 10708 70039
BBXX 62152 25004 99570 10018 47/97 /2319 10096 20067 40111 53011 700// 22200 10709 70046
BBXX 62154 25004 99564 10022 46/// /2528 10093 20075 40113 53004 22200
BBXX 62120 25004 99564 10021 47997 /2632 10093 20086 40109 53006 700// 22200
BBXX 62132 25004 99564 10020 46/// /2620 10097 20073 40111 53004 22200
BBXX 62123 25004 99563 10022 47997 /2430 10098 20072 40111 53005 700// 22200
BBXX 62165 25004 99540 10009 47998 /2321 10084 20059 40197 50002 700// 22200 10503 70017
BBXX 62127 25004 99540 10007 47998 ///// 10086 20060 40196 50001 700// 22200 10402 70012
BBXX 62131 25004 99539 10012 46/// /21// 10081 20064 40197 58001 22200
BBXX 62149 25004 99537 10011 47998 /2125 10077 20065 40204 58001 700// 22200 10403 70015
BBXX 62148 25004 99536 10015 46/// ///// 22200
BBXX 62150 25004 99536 10007 47998 /2222 10082 20058 40214 50000 700// 22200 10402 70009
BBXX 62121 25004 99535 10027 46/// ///// 22200
BBXX 62144 25004 99534 10017 47797 /2326 10078 20058 40223 57001 700// 22200 10403 70016
BBXX 62145 25004 99531 10028 47897 /2222 10080 20049 40227 55002 751// 22200 10504 70021
BBXX 62142 25004 99530 10021 47696 /2424 10077 20056 40226 56003 752// 22200 10403 70015
BBXX 62113 25004 99584 10002 47897 /2525 10089 20032 40074 52024 700// 22200
BBXX ZQSD5 25004 99583 10007 46/// /2625 10092 20041 40067 52024 22200 10909 70044
BBXX 62114 25004 99583 10000 46/// /2528 10090 20029 40061 53018 22200
BBXX 62134 25004 99580 10014 47597 /2624 10095 20064 40077 52018 700// 22200 10707 70034
BBXX 62102 25004 99579 10018 46/// /2722 10100 20069 40074 52016 22200 10707 70035
BBXX 62117 25004 99579 10000 47797 /2623 10091 20055 40080 52024 700// 22200 10706 70029
BBXX 62143 25004 99577 10018 47797 /2727 10097 20065 40094 52021 700// 22200 10707 70037
BBXX 62118 25004 99577 10009 47997 /2525 10105 20049 40077 52019 700// 22200 10706 70032
BBXX 62155 25004 99577 10007 47797 /2629 10098 20054 40093 52022 700// 22200 10707 70034
BBXX 62116 25004 99576 10011 47797 /2626 10096 20058 40080 52017 700// 22200 10607 70033
BBXX 62164 25004 99572 10008 469// /2416 10103 20075 40099 52016 22200 00093 10708 70038
BBXX 62104 25004 99574 10013 47997 /2622 10099 20072 40085 53015 700// 22200
BBXX 62146 25004 99572 10021 47/97 /2523 10094 20070 40103 53007 700// 22200 10708 70040
BBXX 62153 25004 99573 10020 47997 /2516 10095 20072 40089 52011 700// 22200 10708 70041
BBXX 62140 25004 99573 10013 46/// /26// 10096 20070 40085 53013 22200
BBXX 62122 25004 99573 10016 47997 /2526 10097 20070 40100 53011 700// 22200 10708 70039
BBXX PDBP 25003 99304 70241 41/98 /0916 10210 20128 40291 58010 700// 8//// 22224 04215 20401 305// 40903 80160
BBXX DIHE 25004 99477 70157 41/97 /2223 10120 20111 40310 54000 75022 8//// 22224 00130 2//// 80115
BBXX E5U2123 25003 99384 70123 41498 30321 10146 20106 40315 52007 70200 8310/ 22283 00170 20705 399// 4//// 5//// 80125
BBXX 62095 25004 99531 70159 46/// /2224 10120 20106 40142 57017 22200 00113 10811 70057 333 90710 91135
BBXX 62103 25004 99499 70029 46/98 /2631 10114 20078 40302 57008 22200 00120 10704 70019 333 90710 91137
BBXX 62107 25004 99501 70061 46/// /2425 10111 20086 40311 53003 22200 00116 10806 70028 333 90710 91133
BBXX 62001 25004 99453 70050 46/// /0803 10112 20021 40378 57004 22200 00140 10905 70025
BBXX 62303 25004 99516 70051 46/// /2521 10115 20090 40264 51003 22200 00111 10608 70038 333 90710 91129
BBXX 62094 25004 99517 70067 46/// /2424 10112 20093 40258 58002 22200 00107 10606 70030 333 90710 91133
BBXX 62103 25004 99499 70029 46/98 /2527 10116 20078 40310 52003 22200 00120 10704 70019 333 90710 91139
BBXX PENR 25003 99351 70310 41/97 81616 10180 20131 40308 57/// 70222 8//// 22254 2//// 80152
AAXX 25004 82042 32697 60000 10243 20235 3//// 4//// 86400 333 10276 29092 55000 5////
AAXX 25004 82240 32696 30000 10277 20244 3//// 4//// 83900 333 10308 29082 55020 5////
AAXX 25004 82317 31493 80000 10246 20232 3//// 4//// 70292 889// 333 10338 29083 55074 5////
AAXX 25004 82610 32995 00000 10271 20262 3//// 4//// 333 10325 29089 55006 5////
AAXX 25004 82807 32294 80000 10248 20234 3//// 4//// 887// 333 10310 29090 55003 5////
AAXX 25004 41270 36/70 /2803 10155 20100 30099 40111 333 0E016 59006
AAXX 25004 41287 36/// /2605 10122 20079 30114 40185 333 0E015 59002
AAXX 25001 48820 32798 63601 10118 20048 30249 40257 53015 865// 333 00009 20116 3/008 59003 86697
AAXX 25004 40582 31940 02403 10126 20102 40141 51003 71000 333 00010 55300 00000 10193 20000 30000 41132 51325 60000 55407 40000 90467 91005 91119 91213 91307
AAXX 25004 41150 NIL
AAXX 25004 41168 NIL
AAXX 25004 41170 31958 02004 10161 20116 30151 40164 70500 333 59011
AAXX 25004 41176 NIL
AAXX 25004 41184 NIL
AAXX 25004 41194 NIL
AAXX 25004 41196 NIL
AAXX 25004 41198 NIL
AAXX 25004 41210 NIL
AAXX 25004 41216 NIL
AAXX 25004 41217 NIL
AAXX 25004 41218 NIL
AAXX 25004 41226 NIL
AAXX 25004 41244 36/// /0102 10124 20097 39817 47965 333 0E014 58000
AAXX 25004 41246 32960 02504 10165 20101 30146 40151 333 59008
AAXX 25004 41254 36/// /2804 10078 21193 38006 48011 333 0E004 59033
AAXX 25004 41256 32960 00000 10155 20103 30142 40152 333 59012
AAXX 25004 41258 NIL
AAXX 25004 41268 NIL
AAXX 25004 41312 36/// /2806 10191 20091 30111 40151 333 0E/// 58000
AAXX 25004 41314 32960 01803 10128 20035 39659 40179 333 58000
AAXX 25004 41316 32960 03307 10187 20045 30125 40151 333 59001
AAXX 25004 41404 12960 09902 10051 21138 37872 48547 60002 333 58007
AAXX 25004 41407 NIL
AAXX 25004 41431 12960 00703 1//// 2//// 3//// 40129 60002 333 58012
AAXX 25004 41466 NIL
AAXX 25004 41477 NIL
AAXX 25004 41480 NIL
AAXX 25001 29998 32999 82102 11142 21169 38630 48490 58002 84072 333 21160 55000
AAXX 25001 30385 31993 00000 11439 21451 39809 40447 52013 74440 333 21445 55025
AAXX 25001 30469 329// 00000 11460 21481 39566 40482 52025 333 21460 47015 55050
AAXX 25001 30636 329// 80000 11301 21308 39687 40372 52008 80001 333 21304 47034 55000
AAXX 25001 30650 32984 60000 11375 21399 39152 40446 52013 82041 333 21378 47008
AAXX 25001 30664 11995 00000 11401 21416 39300 40462 52015 69922 71000 333 21402 55008
AAXX 25001 30781 32999 00000 11443 21464 39892 40458 52009 333 21443
AAXX 25001 30777 31998 10000 11399 21428 39668 40437 52013 74000 80002 333 21400 47008 55051
AAXX 25001 30844 32999 00000 11290 21301 39300 40392 52015 333 21291 47006
AAXX 25001 30925 328// 40000 11201 21220 39306 40353 53004 82031 333 21210 47001 55014
AAXX 25001 31371 32999 52904 11263 21309 30032 40326 52019 82031 333 21263 55068
AAXX 25001 31388 31999 80000 11219 21232 39971 40255 53014 69932 8803/ 333 21230 47008 55000
AAXX 25001 31478 NIL
AAXX 25001 31532 12999 80000 11232 21244 39868 40240 52015 69900 8805/ 333 21240 47019 55000
AAXX 25001 31594 11999 83001 11266 21284 30071 40260 52014 69962 70272 81031 333 21268 47020
AAXX 25001 31655 11995 81602 11200 21212 30095 40146 52005 60020 77172 8802/ 333 21214 47035
AAXX 25001 31754 11597 80000 11216 21234 39618 40156 52011 60010 78582 889// 333 21227
AAXX 25001 23929 42576 81301 11130 21136 30084 40154 52002 885//
AAXX 25001 38388 42598 80000 10032 21040 30068 40139 53005 889// 555 18009
AAXX 25001 38392 42597 72102 10022 21035 30037 40141 53008 87500 333 87622 555 10002
AAXX 25001 38507 42596 80000 10058 20037 30033 40136 54000 885// 333 88625 555 10005
AAXX 25001 38511 42698 70000 10018 20013 39994 40138 58003 87500 555 10001
AAXX 25001 38545 42998 80000 11030 21080 39974 40154 54000 8807/ 555 14104
AAXX 25001 38647 42697 60000 10012 21011 30077 40121 52002 86500 555 10000
AAXX 25001 38656 42998 30000 10019 21038 30026 40138 57002 80002 555 10000
AAXX 25001 38687 42696 50000 10069 21068 39905 40140 54000 85500 555 10003
AAXX 25001 38750 42997 00203 10055 20020 30143 40114 57004 555 10004
AAXX 25001 38763 42997 30000 10020 21008 30018 40125 57005 80003 555 10000
AAXX 25001 38774 42995 02702 10015 21010 39935 40134 57007 555 10104
AAXX 25001 38799 42997 02301 10015 21033 39908 40144 57001 555 10101
AAXX 25001 38806 42697 61402 10046 21063 39888 40150 57004 86500 555 10001
AAXX 25001 38880 42997 61401 10029 21022 39879 40138 58006 80001 555 10101
AAXX 25001 38886 42997 02501 10000 21056 39914 40148 53001 555 10103
AAXX 25001 38895 41995 02302 10004 21039 39852 40148 54000 70500 555 10102
AAXX 25001 38911 42997 41002 10039 21023 39850 40148 57008 555 10003
AAXX 25001 38915 42997 01801 10062 21042 39830 40155 58006 555 11001
AAXX 25001 38974 42998 00000 10014 21034 39800 40141 57003 555 11101
AAXX 25001 38987 42996 00000 10011 21024 39422 40181 52004 555 11101
BBXX 46221 25001 99339 71186 46/// ///// 1//// 92345 22200 00154 11701 21001 325// 41701 70007
BBXX 51205 25001 99210 71564 46/// ///// 1//// 90018 22200 00236 10905 20905 304// 41102 70026
BBXX 46114 25001 99364 71222 46/// ///// 1//// 90004 22200 00127 11407 21002 329// 41407 70036
BBXX 41029 25001 99328 70796 46/// /0806 10140 90000 555 11088 22106
BBXX 44098 25001 99428 70702 46/// ///// 1//// 90007 22200 00087 10602 20602 70010
BBXX 42362 25001 99278 70907 46/// /0811 10217 20189 40224 53010 90000
BBXX 42362 25001 99278 70907 46/// /0811 10217 20189 40224 90015
BBXX 42364 25001 99291 70881 46/// /0907 10183 20156 40247 90015
BBXX 41115 25001 99184 70673 46/// ///// 1//// 90005 22200 11102 20702 70008
BBXX 41114 25001 99276 70802 46/// ///// 1//// 90016 22200 00246 11101 21001 70007
AAXX 25001 28586 42997 01202 11210 21228 30033 40194 57015
AAXX 25001 37514 42696 80000 10008 21009 38970 40136 54000 88500
AAXX 25001 28383 42997 00501 11179 21198 30105 40196 57006
AAXX 25001 28791 42998 01103 11224 21242 30038 40196 57017
AAXX 25001 22282 415// 82314 11021 21030 39938 49946 57006 73832 885// 333 91119
AAXX 25001 28588 41996 01301 11203 21215 30015 40187 57016 71000
AAXX 25001 28465 42998 01801 11212 21230 30101 40185 57003
AAXX 25001 38847 ///// /1101 10040 21037 39400 40170
AAXX 25001 28688 42997 01201 11220 21238 30017 40191 57013
AAXX 25004 82106 32196 80904 10241 20233 3//// 4//// 847// 333 10295 29092 55002 5////
AAXX 25004 82113 32/90 90506 10260 20233 3//// 4//// 897// 333 10308 29087 55010 5////
AAXX 25004 82212 32698 /////
AAXX 25004 82336 21697 50000 10248 20241 3//// 4//// 70266 83530 333 10284 29094 55008 5//// 60091
AAXX 25004 82425 21193 80904 10260 20242 3//// 4//// 70262 887// 333 10324 29087 55/// 5//// 60011
AAXX 25004 82533 31495 20000 10266 20241 3//// 4//// 71311 82300 333 10328 29082 55042 5////
AAXX 25004 82704 32894 20000 10273 20250 39856 40049 82040 333 10330 29084 55006 58010
AAXX 25004 82723 32596 41802 10271 20243 30018 40100 84300 333 10351 29082 55059 59008
AAXX 25004 78951 12574 20806 10266 20212 30142 40157 60001 82200 333 10297 20234 58014 70006 82821
BBXX 52200 25001 99134 11448 46/// ///// 1//// 90015 22200 00287 11104 20904 309// 41102 70021
BBXX 51201 25001 99217 71581 46/// ///// 1//// 90012 22200 00240 10804 20804 335// 41302 70022
AAXX 25001 14216 NIL
AAXX 25001 14219 NIL
AAXX 25001 14232 NIL
AAXX 25001 14234 NIL
AAXX 25001 14236 NIL
AAXX 25001 14244 NIL
AAXX 25001 14248 NIL
AAXX 25001 14253 NIL
AAXX 25001 14256 12570 82302 10004 21017 39936 40266 52013 60001 886//
AAXX 25001 14280 12960 83002 10004 21001 30141 40255 54004 60001 8802/
AAXX 25001 14308 NIL
AAXX 25001 14321 NIL
AAXX 25001 14370 11520 72401 10008 21002 30154 40267 52013 69971 72162 87500
AAXX 25001 14382 12670 82602 10014 20002 30136 40260 51004 69911 8662/
AAXX 25001 14428 NIL
AAXX 25001 14441 NIL
AAXX 25001 14452 NIL
AAXX 25001 14454 NIL
AAXX 25001 14462 NIL
AAXX 25004 61401 NIL
AAXX 25004 61404 NIL
AAXX 25004 61415 32958 53612 10181 20138 30188 40193 80002 333 0//00 59018 85080
AAXX 25004 61421 NIL
AAXX 25004 61437 NIL
AAXX 25004 61442 32957 30506 10220 21076 30166 40170 83080 333 0//00 59018 83363
AAXX 25004 61461 NIL
AAXX 25004 61489 NIL
AAXX 25004 61492 NIL
AAXX 25004 61497 NIL
AAXX 25004 61498 NIL
AAXX 25004 61499 NIL
AAXX 25004 61510 NIL
AAXX 25001 60373 36/// /1604 10117 20116
AAXX 25001 60623 36/// /0000 10088 21057
AAXX 25001 60393 36/// /0000 10118 20100
AAXX 25001 28696 42997 00000 11236 21261 30064 40218 57014
AAXX 25001 40650 41557 20000 10092 20066 40138 51003 71000 82100
AAXX 25001 40603 42960 00000 10088 20036 40159 50000
AAXX 25001 40608 41556 60000 10086 20077 40139 58004 71022 84430
AAXX 25001 40621 42560 60000 10112 20065 40145 57007 86500
AAXX 25001 40629 42960 00000 10066 20021 40160 51002
AAXX 25001 40634 42960 02703 10026 21016 40134 54000
AAXX 25001 40642 42960 00000 10063 21026 40182 54000
AAXX 25001 40656 42960 00000 10105 20044 40118 53002
AAXX 25001 40665 42960 01102 10140 20132 40140 57005
AAXX 25001 40670 42960 00000 10115 20046 40131 53004
AAXX 25001 40674 42960 50000 10105 20049 40133 54000 85030
AAXX 25001 40676 42960 20000 10100 20041 40135 50006 80001
AAXX 25001 40680 41556 50405 10150 20096 40131 58002 70622 83202
AAXX 25001 40689 42960 01805 10152 20136 40146 54000
AAXX 25001 40691 42960 00302 10164 20150 40162 54000
AAXX 25001 78310 12501 30702 10237 20207 30179 40190 53010 60001 82240 333 10291 20205 30/// 56990 58003 82820 92023
AAXX 25001 78315 12564 20000 10218 20185 30122 40188 53010 60001 82200 333 10285 20190 30/// 56900 58010 82820
AAXX 25001 78318 12565 21004 10244 20206 30188 40192 51011 60001 82800 333 10292 20210 30/// 56900 58010 81820
AAXX 25001 78322 12556 10103 10236 20190 30182 40199 53016 60001 81400 333 10296 20201 30/// 56900 58012 81820
AAXX 25001 78324 12/00 10801 10240 20212 30177 40188 53012 60001 81200 333 10270 20201 30/// 56900 58010 818//
AAXX 25001 78325 11530 30807 10246 20195 30140 40198 51012 60001 70400 82240 333 10280 20209 30/// 56290 58012 82820
AAXX 25001 78328 12/62 10905 10244 20211 30199 40/// 52010 60001 81100 333 10267 20229 30/// 56900 58016 818// 92427
AAXX 25001 78333 12410 40401 10250 20205 30183 40190 53015 60001 84200 333 10288 20191 30/// 56100 58015 84818 555 10402
AAXX 25001 78344 NIL
AAXX 25001 78345 12965 00504 10239 20197 30182 40186 52013 60001 333 10293 20180 30/// 58012
AAXX 25001 78348 11556 10506 10237 20212 30141 40193 53012 60001 70500 81200 333 10268 20227 30/// 56200 57855 58008 81820 555 10902
AAXX 25001 78349 12550 10201 10236 20208 30070 40180 53002 60001 81400 333 10299 20195 30/// 56900 59009 81820
AAXX 25001 78351 12550 13602 10244 20178 30156 40158 53005 60001 81500 333 10299 20193 30/// 56900 58000 81626
AAXX 25001 78353 12560 30703 10251 20217 30157 40179 53009 60001 83200 333 10274 20230 30/// 50404 56900 58002 83820
AAXX 25001 78355 12560 30403 10228 20204 30048 40190 51008 60001 82202 333 10278 20195 30/// 56909 58011 82820
AAXX 25001 78358 12530 10604 10253 20217 30169 40184 52013 60001 81200 333 10288 20185 30/// 56900 58014 81823
AAXX 25001 78360 12560 41204 10274 20205 30161 40173 53010 60001 84400 333 10299 20208 30/// 56900 57859 58006 82820 92023
AAXX 25001 78363 12960 00000 10243 20205 30048 40164 52020 60001 333 10299 20160 30/// 56/// 58013
AAXX 25001 78365 12/50 20910 10260 20233 30184 40189 53006 60001 82800 333 10278 20240 30/// 56900 57856 58008 818// 92045
AAXX 25001 78369 11464 10708 10259 20210 30166 40175 52013 60001 70500 81200 333 10279 20255 30/// 56900 58006 70002 81818 92045
AAXX 25004 78951 12574 20806 10266 20212 30142 40157 60001 82200 333 10297 20234 58014 70006 82821
AAXX 25001 22438 42568 72011 10004 21010 39951 49972 52007 87500
BBXX SHIP 25004 99236 11221 41597 80328 10190 20123 40282 52023 70322 87800 22213 00239 20706 303// 40706 80150
BBXX ZCAO7 25004 99203 11264 41297 80337 10218 20155 40195 53001 70222 84700 22243 20408 302// 41108 80180
BBXX A8LG9 25003 99444 11496 41298 42310 10010 21002 49975 51005 70172 8279/ 22215 00000 20202 324// 40406 5//// 80005
BBXX A8KM8 25004 99390 11674 41297 80933 10100 40050 58040 76160 8/72/ 22224 21009 30615 40809 51009
BBXX SHIP 25004 99287 11263 41498 63624 10120 20039 40280 52018 70222 8554/ 22242 00216 20504 334// 40605 80180
BBXX SHIP 25004 99229 11272 41898 60121 10180 20091 40230 53020 70222 8255/ 22283 00249 20507 399// 4//// 80130
BBXX SHIP 25004 99519 71496 41598 63225 10030 21036 40055 51005 70322 8671/ 90000 22224 00050 20505 332// 40606 80005
AAXX 25001 40650 41557 20000 10092 20066 40138 51003 71000 82100
AAXX 25001 40603 42960 00000 10088 20036 40159 50000
AAXX 25001 40608 41556 60000 10086 20077 40139 58004 71022 84430
AAXX 25001 40621 42560 60000 10112 20065 40145 57007 86500
AAXX 25001 40629 42960 00000 10066 20021 40160 51002
AAXX 25001 40634 42960 02703 10026 21016 40134 54000
AAXX 25001 40642 42960 00000 10063 21026 40182 54000
AAXX 25001 40656 42960 00000 10105 20044 40118 53002
AAXX 25001 40665 42960 01102 10140 20132 40140 57005
AAXX 25001 40670 42960 00000 10115 20046 40131 53004
AAXX 25001 40674 42960 50000 10105 20049 40133 54000 85030
AAXX 25001 40676 42960 20000 10100 20041 40135 50006 80001
AAXX 25001 40680 41556 50405 10150 20096 40131 58002 70622 83202
AAXX 25001 40689 42960 01805 10152 20136 40146 54000
AAXX 25001 40691 42960 00302 10164 20150 40162 54000
BBXX SHIP 25004 99122 31283 41497 52315 10319 20308 40027 52027 70322 85202 22232 00285 10602 20502 323// 40502 80310
BBXX SHIP 25004 99122 31283 41497 52315 10319 20308 40027 52027 70322 85202 22232 00285 10602 20502 323// 40502 80310
AAXX 25001 51379 11765 71601 11253 21289 40389 57002 69901 70070 86502 333 05554 79999 92510
AAXX 25001 51467 32980 00201 11174 21231 38283 57001 333 05353
AAXX 25001 51495 32980 00703 11130 21187 40377 52003 333 05301
AAXX 25001 51431 32980 00701 11146 21174 39419 40266 52005 333 05304 31027 92518
AAXX 25001 51747 32970 30000 11218 21249 39019 40426 57002 80002 333 05254 79999
AAXX 25001 52203 32980 42001 11162 21201 39421 40375 52001 80002 333 05400
AAXX 25001 51076 32980 03601 11185 21220 39389 40356 54000 333 05604 31022 92525
AAXX 25001 51243 32965 53601 11227 21251 39753 40374 57002 80002 333 05651
AAXX 25001 51463 32970 00702 11144 21174 39149 40353 57006 333 05506 31043 92517
AAXX 25001 51573 32975 00901 11116 21165 30329 40376 54000 333 05301
AAXX 25001 51709 32965 02701 11139 21163 38784 40370 52001 333 05300 92507
AAXX 25001 51087 32980 01801 11238 21266 39310 40383 52002 333 05501 31048 92519
AAXX 25001 51156 32980 03201 11146 21206 38739 40339 54000 333 05401 92503
AAXX 25001 51644 11960 72001 11111 21128 39028 40374 52004 69901 77070 83032 333 05304 70001 92500
AAXX 25001 51656 11762 50000 11116 21135 39206 40380 52002 69901 70070 81502 333 05302 79999
AAXX 25001 38599 41896 80506 10023 21068 39674 40196 54000 71022 8295
AAXX 25001 21432 32998 01603 11316 21345 30381 40403 57008 333 21332 48007
AAXX 25001 21824 32998 12401 11374 21387 30329 40339 57012 80001 333 21395 48006
AAXX 25001 21908 32999 00000 11410 21431 30180 40272 57019 333 21410
AAXX 25001 21921 32999 00000 11407 21438 30319 40371 57006 333 21470 48036
AAXX 25001 21931 32998 01602 11386 21420 30306 40343 57022 333 21423 48019
AAXX 25001 21946 32999 02402 11392 21417 30353 40446 56003 333 21393 47025
AAXX 25001 21982 41696 73311 11173 21207 30286 40315 58001 73832 82531 333 91116
AAXX 25001 25062 41597 82707 11251 21275 30396 40400 52003 73632 885// 333 91110
AAXX 25001 25123 12998 31402 11356 21383 30426 40464 57001 69900 83070 333 20356 47029
AAXX 25001 25138 32999 40701 11401 21427 30324 40468 57004 82031 333 21412 47022 91103
AAXX 25001 25173 41493 63213 11220 21232 30339 40344 58007 73973 86500 333 91120
AAXX 25001 25248 32599 20000 11443 21469 39956 40493 55000 82500 333 21463 47030 91100
AAXX 25001 25282 41915 83411 11200 21206 30290 40297 54000 73832 8803/ 333 91116 92990
AAXX 25001 25325 NIL
AAXX 25001 25356 42999 53202 11203 21261 30256 40364 58004 82031 333 91004
AAXX 25001 25399 41498 63407 11214 21239 30199 40209 54000 73631 86801 333 91110
AAXX 25001 25428 31913 30000 11455 21483 30073 40474 58003 71011 80001 333 21456 47024 55000 91100
AAXX 25001 25551 42999 52902 11273 21304 30336 40370 58002 80001 333 91103
AAXX 25001 25563 42984 03906 11275 21299 30246 40332 52001 333 91108
AAXX 25001 25594 41698 23310 11177 21210 30164 40219 57004 73632 82500 333 91115
AAXX 25001 25677 41998 03008 11209 21234 30308 40314 53004 73630 333 91113
AAXX 25001 31054 32999 80000 11400 21427 30096 40414 58007 8807/ 333 21412 47031 55000 1/147 7000/
AAXX 25001 31123 12998 60000 11340 21368 30033 40406 52002 69902 82011 333 21343 47023
AAXX 25001 26059 41396 82102 10002 21001 30049 40074 52005 77172 8872/ 333 87707 93604
AAXX 25001 08541 32/// /0404 10085 20028 30178 40300 52006 333 91107 555 60005
AAXX 25001 08570 32/// /0205 10060 20002 39860 40333 52003 333 91007 91108 555 60005
AAXX 25004 65528 NIL
AAXX 25004 65536 NIL
AAXX 25004 65545 NIL
AAXX 25004 65548 NIL
AAXX 25004 65555 NIL
AAXX 25004 65557 NIL
AAXX 25004 65560 NIL
AAXX 25004 65562 NIL
AAXX 25004 65563 NIL
AAXX 25004 65578 32557 52206 10271 20256 30100 40117 85500 333 59007 85620
AAXX 25004 65585 NIL
AAXX 25004 65592 NIL
AAXX 25004 65594 NIL
AAXX 25004 65599 32458 3//// 10260 20243 30030 40104 82502 333 58003 82613 83076
AAXX 25001 08541 32/// /0404 10085 20028 30178 40300 52006 333 91107
AAXX 25004 61600 32960 30206 10190 20107 30143 40148 80002 333 59016 82073
AAXX 25004 61612 NIL
AAXX 25004 61627 32958 50404 10192 20033 3//// 4//// 80002 333 0//00 5//// 85073
AAXX 25004 61630 32960 00404 10222 20040 30122 40141 333 0//00 59014
AAXX 25004 61641 32958 63611 10230 20179 30113 40146 80002 333 0//00 59012 86073
AAXX 25004 61666 NIL
AAXX 25004 61679 32958 00406 10225 20071 30136 40144 333 0//00 59002
AAXX 25004 61687 32960 03604 10222 21013 30073 40130 333 0//00 59012
AAXX 25004 61695 32958 03606 10204 20123 30100 40126 333 0//00 59016
AAXX 25004 61697 32960 03608 10215 20166 30116 40131 333 0//00 59011
AAXX 25004 61698 NIL
AAXX 25004 61699 NIL
AAXX 25001 08570 32/// /0205 10060 20002 39860 40333 52003 333 91007 91108
BBXX A8KM8 25004 99390 11674 41297 80933 10100 40050 58040 76160 8/72/ 22224 21009 30615 40809 51009
BBXX A8SI3 25003 99536 11677 43698 81018 10030 21100 40260 54000 884// 22264 00020 21003 81010
BBXX DGDD 25001 99338 11645 41296 82509 10195 20164 40085 51010 75165 887// 22224 00200 20902 324// 40706 5//// 80175
BBXX OYCY2 25004 99509 11617 41/94 /1038 10000 20000 40050 57070 786// 8//// 22253 00050 20506 310// 40708 5//// 6//// 80000 ICE /////
BBXX OZBY2 25004 99377 11614 41/// /0152 10100 20040 40010 53010 7//22 8//// 22224 00190 20618 3//// 4//// 5//// 6//// 80070 ICE /////
BBXX WCX8884 25004 99535 11754 41498 70919 10010 21020 40210 54000 75022 86748 22255 00049 20404 308// 40608 5//// 6//// 80000 ICE /////
BBXX 46001 25001 99563 71480 46/// /2911 10013 49958 52007 92350 22200 00045 11106 20705 300// 41104 70032 333 91213 555 11116 22122 32324 43015 62349 292111 298110 298114 302108 300107 303109
BBXX 46207 25001 99509 71299 46/// /1912 10095 40116 57015 22200 00082 11207 70033 333 91215
BBXX 9V7955 25004 99325 71482 41597 60609 10195 20190 40280 51010 70121 86185 22264 00180 20102 30606 40404 50304 6//// 80190 ICE /////
BBXX 9VVN 25004 99516 71364 41897 62320 10090 20070 40060 51010 74411 81/98 22234 0//// 21006 32123 42009 54010 6//// 80080 ICE /////
BBXX DHBN 25001 99335 71305 41598 72102 10155 20102 40285 58015 70222 83123 22224 00170 20301 328// 41005 5//// 80125
BBXX SHIP 25004 99519 71496 41598 63225 10030 21036 40055 51005 70322 8671/ 90000 22224 00050 20505 332// 40606 80005
BBXX WABS 25004 99421 71258 41998 31606 10100 20080 40280 57020 7//11 81/68 22243 0//// 20202 329// 40606 5//// 6//// 80089 ICE /////
BBXX WDB9986 25004 99367 71287 41598 72212 10130 20090 40290 52010 70322 87/4/ 22225 00120 205// 3//// 412// 5//// 6//// 80110 ICE /////
BBXX 46147 25001 99518 71312 46/// /2604 10079 40086 57004 22200 00076 11107 70037 333 91206
BBXX 46147 25001 99518 71312 46/// /2604 10079 40086 57004 22200 00076 11107 70037 333 91206
AAXX 25001 31961 32998 83501 11201 21247 30172 40223 53008 83031 333 11238 42002 55066
AAXX 25001 31873 11996 82803 11202 21225 30056 40201 52012 60010 77172 8802/ 333 21215 47014
AAXX 25001 31909 11598 82808 11171 21240 39996 40078 53008 60010 73631 83535 333 21186 48031 55000 91015 91118
AAXX 25001 25703 11999 70000 11406 21438 30149 40467 53001 69930 77672 85031 333 21396 47026 55000
AAXX 25001 25745 NIL
AAXX 25001 25913 32999 00706 11205 21272 30134 40295 57003 333 21222 48019 55000
AAXX 25001 25954 32699 80000 11087 21130 30184 40302 52008 81531 333 21092 48026 55000
AAXX 25001 25956 32999 00705 11199 21240 30320 40326 52007 333 21206 44018 55000
AAXX 25001 31088 32999 23503 11236 21276 30303 40311 57003 82040 333 21239 47001 55026
AAXX 25001 31873 11996 82803 11202 21225 30056 40201 52012 60010 77172 8802/ 333 21215 47014
AAXX 25001 31909 11598 82808 11171 21240 39996 40078 53008 60010 73631 83535 333 21186 48031 55000 91015 91118
AAXX 25001 31960 32998 83510 11193 21261 39953 40208 53009 85031 333 21205 41998 55071 91016 91116
AAXX 25001 31961 32998 83501 11201 21247 30172 40223 53008 83031 333 11238 42002 55066
AAXX 25001 32053 11193 80310 11041 21041 30021 40070 54000 60030 78683 889// 333 21048 48062 87702 91017 91118
AAXX 25001 32061 11597 80207 11031 21055 30003 40042 53009 69960 78583 8793/ 333 21045 47007 91010 91114
AAXX 25001 32098 11292 83607 11029 21033 39960 49970 52009 60100 78683 889// 333 21029 47044 91012 91114
AAXX 25001 32150 11596 80402 11011 21030 39885 49914 53031 60040 78582 889// 333 21028 47063 91005 91108
AAXX 25001 32165 32699 23401 11044 21130 39891 49952 53006 82100 333 21045 43012 91002 91109
AAXX 25001 32215 11411 80809 10004 21005 39978 40007 57014 60040 78583 886// 333 21021 43055 91016 91120
AAXX 25001 32252 NIL
AAXX 25001 32389 /1394 80000 11261 21273 30231 40272 58004 69990 78682 889// 333 21360 47055 55030
AAXX 25001 32477 32999 80503 11060 21139 30081 40113 58014 80001 333 21153 47057 55043
AAXX 25001 32583 11594 80507 11011 21027 30086 40116 57007 69950 78683 889// 333 21067 48036 91012 91116 92987
AAXX 25001 32618 12598 60906 11020 21078 30211 40234 52008 69900 86200 333 21025 48018 55009
AAXX 25000 44219 329// 00000 11278 21296 38676 40502 54000 333 21290 47005 555 31294
AAXX 25001 31960 32998 83510 11193 21261 39953 40208 53009 85031 333 21205 41998 55071 91016 91116
AAXX 25004 71189 46/// /2705 11168 21203 6///1 333 11148 21197 7////
AAXX 25004 71026 16/// /2507 10029 21038 39392 40255 52017 60001 333 10089 7////
AAXX 25004 71217 16/// /2605 10039 21035 60001 333 10066 20017 70000
AAXX 25004 71224 16/// /2713 10025 21020 60001 333 10036 21015 70000
AAXX 25004 71770 17/// /0000 11024 21031 39577 40378 53001 60051 7//4/ 333 11012 21078 70046
AAXX 25004 71276 16/// ///09 11011 21059 60001 333 10041 21034 70000
AAXX 25004 71343 16/// /2514 10044 21023 60001 333 10072 20015 70000
AAXX 25004 71434 17/// /2013 11073 21088 39927 49994 57024 60011 7//4/ 333 11073 70010
AAXX 25004 71979 16/// ///// 11024 21065 38509 40173 56012 60001 333 10048 21024 70000
BBXX BAREU04 25004 99413 70675 46/// ///// 40290 52034 22252
AAXX 25001 60379 36/// /0000 10111 20111
AAXX 25001 60380 36/// /0000 10093 20093
AAXX 25004 89002 42699 80915 11027 21040 39680 49734 57014 885// 333 11008 21028
AAXX 25001 50434 32980 01801 11443 21492 39397 40460 52016 333 00651
AAXX 25001 50527 31906 01104 11399 21443 39509 40446 52015 70400 333 00600 92515
AAXX 25001 50603 11980 70402 11313 21351 39629 40407 52018 69911 72200 80002 333 00652 70002
AAXX 25001 50632 32980 02904 11269 21344 39374 40384 52016 333 00604
AAXX 25001 50727 32980 20000 11371 21416 39071 40453 52017 80002 333 00600
AAXX 25001 50915 32970 00201 11265 21306 39261 40390 52012 333 00402
AAXX 25001 51716 32965 01401 11137 21157 38982 40369 52001 333 05351
AAXX 25001 51765 32980 03401 11143 21158 39308 40391 57001 333 05304
AAXX 25001 51777 32972 02203 11119 21161 39267 40391 52003 333 05302
AAXX 25001 51811 32962 00000 11134 21155 38848 40367 57007 333 05302 92503
AAXX 25001 51828 32965 70901 11097 21127 38693 40353 57001 80002 333 05303 92501
AAXX 25001 52267 32980 02501 11149 21226 39188 40377 52007 333 05151
AAXX 25001 52323 32980 12903 11207 21252 38260 52001 80002 333 05253 92501
AAXX 25001 52495 32980 01601 11192 21254 38756 40410 52001 333 00057
AAXX 25001 53149 32980 02703 11151 21192 38850 40381 52021 333 00401
AAXX 25001 53192 32970 20901 11263 21289 38948 40432 52020 80002 333 00502
AAXX 25001 53231 32980 01404 11161 21205 38548 52009 333 00200
AAXX 25001 53336 32965 00401 11148 21192 38789 40387 52014 333 00300
AAXX 25001 53391 32980 02904 11173 21202 38543 40382 52019 333 00400
AAXX 25001 53529 32980 02201 11149 21190 38697 40395 52007 333 00154
AAXX 25001 53543 32980 02903 11094 21191 38596 40357 52009 333 00202
AAXX 25001 53723 32970 20000 11149 21191 38728 40386 52001 80002 333 00053
AAXX 25001 54012 32980 22707 11181 21216 39066 40360 52011 80002 333 00404
AAXX 25001 54026 32970 70000 11203 21253 39987 40347 52014 80002 333 00552
AAXX 25001 54027 32970 32902 11204 21241 39706 40354 52018 82032 333 00552
AAXX 25001 54208 32980 20901 11212 21233 38804 40388 52020 80002 333 00400
AAXX 25001 54776 32580 52702 11013 21089 30250 40310 52011 82440 333 00552 31035
AAXX 25001 56004 32680 70000 11184 21332 35791 57002 83502 333 00104
AAXX 25001 56033 32680 70000 11179 21280 36001 52014 82502 333 00206
AAXX 25001 56046 32980 40701 11173 21216 36250 52010 80002 333 00105
AAXX 25001 56193 NIL
AAXX 25001 56196 31930 33401 10012 21001 40316 52011 71000 83040 333 05101 31010
AAXX 25001 56287 32970 82202 10046 20015 40308 52002 8807/ 333 05100 30043
AAXX 25001 56684 32560 80701 10006 21015 37923 52011 885// 333 05203 30020
AAXX 25001 56751 32778 12201 10047 20024 38031 52014 81440 333 00000 30007
AAXX 25001 56786 11558 81803 10021 20002 38139 52010 69911 71060 885// 333 05302 30021 70001
AAXX 25001 56977 32465 81401 10102 20074 40219 52009 885// 333 00152
AAXX 25001 57259 32975 70000 11020 21026 40342 52012 8703/ 333 05103 31027
AAXX 25001 57279 32961 21101 10007 21073 40330 52012 82040 333 00003 31027
AAXX 25001 57348 31858 83602 10066 20025 40312 52008 71000 885// 333 05201 30032
AAXX 25001 57399 32960 70201 11009 21071 40340 52012 8703/ 333 00102 31031
AAXX 25001 57554 31956 70000 10029 20003 40334 52012 71000 87040 333 05104 30029
AAXX 25001 57793 31940 02701 11013 21023 40335 52013 71000 333 00151 31034
AAXX 25001 58345 31956 01601 11023 21048 40340 52020 71000 333 00353
AAXX 25001 58506 32968 20201 11022 21163 40351 52010 82040 333 00202 31041
AAXX 25001 58813 32965 02001 11026 21031 40331 52013 333 00251 31024
AAXX 25001 58834 31458 21401 10015 21004 40336 52019 71000 82600 333 00352 31017
AAXX 25001 58926 32961 00201 10004 21017 40323 52018 333 00354 30006
AAXX 25001 58944 32964 00205 10095 21012 40302 52016 333 00300
AAXX 25001 59096 32963 02701 10026 21046 40304 52014 333 00254 30021
AAXX 25001 59102 32962 02201 11001 21038 40310 52015 333 00255 31040
AAXX 25001 59278 32962 12202 10073 20007 40286 52012 80002 333 00153 30039
AAXX 25001 59456 32971 00401 10092 21058 40267 52012 333 00000
AAXX 25001 59493 31957 00403 10090 21064 40271 52013 70500 333 00151
AAXX 25001 59658 32961 00402 10094 21025 40260 52014 333 00001 30044
AAXX 25001 59673 32964 00207 10105 21022 40262 52013 333 00251
AAXX 25001 59845 32962 01402 10112 20051 40252 52010 333 00051
BBXX 46183 25001 99536 71311 46/// /1703 10080 40065 52003 22200 00081 10805 70026 333 91205
AAXX 25004 16682 12460 30000 10078 20056 30160 40179 52013 60001 81130 333 81818 83358 90730 91106 555 40000 47650 44190 50000 50068
BBXX 46183 25001 99536 71311 46/// /1703 10080 40065 52003 22200 00081 10805 70026 333 91205
AAXX 25004 65201 31957 62003 10266 20263 30070 40125 70522 80008 333 56000 59001 86280 91105
AAXX 25004 65560 32960 0//// 10230 20200 39802 40109 333 59006
BBXX BAREU04 25004 99413 70675 46/// ///// 40290 52034 22252
AAXX 25004 41859 31/05 93602 10102 20100 30097 40137 74544 89/// 333 56999 59001 70000 89///
AAXX 25004 41883 31902 90000 10120 20120 30112 40134 74744 89/// 333 56999 58004 70000
AAXX 25004 41891 31/02 90000 10133 20130 30078 40118 74544 89/// 333 56999 59002 70000
AAXX 25004 41907 31905 00000 10095 20095 30110 40125 74244 333 59005 70000
AAXX 25001 38599 41896 80506 10023 21068 39674 40196 54000 71022 8295E
BBXX 46131 25001 99499 71250 46/// /1211 1//// 40251 57011 22200 00077 10603 70014 333 91214
BBXX 46131 25001 99499 71250 46/// /1211 1//// 40251 57011 22200 00077 10603 70014 333 91214
AAXX 25004 41268 36/// /2209 10164 20110 30136 47856 333 0E018 59008
AAXX 25001 60394 36/// /0000 10094 20094
AAXX 25001 60374 16/// /1103 10124 20123 69961
AAXX 25001 60613 36/// /0000 10079 20018
AAXX 25001 60376 36/// /0902 10124 20124
AAXX 25001 60593 36/// /0000 10098
AAXX 25004 61017 NIL
AAXX 25004 61024 NIL
AAXX 25004 61036 NIL
AAXX 25004 61043 32960 70610 10185 21068 39693 40134 80008 333 0//00 59004 87280
AAXX 25004 61045 NIL
AAXX 25004 61049 32960 70000 10165 21002 39816 40136 80008 333 0//00 58006 87280
AAXX 25004 61052 32960 20204 10187 20021 39873 40130 80002 333 0//00 59007 82080
AAXX 25004 61075 32960 51002 10211 21020 39818 40126 80002 333 0//00 59006 85080
AAXX 25004 61080 NIL
AAXX 25004 61090 32960 70610 10166 21050 39630 40140 80008 333 0//00 59002 87280
AAXX 25004 61091 NIL
AAXX 25004 61096 32960 70202 10170 21024 39758 40140 80008 333 0//00 59007 87280
AAXX 25004 61099 32960 73610 10215 20010 39881 40109 80008 333 0//00 59009 87280
BBXX 46204 25001 99514 71288 46/// /1214 10093 40128 57018 22200 00084 11107 70035 333 91218
AAXX 25001 80001 11470 20806 10274 20237 30115 40116 60021 70155 81201 333 10289 563/0 58003 81818
AAXX 25001 80002 NIL
AAXX 25001 80009 31560 40402 10276 20208 30073 40078 70500 82804 333 10318 560/0 58010 82820 84070
AAXX 25001 80022 31465 70000 10266 20240 30080 40082 70522 81476 333 10308 56990 58003 81617 86270
AAXX 25001 80028 31460 40104 10262 20233 30062 40097 70500 81505 333 10300 561/9 58010 81620 83270
AAXX 25001 80035 31965 41303 10254 20220 30114 40119 70522 333 10310 58004
AAXX 25001 80036 31568 70407 10274 20183 70522 80008 333 10334 56//0 87270
AAXX 25001 80063 31465 60000 10268 20252 70522 83510 333 10314 56000 83620 84460
AAXX 25001 80084 31457 80000 10252 20243 71522 8481/ 333 10295 5609/ 84815 88459
AAXX 25001 80091 31470 40000 10286 20242 70522 82202 333 10326 560/9 82817 84070
AAXX 25001 80094 31258 53104 10210 20201 38791 74010 82570 333 10260 5679/ 59007 82606 84357
AAXX 25001 80097 32564 80000 10233 20218 39756 40106 83835 333 10274 56099 58018 83358
AAXX 25001 80099 31564 30000 10256 20221 39930 40075 70522 83602 333 10311 563/9 58023 83720
AAXX 25001 80110 NIL
AAXX 25001 80112 31570 31102 10186 20137 37887 70521 81205 333 10222 56090 57895 59001 81820 83070
AAXX 25001 80139 NIL
AAXX 25001 80144 31456 70000 10252 20243 70522 87200 333 10278 560// 87815
AAXX 25001 80210 01563 50000 10219 20192 38642 69931 72052 82831 333 10271 56000 58007 69937 82820 83358
AAXX 25001 80211 01565 70000 10214 20200 69941 75092 84970 333 10282 5652/ 57951 69997 84923 84360
AAXX 25001 80214 31560 53602 10244 20217 39091 70520 82835 333 10294 56559 58003 82820 83360
AAXX 25001 80222 31565 30803 10149 20088 37509 70522 83805 333 10214 569/9 58006 83820
AAXX 25001 80234 NIL
AAXX 25001 80252 NIL
AAXX 25001 80259 11560 53306 10236 20183 39024 69901 70552 83830 333 10299 5626/ 58005 83825 83358
AAXX 25001 80315 01665 60000 10278 20233 39558 40052 69901 70352 81150 333 10326 5609/ 58013 69907 81835 86360
AAXX 25001 80342 NIL
AAXX 25001 80370 NIL
AAXX 25001 80372 NIL
AAXX 25001 80398 31470 50000 10262 20248 39997 40092 70192 82570 333 10320 5609/ 58000 82615 85458
BBXX 46204 25001 99514 71288 46/// /1214 10093 40128 57018 22200 00084 11107 70035 333 91218
AAXX 25001 40665 42960 01102 10140 20132 40140 57005
AAXX 25001 40674 42960 50000 10105 20049 40133 54000 85030
AAXX 25001 40676 42960 20000 10100 20041 40135 50006 80001
AAXX 25001 40680 41556 50405 10150 20096 40131 58002 70622 83202
AAXX 25001 40656 42960 00000 10105 20044 40118 53002
AAXX 25001 40670 42960 00000 10115 20046 40131 53004
AAXX 25001 40689 42960 01805 10152 20136 40146 54000
AAXX 25001 40691 42960 00302 10164 20150 40162 54000
AAXX 25001 40603 42960 00000 10088 20036 40159 50000
AAXX 25001 40621 42560 60000 10112 20065 40145 57007 86500
AAXX 25001 40629 42960 00000 10066 20021 40160 51002
AAXX 25001 40642 42960 00000 10063 21026 40182 54000
AAXX 25001 40608 41556 60000 10086 20077 40139 58004 71022 84430
AAXX 25001 40634 42960 02703 10026 21016 40134 54000
AAXX 25001 40650 41557 20000 10092 20066 40138 51003 71000 82100
BBXX ZDLS1 25003 99739 50255 41198 71014 11037 2//// 49792 52010 70222 85771 22200 05019 20000 30000
BBXX ZSAF 25004 99702 50067 41499 71106 11019 21047 49724 57015 70222 8357/ 22242 05016 20000 31500 40701 50000 ICE 66460
AAXX 25004 92044 11480 70107 10310 20260 30067 40073 52014 60364 72522 86201
BBXX ZMGB 25004 99394 31779 41/99 39902 10200 20130 40248 51008 70100 83100 22253 02178 20000 31118 40402 50402 80160
BBXX VROC 25004 99040 31518 41598 50710 10300 20243 40064 56023 70311 84162 22223 04300 20201 30000 80260
BBXX VREN5 25003 99341 31596 41598 50815 10195 20124 40157 54000 703// 8/115 22262 20602 325// 40502 80155
BBXX VNSZ 25004 99412 31464 46/// /3301 10193 20153 30071 40097 57001 22200 04195 85167
BBXX VRDG4 25003 99366 31607 41496 50419 10198 20169 40177 52002 702// 84262 22223 20404 80180
BBXX 9HA2479 25004 99223 31664 46/// /0404 10247 20229 30012 40041 52007 22200 04260 85234
BBXX VROB 25004 99347 31512 46/// /0314 10214 20188 30095 40120 52007 22213 04218 85197
AAXX 25004 91650 NIL
AAXX 25004 91652 NIL
AAXX 25004 91656 NIL
AAXX 25004 91659 11599 61306 10293 2022/ 40080 50000 60001 70311 84871 333 20232 56999 70190 84824
AAXX 25004 91660 NIL
AAXX 25004 91669 36/// /0905 10314 20278 40076 57007 90015 333 20238
AAXX 25004 91670 36/// /0200 10296 20245 40072
AAXX 25004 91676 14/// /0604 10287 20246 30005 40065 55006 60011 333 20240
AAXX 25004 91680 11699 53108 10300 20251 40069 58006 60001 70112 84801 333 20235 569/9 70011 83830 83080
AAXX 25004 91682 NIL
AAXX 25004 91683 11599 60308 10304 20241 40069 58010 60001 70222 86200 333 20225 561// 70080 86824
AAXX 25004 91691 14/// /2401 10292 20253 30075 40078 55006 60011 333 20241
AAXX 25004 91693 NIL
AAXX 25004 91697 14/// /0501 10286 20239 30074 40079 50003 60001 333 20228
AAXX 25004 91699 14/// /1207 10256 20236 30057 40089 55004 60051 333 20234
BBXX FHZI 25004 99666 31400 46/// /1103 11005 21091 39937 49948 57005 22200 05019 86032
AAXX 25004 82586 32994 03613 10268 20235 39896 40133 333 10356 29071 55089 58001
AAXX 25004 82678 32592 61801 10284 20240 39955 40094 84402 333 10345 29074 55069 59001
AAXX 25004 82784 32595 80000 10267 20246 39648 40098 88400 333 10333 29078 55081 58006
AAXX 25004 82791 32995 00911 10282 20202 39830 40107 333 10364 29057 55068 58009
AAXX 25004 82983 32595 40905 10312 20205 39691 40099 84500 333 10346 29057 55056 58006
AAXX 25004 92044 11480 70107 10310 20260 30067 40073 52014 60364 72522 86201
BBXX 41036 25001 99342 70770 46/// ///// 10125 20060 40294 90020 22200 00187
BBXX ZMGB 25004 99394 31779 41/99 39902 10200 20130 40248 51008 70100 83100 22253 02178 20000 31118 40402 50402 80160
BBXX VROC 25004 99040 31518 41598 50710 10300 20243 40064 56023 70311 84162 22223 04300 20201 30000 80260
BBXX VREN5 25003 99341 31596 41598 50815 10195 20124 40157 54000 703// 8/115 22262 20602 325// 40502 80155
BBXX VNSZ 25004 99412 31464 46/// /3301 10193 20153 30071 40097 57001 22200 04195 85167
BBXX VRDG4 25003 99366 31607 41496 50419 10198 20169 40177 52002 702// 84262 22223 20404 80180
BBXX 9HA2479 25004 99223 31664 46/// /0404 10247 20229 30012 40041 52007 22200 04260 85234
BBXX VROB 25004 99347 31512 46/// /0314 10214 20188 30095 40120 52007 22213 04218 85197
AAXX 25004 41114 32960 00000 10110 20040 37986 48516 333 58005 555 04410 50135
AAXX 25004 41268 36/// /2209 10164 20110 30136 47856 333 0E018 59008
AAXX 25004 41480 12560 40204 10221 20172 30143 40146 60002 82530 333 58005 82520 83360
BBXX AUYI 25004 99137 10742 41797 20408 10250 20222 40060 54000 70200 82011 22273 00300
BBXX VNVG 25003 99290 11318 41298 53626 10120 20039 40225 52/// 70322 85710 22283 00230 20202 333// 40505 80080
BBXX ZCAS2 25004 99249 11331 41/98 50122 10180 20106 40211 52020 70122 82260 22243 00230 20605 335// 41006 80140
AAXX 25001 21802 31999 01303 11355 21372 30234 40261 58005 70230 333 21363
AAXX 25001 24125 32998 01003 11366 21376 39941 40260 57007 333 21374 47025
AAXX 25001 24136 32999 20101 11426 21461 30216 40335 57008 80005 333 21461 47025 55000
AAXX 25001 24143 11997 60000 11379 21415 30318 40376 53001 69942 82507 333 21415
AAXX 25001 24266 31997 50000 11460 21485 30229 40442 57014 70411 80001 333 21500 47025
AAXX 25001 24329 NIL
AAXX 25001 24343 11998 81502 11370 21397 30241 40379 53001 69952 72272 82032 333 21426 47059 55000
AAXX 25001 24382 31994 20000 11474 21494 30169 40474 57006 71040 80001 333 21477 47010 55000
AAXX 25001 24639 11993 30000 11476 21505 30187 40373 52005 69902 74440 80008 333 21482 47025 55000
AAXX 25001 24641 32999 00901 11442 21475 30203 40374 52004 333 21473 47035 55000
AAXX 25001 24652 11997 80000 11358 21385 30264 40406 52003 69922 70232 80001 333 21358 47041
AAXX 25001 24656 11999 80000 11344 21381 30296 40414 53002 69942 70272 86037 333 21371 47045
AAXX 25001 24671 32999 60000 11434 21461 39871 40476 53003 82041 333 21455 47022 55000
AAXX 25001 24688 31997 00000 11525 21551 39487 40630 54000 70400 333 21531 47018 55015
AAXX 25001 24724 31994 01001 11436 21461 39716 40343 58001 71000 333 21445 48052 55000 93508
AAXX 25001 24738 31995 00000 11478 21499 30153 40367 52002 71000 333 21491 47025 55009
AAXX 25001 24768 32998 70901 11380 21416 30143 40416 52001 82031 333 21388 47029
AAXX 25001 24923 31396 50000 11451 21483 30002 40369 53002 71011 85600 333 21452 47044 85706
AAXX 25001 24944 32997 30802 11458 21485 30043 40394 53010 80001 333 21481 47033 55000
AAXX 25001 24951 32998 00000 11415 21443 30209 40407 52007 333 21426 47018
AAXX 25001 24661 11998 80000 11311 21340 30102 40403 53004 69902 77072 8802/ 333 21380 48049
AAXX 25001 24959 11995 80000 11348 21377 30258 40407 52005 69902 77172 80005 333 21369 47025 55000 93511
AAXX 25001 24962 31996 60000 11387 21413 30199 40419 52003 71022 80001 333 21387 47021 55000
AAXX 25001 24966 31996 80000 11402 21421 30152 40409 54000 71022 82031 333 21404 47028 55000
AAXX 25001 24967 32999 80901 11361 21390 30173 40428 52004 83037 333 21398 48029
AAXX 25001 25206 31998 00000 11428 21461 30423 40456 57005 70400 333 21427 47026
AAXX 25001 25400 31996 00000 11424 21443 30389 40455 57003 71000 333 21428 48020 55000
AAXX 25001 30054 31996 00000 11441 21475 30074 40361 52004 71000 333 21441 47050
AAXX 25001 30089 32999 00000 11475 21505 30156 40428 52011 333 21482 47030
AAXX 25001 30393 11999 89901 11384 21407 39226 40442 52013 69902 70272 82031 333 21398 47022
AAXX 25001 30493 11998 80000 11367 21397 39220 40428 52011 69932 77172 83077 333 21368 47011 55050
AAXX 25001 31004 32999 60000 11320 21343 39448 40394 52006 80001 333 21375 47044 55033
AAXX 25001 31137 11999 80000 11376 21399 39240 40438 52009 69922 70272 82011 333 21378 47026
AAXX 25001 35925 415// 80703 11088 21099 30032 40147 52005 71022 886// 555 1/108
AAXX 25001 38001 42597 80505 11047 21078 30197 40164 52003 885// 555 10104
AAXX 25001 38232 41495 73503 11038 21038 30039 40140 52004 71022 87600 555 14103
AAXX 25001 30157 11998 31503 11349 21384 30057 40385 53004 69902 70231 80001 333 21353 47033
BBXX 46088 25001 99483 71232 46/// /1803 10079 40267 90020 22200 00079 10301 20301 70004 333 91204 555 11035 22037 30019 41804 60019 176031 172027 161030 136032 129024 154016
BBXX 46088 25001 99483 71232 46/// /1803 10079 40267 90020 22200 00079 10301 20301 70004 333 91204 555 11035 22037 30019 41804 60019 176031 172027 161030 136032 129024 154016
BBXX 46087 25001 99485 71247 46/// /1405 10094 20071 40272 90020 22200 00086 333 91207 555 11055 22061 30003 41708 60019 135052 163060 172058 180056 176054 182045
BBXX 42085 25001 99179 70665 46/// /0606 10270 40169 90010 333 91208
BBXX 44029 25001 99425 70706 46/30 /0204 11018 40318 52012 90004 22200 00083 10602 70010 333 91205 555 11041 22042
BBXX 44030 25001 99432 70704 46/// /0206 1//// 40323 53017 90004 22200 00082 10501 70006 333 91208 555 11076 22080
BBXX 44032 25001 99437 70694 46/30 /0108 11069 40328 51023 90004 22200 00085 10402 70009 333 91211 555 11098 22102
AAXX 25001 35925 415// 80703 11088 21099 30032 40147 52005 71022 886// 555 1/108
AAXX 25001 38001 42597 80505 11047 21078 30197 40164 52003 885// 555 10104
AAXX 25001 38232 41495 73503 11038 21038 30039 40140 52004 71022 87600 555 14103
BBXX WAHP 25004 99390 70523 41/// /3619 10160 20144 40280 54000 702// 8//// 22274 00210 20704 327// 40904 5//// 6//// 80150 ICE /////
BBXX WHKM 25004 99064 10610 41998 00210 10250 20236 40120 54/// 7//00 8//// 22233 0//// 20301 303// 40603 5//// 6//// 80240 ICE /////
AAXX 25004 40250 NIL
AAXX 25004 40265 11558 72104 10086 20082 39363 40157 54000 60011 76062 87800 333 84825 84630
AAXX 25004 40296 32660 30000 10154 20056 40167 52003 83100 333 83830
AAXX 25004 40310 NIL
AAXX 25004 89050 11295 81804 11009 21009 49826 52005 60072 77372 8762/
AAXX 25004 89512 42598 61904 11024 21072 39645 49793 57003 86500
AAXX 25004 89574 32598 60808 11019 21092 49839 52018 82531 333 21027
AAXX 25004 89592 32298 80908 11010 21019 49826 52005 886//
AAXX 25004 89606 31998 52912 11316 21363 36309 47736 52012 73632 80001
BBXX VQFV3 25004 99123 11007 41697 50915 10250 20228 40122 54000 70311 8436/ 22243 20202 3//// 4//// 5//// 80235
BBXX SHIP 25004 99287 11263 41498 63624 10120 20039 40280 52018 70222 8554/ 22242 00216 20504 334// 40605 80180
BBXX A8KM8 25004 99390 11674 41297 80933 10100 40050 58040 76160 8/72/ 22224 21009 30615 40809 51009
BBXX SHIP 25004 99229 11272 41898 60121 10180 20091 40230 53020 70222 8255/ 22283 00249 20507 399// 4//// 80130
BBXX A8LG9 25003 99444 11496 41298 42310 10010 21002 49975 51005 70172 8279/ 22215 00000 20202 324// 40406 5//// 80005
BBXX SHIP 25004 99236 11221 41597 80328 10190 20123 40282 52023 70322 87800 22213 00239 20706 303// 40706 80150
BBXX ZCAO7 25004 99203 11264 41297 80337 10218 20155 40195 53001 70222 84700 22243 20408 302// 41108 80180
BBXX WDE8288 25004 99061 10930 41297 81530 10280 2027/ 40040 56020 78082 888// 22265 0//// 20504 31907 40604 50402 6//// 80270 ICE /////
BBXX SBLI 25001 99320 11406 43/98 72913 10121 40222 53019 22263 00207 2//// 4//// NNNN 426621110
BBXX DGTX 25003 99336 11352 41698 53330 10065 21021 40170 52020 70211 852// 22274 00200 20606 332// 40605 80030
BBXX DGBE 25003 99363 11480 41/95 82823 10108 20084 40055 55027 71798 8/7// 22214 29903 311// 40705 80095
BBXX MTFH5 25003 99096 11096 41496 60130 10250 20191 40125 54000 7//22 84292 22245 20404 319// 41010 5//// 80210
BBXX DGDD 25001 99338 11645 41296 82509 10195 20164 40085 51010 75165 887// 22224 00200 20902 324// 40706 5//// 80175
BBXX DGXS 25004 99358 11322 41298 73128 10035 21001 40195 57017 77072 8/77/ 22214 29905 302// 4//// 5//// 80020
BBXX UFLC 25000 99432 11345 42697 53409 11154 40126 57012 82844 22212 06024 20402
BBXX IDDUK02 25004 99517 50578 46/// ///// 40065 222//
BBXX 2BLY5 25003 99342 50531 41698 51711 10185 20090 40230 54000 7//11 8/184 22253 00216 20301 80135
BBXX WHKM 25004 99064 10610 41998 00210 10250 20236 40120 54/// 7//00 8//// 22233 0//// 20301 303// 40603 5//// 6//// 80240 ICE /////
BBXX C6VR5 25003 99292 70301 41296 71121 10210 20178 40269 51024 70222 8/7// 22224 04221 20805 309// 41205 80190
BBXX ZCBZ5 25003 99241 10631 41598 02908 10246 20138 40162 54000 70200 81105 02230 2//// 332// 40301 5//// 80170
BBXX WDF9323 25003 99083 71767 41498 50424 10280 2024/ 40070 5//// 703// 8247/ 22211 0//// 29907 399// 4//07 5//// 6//// 80250 ICE /////
BBXX PCBZ 25004 99162 71161 41/98 72124 10232 20184 40139 55002 70222 85770 22223 00245 20302 305// 40503 80200 90749
BBXX 46204 25001 99514 71288 46/// /1214 10093 40128 57018 22200 00084 11107 70035 333 91218
BBXX 46131 25001 99499 71250 46/// /1211 1//// 40251 57011 22200 00077 10603 70014 333 91214
BBXX 46183 25001 99536 71311 46/// /1703 10080 40065 52003 22200 00081 10805 70026 333 91205
BBXX BAREU04 25004 99413 70675 46/// ///// 40290 52034 22252
BBXX 46147 25001 99518 71312 46/// /2604 10079 40086 57004 22200 00076 11107 70037 333 91206
BBXX OZDL2 25000 99459 71686 41296 81216 10078 20072 49871 57032 76362 8/7// 22224 00080 20806 314// 41108 80075
BBXX SHIP 25004 99519 71496 41598 63225 10030 21036 40055 51005 70322 8671/ 90000 22224 00050 20505 332// 40606 80005
BBXX 46114 25001 99364 71222 46/// ///// 1//// 90004 22200 00127 11407 21002 329// 41407 70036
BBXX 51205 25001 99210 71564 46/// ///// 1//// 90018 22200 00236 10905 20905 304// 41102 70026
BBXX 44098 25001 99428 70702 46/// ///// 1//// 90007 22200 00087 10602 20602 70010
BBXX 41115 25001 99184 70673 46/// ///// 1//// 90005 22200 11102 20702 70008
BBXX 42362 25001 99278 70907 46/// /0811 10217 20189 40224 53010 90000
BBXX 42364 25001 99291 70881 46/// /0907 10183 20156 40247 90015
BBXX 41114 25001 99276 70802 46/// ///// 1//// 90016 22200 00246 11101 21001 70007
BBXX 42362 25001 99278 70907 46/// /0811 10217 20189 40224 90015
BBXX 41029 25001 99328 70796 46/// /0806 10140 90000 555 11088 22106
BBXX 46221 25001 99339 71186 46/// ///// 1//// 92345 22200 00154 11701 21001 325// 41701 70007
BBXX 46211 25001 99469 71242 46/// ///// 1//// 90006 22200 00083 11406 21004 327// 41404 70029
BBXX 46242 25001 99332 71174 46/// ///// 1//// 92358 22200 00145 11501 20601 321// 41501 70007
BBXX 46231 25001 99327 71174 46/// ///// 1//// 92354 22200 00149 11802 21001 328// 41802 70011
BBXX 46222 25001 99336 71183 46/// ///// 1//// 92356 22200 00150 11702 21001 326// 41702 70011
BBXX 46223 25001 99335 71178 46/// ///// 1//// 90000 22200 00155 11702 20901 327// 41701 70008
BBXX 46216 25001 99343 71198 46/// ///// 1//// 92357 22200 00147 11402 21001 326// 41402 70010
BBXX 46212 25001 99408 71243 46/// ///// 1//// 90012 22200 00098 11306 21003 330// 41305 70029
BBXX 46217 25001 99342 71194 46/// ///// 1//// 90012 22200 00146 11702 21001 326// 41701 70008
BBXX 46240 25001 99366 71219 46/// ///// 1//// 90012 22200 00124 11202 21001 335// 41202 70011
BBXX 46237 25001 99378 71226 46/// ///// 1//// 90010 22200 00109 11506 21002 324// 41505 70028
BBXX 46241 25001 99330 71173 46/// ///// 1//// 92341 22200 00145 11802 20401 326// 41801 70008
BBXX 46244 25001 99409 71244 46/// ///// 1//// 90005 22200 00094 11405 20903 329// 41404 70026
BBXX 46248 25001 99461 71247 46/// ///// 1//// 90004 22200 00095 11406 21004 328// 41404 70029
BBXX 46249 25001 99338 71197 46/// ///// 1//// 90010 22200 00151 11703 21001 325// 41702 70013
BBXX SKOZ 25004 99522 70468 43/98 63026 10021 49957 53076 22214 00069 2//// 4////
BBXX ELQQ4 25003 99339 70750 43/// 63009 10160 2//// 40240 54000 7//// 8//// 22254 00230 2//// 3//// 4//// 5//// 6//// ICE /////
BBXX WAHP 25004 99390 70523 41/// /3619 10160 20144 40280 54000 702// 8//// 22274 00210 20704 327// 40904 5//// 6//// 80150 ICE /////
BBXX WADN 25003 99324 70376 41497 51017 10200 2017/ 40250 52005 70200 8482/ 22223 0//// 20401 315// 40604 5//// 6//// 80180 ICE//
BBXX 9HA2583 25004 99403 70737 41898 60513 1//// 2//// 40310 54/// 7//// 84175 22232 04109 2//// 3//// 4//// 5//// 6//// 8//// ICE /////
BBXX 46207 25001 99509 71299 46/// /1912 10095 40116 57015 22200 00082 11207 70033 333 91215
BBXX 41052 25001 99183 70648 46/// /0709 10266 40168 92350 333 91211
BBXX 41052 25001 99183 70648 46/// /0609 10264 40166 92340 333 91211
BBXX SHIP 25004 99122 31283 41497 52315 10319 20308 40027 52027 70322 85202 22232 00285 10602 20502 323// 40502 80310
BBXX DDPH 25004 99343 31528 41998 10217 10220 20186 40130 54000 70100 8///3 22263 04241 20403 80197
BBXX AVMI 25003 99330 31517 41398 60912 10250 20/// 40214 55002 70311 84221 22200 00220
BBXX PCBU 25003 99113 31504 41698 39904 10300 20239 40070 53012 70100 82145 22223 02302 20000 322// 40602 80255
BBXX MGRH9 25004 99344 31660 41298 31029 10205 20146 40188 58/// 70311 83750 22273 04180 20404 308// 40804 5//// 80170
BBXX PFBF 25003 99139 31694 41698 40603 10296 20198 40068 50010 70211 83281 22233 02301 2//00 330// 4//06 5//// 80228
BBXX 62163 25004 99475 70084 46/// /2416 10111 20055 40356 57007 22200 00126 10806 70031
BBXX 62001 25004 99453 70050 46/// /0803 10112 20021 40378 57004 22200 00140 10805 70025
BBXX 62103 25004 99499 70029 46/98 /2527 10116 20078 40310 52003 22200 00120 10704 70019 333 90710 91139
BBXX 62094 25004 99517 70067 46/// /2424 10112 20093 40258 58002 22200 00107 10606 70030 333 90710 91133
BBXX 62303 25004 99516 70051 46/// /2521 10115 20090 40264 51003 22200 00111 10608 70038 333 90710 91129
BBXX PENR 25003 99351 70310 41/97 81616 10180 20131 40308 57/// 70222 8//// 22254 2//// 80152
BBXX 62095 25004 99531 70159 46/// /2224 10120 20106 40142 57017 22200 00113 10811 70057 333 90710 91135
BBXX 62107 25004 99501 70061 46/// /2425 10111 20086 40311 53003 22200 00116 10806 70028 333 90710 91133
BBXX 62103 25004 99499 70029 46/98 /2631 10114 20078 40302 57008 22200 00120 10704 70019 333 90710 91137
BBXX 62001 25004 99453 70050 46/// /0803 10112 20021 40378 57004 22200 00140 10905 70025
BBXX DIHE 25004 99477 70157 41/97 /2223 10120 20111 40310 54000 75022 8//// 22224 00130 2//// 80115
BBXX PDBP 25003 99304 70241 41/98 /0916 10210 20128 40291 58010 700// 8//// 22224 04215 20401 305// 40903 80160
BBXX E5U2123 25003 99384 70123 41498 30321 10146 20106 40315 52007 70200 8310/ 22283 00170 20705 399// 4//// 5//// 80125
BBXX 62122 25004 99573 10016 47997 /2526 10097 20070 40100 53011 700// 22200 10708 70039
BBXX 62104 25004 99574 10013 47997 /2622 10099 20072 40085 53015 700// 22200
BBXX 62140 25004 99573 10013 46/// /26// 10096 20070 40085 53013 22200
BBXX 62146 25004 99572 10021 47/97 /2523 10094 20070 40103 53007 700// 22200 10708 70040
BBXX 62164 25004 99572 10008 469// /2416 10103 20075 40099 52016 22200 00093 10708 70038
BBXX 62153 25004 99573 10020 47997 /2516 10095 20072 40089 52011 700// 22200 10708 70041
BBXX 62118 25004 99577 10009 47997 /2525 10105 20049 40077 52019 700// 22200 10706 70032
BBXX 62155 25004 99577 10007 47797 /2629 10098 20054 40093 52022 700// 22200 10707 70034
BBXX 62116 25004 99576 10011 47797 /2626 10096 20058 40080 52017 700// 22200 10607 70033
BBXX 62134 25004 99580 10014 47597 /2624 10095 20064 40077 52018 700// 22200 10707 70034
BBXX 62143 25004 99577 10018 47797 /2727 10097 20065 40094 52021 700// 22200 10707 70037
BBXX 62114 25004 99583 10000 46/// /2528 10090 20029 40061 53018 22200
BBXX 62102 25004 99579 10018 46/// /2722 10100 20069 40074 52016 22200 10707 70035
BBXX 62117 25004 99579 10000 47797 /2623 10091 20055 40080 52024 700// 22200 10706 70029
BBXX 62113 25004 99584 10002 47897 /2525 10089 20032 40074 52024 700// 22200
BBXX ZQSD5 25004 99583 10007 46/// /2625 10092 20041 40067 52024 22200 10909 70044
BBXX 62144 25004 99534 10017 47797 /2326 10078 20058 40223 57001 700// 22200 10403 70016
BBXX 62121 25004 99535 10027 46/// ///// 22200
BBXX 62145 25004 99531 10028 47897 /2222 10080 20049 40227 55002 751// 22200 10504 70021
BBXX 62142 25004 99530 10021 47696 /2424 10077 20056 40226 56003 752// 22200 10403 70015
BBXX 62150 25004 99536 10007 47998 /2222 10082 20058 40214 50000 700// 22200 10402 70009
BBXX 62149 25004 99537 10011 47998 /2125 10077 20065 40204 58001 700// 22200 10403 70015
BBXX 62131 25004 99539 10012 46/// /21// 10081 20064 40197 58001 22200
BBXX 62148 25004 99536 10015 46/// ///// 22200
BBXX 62132 25004 99564 10020 46/// /2620 10097 20073 40111 53004 22200
BBXX 62165 25004 99540 10009 47998 /2321 10084 20059 40197 50002 700// 22200 10503 70017
BBXX 62127 25004 99540 10007 47998 ///// 10086 20060 40196 50001 700// 22200 10402 70012
BBXX 62123 25004 99563 10022 47997 /2430 10098 20072 40111 53005 700// 22200
BBXX 62120 25004 99564 10021 47997 /2632 10093 20086 40109 53006 700// 22200
BBXX 46111 25001 99481 71227 46/// /2703 10090 40273 54000 90000 22200 00054
BBXX 46112 25001 99481 71227 46/// /1302 10109 40271 58005 90000
BBXX 41052 25001 99183 70648 46/// /0709 10266 40168 53011 90000 22200 00271 333 91211
BBXX 44033 25001 99441 70690 46/30 /0108 11075 40335 51017 90004 22200 00063 10301 70005 333 91210 555 11091 22094
BBXX 44034 25001 99441 70681 46/20 /3608 11090 40330 53019 90004 22200 00081 10502 70012 333 91211 555 11098 22102
BBXX C6VG7 25004 99239 70815 415// 41120 10240 2//// 40210 5/010 7//11 84/8/ 22214 0//// 20602 3//// 40602 50602 6//// 8//// ICE /////
BBXX 3EMK6 25004 99266 70925 41/// /1108 10235 20221 40222 51/// 7//// 8//// 22200 00228 20402 304// 40504 5//// 6//// 80225 ICE /////
BBXX 62154 25004 99564 10022 46/// /2528 10093 20075 40113 53004 22200
BBXX 62152 25004 99570 10018 47/97 /2319 10096 20067 40111 53011 700// 22200 10709 70046
BBXX 62133 25004 99571 10009 46/// /2426 10096 20065 40094 53014 22200 10607 70033
BBXX 62119 25004 99570 10019 47497 /2632 10097 20071 40113 53016 700// 22200 10708 70039
BBXX MWYG6 25004 99603 70040 47997 /2627 10091 700// 22200
BBXX 64041 25004 99607 70026 47496 /2437 10068 20012 49950 53024 700// 22200 11115 70075
BBXX PJGO 25004 99571 10022 47997 /2428 10096 20077 40101 53009 700// 22200
BBXX 63115 25004 99616 10013 47697 /2436 10074 20006 49918 52012 700// 22200 10916 70079
BBXX 63104 25004 99612 10016 47597 /2534 10079 20017 49926 51010 704// 22200
BBXX 63103 25004 99612 10011 46/// /2740 10080 20004 49953 52016 22200 10913 70067
BBXX 63117 25004 99613 10011 47697 /2638 10118 21007 49932 52011 700// 22200
BBXX 63101 25004 99612 10009 46/// /2837 10080 20018 49923 52009 22200
BBXX 63113 25004 99610 10017 46/// /2630 10076 20024 49969 52011 22200 10813 70063
BBXX 63105 25004 99610 10017 47596 ///// 10075 20026 49946 53013 700// 22200
BBXX 63107 25004 99611 10017 46/// /2534 10075 49942 52011 22200
BBXX 63112 25004 99611 10010 47496 /2739 10084 20004 49935 52014 740// 22200 10913 70063
BBXX 63108 25004 99608 10017 47997 /2733 10069 20013 49970 52016 700// 22200 10911 70055
BBXX 63055 25004 99606 10016 47997 /2728 10076 20029 49985 52017 700// 22200 10709 70045
BBXX 62112 25004 99584 70002 47797 /2820 10087 20033 40062 52019 700// 22200
BBXX 63106 25004 99610 10017 46/// /2532 10073 49945 53012 22200
BBXX 62129 25004 99584 10003 46/// ///// 10089 20033 40073 52025 22200
BBXX 63056 25004 99597 10016 47697 /2532 10082 20036 49994 52014 700// 22200 10809 70043
BBXX 62128 25004 99587 10014 47597 /2528 10086 20038 40048 52020 700// 22200 10708 70040
BBXX PJAI 25004 99581 70014 47997 /2518 10088 20032 40068 53014 700// 22200
BBXX 62111 25004 99580 70003 46/// /2822 10088 20041 40089 52023 22200 10606 70029
BBXX 63110 25004 99595 10015 47697 /2629 10090 20037 40012 52016 700// 22200 10810 70048
BBXX 63057 25004 99592 10015 47496 /2633 10080 20025 40028 52018 700// 22200 10810 70050
BBXX 62105 25004 99554 70122 46/// /2213 10103 20096 40098 58016 22200 00107 11013 70064 333 90710 91126
BBXX 62304 25004 99511 10018 46/98 /2531 10101 20067 40279 56010 22200 00109 10503 70013 333 90710 91138
BBXX 64045 25004 99591 70117 46/// /2629 10067 20035 49998 52010 22200 00100 11220 70098 333 90710 91145
BBXX 62170 25004 99514 10020 46/97 /2428 10096 20073 40274 57008 22200 00106 10602 70012 333 90710 91136
BBXX 62081 25004 99510 70134 46/// ///// 10121 20112 40240 58009 22200 00121 10810 70048
BBXX 62305 25004 99504 10000 46/98 /2629 10113 20080 40301 57009 22200 00118 10703 70014 333 90710 91138
BBXX 62105 25004 99554 70122 46/// /2213 10106 20100 40098 58016 22200 00107 11013 70064 333 90710 91126
BBXX 62442 25004 99490 70164 46/// /2125 1//// 2//// 40270 57013 22200 00126 333 90710 91136
BBXX 62029 25004 99487 70125 46/// /2320 10124 20089 40312 57004 22200 00129 10808 70041 333 90710 91128
BBXX 2AUO5 25003 99607 10017 41397 52548 10076 20014 49965 51022 72566 8/7// 22261 20809 325// 41012 80051
BBXX 62301 25004 99524 70047 46/// /2420 10101 20084 40238 50003 22200 00084 10606 70028 333 90710 91128
BBXX 64046 25004 99606 70049 46/// /2643 10077 20023 49952 52024 22200 00079 11224 70118
BBXX 62303 25004 99516 70051 46/// /2521 10115 20090 40264 51003 22200 00111 10707 70035 333 90710 91129
BBXX 62123 25004 99563 10022 41/96 /2429 10098 40139 53002 70222 8//// 22200 20301 325// 40610 5////
BBXX PBEO 25003 99531 10044 41/97 /2411 10114 20076 40233 56019 700// 8//// 22212 02074 20503 30000 80094
BBXX DANM 25004 99400 70220 41597 71009 10155 20112 40350 54000 70311 8657/ 22265 00150 20301 80130
BBXX DGPT2 25004 99340 70157 41597 81314 10170 20119 40290 54000 70222 881// 22213 00180 20604 80140
BBXX 61002 25004 99421 10047 46/// ///37 10109 2//// 40274 52002 22200 00138 10810 70048 555 1/050
BBXX PHQX 25003 99429 70150 41597 50000 10110 20050 40370 70222 83175 22264 2//00 3//// 4//// 5//// 80080
BBXX BATUK01 25004 99560 70032 46/// /2605 10094 20050 40122 53015 22200 00055
BBXX BATFR20 25004 99431 10087 46/// ///// 10130 20007 40202 51008 22263
BBXX PCEO 25003 99504 10004 41/97 82512 10102 20059 40282 58004 76166 8//// 22264 04115 20802 3//// 4//// 5//// 80080
BBXX BATEU04 25004 99629 70214 46/// /2626 10017 21022 4//// 22261
BBXX BAREU62 25004 99390 10261 46/// ///// 40215 57005 22234
BBXX BATFR09 25004 99362 70035 46/// /0925 10157 20110 40290 50002 22223 00172
BBXX BATFR14 25004 99481 70091 44/98 82517 10119 20072 40344 56014 70022 8//// 22214 00132 331// 41204 5////
BBXX BATEU05 25004 99584 70012 46/// /2532 10087 40050 52020 22222
BBXX BATFR21 25004 99438 10083 46/// /0027 20140 40245 51022 222//
BBXX BATFR46 25004 99384 10001 44996 20012 10142 20077 40314 50/// 70111 82122 22253 00169 20510
BBXX BAREU06 25004 99402 70256 46/// ///// 40339 52004 22224
BBXX BATFR32 25004 99426 10082 46/// /0721 10134 21010 4//// 5//// 7//// 8//// 22283 00154
BBXX 61001 25004 99434 10078 46/// /0426 10138 20015 40230 52016 22200 00146 10705 70024 555 1/032
BBXX BATFR01 25004 99395 10137 46/// /2718 10140 20087 40115 58018 22271 00162
BBXX BATFR60 25004 99500 70018 46/// /2525 10114 20077 40311 55007 22222 00112
BBXX BATFR31 25004 99426 10074 46/// /0115 10130 20124 40232 53044 22283 00147
BBXX LF3F 25004 99643 10078 43/// /2339 10067 20009 49824 52004 22200 04092 10914 70071 333 91151
BBXX 3ERR2 25004 99635 10053 43/// /2440 10073 20008 49833 52012 22200 11013 70063 333 91166
BBXX LF5T 25004 99660 10081 43/// /2532 10058 20025 49743 52003 22200 11013 70065 333 91153
BBXX LF3N 25004 99653 10073 41497 62434 10057 20003 49760 57005 72582 869// 22200 00092 10913 70063
BBXX LF4C 25004 99584 10019 43/// /2732 10093 20032 40055 52012 22200 10707 70034 333 91138
BBXX LF4B 25004 99606 10037 47/97 /2632 10083 49993 52017 700// 22200 00066 10810 70052 333 91141
BBXX DGZL 25003 99389 70098 41/98 10614 10135 20099 40300 51005 70000 8//// 22284 00150 2//// 80115
BBXX A8IN9 25003 99467 70119 41/97 /2519 10128 20063 40352 57007 70022 8//// 22214 06140 20303 329// 41206 5//// 80097
BBXX UITJ 25001 99599 10040 41498 52424 10100 40010 52014 70222 85700 22242 00090 21112
BBXX A8NO8 25004 99373 10043 41/98 50223 10130 20074 40300 52020 7//11 8/2// 22265 04180 20409 80100
AAXX 25004 63791 32580 50803 10216 20194 39126 48503 85500 333 55300 59006 85621
AAXX 25004 63729 NIL
AAXX 25004 63733 NIL
AAXX 25004 63756 NIL
AAXX 25004 63801 NIL
AAXX 25004 63832 NIL
AAXX 25004 63862 NIL
AAXX 25004 63866 NIL
AAXX 25004 63870 NIL
AAXX 25004 63881 NIL
AAXX 25004 63887 NIL
AAXX 25004 63894 NIL
AAXX 25004 63932 NIL
AAXX 25004 63962 NIL
AAXX 25004 63971 NIL
BBXX 46185 25001 99524 71298 46/// /1812 10089 40088 57015 22200 00074 10908 70038 333 91214
BBXX DDSC2 25003 99450 70185 41298 82026 10130 20121 40335 57/// 70222 886// 22264 00133 21006 330// 40907 80125
BBXX 46185 25001 99524 71298 46/// /1812 10089 40088 57015 22200 00074 10908 70038 333 91214
AAXX 25001 55299 32980 00000 11179 21288 35838 52003 333 00100
AAXX 25001 55591 32980 00902 11057 21209 36505 52008 333 00352
AAXX 25001 56739 32580 63603 10079 20059 38358 52001 86400 333 05103 30040
AAXX 25001 56951 32670 71401 10081 20069 38522 52009 83402 333 00002 30048
AAXX 25001 56964 32565 81102 10111 20085 38739 40195 52009 884// 333 00153
AAXX 25001 57328 31020 80201 10045 20024 39881 40307 52006 71000 885// 333 05203 30041
AAXX 25001 57411 31956 83601 10054 20037 39922 40306 52005 71000 8807/ 333 05204 30050
AAXX 25001 57447 31956 82901 10036 20030 39764 40329 52011 71000 8807/ 333 05102 30040
AAXX 25001 57662 32962 70000 10042 21020 30279 40324 52011 8704/ 333 05103 30005
AAXX 25001 57745 32960 70701 10040 20009 39979 40319 52011 8704/ 333 05206 30025
AAXX 25001 57972 32962 10000 10006 21021 30093 40329 52014 81040 333 00152 31028
AAXX 25001 58203 32960 60000 11047 21079 30293 40337 52017 80002 333 00252
AAXX 25001 58314 32965 62701 11029 21033 30223 40336 52015 86040 333 00202 31017
AAXX 25001 58424 32960 71101 10015 21017 30312 40339 52014 8704/ 333 00201 31041
AAXX 25001 59023 32862 72501 10085 20033 39970 40289 52009 875// 333 05200
AAXX 25001 59417 31320 22501 10035 20026 30121 40282 52015 71000 81602 333 05156 30033
AAXX 25001 59985 32578 70406 10213 20158 30185 40190 52017 878// 333 00100
AAXX 25001 59995 NIL
AAXX 25004 42314 31493 40000 10094 20086 40145 74644 81530 333 58006 81618 84360
AAXX 25004 42398 31996 09901 10075 20075 40130 71000 333 58002
AAXX 25004 42706 31995 03202 10108 20056 40129 70500 333 58002
AAXX 25004 42809 31994 50000 10122 20107 40130 71022 80001 333 58003 85075
AAXX 25004 42309 NIL
AAXX 25004 42410 NIL
AAXX 25004 42415 NIL
AAXX 25004 42492 NIL
AAXX 25004 42587 NIL
AAXX 25004 42591 NIL
AAXX 25004 42623 NIL
AAXX 25004 42701 NIL
AAXX 25004 42724 NIL
AAXX 25004 42798 NIL
AAXX 25004 42886 NIL
AAXX 25004 42895 NIL
AAXX 25004 42971 NIL
AAXX 25004 42977 NIL
AAXX 25004 43333 NIL
AAXX 25004 43368 NIL
AAXX 25004 71893 11274 81422 10078 20064 30222 40254 58009 60011 70162 88600 333 10082 20064 70070 90922
AAXX 25001 24688 31997 00000 11525 21551 39487 40630 54000 70400 333 21532 47018 55015
AAXX 25004 71893 11274 81422 10078 20064 30222 40254 58009 60011 70162 88600 333 10082 20064 70070 90922
AAXX 25001 24790 20000 11481 21505 39260 40550 53004 77670 80001 333 11470
AAXX 25001 24988 32999 02901 11292 21322 30058 40340 57003 333 21308 43005
AAXX 25001 25378 42698 73207 11141 21223 30266 40301 58001 85550 333 91114
AAXX 25001 25503 11699 61101 11391 21411 30313 40463 58001 69900 70371 83530 333 21414 47025 55000
AAXX 25001 25705 11998 82201 11371 21395 30060 40444 58010 69930 77172 86037 333 21396 47067 55000
AAXX 25001 25927 32698 73404 11228 21228 30289 40297 57006 87500 333 21248 42015 55050
AAXX 25001 25932 32699 50502 11117 21137 30214 40253 58009 85900 333 21217 42014 55025
AAXX 25001 31152 32998 60000 11390 21418 39938 40408 54000 82032 333 21390 47031 55000
AAXX 25001 31174 11995 80308 11105 21111 30249 40261 53008 69920 77173 8802/ 333 21247
AAXX 25001 31489 11597 83205 11121 21148 30075 40197 52014 69940 77172 8802/ 333 21128 47029 91010 91113
AAXX 25001 31866 31997 83110 11115 21177 39994 49999 53009 72273 8802/ 333 21124 48018 91016 91117
AAXX 25001 31959 11598 52307 11154 21224 30019 40064 52003 69900 70331 85500 333 21172 46997 91015 91122
AAXX 25001 31989 32999 53605 11126 21237 30051 40108 52005 81049 333 21162 41998 91013 91118
AAXX 25001 32027 11598 80209 11058 21073 30104 40113 53006 69960 73683 889// 333 21063 48022 91011 91113
AAXX 25001 32076 11410 83606 11026 21039 39990 40000 53003 60130 78683 889// 333 21027 47076 91013 91115
AAXX 25001 32099 12598 60702 11015 21026 39934 49942 52011 60010 83930 333 21017 48012 91003 91108
AAXX 25001 32121 11597 80405 11008 21043 39913 49935 52023 69970 78582 889// 333 21017 47021 91010 91111
AAXX 25001 32213 11395 80919 10000 21003 39934 49996 57012 60010 77573 8872/ 333 21012 44018 55000 91023 91123 92982
AAXX 25001 32287 32999 70304 11178 21212 30183 40194 58009 82038 333 21211 47069 55060
AAXX 25001 32408 11395 80208 11098 21119 30192 40232 57003 69950 78683 889// 333 21233 48086 55035 91012 91112 92982
AAXX 25001 32509 11599 80416 11022 21061 30131 40165 57005 60010 73783 885// 333 21059 44024 55015 91020 91122 92980
AAXX 25001 32594 11494 80911 10000 21008 39979 40015 57004 60020 78683 889// 333 21029 44008 55/// 91015 91123
AAXX 25001 48826 31756 60502 10098 20050 30112 40254 53013 71022 82508 333 00008 20098 3/008 58004 82697 8629 9
AAXX 25001 48839 32497 70505 10149 20050 30179 40247 53013 82108 222// 00180 2//01 333 00/// 20149 58001 8189 4 87299
AAXX 25001 48808 32670 70000 10045 20038 39979 40283 52014 83508 333 00005 20043 3/005 59008 83696 87299
AAXX 25001 48830 32960 20000 10024 20020 39950 40288 52015 80001 333 00004 20020 3/003 58000 82099 92600 9612 6
AAXX 25001 48806 32960 60000 10067 20052 39458 40274 52015 80008 333 00006 20065 3/005 58011 86299
AAXX 25004 06670 32570 11302 11007 21018 39835 40373 52003 81500 333 55300 20000 81621 91111 91207
AAXX 25004 06700 32982 02301 11020 21048 39849 40370 53001 333 55300 20000 91106 91203
AAXX 25004 06680 03/// /2607 11128 21129 37555 47073 57001 69931 333 55300 20000 69915 91123 91213
AAXX 25004 06990 31450 80000 11016 21016 39796 40373 52004 76022 887// 333 55300 20000 88712 91108 91203
AAXX 25004 06760 33/// /0606 10070 21123 39820 40275 50006 333 55300 20000 91114 91206
AAXX 25004 06720 32970 0//// 11027 21040 39762 40371 52003 333 55300 20000
AAXX 25001 47008 32970 03204 11117 21241 30182 40239 53011 333 21135
AAXX 25001 47014 32950 00000 11253 21270 39880 40332 52018 333 21257
AAXX 25001 47016 31570 10000 11235 21267 39382 40306 52025 70341 81500 333 21247
AAXX 25001 47020 32965 00000 11202 21221 39926 40286 52018 333 21205
AAXX 25001 47025 32968 02903 11099 21240 30202 40233 52019 333 21110
AAXX 25001 47035 32970 03202 11123 21201 30316 40326 52016 333 21125
AAXX 25001 47041 32965 03202 11113 21197 30216 40245 52010 333 21158
AAXX 25001 47055 32970 02301 11078 21157 30219 40267 53012 333 21086
AAXX 25001 47058 32962 03202 11112 21208 30267 40318 52015 333 21120
AAXX 25001 47069 32965 03608 11062 21168 30194 40299 53016 333 21090
AAXX 25001 47101 12975 00201 11135 21173 30194 40298 52016 69902 333 21151 3/111 42///
AAXX 25001 47105 369// /2706 11048 21233 30215 40249 52016 333 21074 3/102
AAXX 25001 47108 12970 02707 11089 21229 30193 40306 52027 69902 333 21095 3/107 45///
AAXX 25001 47115 11510 72906 11034 21073 39924 40207 52012 60032 78588 87800 333 21040 3/000 48009 92042
AAXX 25001 47133 12970 00001 11061 21108 30225 40315 52025 69902 333 21096 3/103 48001
AAXX 25001 47138 32970 01803 11037 21173 30264 40267 52021 333 21052 30004 92032
AAXX 25001 47159 32980 02707 11017 21174 30186 40275 52018 333 21041 30103 92023
AAXX 25001 47165 12670 30504 11019 21076 30258 40307 52021 60012 83500 333 21039 3/001 43004 92022
AAXX 25001 47168 12970 03416 11027 21157 30210 40293 52025 69902 333 21032 30102 92025
AAXX 25001 47184 12570 73616 10032 21027 30271 40297 52020 60032 87800 333 20020 31003 92054
AAXX 25004 06610 32975 21301 11022 21030 39762 40380 52001 80001 333 55300 20000 82068 91105 91203
BBXX ZMFR 25004 99413 31748 43/// /2011 10174 20117 40224 54000 22200 00163
AAXX 25001 47003 32980 03208 11148 21241 30222 40226 52006 333 21161
AAXX 25001 47005 32980 00000 11291 21315 38542 58006 333 21295
AAXX 25001 47022 32975 03602 11212 21260 38792 53005 333 21239
AAXX 25001 47028 32965 00000 11149 21183 30216 40318 52009 333 21163
AAXX 25001 47031 32970 03402 11207 21247 38914 52014 333 21220
AAXX 25001 47037 32970 03402 11114 21210 30175 40307 53008 333 21145
AAXX 25001 47039 32960 00000 11176 21202 30112 40322 52015 333 21182
AAXX 25001 47046 32969 00000 11116 21188 30210 40234 52016 333 21125
AAXX 25001 47050 32965 00000 11138 21209 30277 40314 52012 333 21145
AAXX 25001 47052 32965 00000 11144 21164 39933 40300 52012 333 21166
AAXX 25001 47060 42960 00000 11111 21207 30253 40315 52024 333 21112
AAXX 25001 47061 32980 03205 11056 21163 30194 40240 52015 333 21070
AAXX 25001 47065 32970 03201 11128 21189 30251 40321 52027 333 21128
AAXX 25001 47067 32970 03202 11108 21192 30191 40320 52016 333 21115
AAXX 25001 47068 32970 00000 11128 21180 30265 40303 53013 333 21128
AAXX 25001 47070 32970 02903 11094 21200 30209 40302 52015 333 21102
AAXX 25001 47075 32980 02303 11133 21194 39768 40226 52021 333 21151
AAXX 25001 47090 32975 02907 11053 21248 30225 40248 52017 333 21064 3/107 42/// 92033
AAXX 25001 47095 12970 00000 11135 21178 30099 40305 52017 69902 333 21165 3/110 46///
AAXX 25001 47097 329// /2303 11080 21178 30200 40303 52025 333 21121 3/107
AAXX 25001 47098 129// /2001 11100 21151 30156 40300 52021 69902 333 21136 3/105
AAXX 25001 47099 129// /1802 11106 21164 30268 40307 52023 69902 333 21148 3/105
AAXX 25001 47100 12970 02510 11133 21235 39292 40274 52010 69902 333 21153 3/108 49026
AAXX 25001 47102 12670 60707 11062 21113 30126 40315 52021 69902 86500 333 21064 3/000 42007
AAXX 25001 47104 32975 02909 11045 21253 30145 40247 52019 333 21090 3/105 43002
AAXX 25001 47106 329// /2910 11047 21237 30186 40238 53010 333 21065 3/104
AAXX 25001 47112 12970 03411 11068 21211 30218 40307 52029 69902 333 21075 3/101 43001 92024
AAXX 25001 47114 12970 01401 11079 21177 30104 40298 52018 69902 333 21120 3/107 45///
AAXX 25001 47119 32970 02703 11074 21187 30264 40309 52029 333 21098 3/103 43003
AAXX 25001 47121 329// /0001 11106 21164 39982 40298 52021 333 21134 3/108
AAXX 25001 47127 329// /0001 11114 21163 30156 40309 52022 333 21130 3/105
AAXX 25001 47129 12975 00703 11042 21126 30280 40318 52025 69902 333 21078 3/104 43002
AAXX 25001 47130 32975 02706 11031 21218 30180 40244 52012 333 21075 30103 92032
AAXX 25001 47131 12970 02903 11057 21190 30237 40312 52027 69902 333 21072 3/103 48001
AAXX 25001 47135 129// /2711 11068 21184 39986 40303 52020 69902 333 21078 3/105
AAXX 25001 47136 12970 02909 11056 21197 30095 40276 52015 69902 333 21085 30106
AAXX 25001 47137 329// /2708 11064 21204 30170 40295 52021 333 21075 3/106
AAXX 25001 47140 12970 00000 11043 21085 30284 40314 52023 60022 333 21082 3/001 43003 92020
AAXX 25001 47143 32972 02710 11038 21196 30213 40296 52024 333 21051 30103
AAXX 25001 47145 12970 03209 11047 21192 30277 40305 52028 69902 333 21093 3/102 47004
AAXX 25001 47146 12970 00001 11056 21091 30248 40318 52027 69902 333 21078 3/101 44001
AAXX 25001 47150 12970 00703 11041 21130 30291 40311 52026 69922 333 21070 3/104 46///
AAXX 25001 47152 32973 02907 11027 21179 30223 40268 52017 333 21048 30103
AAXX 25001 47154 329// /2910 11045 21176 30230 40294 52025 333 21060 3/105
AAXX 25001 47155 32970 00508 11021 21190 30236 40284 52018 333 21050 30102
AAXX 25001 47156 12975 00506 11043 21095 30217 40311 52018 69952 333 21059 3/000 43003
AAXX 25001 47157 12975 00705 11048 21182 39999 40283 52023 69902 333 21070 34105
AAXX 25001 47162 32975 00506 11017 21155 30247 40289 52025 333 21029 30102 92022
AAXX 25001 47169 12675 33614 10022 21061 30201 40298 52019 69902 83500 333 20012 31001 92055
AAXX 25001 47170 12973 00203 11011 21104 30260 40305 52027 69922 80000 333 21025 3/101 41/// 92022
AAXX 25001 47171 129// /0000 11078 21098 30255 40314 52020 60022 333 21098 3/101
AAXX 25001 47172 129// /3605 11034 21102 30235 40305 52020 60032 333 21082 3/001
AAXX 25001 47173 329// /1601 11060 21092 30198 40316 52023 333 21101 3/103
AAXX 25001 47174 12970 02907 11042 21121 30090 40303 52022 69912 333 21055 3/103 42///
AAXX 25001 47175 11570 11105 11046 21057 39701 40302 52023 60042 72840 81500 333 21053 3/000 47006 92022
AAXX 25001 47185 12665 73222 10047 21038 30198 40291 52028 69972 87500 333 20037 31003 92056
AAXX 25001 47188 12670 60507 10026 21037 30270 40292 52025 60032 86500 333 20008 3/001 42/// 92033
AAXX 25001 47189 12670 60503 10033 21012 30228 40290 52023 69952 86500 333 20013 31003 92022
AAXX 25001 47192 12973 00905 11020 21165 30253 40292 52023 69902 333 21046 30103
AAXX 25004 61017 NIL
AAXX 25004 61024 NIL
AAXX 25004 61036 NIL
AAXX 25004 61043 32960 70610 10185 21068 39693 40134 80008 333 0//00 59004 87280
AAXX 25004 61045 NIL
AAXX 25004 61049 32960 70000 10165 21002 39816 40136 80008 333 0//00 58006 87280
AAXX 25004 61052 32960 20204 10187 20021 39873 40130 80002 333 0//00 59007 82080
AAXX 25004 61075 32960 51002 10211 21020 39818 40126 80002 333 0//00 59006 85080
AAXX 25004 61080 NIL
AAXX 25004 61090 32960 70610 10166 21050 39630 40140 80008 333 0//00 59002 87280
AAXX 25004 61091 NIL
AAXX 25004 61096 32960 70202 10170 21024 39758 40140 80008 333 0//00 59007 87280
AAXX 25004 61099 32960 73610 10215 20010 39881 40109 80008 333 0//00 59009 87280
BBXX ZMFR 25004 99413 31748 43/// /2011 10174 20117 40224 54000 22200 00163
BBXX 51171 25001 99064 71623 46/// ///// 1//// 92346 22200 00277
BBXX 51170 25001 99168 71695 46/// ///// 1//// 92348 22200 00258
BBXX 52243 25001 99193 11666 46/// ///// 1//// 92354 22200 00263
BBXX 51174 25001 99142 51697 46/// ///// 1//// 92354 22200 00292
BBXX 51169 25001 99004 51600 46/// ///// 1//// 92354 22200 00259
BBXX 51178 25001 99142 51695 46/// ///// 1//// 92357 22200 00287
AAXX 25004 89132 NIL
AAXX 25004 89542 46/// /1201 11055 20032 49805 52013
AAXX 25004 89575 NIL
AAXX 25004 89657 NIL
AAXX 25004 60661 36/// /3209 10079 21008
BBXX NIL
BBXX NIL
BBXX BATFR19 25004 99066 30057 46/// /1814 10239 20207 40131 58004 2228/ 00257
BBXX BATFR55 25004 99073 30405 44/97 00805 10284 20244 40103 70000 22222 00292 20802
BBXX ZCDE3 25003 99091 31002 41699 50812 10278 20253 40052 53002 70311 83444 22214 00290 20302 31719 40505 50404 80260
BBXX BATFR56 25004 99092 30738 46/// /1314 10269 20267 40077 56015 22213 00297
BBXX BATFR08 25004 99274 30649 46/// /0817 10222 20155 40202 57006 22273 00230
BBXX A8IQ2 25001 99275 30432 41798 71308 10245 20209 40160 54000 70311 8702/ 2225/ 21205 323// 41505 5//// 80220
BBXX A8KH9 25004 99328 30348 41/98 80520 10200 20153 40175 58005 70322 8471/ 22214 20604 32200 41206 5//// 80170
BBXX DBBT 25001 99339 30184 46/// /1408 10226 20131 40102 57014 22220 00161
BBXX TBWUK18 25004 99343 30157 41/98 11520 10194 20173 40157 57021 70211 80008 22222 00210 20303 3//// 4//// 5//// 80181
AAXX 25004 60679 36/// /0904 10000 21064
BBXX NIL
BBXX NIL
BBXX NIL
AAXX 25004 40250 NIL
AAXX 25004 40265 11558 72104 10086 20082 39363 40157 54000 60011 76062 87800 333 84825 84630
AAXX 25004 40296 32660 30000 10154 20056 40167 52003 83100 333 83830
AAXX 25004 40310 NIL
AAXX 25001 38734 415// 60702 11063 21090 37465 47060 54000 70382 84903
AAXX 25004 48647 11360 71001 10254 20241 30066 40091 60084 70562 82952 333 20250 50230 58003 70076 81707 81917 86364
AAXX 25001 23074 11997 81003 11180 21206 30118 40144 52007 60012 77172 8802/ 333 21182 47046
AAXX 25001 23274 11496 81603 11180 21199 30135 40173 53008 60012 78587 889// 333 21220 47048 55000 85710
AAXX 25001 23383 11897 80000 11338 21368 39854 40253 52009 69922 77172 83037 333 21380 47043
AAXX 25001 23472 11597 70903 11187 21213 30145 40197 52011 60012 77172 86506 333 21200 48059 55000
AAXX 25001 23678 329// 01001 11210 21235 30142 40204 52003 333 21213 47053
AAXX 25001 23884 119// 00000 11224 21242 30130 40209 52014 69942 70271 333 21226 47057 55000
AAXX 25001 23891 11996 80000 11303 21341 39885 52004 69932 77172 82036 333 21303 47054 55004
AAXX 25001 24507 119// 81202 11310 21334 39973 40244 53001 69932 77372 8807/ 333 21337 47025 55000
AAXX 25001 24817 319// 00000 11407 21433 39885 40315 57004 74000 333 21426 47035 55010
AAXX 25001 24908 11998 80502 11335 21372 39891 40265 57006 69902 77171 80007 333 21399 47039 55027
AAXX 25001 29263 11559 82302 11098 21119 30113 40217 53006 60022 78582 8395/ 333 21115 47046 55000
AAXX 25001 29282 11968 82701 11191 21210 30044 40226 52005 60012 77072 80007 333 21200 47037 55006
AAXX 25001 29379 11596 82502 11087 21111 30019 40233 54000 69972 78582 889// 333 21111 47033
AAXX 25001 29570 32896 72603 11050 21173 39891 40244 52001 87030 333 21054 47017
AAXX 25001 29698 125// 80000 11094 21105 39719 40248 53009 69902 889// 333 21102 47018 55///
AAXX 25001 30230 11997 80000 11301 21332 39936 40303 58006 69902 77172 82046 333 21303 47030 55000
AAXX 25001 30252 119// 50000 11387 21408 30047 40418 52006 69902 74874 80001 333 21387 47024 55001
AAXX 25001 30309 11996 82601 11112 21125 39688 40225 55000 60022 77172 8802/ 333 21195 47031 55004
AAXX 25001 30328 119// 83201 11254 21278 39843 40311 57014 69902 77072 8802/ 333 21307 47030 55000
AAXX 25001 30521 115// 81101 11230 21249 39751 40323 57008 69952 78582 86901 333 21296 47022 55000
AAXX 25001 30710 11997 61102 11117 21131 39686 40294 57004 69942 70282 86030 333 21119 47029 55000
AAXX 25001 23973 11999 81802 11170 21183 30143 40208 52014 69922 70272 80008 333 21170 47051
AAXX 25001 23975 119// 00000 11216 21234 30091 40209 52013 69992 70281 333 21217 47040 55000
AAXX 25001 23986 11999 81601 11184 21203 39544 40217 52005 60032 70272 8801/ 333 21189 47055
AAXX 25001 23987 11497 61302 11158 21177 30129 40206 52009 69962 78581 86900 333 21158 47043 55000
AAXX 25001 24606 118// 80901 11339 21368 39972 40275 57004 60012 77172 86037 333 21362 47027 55000
AAXX 25001 29253 119// 80000 11102 21131 30039 40218 52005 69972 77172 8802/ 333 21108 47045
AAXX 25001 29471 11598 32502 11080 21154 30007 40241 58004 69932 70282 83900 333 21116 47036
AAXX 25001 29481 11997 80000 11088 21103 39990 40236 52002 69982 77172 8802/ 333 21124 47034
AAXX 25001 29553 32976 32504 11092 21223 39878 40256 54000 80001 333 21095 47016 55008
AAXX 25001 29562 31584 82503 11074 21210 39828 40254 54000 70232 8592/ 333 21076 47040
AAXX 25001 29581 325// 82302 11071 21109 39985 40249 52005 8292/ 333 21094 47019
AAXX 25001 29594 11597 82904 11070 21091 39847 40241 52013 60012 78583 889// 333 21075 48027 55000
AAXX 25001 29653 32997 81202 11107 21180 39770 40274 58003 8802/ 333 21145 47036
AAXX 25001 29675 32898 81001 11095 21121 39671 40284 52003 8801/ 333 21095 47028
AAXX 25001 29676 31698 83202 11028 21147 39816 40243 52005 70232 885// 333 21034 47013 91112
AAXX 25001 29752 314// 62605 11073 21217 38824 48468 54000 70231 84540 333 21118 49032 55000 91113
AAXX 25001 29759 329// 82101 11049 21178 39228 40268 57005 82035 333 21081 47024
AAXX 25001 29766 32999 70000 11145 21151 39926 40301 53001 80001 333 21180 47038 55000
AAXX 25001 29789 32599 80000 11049 21122 39049 40242 53003 889// 333 21109 47006 55000
AAXX 25001 29864 329// 03103 11146 21181 39618 40305 53001 333 21148 47005
AAXX 25001 29866 329// 00000 11235 21253 39963 40314 52001 333 21235 48006 55000
AAXX 25001 29869 316// 20000 11216 21234 39923 40332 51002 71011 82500 333 21226 48031 95090
AAXX 25001 29956 32984 02503 11175 21194 39732 40331 57004 333 21175 47008 55013
AAXX 25001 30337 32998 20000 11326 21348 39829 40338 57005 80001 333 21326 47030 55014
AAXX 25001 30405 119// 82702 11071 21076 39695 40232 52003 60022 77177 8802/ 333 21157 47023
AAXX 25001 30504 11997 82401 11087 21097 39583 40248 53002 60012 77072 8802/ 333 21125 47025 55000
AAXX 25001 30603 11596 80000 11087 21090 39666 40252 57016 60032 77172 8802/ 333 21120 47034
AAXX 25001 30612 115// 81504 11121 21127 39716 40272 57013 69942 78582 889// 333 21160 47024 55///
AAXX 25001 30622 119// 80000 11273 21292 39637 40352 58002 69902 77171 8802/ 333 21320 47017
AAXX 25001 30627 11997 80000 11186 21205 39327 40321 58002 69922 77171 80007 333 21199 47020 55000
AAXX 25001 30703 129// 80000 11143 21149 39581 40288 57009 69962 82077 333 21150 47029 55000
AAXX 25001 36307 32997 01001 11334 21356 39050 48548 58005 333 21335 47019
AAXX 25004 71257 17/// /2003 11007 21063 69951 7//4/ 333 10048 21023 70009
AAXX 25004 71258 16/// /2210 10016 21049 60001 333 10026 20000 70000
AAXX 25004 71259 16/// /2206 11026 21062 60001 333 10027 21047 70000
AAXX 25004 71274 16/// /2505 11024 21056 60001 333 10035 21035 70000
AAXX 25004 71275 46/// /2407 11016 21057 6///1 333 10035 21038 7////
AAXX 25004 71278 16/// /2607 11031 21066 60001 333 10056 21032 70000
AAXX 25004 71286 16/// /2506 11014 21049 60001 333 10051 21014 70000
AAXX 25004 71287 16/// /2404 11016 21074 60001 333 10055 21022 70000
AAXX 25004 71289 16/// /2009 11011 21069 60001 333 10046 21013 70000
AAXX 25004 71345 16/// /2612 10039 21020 60001 333 10070 20012 70000
AAXX 25004 71525 16/// /2610 10037 21016 60001 333 10080 20004 70000
AAXX 25004 71526 16/// /2407 10038 21046 60001 333 10052 20006 70000
AAXX 25004 71535 16/// /2410 10063 21025 60001 333 10095 20044 70000
AAXX 25004 71536 16/// /2410 10048 21022 60001 333 10079 20029 70000
AAXX 25004 71537 16/// /1606 10001 21026 60001 333 10035 21036 70000
AAXX 25004 71445 16/// /2813 11003 21038 39785 40063 53015 60001 333 11003 21091 70025
AAXX 25004 71679 16/// /0804 10060 20000 39095 40104 56031 60001 333 10076 21017 70000
AAXX 25004 71683 46/// /2604 11298 30051 40168 51003 6///1 333 11250 21298 7////
AAXX 25004 71464 46/// ///21 10020 30031 40249 56021 6///1 333 10022 21035 7////
AAXX 25004 71214 16/// /2706 10010 21068 60001 333 10071 21004 70000
AAXX 25004 71223 46/// /2812 10019 21067 6///1 333 10066 21024 7////
AAXX 25004 71225 16/// /2511 10042 21019 60001 333 10082 20008 70000
AAXX 25004 71227 46/// /2107 11030 21066 6///1 333 10050 21038 7////
AAXX 25004 71916 46/// /3106 11343 21374 30044 40102 51020 6///1 333 11272 21344 7////
AAXX 25004 71351 16/// /2303 10020 21062 60001 333 10067 20020 70000
AAXX 25004 71353 16/// /2606 10011 21076 60001 333 10053 20004 70000
AAXX 25004 71375 46/// /3414 11165 6///1 333 11135 21203 7////
AAXX 25004 71385 46/// /2412 11122 6///1 333 21184 7////
AAXX 25004 71679 16/// /0804 10060 20000 39095 40104 56031 60001 333 10076 21017 70000
AAXX 25004 71683 46/// /2604 11298 30051 40168 51003 6///1 333 11250 21298 7////
AAXX 25004 71525 16/// /2610 10037 21016 60001 333 10080 20004 70000
AAXX 25004 71526 16/// /2407 10038 21046 60001 333 10052 20006 70000
AAXX 25004 71535 16/// /2410 10063 21025 60001 333 10095 20044 70000
AAXX 25004 71536 16/// /2410 10048 21022 60001 333 10079 20029 70000
AAXX 25004 71537 16/// /1606 10001 21026 60001 333 10035 21036 70000
AAXX 25004 71445 16/// /2813 11003 21038 39785 40063 53015 60001 333 11003 21091 70025
AAXX 25001 28418 41497 82301 11066 21074 39999 40171 52001 77172 8892/ 333 88712
AAXX 25004 71464 46/// ///21 10020 30031 40249 56021 6///1 333 10022 21035 7////
AAXX 25004 71257 17/// /2003 11007 21063 69951 7//4/ 333 10048 21023 70009
AAXX 25004 71258 16/// /2210 10016 21049 60001 333 10026 20000 70000
AAXX 25004 71259 16/// /2206 11026 21062 60001 333 10027 21047 70000
AAXX 25004 71274 16/// /2505 11024 21056 60001 333 10035 21035 70000
AAXX 25004 71275 46/// /2407 11016 21057 6///1 333 10035 21038 7////
AAXX 25004 71278 16/// /2607 11031 21066 60001 333 10056 21032 70000
AAXX 25004 71286 16/// /2506 11014 21049 60001 333 10051 21014 70000
AAXX 25004 71287 16/// /2404 11016 21074 60001 333 10055 21022 70000
AAXX 25004 71289 16/// /2009 11011 21069 60001 333 10046 21013 70000
AAXX 25004 71345 16/// /2612 10039 21020 60001 333 10070 20012 70000
AAXX 25004 71214 16/// /2706 10010 21068 60001 333 10071 21004 70000
AAXX 25004 71223 46/// /2812 10019 21067 6///1 333 10066 21024 7////
AAXX 25004 71225 16/// /2511 10042 21019 60001 333 10082 20008 70000
AAXX 25004 71227 46/// /2107 11030 21066 6///1 333 10050 21038 7////
AAXX 25001 10929 01957 02502 10011 21005 39811 40365 51003 69901 71076 333 31/// 55/// 20191 30185 55300 20000 30000 69907
AAXX 25004 71351 16/// /2303 10020 21062 60001 333 10067 20020 70000
AAXX 25004 71353 16/// /2606 10011 21076 60001 333 10053 20004 70000
AAXX 25004 71375 46/// /3414 11165 6///1 333 11135 21203 7////
AAXX 25004 71385 46/// /2412 11122 6///1 333 21184 7////
AAXX 25004 71916 46/// /3106 11343 21374 30044 40102 51020 6///1 333 11272 21344 7////
AAXX 25004 42027 32996 00000 11036 21046 38458 48546 333 58016
AAXX 25004 42071 31994 00000 10016 20000 40162 71000 333 59006
AAXX 25004 42101 31995 00000 10048 20034 40161 70500 333 59004
AAXX 25004 42111 31996 00501 10050 20027 39354 40162 70500 333 58001
AAXX 25004 42165 31995 00000 10076 20012 40152 70500 333 59014
AAXX 25004 42328 31995 00202 10082 21045 40148 70500 333 59004
AAXX 25004 42339 31995 00502 10116 20018 40140 70500 333 59009
AAXX 25004 42348 31995 00000 10074 20047 40172 70400 333 58005
AAXX 25004 42361 31992 00000 10054 20045 40163 74044 333 58003
AAXX 25004 42379 31994 00000 10064 30031 40145 71000 333 58014
AAXX 25004 42452 32996 00000 10116 20073 40152 333 59001
AAXX 25004 42131 NIL
AAXX 25004 42182 NIL
AAXX 25004 42189 NIL
AAXX 25004 42260 NIL
AAXX 25004 42369 NIL
AAXX 25004 42475 NIL
AAXX 25001 51711 32980 00402 11153 21209 38021 52005 333 05351 92516
AAXX 25001 51730 11970 72201 11101 21129 40364 54000 69901 77070 80002 333 05303 79999
AAXX 25001 52112 32980 00000 11169 21211 40364 52007 333 05402
AAXX 25001 52737 32980 00000 11182 21302 37086 52005 333 00253
AAXX 25001 52787 32980 01607 11143 21222 37008 57008 333 05251
AAXX 25001 53352 32980 01402 11175 21210 40410 52020 333 00452
AAXX 25001 53593 32970 02001 11134 21186 40366 52019 333 00351
AAXX 25001 53705 32970 00000 11125 21163 40372 57003 333 05252
AAXX 25001 53863 32975 02202 11077 21133 40364 52014 333 00153
AAXX 25001 53975 32968 70000 11063 21130 40350 52011 80002 333 00153
AAXX 25001 54273 32962 00000 11315 21356 40365 52019 333 00754 31034 92519
AAXX 25001 54324 32965 01101 11188 21223 40349 52018 333 00552
AAXX 25001 54405 32980 01601 11101 21172 40336 52020 333 00452
AAXX 25001 54436 32980 01601 11130 21171 40344 52018 333 00451
AAXX 25001 54808 32961 01101 11056 21076 40320 52022 333 00201 31033
AAXX 25001 54826 32975 02506 11076 21186 38513 52016 333 00303 31036 92500
AAXX 25001 54836 32960 00401 11073 21102 40339 52017 333 00300
AAXX 25001 54863 32970 02903 11029 21114 40320 52013 333 00551
AAXX 25001 56018 32980 02201 11142 21291 36166 52003 333 00202
AAXX 25001 56021 32980 70000 11177 21301 36059 52005 80002 333 00205
AAXX 25001 57071 32965 73201 11007 21098 40329 52014 80002 333 00000 31043
AAXX 25004 41258 36/// /2504 10204 20108 30140 40145 333 0E/// 59012
AAXX 25004 68513 36/// /1408 10170 20133 30007 40119 58005 333 10248 20163 91011 555 91012
AAXX 25004 68514 36/// ///// 1//// 2//// 3//// 4//// 5//// 333 1//// 2//// 555
AAXX 25004 68523 36/// /2105 10211 20004 39078 48496 58006 333 10359 20211 91006 555 91014
AAXX 25004 68527 36/// /0403 10229 20026 39052 48499 53002 333 10372 20229 91005 555 91014
AAXX 25004 68572 16/// /3402 10143 20131 38420 48529 57010 69923 333 10231 20130 91003 555 20002 91022
AAXX 25004 68575 16/// /0000 10179 20174 39115 48537 58008 60033 333 10180 20168 91001 555 20038 91019
AAXX 25004 68581 16/// /0803 10191 20181 39394 48540 58007 69983 333 10227 20190 91004 555 20008 91017
AAXX 25004 68583 16/// /0702 10225 20206 30047 40156 58001 69943 333 10253 20225 91003 555 20004 91015
AAXX 25004 68589 16/// /1803 10127 20090 38280 48543 58012 69963 333 10206 20124 91006 555 20006 91024
AAXX 25004 68613 36/// /0107 10147 20134 30001 40117 58006 333 10241 20133 91011 555 91011
AAXX 25004 68647 36/// /1503 10164 20140 38940 48534 58005 333 10224 20158 91004 555 91020
AAXX 25004 68651 16/// /3003 10138 20127 38578 48539 57006 69923 333 10186 20138 91005 555 20002 91022
AAXX 25004 68715 NIL
AAXX 25004 68717 36/// /3102 10177 20124 39957 40100 57010 333 10337 20177 91003 555 91010
AAXX 25004 68723 36/// /0902 10199 20101 39386 48518 51002 333 10318 20199 91003 555 91015
AAXX 25004 68737 NIL
AAXX 25004 68744 NIL
AAXX 25004 68747 36/// /0202 10171 20151 39632 48535 58007 333 10240 20168 91004 555 91016
AAXX 25004 68754 16/// /0304 10158 20153 39160 48539 58007 60013 333 10163 20157 91007 555 20010 91020
AAXX 25004 68817 36/// /1620 10221 20138 30094 40106 57012 333 10296 20221 91034 555 91010
AAXX 25004 68821 36/// /1204 10175 20130 39899 40138 58005 333 10328 20175 91008 555 91014
AAXX 25004 68835 36/// /0202 10183 20168 30049 40163 58008 333 10253 20182 91003 555 91016
AAXX 25004 68843 16/// /0911 10192 20178 30059 40158 58012 60033 333 10201 20179 91017 555 20032 69925 91015
AAXX 25004 68849 16/// /1011 10164 20154 39423 48528 58011 60013 333 10176 20153 91016 555 20012 91017
AAXX 25004 68912 NIL
AAXX 25004 68918 36/// /1011 10201 20151 30127 40145 58010 333 10267 20195 91017 555 91014
AAXX 25004 68921 NIL
AAXX 25004 68925 NIL
AAXX 25004 68926 36/// /1208 10198 20157 39970 40148 57012 333 10282 20196 91013 555 91015
AAXX 25004 68935 36/// /0000 10176 20149 30084 40148 58003 333 10259 20176 91002 555 91014
AAXX 25001 02963 46/// /2301 11019 21022 40071
AAXX 25004 61202 NIL
AAXX 25004 61214 NIL
AAXX 25004 61223 32960 40206 10164 21050 39855 40164 80002 333 0//00 59008 84075
AAXX 25004 61226 32960 00606 10175 20011 39850 40147 333 0//00 59007
AAXX 25004 61230 32960 00806 10175 21060 39853 40123 333 0//00 59007
AAXX 25004 61233 32960 20404 10190 21054 3//// 4//// 80002 333 0//00 5//// 82075
AAXX 25004 61235 32960 30410 10246 20002 3//// 4//// 80002 333 0//00 5//// 83075
AAXX 25004 61240 32960 20000 10218 20014 39811 40139 80002 333 0//00 59007 82075
AAXX 25004 61250 32960 10000 10188 20021 3//// 4//// 80002 333 0//00 5//// 81075
AAXX 25004 61257 32960 40608 10235 21040 30078 40162 80002 333 0//00 59003 84075
AAXX 25004 61265 32960 00208 10195 21029 39826 40131 333 0//00 59002
AAXX 25004 61270 32960 33604 10235 20016 3//// 4//// 80002 333 0//00 5//// 83075
AAXX 25004 61272 NIL
AAXX 25004 61277 32960 00408 10202 20016 39809 40127 333 0//00 59007
AAXX 25004 61285 32960 31014 10288 21088 39968 40116 80002 333 59015 83075
AAXX 25004 61291 32960 00404 10213 20016 39713 40123 333 0//00 59006
AAXX 25004 61293 32960 00604 10210 20063 3//// 4//// 333 0//00 5////
AAXX 25004 61296 32960 60804 10206 20082 3//// 4//// 80002 333 0//00 5//// 86075
AAXX 25004 61297 32960 53402 10214 20029 3//// 4//// 80002 333 0//00 5//// 85075
AAXX 25004 68715 NIL
AAXX 25004 68737 NIL
AAXX 25004 68744 NIL
AAXX 25004 68912 NIL
AAXX 25004 68921 NIL
AAXX 25004 68925 NIL
AAXX 25001 50548 32963 00000 11350 21394 40361 52017 333 00502
AAXX 25001 50564 11920 32501 11279 21303 40309 52017 69901 70470 80002 333 00307 70002
AAXX 25001 51334 32970 02001 11236 21264 40371 54000 333 05600 92506
AAXX 25001 51818 32965 20000 11129 21149 40366 57008 80002 333 05302
AAXX 25001 52378 32980 02001 11145 21211 40386 52004 333 00053
AAXX 25001 53487 32960 03601 11164 21206 40379 52019 333 00300
AAXX 25001 53502 32980 02202 11154 21205 40396 52005 333 00053
AAXX 25001 53923 32980 00902 11054 21142 40343 52001 333 05102
AAXX 25001 54049 32970 02501 11237 21312 40350 52014 333 00600
AAXX 25001 54115 32680 60000 11191 21230 40349 52014 82102 333 00502
AAXX 25001 54157 32963 00000 11234 21270 40351 52014 333 00752 92500
AAXX 25001 54186 32965 02502 11249 21308 40331 52021 333 00552 92506
AAXX 25001 54311 32980 03601 11200 21234 40377 52020 333 00451
AAXX 25001 54346 32965 00902 11193 21231 40348 52017 333 00653
AAXX 25001 54377 32962 00203 11207 21244 40346 52019 333 00753 92501
AAXX 25001 54386 32970 00402 11260 21300 40325 52014 333 00556 92502
AAXX 25001 54493 32964 01801 11183 21208 40338 52016 333 00652
AAXX 25001 54587 NIL
AAXX 25001 54715 32965 03201 11061 21100 40320 52020 333 00354
AAXX 25001 54929 32962 50000 11053 21073 40331 52019 80002 333 00300
AAXX 25001 54945 32965 02902 11010 21106 40324 52016 333 00301
AAXX 25001 56065 32980 10000 11209 21236 36609 52006 80002 333 05103
AAXX 25001 57193 32960 52501 11023 21080 40328 52018 80002 333 00100 31033
AAXX 25001 57290 32963 72701 10021 21080 40328 52013 80002 333 00151 31022
BBXX TBWUK17 25003 99260 30588 41798 21014 10243 20230 40208 50010 70100 82142 22263 04250 20201 31111 40302 50403 80234
BBXX ZNQO3 25000 99501 70006 41/98 /2313 10110 20075 40310 57025 75022 8//// 22262 04124 2//// 3//// 4//// 5//// 80093
BBXX A8IY8 25004 99024 11049 41397 80224 10262 20236 40098 51008 70222 8677/ 22254 04270 20805 399// 4//// 5//// 80243
AAXX 25004 68174 16/// ///// 10163 20151 38821 48541 58003 60213 333 10186 20161 555 20214 91021
AAXX 25004 68191 36/// /1605 10204 20178 39677 48566 58005 333 10235 20204 91007 555 91018
AAXX 25004 68242 16/// /0408 10139 20112 38732 48508 58015 60013 333 10272 20137 91011 555 20012 91018
AAXX 25004 68262 16/// /0702 10176 20145 38736 48541 57003 60013 333 10210 20176 91006 555 20010 91022
AAXX 25004 68263 12480 80908 10155 20140 38519 48544 57005 69983 886// 333 10201 20149 91012 555 20008 91023
AAXX 25004 68267 36/// /0411 10148 2//// 38277 48550 58010 333 10207 20147 91016 555 91025
AAXX 25004 68289 16/// /0604 10190 20175 39188 48555 58007 60103 333 10208 20190 91005 555 20106 91021
AAXX 25004 68350 16/// /0806 10167 20154 38683 48532 52011 69923 333 10287 20167 91008 555 20002 91021
AAXX 25004 68368 41005 81007 10137 20137 38353 48543 56004 74544 886// 555 91025
AAXX 25004 68403 36/// /1905 10186 20143 30122 40155 58008 333 10215 20184 91007 555 91015
AAXX 25004 68424 36/// /0109 10275 20144 39168 48507 52006 333 10403 20254 91015 555 91013
AAXX 25004 68438 36/// /3618 10199 20143 38811 48505 57008 333 10345 20198 91024 555 91017
AAXX 25004 68442 36/// /0406 10168 20129 38681 48532 52008 333 10319 20167 91009 555 91021
AAXX 25004 68461 16/// /1007 10147 20115 38349 48536 58012 60023 333 10247 20136 91010 555 20020 91023
AAXX 25004 68512 36/// /2705 10169 20036 39000 48495 58007 333 10300 20169 91006 555 91015
AAXX 25004 68538 36/// /1209 10187 20134 38715 48500 50000 333 10331 20187 91012 555 91017
AAXX 25004 68587 16/// /3503 10221 20204 30139 40151 57005 60193 333 10234 20212 91010 555 20196 91015
AAXX 25004 68588 16/// /3404 10226 20199 30152 40168 58002 69943 333 10267 20218 91005 555 20004 91016
AAXX 25004 68591 16/// /0102 10222 20217 39982 40161 58007 60143 333 10236 20210 91004 555 20142 91016
AAXX 25004 68592 NIL
AAXX 25004 68618 36/// /1004 10157 20022 39031 48493 58003 333 10331 20152 91005 555 91015
AAXX 25004 68633 36/// /1511 10153 20122 38514 48508 51001 333 10309 20151 91016 555 91019
AAXX 25004 68668 36/// /1305 10189 20163 39308 48533 58009 333 10216 20181 91008 555 91017
AAXX 25004 68714 36/// /2206 10164 20133 30066 40102 57011 333 10287 20164 91008 555 91010
AAXX 25004 68727 36/// /0710 10161 20128 39120 48500 58006 333 10301 20161 91016 555 91015
AAXX 25004 68752 16/// /0608 10179 20172 39485 48538 58008 69983 333 10183 20176 91011 555 20008 91017
AAXX 25004 68816 32575 11406 10183 20141 30056 40110 58015 81500 333 91010 555 91011
AAXX 25004 68828 13460 /0702 10179 20170 39915 40147 58012 60001
AAXX 25004 68842 11058 80914 10187 20171 30095 40165 58015 69923 75152 886// 555 91016
AAXX 25004 68858 13160 /0503 10193 20192 30007 40163 58013 60041 333 91121
AAXX 25004 68906 11498 73120 10190 20159 30089 40152 57008 69963 70255 816// 333 10215 20179 91036 555 20006 91015
AAXX 25004 68994 12598 63603 10064 20032 30070 40099 58001 60013 86500 333 10083 20042 91008 555 20014 91009
AAXX 25004 89004 36/// /0916 11110 21120 38760 49775 58003 333 11061 21123 91019 555
BBXX 46206 25001 99488 71260 46/// /1411 10086 40248 57005 22200 00089 11306 70032 333 91213
BBXX A8GH5 25003 99392 70100 41/97 /0516 10145 20091 40320 56010 70000 8//// 22244 04120 20302 305// 40503 80115
BBXX 46206 25001 99488 71260 46/// /1411 10086 40248 57005 22200 00089 11306 70032 333 91213
BBXX 46205 25001 99542 71343 46/// /2011 10076 40025 52006 22200 00074 11710 70051 333 91214
AAXX 25004 41886 31901 90000 10113 20110 30102 40123 74544 89/// 333 59010 70000
AAXX 25004 41895 32950 03601 10109 20100 30109 40132 333 59004 70000
AAXX 25004 41926 31940 00000 10090 20090 30118 40133 74240 333 59003 70000
AAXX 25004 41933 31904 03102 10134 20130 30114 40124 74244 333 59002 70000
AAXX 25004 41941 31420 60000 10115 20115 30212 40127 71042 85420 333 56990 58009 70000 84616 83460
AAXX 25004 41946 31940 20000 10122 20120 30125 40130 70500 82030 333 56090 59003 70000 82362
AAXX 25004 41947 31430 40000 10131 20130 30116 40118 70544 82530 333 56690 58000 70000 83362
AAXX 25004 41960 31/40 90000 10132 20130 30125 40126 74340 89/// 333 56990 58004 70000
AAXX 25004 68592 NIL
AAXX 25004 42559 32996 00902 10108 20085 40144 333 58002
AAXX 25004 42571 31996 00000 10084 20053 40155 70500 333 59004
AAXX 25004 42667 32996 01403 10128 20090 39538 40146 333 58003
AAXX 25004 42675 31996 00000 10090 20069 40158 70500 333 58002
AAXX 25004 42754 31996 01806 10150 20069 39482 40133 70500 333 58003
AAXX 25004 42779 32996 00000 10100 20059 39429 40156 333 58000
AAXX 25004 42867 31995 03202 10114 20094 40141 70500 333 58004
AAXX 25004 42874 32996 00000 10140 20080 40135 333 59002
AAXX 25004 42933 32996 00000 10122 20077 40137 333 58004
AAXX 25004 43041 32996 00000 10082 20057 39503 40151 333 59003
AAXX 25001 50658 31930 20000 11282 21308 40327 52016 70400 80002 333 00502 92506
AAXX 25001 50888 11958 80000 11189 21222 40210 52013 69901 77070 82037 333 00104 79999
AAXX 25001 50983 11965 82902 11200 21237 40210 52012 69911 77077 80007 333 00104 70003 92504
AAXX 25001 51053 32980 01105 11146 21195 40326 57004 333 05807 92516
AAXX 25001 51542 32980 03601 11367 21408 37563 52003 333 05355 92502
AAXX 25001 52436 32980 01801 11170 21199 38520 40386 52003 333 05301
AAXX 25001 52908 32980 22503 11171 21348 35727 54000 80002 333 00205
AAXX 25001 52996 32970 31606 11104 21157 37577 57006 80002 333 05200
AAXX 25001 53083 32980 00000 11247 21270 40419 52015 333 00505
AAXX 25001 53764 32965 03203 11111 21143 40393 52016 333 00100
AAXX 25001 53787 32980 00000 11137 21166 40378 52019 333 00300
AAXX 25001 54096 32970 72709 11242 21280 40241 52010 80002 333 00251 92501
AAXX 25001 54226 32980 20000 11212 21248 40355 52014 82030 333 00552
AAXX 25001 54259 32961 01101 11257 21293 40364 52018 333 00753 92510
AAXX 25001 54527 31958 01801 11063 21100 40310 52015 71000 333 00255
AAXX 25001 54534 32965 00402 11087 21135 40320 52020 333 00403
BBXX 46205 25001 99542 71343 46/// /2011 10076 40025 52006 22200 00074 11710 70051 333 91214
AAXX 25004 89020 46/// /2506 11048 21064 39744 49779 57022 92350
BBXX VQIB9 25003 99143 30672 41698 31320 10260 20231 40133 57010 70200 8/400 22254 20603 3//// 4//// 5//// 80240
BBXX V2OH6 25003 99126 50346 41/97 ///20 10270 40150 51010 7//// 8//// 22214 2////
BBXX DGUG2 25004 99017 70306 41598 70916 10255 20227 40120 51010 72052 84850 22244 04280 20402 80235
BBXX ZCBV4 25004 99323 30347 41/97 80716 10222 20219 40213 702// 8//// 22263 00240 20403 323// 40307 5//// 80220
BBXX PBHZ 25003 99424 70459 41397 70510 10170 20141 40104 56/// 75155 86700 22213 06183 20401 331// 40402 80152
BBXX ZCDY2 25004 99236 70751 41598 22630 10245 20196 40245 54000 70300 8/10/ 22235 00260 20402 30000 4//// 5////
BBXX A8JC5 25004 99284 70703 41498 13306 10215 20185 40227 52003 70200 81100 22224 00238 299// 30000 4//// 5//// 80195
BBXX A8RL2 25003 99233 70584 41/98 10419 10255 20185 40200 54000 70200 8//// 22214 04263 20705 304// 41004 80210
BBXX LEQZ3 25003 99506 11598 41/95 91124 10010 2101/ 40034 57020 71044 22252 00090 20903 41206 80000 NNNN
AAXX 25004 88900 46/// /2009 10020 21001 39888 49891 51029 333 10062 20016
AAXX 25004 41184 31956 02002 10124 20093 40155 70500 333 59006
AAXX 25004 41194 11557 51504 10162 20126 30159 40164 60001 70511 85500 333 59004 70000 85630
AAXX 25004 41196 31956 09903 10143 20113 30125 40165 70500 333 59003
AAXX 25004 41198 32960 03113 10194 20114 40152 333 59005
AAXX 25004 41217 31950 01402 10134 20106 30131 40161 70500 333 59002
AAXX 25004 41218 31940 00205 10118 20099 39856 40173 70500 333 58001
AAXX 25004 41258 36/// /2504 10204 20108 30140 40145 333 0E/// 59012
BBXX ZCDS4 25003 99165 51517 41497 40920 10290 20248 40115 57007 70300 84241 22200 04272 20801 3//// 4//// 5//// 80260
AAXX 25004 40373 32960 00000 10130 21010 39710 40119 333 59005
AAXX 25001 30455 329// 20000 11342 21365 38942 48450 52006 80002 333 21346 47010
AAXX 25001 30669 32999 00000 11349 21384 39420 40417 52010 333 21378 47006
AAXX 25001 30731 119// 51703 11124 21167 39658 40296 54000 69902 70272 85050 333 21129 47036
AAXX 25001 30739 329// 10502 11285 21304 39464 40379 52013 80002 333 21295 47004
AAXX 25001 30741 329// 02701 11218 21230 38704 48482 52004 333 21222
AAXX 25001 30745 129// 00401 11337 21359 39112 40419 52012 69902 333 21344 47007 55000
AAXX 25001 30764 32998 00000 11392 21425 39514 40447 52013 333 21396 47002
AAXX 25001 30829 12984 80000 11193 21219 39604 40345 53006 69902 83041 333 21195 47001
AAXX 25001 30838 11597 50000 11284 21290 39280 40374 58015 69952 78581 85900 333 21289 47015
AAXX 25001 30846 11998 20000 11312 21343 39379 40406 53020 69922 77671 82030 333 21319 47002
AAXX 25001 30859 11999 80000 11351 21380 39462 40426 52018 69922 70272 80001 333 21356 47006
AAXX 25001 30862 11962 21601 11342 21378 39568 40414 52013 69932 70471 80001 333 21342 47008
AAXX 25001 30957 329// 00000 11328 21339 39395 40415 53022 333 21330 47004
AAXX 25001 30975 32899 21401 11428 21469 39686 40460 52013 82030 333 21444 47013
AAXX 25004 68155 16/// /2902 10202 20188 39213 48538 57006 60053 333 10221 20197 91003 555 20052 91018
AAXX 25004 68171 NIL
AAXX 25004 68176 16/// /1005 10191 20172 39166 48545 51003 69943 333 10259 20190 91009 555 20004 91020
AAXX 25004 68181 NIL
AAXX 25004 68182 36/// /1503 10200 20183 39376 48559 58001 333 10263 20200 91006 555 91020
AAXX 25004 68185 NIL
AAXX 25004 68253 36/// /1502 10190 20173 39069 48535 51001 333 10212 20190 91004 555 91019
AAXX 25004 68255 36/// /0000 10173 20147 38888 48531 57008 333 10213 20173 91003 555 91020
AAXX 25004 68271 16/// /0000 10173 20161 38945 48543 57005 60103 333 10209 20173 91003 555 20106 91021
AAXX 25004 68273 16/// /0203 10150 20148 38487 48542 58003 69943 333 10211 20146 91004 555 20004 91023
AAXX 25004 68287 36/// /1302 10144 20142 38614 48548 57007 333 10169 20144 91003 555 91023
AAXX 25004 68291 16/// /1503 10200 20190 39575 48562 58002 60253 333 10224 20200 91006 555 20252 91019
AAXX 25004 68297 NIL
AAXX 25004 68329 36/// /0707 10236 20157 39083 48519 56004 333 10393 20236 91012 555 91016
AAXX 25004 68331 36/// /0408 10203 20153 38832 48516 58000 333 10354 20203 91013 555 91018
AAXX 25004 68335 36/// /3306 10199 20158 38935 48542 58012 333 10327 20199 91011 555 91020
AAXX 25004 68341 36/// /3503 10151 20126 38541 48525 57017 333 10249 20151 91005 555 91021
AAXX 25004 68342 NIL
AAXX 25004 68343 NIL
AAXX 25004 68349 36/// /0607 10159 20144 38522 48515 57017 333 10257 20159 91011 555 91020
AAXX 25004 68353 36/// /0503 10151 20136 38545 48523 58001 333 10235 20150 91004 555 91021
AAXX 25004 68355 36/// /1005 10166 20144 38601 48534 53003 333 10296 20166 91007 555 91022
AAXX 25004 68370 NIL
AAXX 25004 68377 16/// /2105 10175 20162 38788 48525 58007 60053 333 10279 20170 91006 555 20052 91020
AAXX 25004 68380 36/// /2703 10147 20135 3//// 4//// 5//// 333 10198 20147 91005 555
AAXX 25004 68387 16/// /3509 10195 20171 38884 48543 57006 69943 333 10247 20189 91013 555 20004 91021
AAXX 25004 68411 36/// /1002 10230 20081 39918 40123 52003 333 10391 20230 91005 555 91012
AAXX 25004 68429 36/// /0000 10205 20147 38681 48502 50000 333 10343 20205 91004 555 91017
AAXX 25004 68449 36/// /1004 10157 20109 38417 48531 57007 333 10279 20157 91006 555 91022
AAXX 25004 68471 16/// /3608 10143 20109 38349 48529 58013 60013 333 10208 20142 91011 555 20012 91022
AAXX 25004 68474 16/// /0000 10133 20120 38647 48536 57015 60193 333 10215 20132 91002 555 20198 91022
AAXX 25004 68479 16/// /1103 10178 20159 38974 48534 57012 60023 333 10271 20177 91005 555 20022 91020
AAXX 25004 68481 36/// /0000 10218 20202 39809 40177 52001 333 10241 20207 91002 555 91018
AAXX 25004 68487 36/// /0204 10180 20165 39019 48538 58003 333 10222 20177 91004 555 91020
AAXX 25004 68491 16/// /3503 10209 20200 30151 40160 57003 60013 333 10244 20205 91005 555 20014 91016
AAXX 25004 68497 36/// /1403 10214 20200 30126 40170 56001 333 10274 20213 91005 555 91017
AAXX 25004 82098 32496 50504 10281 20225 30083 40100 80331 333 10331 29068 55087 58012
AAXX 25004 82246 21596 80902 10249 20241 39907 40106 7036/ 887// 333 10297 29092 55020 58010 60011
AAXX 25004 82445 21495 80000 10244 20235 30078 40130 75096 8499/ 333 10312 29092 55025 58026 60311
AAXX 25004 82460 32595 23601 10298 20242 30071 40100 82400 333 10350 29070 55049 58003
AAXX 25004 82562 32593 60902 10240 20223 30015 40124 86006 333 10288 29087 55003 58036
AAXX 25004 82571 32997 02301 10262 20246 39923 40097 333 10308 29087 55024 58012
AAXX 25004 82765 32598 80000 10252 20238 39891 40133 885// 333 10297 29088 55015 58001
AAXX 25004 82392 32996 00510 10270 20222 39992 40094 333 10370 29071 55093 58002
AAXX 25004 82594 32697 21410 10292 20204 30102 40110 82002 333 10342 29061 55097 58001
AAXX 25004 82683 32994 01802 10280 20178 39654 40102 333 10348 29059 55065 58006
AAXX 25004 82780 32996 00502 10308 20117 39870 40118 333 10375 29038 55077 58012
AAXX 25004 82789 32994 01406 10235 20149 38937 40031 333 10283 29/// 55065 58008
AAXX 25004 82795 32594 30908 10220 20205 39534 40154 84200 333 10282 29081 55062 58013
AAXX 25004 82879 32592 53600 10290 20187 39833 40095 85800 333 10356 29051 55051 58001
AAXX 25004 68183 36/// /1605 10211 20185 39473 48561 50000 333 10261 20211 91006 555 91019
AAXX 25004 68188 16/// /0000 10189 20177 39239 48560 50000 60043 333 10216 20179 91004 555 20044 69925 91021
AAXX 25004 68268 16/// /0805 10176 20166 38922 48557 57000 60033 333 10221 20176 91009 555 20030 69925 91023
AAXX 25004 68272 16/// /0000 10180 20168 39110 48549 57005 60063 333 10210 20180 91002 555 20064 91021
AAXX 25004 68296 16/// /0000 1//// 2//// 38919 4//// 57001 60213 333 1//// 2//// 91002 555 20212
AAXX 25004 68322 16/// /0606 10261 20173 39117 48501 52015 60013 333 10401 20261 91012 555 20010 60105 91013
AAXX 25004 68338 36/// /3108 10174 20141 38785 48515 57007 333 10322 20171 91013 555 91018
AAXX 25004 68345 36/// /0805 10177 20150 38693 48534 52011 333 10297 20163 91007 555 91021
AAXX 25004 68362 36/// /3402 10156 20146 38530 48532 57012 333 10253 20156 91003 555 91022
AAXX 25004 68400 16/// /0000 10211 20199 30090 40164 57003 69923 333 10260 20211 91000 555 20002 91016
AAXX 25004 68408 36/// /1602 10162 20140 30130 40138 57006 333 10198 20145 91003 555 91013
AAXX 25004 68416 36/// /1909 10220 20012 39013 48492 57004 333 10346 20220 91013 555 91013
AAXX 25004 68478 16/// /0000 10157 20149 38895 48530 57011 69923 333 10250 20156 91003 555 20002 91020
AAXX 25004 68488 36/// /1003 10180 20168 39299 48545 57003 333 10239 20180 91006 555 91019
AAXX 25004 68494 16/// /2302 10200 20190 30030 40161 58002 69923 333 10252 20200 91004 555 20002 91016
AAXX 25004 68524 36/// /0802 10225 20037 39030 48490 56001 333 10357 20223 91005 555 91013
AAXX 25004 68546 36/// /0602 10155 20128 38677 48521 53007 333 10305 20154 91003 555 91020
AAXX 25004 68558 NIL
AAXX 25004 68570 16/// /1604 10146 20114 38532 48524 57008 60043 333 10253 20146 91006 555 20042 91021
AAXX 25004 68580 16/// /0406 10166 20162 38972 48532 57006 69943 333 10231 20163 91008 555 20004 91020
AAXX 25004 68614 36/// /3002 10168 20148 30065 40106 57006 333 10339 20166 91005 555 91010
AAXX 25004 68624 36/// /1307 10170 20106 38734 48505 57005 333 10319 20170 91012 555 91017
AAXX 25004 68674 NIL
AAXX 25004 68712 36/// /1811 10143 20131 30036 40101 57008 333 10197 20138 91014 555 91010
AAXX 25004 68718 NIL
AAXX 25004 68722 36/// /0707 10157 20089 38543 48500 57010 333 10286 20134 91012 555 91018
AAXX 25004 68814 NIL
AAXX 25004 68832 NIL
AAXX 25004 68916 36/// /1132 10172 20152 39854 40121 57016 333 10217 20172 91041 555 91012
AAXX 25004 68920 NIL
AAXX 25004 68928 36/// /0910 10195 20171 39995 40154 58006 333 10243 20192 91020 555 91015
AAXX 25004 83811 32497 71402 10208 20186 39261 40144 53009 84270 333 10304 29077 55032
AAXX 25004 83844 21596 805// 10231 20224 30154 40161 52024 75196 8496/ 333 10322 29084 55/// 60341
AAXX 25004 83887 32597 71410 10188 20171 39115 40156 51010 83510 333 10253 29083 55007
AAXX 25004 83907 32497 80909 10188 20160 39878 40162 53019 885// 333 10235 29089 55000
AAXX 25004 83914 31596 81415 10162 20144 39392 40159 54000 71022 8472/ 333 10238 29082 55000
AAXX 25004 83919 21396 80910 10150 20130 39001 40180 54000 75052 887// 333 10216 29089 55008 69911
AAXX 25004 83927 21597 81802 10150 20116 30127 40202 52019 70252 885// 333 10154 29086 55000 60021
AAXX 25004 83936 31996 81411 10172 20139 30076 40200 51005 70542 8801/ 333 10226 29079 55000
AAXX 25004 83948 21494 81806 10186 20178 30200 40206 53024 75065 889// 333 10237 29096 55000 60031
AAXX 25004 83964 21595 81410 10134 20128 39704 40205 52004 76152 8672/ 333 10219 29096 55000 69921
AAXX 25004 83995 32497 81410 10180 20143 30203 40206 58010 886// 333 10196 29075 55///
AAXX 25004 82141 32797 53607 10278 20236 30092 40104 85030 333 10316 29074 55091 58003
AAXX 25004 82145 32995 00000 10258 20219 30068 40110 333 10340 29068 55077 58005
AAXX 25004 82181 32496 20505 10293 20240 39978 40117 82600 333 10330 29070 55085 58011
AAXX 25004 82353 32996 00000 10283 20244 39972 40056 333 10336 29079 55049 58004
AAXX 25004 82361 21496 33202 10274 20238 30075 40112 71352 82330 333 10318 29080 55033 58015 69911
AAXX 25004 82861 32596 80904 10253 20225 39906 40076 8672/ 333 10288 29084 55022 58002
AAXX 25004 83766 32597 63206 10252 20189 39500 40130 5//// 86500 333 10342 29060 55090
AAXX 25004 83836 21497 80903 10190 20180 39172 40134 51011 70382 8362/ 333 10299 29083 55047 60081
AAXX 25004 83881 21495 80000 10226 20221 39844 40124 54000 74665 8472/ 333 10260 29092 55000 60081
AAXX 25004 83980 21597 51406 10160 20101 39919 40206 56006 70152 85200 333 10170 29075 55000 60011
AAXX 25004 83997 32997 21804 10161 20112 30203 40247 53002 80002 333 10218 29062 55107
BBXX 44062 25001 99386 70764 46/// /0703 1//// 90020 22200 00086 333 91204
BBXX 44062 25001 99386 70764 46/// /0703 1//// 40295 90010 22200 00087 333 91204
BBXX 44062 25001 99386 70764 46/// /0503 10053 40296 51023 90000 22200 00088 10201 70003 333 91204
BBXX 44063 25001 99390 70764 46/// /0000 1//// 90020 333 91200
BBXX 44063 25001 99390 70764 46/// /0000 1//// 40325 90010 333 91200
BBXX 44063 25001 99390 70764 46/// /0000 10050 40325 53018 90000 22200 00080 1//00 70001 333 91200
BBXX 44041 25001 99372 70768 46/// /1002 1//// 90020 333 91202
BBXX 44041 25001 99372 70768 46/// /0902 1//// 40335 90010 333 91202
BBXX 44041 25001 99372 70768 46/// /1002 10065 40334 53015 90000 22200 00103 1//00 70001 333 91202
BBXX 44042 25001 99380 70763 46/// /0804 1//// 90020 333 91205
BBXX 44042 25001 99380 70763 46/// /0603 1//// 40315 90010 333 91203
BBXX 44042 25001 99380 70763 46/// /0702 10065 40315 51018 90000 22200 00089 1//00 70001 333 91203
BBXX 44043 25001 99392 70764 46/// /1003 1//// 90020 333 91204
BBXX 44043 25001 99392 70764 46/// /1103 1//// 40311 90010 333 91204
BBXX 44043 25001 99392 70764 46/// /1003 10049 40312 53017 90000 22200 00073 1//00 70002 333 91204
AAXX 25004 41288 36/// ///// 10196 20139 30137 40162 333 0E017 59000
AAXX 25001 30499 11567 82202 11324 21342 39641 40387 52008 69942 77172 8807/ 333 21363 47016
AAXX 25001 30683 31993 00000 11385 21408 39651 40407 52017 74640 333 21392 47011
AAXX 25001 30695 32998 02901 11387 21414 39988 40382 53015 333 21396 47013
AAXX 25001 31253 11999 82001 11249 21281 39819 40322 52014 69932 70272 83037 333 21249 55000
AAXX 25001 31295 11999 82302 11281 21305 39824 40331 52013 69922 70271 82037 333 21292 47011
AAXX 25001 31348 11997 83503 11125 21145 30056 40259 58008 69900 77172 8807/ 333 21140 47030
AAXX 25001 31418 11997 83403 11112 21165 39977 40242 53005 69920 77172 8802/ 333 21129
AAXX 25001 31439 11596 80204 11056 21074 30100 40145 53011 69960 78582 889// 333 21066 47010
AAXX 25001 31442 11999 82903 11243 21275 39907 40294 52016 69902 70272 8802/ 333 21252 47008
AAXX 25001 31445 32999 83204 11224 21256 39997 40272 52015 84032 333 21247 47007
AAXX 25001 31474 32599 80000 11200 21226 39714 40230 52013 885// 333 21206 47016
AAXX 25001 31521 11981 83002 11268 21287 39951 40273 52013 69982 70272 82039 333 21269 47013
AAXX 25001 31527 11998 62902 11261 21273 39932 40265 52019 69942 70172 82031 333 21262 47013
AAXX 25001 31534 12999 80000 11290 21307 39881 40265 52012 69962 83017 333 21300
AAXX 25001 31587 11997 82903 11246 21265 30121 40281 52009 69932 70172 80001 333 21268 47016
AAXX 25001 31632 NIL
AAXX 25001 31702 11998 83502 11282 21321 39897 40272 53015 69960 70272 82107 333 21283 47021
AAXX 25001 31713 11998 80000 11183 21195 30077 40183 52017 60010 70272 86049 333 21199 47019
AAXX 25001 31725 11498 83202 11125 21152 30090 40159 53018 60020 70282 8494/ 333 21170
AAXX 25001 31801 11598 81601 11212 21231 39924 40168 52013 60020 72682 86902 333 21218
AAXX 25001 31825 31699 70000 11140 21167 39843 40059 53023 70282 875// 333 21156 47036
AAXX 25001 31845 11996 82402 11214 21232 39999 40176 53003 60010 77172 8802/ 333 21236 47042
AAXX 25001 31878 11959 83003 11207 21241 30078 40212 52010 60010 77172 8807/ 333 21215 47024
AAXX 25001 31915 32999 62907 11202 21269 39930 40217 53002 82049 333 21217 47007 91012 91114
AAXX 25001 31921 11997 83103 11188 21246 30112 40218 51007 69900 77172 8802/ 333 21200 47997
AAXX 25001 31969 32998 02911 11185 21275 30176 40230 52011 333 21182 91018 91119
AAXX 25001 31981 11999 80000 11201 21234 39960 40214 53006 69910 70282 80007 333 21228 47025
AAXX 25001 31987 11699 33509 11205 21277 39905 40186 52006 69900 70281 81501 333 21207 43001 91015 91116
AAXX 25001 32069 11598 83405 11004 21083 39985 49990 52014 69920 70282 8394/ 333 21013 47008 91007 91114
AAXX 25004 41061 32960 02504 10121 20070 39443 40147 333 59004
AAXX 25001 37575 41092 91802 10028 20015 39556 40149 54000 74544 555 11003
AAXX 25001 37675 42495 82901 11003 21015 39503 40178 52022 8802/ 555 11000
AAXX 25001 37735 41/91 /0000 10027 20024 39760 40140 53007 74544 55 10004
AAXX 25001 37749 41596 82301 10051 20034 30074 40192 52011 71022 885// 555 11006
AAXX 25001 37756 NIL
AAXX 25001 37864 31295 83605 10055 20044 40150 52010 75052 886// 333 88706
AAXX 25001 37985 41495 83601 10071 20062 30159 40145 52009 75055 886// 555 11007
BBXX 44059 25001 99368 70763 46/// /0503 1//// 90020 333 91204
BBXX 44059 25001 99368 70763 46/// /0503 1//// 40306 90010 333 91204
BBXX 44059 25001 99368 70763 46/// /0503 10070 40304 53015 90000 22200 00111 333 91203
BBXX 44057 25001 99395 70761 46/// /3501 1//// 90020 333 91201
BBXX 44057 25001 99395 70761 46/// /3601 1//// 40316 90010 333 91202
BBXX 44057 25001 99395 70761 46/// /3602 10023 40316 53016 90000 22200 00061 333 91202
BBXX 44058 25001 99376 70763 46/// /0603 1//// 90020 333 91204
BBXX 44058 25001 99376 70763 46/// /0503 1//// 40311 90010 333 91204
BBXX 44058 25001 99376 70763 46/// /0404 10069 40309 90000 22200 00095 10201 70003 333 91205
BBXX 46092 25001 99368 71220 46/// /3204 10123 40274 55005 92357 22200 00125 555 11036 22036
BBXX 51176 25001 99278 71758 46/// ///// 1//// 90002 22200 00236
BBXX 51179 25001 99143 51708 46/// ///// 1//// 90004 22200 00292
BBXX 52248 25001 99135 11448 46/// ///// 1//// 90006 22200 00284
BBXX 52246 25001 99152 11457 46/// ///// 1//// 90007 22200 00281
BBXX 52244 25001 99200 11452 46/// ///// 1//// 90008 22200 00270
BBXX 51173 25001 99260 71739 46/// ///// 1//// 90012 22200 00246
BBXX 51172 25001 99284 71783 46/// ///// 1//// 90015 22200 00228
AAXX 25004 62357 32560 42803 10124 20088 40183 52006 84500
AAXX 25004 62403 32960 00000 10101 20014 40203 52003
AAXX 25004 62423 32960 02303 10066 20017 40226 54000
AAXX 25004 62309 11560 52205 10095 20076 40179 52001 69931 70262 85800
AAXX 25004 62325 11958 52507 10118 20108 40181 52007 60031 71060 85020
AAXX 25004 62332 32560 42614 10122 20110 40177 52006 84500
AAXX 25004 62387 32960 02602 10078 20029 40209 52001
AAXX 25004 62452 32960 02206 10032 21013 40215 52002
AAXX 25004 62459 32960 00306 10121 20039 40183 57003
AAXX 25004 62305 32960 02505 10088 20065 40199 52001
AAXX 25004 62306 32560 62508 10108 20090 40194 57001 86800
AAXX 25004 62318 11560 71705 10118 20108 40179 57002 60041 72582 8782/
AAXX 25004 62337 NIL
AAXX 25004 62366 32960 02106 10137 20051 40191 52005
AAXX 25004 62309 32960 02703 10076 20014 40220 54000
AAXX 25004 62405 32960 00000 10104 20048 40200 54000
AAXX 25004 62414 32960 00107 10118 20021 40210 52003
AAXX 25004 62417 32960 02803 10088 20054 40205 57002
AAXX 25004 62440 32960 02408 10129 20085 40178 52004
AAXX 25004 62463 32960 03010 10133 20027 40187 52001
AAXX 25004 62465 32960 02703 10144 20027 40176 52004
AAXX 25004 62419 NIL
AAXX 25004 62458 32960 02707 10166 20052 40180 52001
AAXX 25004 62455 32960 03405 10140 20057 40179 52003
AAXX 25004 62420 32960 00000 10111 20054 40215 52003
AAXX 25004 62432 32960 03402 10084 20038 40208 57005
AAXX 25004 62435 32960 03601 10102 20028 40212 54000
AAXX 25004 62476 32960 03408 10188 20133 40158 56002
AAXX 25004 62305 32960 02505 10088 20065 40199 52001
AAXX 25004 62306 32560 62508 10108 20090 40194 57001 86800
AAXX 25004 62318 11560 71705 10118 20108 40179 57002 60041 72582 8782/
AAXX 25004 62337 NIL
AAXX 25004 62366 32960 02106 10137 20051 40191 52005
AAXX 25004 62309 32960 02703 10076 20014 40220 54000
AAXX 25004 62405 32960 00000 10104 20048 40200 54000
AAXX 25004 62414 32960 00107 10118 20021 40210 52003
AAXX 25004 62417 32960 02803 10088 20054 40205 57002
AAXX 25004 62440 32960 02408 10129 20085 40178 52004
AAXX 25004 62463 32960 03010 10133 20027 40187 52001
AAXX 25004 62465 32960 02703 10144 20027 40176 52004
AAXX 25004 62419 NIL
AAXX 25004 62309 11560 52205 10095 20076 40179 52001 69931 70262 85800
AAXX 25004 62325 11958 52507 10118 20108 40181 52007 60031 71060 85020
AAXX 25004 62332 32560 42614 10122 20110 40177 52006 84500
AAXX 25004 62387 32960 02602 10078 20029 40209 52001
AAXX 25004 62452 32960 02206 10032 21013 40215 52002
AAXX 25004 62459 32960 00306 10121 20039 40183 57003
AAXX 25004 62357 32560 42803 10124 20088 40183 52006 84500
AAXX 25004 62403 32960 00000 10101 20014 40203 52003
AAXX 25004 62423 32960 02303 10066 20017 40226 54000
AAXX 25004 62458 32960 02707 10166 20052 40180 52001
AAXX 25004 62455 32960 03405 10140 20057 40179 52003
AAXX 25004 62420 32960 00000 10111 20054 40215 52003
AAXX 25004 62432 32960 03402 10084 20038 40208 57005
AAXX 25004 62435 32960 03601 10102 20028 40212 54000
AAXX 25004 62476 32960 03408 10188 20133 40158 56002
AAXX 25003 41150 32962 01704 10177 20113 40155 333 59010
AAXX 25004 40272 31557 42312 10090 20027 39318 40152 54002 70722 84100 333 84835
AAXX 25004 40272 31557 42312 10090 20027 39318 40152 54002 70722 84100 333 84835
BBXX 46181 25001 99538 71288 46/// /1200 10030 40083 57033 22200 00036 10300 70000 333 91201
BBXX 46181 25001 99538 71288 46/// /1200 10030 40083 57033 22200 00036 10300 70000 333 91201
AAXX 25004 68171 NIL
AAXX 25004 68181 NIL
AAXX 25004 68185 NIL
AAXX 25004 68297 NIL
AAXX 25004 68342 NIL
AAXX 25004 68343 NIL
AAXX 25004 68370 NIL
BBXX 46184 25001 99539 71389 46/// /2311 10061 49974 52035 22200 00064 11511 70057 333 91214
AAXX 25004 91723 NIL
AAXX 25004 91759 11598 40614 10305 20239 40080 58013 60001 71522 84800 333 20250 70000 83822
AAXX 25004 91762 11598 61306 10280 20241 40077 58012 60001 71555 86801 333 20244 70002 85820
AAXX 25004 42634 32996 00000 10116 20104 40125 333 59011
AAXX 25004 42647 31995 00000 10136 20121 40126 71000 333 59003
AAXX 25004 42737 32996 00000 10128 20088 40135 333 58003
AAXX 25004 42840 32996 03602 10176 20141 40126 333 58004
AAXX 25004 42909 32996 03206 10174 20099 40119 333 58000
AAXX 25004 42921 32996 00000 10084 20068 40181 333 59001
AAXX 25004 43003 31995 00000 10164 20139 40102 70500 333 59002
AAXX 25004 43014 32996 00000 10120 20081 39465 40136 333 58001
AAXX 25004 43063 32996 00000 10116 20105 39493 40143 333 58002
AAXX 25004 43110 31996 00502 10186 20156 40100 70544 333 58000
AAXX 25004 43117 32996 00000 10140 20065 40131 333 58009
AAXX 25004 43192 32996 00906 10200 20177 40099 333 58006
BBXX 46184 25001 99539 71389 46/// /2311 10061 49974 52035 22200 00064 11511 70057 333 91214
AAXX 25001 24856 32998 80201 11354 21377 30229 40409 52005 80007 333 21392 47021 55000
AAXX 25001 30679 NIL
AAXX 25001 30686 32999 00000 11425 21450 39963 40407 52012 333 21426 47012
AAXX 25001 30961 11899 20000 11323 21340 39512 40407 53015 69982 70270 82040 333 21326
AAXX 25001 30971 32999 00000 11375 21419 39298 40440 52011 333 21376 47004
AAXX 25001 30978 11996 80602 11369 21398 39651 40444 53019 69902 77171 83077 333 21404 47005
AAXX 25001 31513 12998 63202 11250 21255 30024 40273 53014 69902 80001 333 21257 47010
AAXX 25001 31624 NIL
AAXX 25001 31832 11996 80000 11211 21229 30094 40187 53014 69960 77172 8802/ 333 21230 47018
AAXX 25001 31913 33/// /3206 11199 21245 30083 40210 52010 333 21208
AAXX 25001 31939 11998 73503 11214 21254 39858 40209 52007 60010 73673 87070 333 21217 47029
AAXX 25001 32128 11599 70101 11021 21046 39864 49915 51023 60030 70282 83333 333 21029 48048 91004 91105
AAXX 25004 68674 NIL
AAXX 25001 31913 33/// /3206 11199 21245 30083 40210 52010 333 21208
AAXX 25001 31939 11998 73503 11214 21254 39858 40209 52007 60010 73673 87070 333 21217 47029
AAXX 25004 71867 11774 23017 10008 21025 39757 40093 53034 60001 73611 82500 333 10014 21103 70008
AAXX 25004 43086 31996 00000 10130 20115 39938 40124 70500 333 58000
AAXX 25004 43128 31996 00000 10132 20074 39511 40139 70500 333 58009
AAXX 25004 43150 31596 20000 10186 20133 30040 40116 70500 81502 333 58001 81620
AAXX 25004 43185 31996 03602 10182 20165 30100 40104 70500 333 59003
AAXX 25004 43189 32996 20000 10170 20150 30102 40111 81031 333 59002
AAXX 25004 43198 32996 00000 10130 20093 39273 40125 333 58002
AAXX 25004 43201 32996 00000 10156 20113 39378 40114 333 58001
AAXX 25004 43213 32996 00000 10166 20134 39793 40120 333 58003
AAXX 25004 43226 32996 00902 10210 20099 30065 40095 333 59001
AAXX 25004 43233 32996 00903 10180 20133 39290 40108 333 59001
AAXX 25004 43237 32996 00000 10140 20129 39713 40120 333 58001
AAXX 25004 43245 32996 12702 10194 20181 30074 40101 80001 333 59005
AAXX 25004 43279 31896 30000 10200 20187 30085 40103 70500 81031 333 59006 81360 83075
AAXX 25004 43284 32996 00905 10184 20150 39969 40087 333 58003
AAXX 25004 43295 31996 00000 10144 20130 39083 48479 70500 333 58000
AAXX 25004 43311 32996 20000 10234 20228 40084 80001 333 58006 82075
AAXX 25004 43314 32996 30000 10222 20194 40088 80001 333 58001
AAXX 25004 43321 31995 13203 10170 20138 39659 40119 70500 80001 333 58001
AAXX 25004 43329 32996 00000 10216 20191 30081 40095 333 59001
AAXX 25004 43344 31996 22903 10184 20167 30001 40103 70500 80001 333 59003 82075
AAXX 25004 43346 32596 73604 10210 20198 30082 40089 82502 333 58002 82620 86075
AAXX 25004 43353 31496 30503 10238 20176 40082 70500 82071 333 56099 59006 82459 85072
AAXX 25004 43369 32596 50000 10262 20240 40081 83501 333 58003 83620
AAXX 25004 43371 22596 10503 10200 20190 30015 40089 81500 333 58003 6082/ 81520
AAXX 25004 71867 11774 23017 10008 21025 39757 40093 53034 60001 73611 82500 333 10014 21103 70008
BBXX 46004 25001 99509 71361 46/// /1909 10078 40044 57011 22200 00076 11511 70056 333 91211
AAXX 25001 38846 415// 80404 11082 21098 38503 48470 52005 71022 886//
AAXX 25004 89528 46/// /1727 4//// 5////
BBXX 46004 25001 99509 71361 46/// /1909 10078 40044 57011 22200 00076 11511 70056 333 91211
BBXX 46246 25001 99500 71451 46/// ///// 1//// 92359 22200 00071 11411 21007 326// 41409 70056
AAXX 25001 45032 36/// /1401 10067 21014 30256 40273 52001
AAXX 25001 45035 36/// /0304 10096 21029 30230 40274 54000
AAXX 25001 45039 36/// /0203 10104 21031 30254 40270 52001
AAXX 25001 45044 36/// /0007 10098 21024 30168 40265 52004
AAXX 25001 56671 32780 82001 10064 20030 38231 52012 888// 333 05203
AAXX 25001 57378 32962 70000 10029 21032 40327 52010 8703/ 333 00004 31026
AAXX 25001 57426 31550 80401 10037 20036 40309 52007 71000 888// 333 05201 30032
AAXX 25001 57476 32960 80000 10026 20008 40324 52011 8807/ 333 05104 31008
AAXX 25001 57584 32960 70901 10032 21003 40330 52011 8704/ 333 00001 31005
AAXX 25001 57598 32962 61401 11027 21035 40344 52013 86030 333 00100 31024
AAXX 25001 57655 32960 70000 10043 20004 40322 52010 8704/ 333 05104 30015
AAXX 25001 57713 NIL
AAXX 25001 57776 32975 00404 11008 21112 40336 52009 333 00103 31042
AAXX 25001 58321 31957 30000 11019 21046 40347 52019 71000 82041 333 00201
AAXX 25001 58437 32980 10406 11050 21270 38208 52013 81040 333 00305
AAXX 25001 58445 NIL
AAXX 25001 58556 32960 00000 11023 21056 40347 52020 333 00452
AAXX 25001 58569 32461 12502 10036 21051 40335 52018 81100 333 00401 31020
AAXX 25001 58646 32960 00701 11008 21033 40347 52019 333 00351 31018
AAXX 25001 58653 NIL
AAXX 25001 58660 NIL
AAXX 25001 58715 31950 01401 11005 21021 40332 52014 71000 333 00151 31023
AAXX 25001 58730 32965 00201 11003 21042 40341 52019 333 00351 31042
AAXX 25001 58731 32966 13201 11024 21037 40340 52016 81040 333 00352 31030
AAXX 25001 58754 32962 00401 10020 21035 40340 52018 333 00551 31020
AAXX 25001 58911 32970 01101 11007 21035 40325 52013 333 00251 31004
AAXX 25001 58931 32970 00916 11045 21158 38389 52018 333 00202 91122 91509
AAXX 25001 59254 32961 10901 10074 21021 40284 52012 80001 333 00001
AAXX 25001 59632 32961 03402 10079 21021 40271 52018 333 05152 30047
AAXX 25001 59855 32975 03602 10125 20061 40244 52014 333 00154
AAXX 25001 45032 36/// /1401 10067 21014 30256 40273 52001
AAXX 25001 45035 36/// /0304 10096 21029 30230 40274 54000
AAXX 25001 45039 36/// /0203 10104 21031 30254 40270 52001
AAXX 25001 45044 36/// /0007 10098 21024 30168 40265 52004
BBXX 46232 25001 99325 71174 46/// ///// 1//// 90008 22200 00150 11703 20601 328// 41702 70013
BBXX 46247 25001 99378 71228 46/// ///// 1//// 90021 22200 00119 11504 21002 327// 41504 70020
BBXX 46246 25001 99500 71451 46/// ///// 1//// 90029 22200 00071 11411 21007 325// 41409 70057
AAXX 25004 41259 36/// /2716 10094 21203 37126 40298 333 0E/// 58003
AAXX 25004 45011 17958 /0113 10092 20000 40267 52013 60002 71011 333 20086 58019 70000
AAXX 25004 71152 16/// /3210 11102 21153 30214 40228 51023 60001 333 11063 21108 70000
AAXX 25004 71788 16/// /2408 10047 21026 60001 333 10100 20032 70000
AAXX 25004 71792 16/// ///// 11003 21066 60001 333 10054 21020 70000
AAXX 25004 71500 16/// /2003 10012 21073 60001 333 10060 20010 70000
AAXX 25004 71504 16/// ///// 11047 21092 60001 333 10052 21054 70000
AAXX 25004 71541 16/// /1703 11010 21053 60001 333 10024 21010 70000
AAXX 25004 71543 16/// /0303 11021 21043 60001 333 10031 21049 70000
AAXX 25004 71546 16/// /2005 10025 21029 60001 333 10041 20005 70000
AAXX 25004 71547 16/// /1202 10013 21047 60001 333 10027 20005 70000
AAXX 25004 71549 16/// ///// 11001 21055 60001 333 10028 21007 70000
AAXX 25004 71221 16/// /1601 11003 21040 60001 333 10039 21003 70000
AAXX 25004 71226 16/// /1807 10009 21041 60001 333 10055 20009 70000
AAXX 25004 71229 46/// /1606 11033 21069 6///1 333 10034 21043 7////
AAXX 25004 71244 16/// /2508 10034 21024 39033 40274 51012 60001 333 10057 20014 70000
AAXX 25004 71454 16/// /3106 10001 21038 39473 40167 51042 60001 333 10032 21005 70000
AAXX 25004 71461 16/// /1204 10003 21038 60001 333 10033 20003 70000
AAXX 25004 71468 16/// /2110 11018 21042 39762 40086 58023 60001 333 21058 70000
AAXX 25004 71483 16/// ///// 10003 21057 60001 333 10061 20002 70000
AAXX 25004 71067 16/// ///// 11019 21090 60001 333 10043 21019 70000
AAXX 25004 71110 16/// /3107 11101 21137 30141 40203 51023 60001 333 11041 21101 70020 555 10030
AAXX 25004 71315 16/// /0000 11178 21211 30273 40330 50013 60001 333 11134 21182 70000
AAXX 25004 71888 16/// ///// 11009 21058 60001 333 10051 21038 70000
AAXX 25004 71895 16/// ///// 11024 21067 60001 333 10056 21027 70000
AAXX 25004 71283 16/// /1403 11002 21052 60001 333 10025 21012 70000
AAXX 25004 71405 16/// ///// 11028 21067 60001 333 10054 21042 70000
AAXX 25004 71417 17/// /2722 11163 21173 30139 40175 51027 69961 7//4/ 333 11105 21163 70006
AAXX 25004 71426 46/// /3112 11133 6///1 333 11123 21178 7////
AAXX 25004 71010 16/// /2605 10003 21067 60001 333 10054 21007 70000
AAXX 25004 71011 16/// ///// 10011 21078 60001 333 10067 21015 70000
AAXX 25004 71024 16/// /0302 11051 21077 60001 333 10029 21051 70000
AAXX 25004 71049 16/// /0130 11283 39920 49944 50007 60001 333 11203 21283 70000
AAXX 25004 71673 16/// ///// 11031 21081 60001 333 10031 21037 70000
AAXX 25004 71690 16/// ///// 10012 21034 60001 333 10023 21040 70000
AAXX 25004 71359 16/// /2804 11002 21055 60001 333 10055 21018 70000
AAXX 25004 71788 16/// /2408 10047 21026 60001 333 10100 20032 70000
AAXX 25004 71792 16/// ///// 11003 21066 60001 333 10054 21020 70000
AAXX 25004 71315 16/// /0000 11178 21211 30273 40330 50013 60001 333 11134 21182 70000
AAXX 25004 71152 16/// /3210 11102 21153 30214 40228 51023 60001 333 11063 21108 70000
AAXX 25004 71067 16/// ///// 11019 21090 60001 333 10043 21019 70000
AAXX 25004 71110 16/// /3107 11101 21137 30141 40203 51023 60001 333 11041 21101 70020 555 10030
AAXX 25004 71888 16/// ///// 11009 21058 60001 333 10051 21038 70000
AAXX 25004 71895 16/// ///// 11024 21067 60001 333 10056 21027 70000
AAXX 25004 71359 16/// /2804 11002 21055 60001 333 10055 21018 70000
AAXX 25004 71010 16/// /2605 10003 21067 60001 333 10054 21007 70000
AAXX 25004 71011 16/// ///// 10011 21078 60001 333 10067 21015 70000
AAXX 25004 71024 16/// /0302 11051 21077 60001 333 10029 21051 70000
AAXX 25004 71049 16/// /0130 11283 39920 49944 50007 60001 333 11203 21283 70000
AAXX 25004 71500 16/// /2003 10012 21073 60001 333 10060 20010 70000
AAXX 25004 71504 16/// ///// 11047 21092 60001 333 10052 21054 70000
AAXX 25004 71541 16/// /1703 11010 21053 60001 333 10024 21010 70000
AAXX 25004 71543 16/// /0303 11021 21043 60001 333 10031 21049 70000
AAXX 25004 71546 16/// /2005 10025 21029 60001 333 10041 20005 70000
AAXX 25004 71547 16/// /1202 10013 21047 60001 333 10027 20005 70000
AAXX 25004 71549 16/// ///// 11001 21055 60001 333 10028 21007 70000
AAXX 25004 71221 16/// /1601 11003 21040 60001 333 10039 21003 70000
AAXX 25004 71226 16/// /1807 10009 21041 60001 333 10055 20009 70000
AAXX 25004 71229 46/// /1606 11033 21069 6///1 333 10034 21043 7////
AAXX 25004 71244 16/// /2508 10034 21024 39033 40274 51012 60001 333 10057 20014 70000
AAXX 25004 71405 16/// ///// 11028 21067 60001 333 10054 21042 70000
AAXX 25004 71417 17/// /2722 11163 21173 30139 40175 51027 69961 7//4/ 333 11105 21163 70006
AAXX 25004 71426 46/// /3112 11133 6///1 333 11123 21178 7////
AAXX 25004 71454 16/// /3106 10001 21038 39473 40167 51042 60001 333 10032 21005 70000
AAXX 25004 71461 16/// /1204 10003 21038 60001 333 10033 20003 70000
AAXX 25004 71468 16/// /2110 11018 21042 39762 40086 58023 60001 333 21058 70000
AAXX 25004 71483 16/// ///// 10003 21057 60001 333 10061 20002 70000
AAXX 25004 71673 16/// ///// 11031 21081 60001 333 10031 21037 70000
AAXX 25004 71690 16/// ///// 10012 21034 60001 333 10023 21040 70000
AAXX 25004 71283 16/// /1403 11002 21052 60001 333 10025 21012 70000
BBXX 46146 25001 99493 71237 46/// /1007 10080 40272 57017 22200 00070 10301 70005 333 91208
BBXX 46243 25001 99462 71241 46/// ///// 1//// 90029 22200 00082 11305 21003 326// 41304 70026
BBXX 46236 25001 99368 71219 46/// ///// 1//// 90020 22200 00123 11305 21002 328// 41304 70024
BBXX 46229 25001 99438 71246 46/// ///// 1//// 90021 22200 00098 11406 21003 327// 41405 70028
BBXX 46225 25001 99329 71174 46/// ///// 1//// 90014 22200 00149 11702 20501 327// 41701 70008
BBXX 46215 25001 99352 71209 46/// ///// 1//// 90008 22200 00149 11704 21001 324// 41704 70020
AAXX 25001 56144 32980 00401 11027 21147 36855 52014 333 00205 31040
AAXX 25001 56152 32980 23201 11128 21171 36304 52013 80002 333 00206
AAXX 25001 56167 32980 02501 11065 21099 37085 52017 333 00202
AAXX 25001 56182 32980 00000 11100 21133 37223 52017 333 05103
AAXX 25001 56357 32680 10000 11059 21242 36445 52012 81400 333 00106
AAXX 25001 56586 11458 83602 11029 21036 38092 52011 69901 76666 885// 333 05251 31018 79999 93428
AAXX 25001 56748 32580 70000 10059 20047 38366 52006 84440 333 05103 30043
AAXX 25001 56763 32680 61601 10063 20054 40198 52014 82402 333 05256
AAXX 25001 56768 32675 81601 10061 20051 38205 52004 884// 333 05102 79999
AAXX 25001 56838 31/01 90000 10122 20113 40167 52007 74740 333 00005
AAXX 25001 56886 31756 81801 10026 20014 38341 52014 71000 885// 333 05200 30046
AAXX 25001 56946 32568 71601 10093 20092 40182 52008 874// 333 05101
AAXX 25001 56959 32762 80000 10157 20142 40184 52008 884// 333 00100
AAXX 25001 56969 32960 71801 10109 20101 40214 52013 82038 333 00253
AAXX 25001 57731 32660 80000 10061 20031 40309 52008 885// 333 05205
AAXX 25001 57766 31957 01601 10000 21019 40332 52014 71000 333 00000 31020
AAXX 25001 57845 32962 80000 10001 21034 40319 52012 8807/ 333 05102 31021
AAXX 25001 57853 32961 10701 10011 21032 40330 52011 81040 333 00001 31018
AAXX 25001 57916 32665 81101 10077 20057 40288 52010 885// 333 05202
AAXX 25001 57922 32664 70000 10036 21028 40302 52008 875// 333 05101 30037
AAXX 25001 57932 31759 72201 10059 20024 40308 52010 71000 875// 333 05202 30035
AAXX 25001 58338 32962 71801 10001 21051 40337 52017 8704/ 333 00201
AAXX 25001 59007 32667 80401 10052 21026 40276 52016 885// 333 05202
AAXX 25001 59046 32962 73601 10084 21034 40292 52011 8703/ 333 05100 30011
AAXX 25001 59058 32962 31401 10016 21013 40302 52013 80002 333 00155 30003
AAXX 25001 59072 32962 20000 11008 21012 40314 52010 80002 333 00154 31039
AAXX 25001 59087 32962 10904 10063 21088 40294 52010 80002 333 00251 30025
AAXX 25001 59209 32763 73201 10057 20032 40285 52013 875// 333 05151 30040
BBXX 46146 25001 99493 71237 46/// /1007 10080 40272 57017 22200 00070 10301 70005 333 91208
BBXX 42013 25001 99272 70829 46/// ///// 1//// 40229 92340 22200 00207
BBXX 41010 25001 99289 70785 46/// /0508 10230 40244 90020 22200 00238 10803 20602 300// 40802 70014 333 91209 555 11081 22085
BBXX 41009 25001 99285 70802 46/// /0506 10242 20204 40244 90020 22200 00245 10902 20501 300// 40902 70010 333 91207 555 11058 22061
BBXX 44100 25001 99363 70756 46/// ///// 1//// 90022 22200 00125 10602 20602 70011
BBXX 41110 25001 99341 70777 46/// ///// 1//// 90021 22200 00141 10801 20801 70007
BBXX 42099 25001 99273 70842 46/// ///// 1//// 90027 22200 00230 10502 20502 70009
BBXX 41113 25001 99284 70805 46/// ///// 1//// 90021 22200 00225 11001 21001 70006
BBXX 41112 25001 99307 70813 46/// ///// 1//// 90021 22200 00169 10603 20603 70015
BBXX 42361 25001 99276 70925 46/// ///15 10222 20189 40207 52011 90030 555 11118 22126
BBXX 42362 25001 99278 70907 46/// /0811 10211 20189 40227 90030
BBXX 42363 25001 99282 70892 46/// /0810 10200 20167 40237 90030 333 91212
BBXX 42364 25001 99291 70881 46/// /0907 10183 20156 40247 90030
AAXX 25004 48647 11360 71001 10254 20241 30066 40091 60084 70562 82952 333 20250 50230 58003 70076 81707 81917 86364
AAXX 25001 15562 12481 83604 11018 21072 30169 40245 52004 60001 885// 222// 2//01 333 11012 21020 555 563// 92024 92428
BBXX KS093 25004 99249 70776 43/// ///// 22244
BBXX KS094 25004 99141 70609 43/// /0810 10253 40164 22200 06257
BBXX KS007 25004 99267 70801 43/// ///// 10239 40191 22200
BBXX KS089 25004 99374 70122 43/// /0320 10147 22243
AAXX 25001 23219 42998 30000 11166 21185 39977 40089 57010 80001
BBXX 44258 25001 99445 70634 46/// /3610 11075 40292 52029 22200 00060 11003 70017 333 91213
BBXX 44258 25001 99445 70634 46/// /3610 11075 40292 52029 22200 00060 11003 70017 333 91213
AAXX 25004 96001 NIL
AAXX 25004 96015 11450 70000 10256 20241 30068 40075 5//// 69904 76062 86972 333 20202 50020 55020 56000 57901 59003 82913 84614 80980
AAXX 25004 96033 NIL
AAXX 25004 96075 01558 60000 10239 20236 30074 40080 5//// 60024 70562 82571 333 20222 50380 55018 56000 58010 69977 82620 84362
AAXX 25004 96087 01458 80105 10249 20238 30069 40103 51023 60544 76166 8112/ 333 20232 5///0 55005 56809 58026 60047 81613 88460
AAXX 25004 96171 01440 70000 10240 20232 30063 40087 57003 60054 71562 85522 333 20234 50080 55000 56000 58004 69997 85613
AAXX 25004 96207 NIL
AAXX 25004 96505 11310 80000 10188 20184 39059 4//// 5//// 60054 71042 886// 333 20184 55000 56099 58000 88710
AAXX 25004 96525 12460 82204 10254 20239 30084 40091 52024 69954 82226 333 20243 50026 55026 58009 82915 85280
AAXX 25004 96529 12457 70000 10246 20240 30080 40104 52019 60124 84121 333 20236 50220 55015 56000 58000 84818
AAXX 25004 96535 01430 80806 10248 20244 30082 40103 5//// 60394 76366 8622/ 333 20242 50550 55062 56109 57812 58017 60328 86814 88460 80867
AAXX 25004 96557 01440 80000 10245 20240 30039 40088 60254 70522 8592/ 333 20218 50890 55074 56209 57920 57820 58010 60258 82912 83813 88460 80980 80857
AAXX 25004 96559 11303 80000 10238 20238 30053 40090 53002 60034 74664 8512/ 333 20230 50310 55057 56009 57804 58008 85808 88462 80846
AAXX 25004 96565 31350 80000 10242 20239 30053 40105 5//// 70522 8572/ 333 20234 50400 55057 56009 58012 85708 88457
AAXX 25004 96595 11220 80000 10237 20234 30058 40110 60204 76166 8662/ 333 20237 50370 55065 56609 58018 86705
AAXX 25004 96607 12457 82505 10250 20235 30081 40096 52016 69954 8692/ 333 20242 50290 55015 56609 57950 58010 81915 85612 88458 809//
AAXX 25004 96615 12458 70704 10256 20247 30078 40092 60064 83171 333 20248 50840 55088 56600 57863 58014 83812 87362 80856
AAXX 25004 96695 01457 80000 10256 20245 30075 40081 5//// 60024 70262 85231 333 20248 50430 55048 56000 57805 58013 60028 85616 83360 80858
AAXX 25004 96737 31450 82806 10244 20235 30040 40070 53007 71522 85221 333 20238 50330 55008 56600 58014 85615
AAXX 25004 96739 11450 70000 10247 20237 30041 40090 52018 60024 70562 83532 333 20237 50410 55022 56000 58028 83618
AAXX 25004 96741 32559 72903 10280 20246 30075 40079 52011 82571 333 20270 55011 56000 58011 83623 85460
AAXX 25004 96745 NIL
AAXX 25004 96751 01557 70000 10205 20190 39021 48920 53006 60044 70562 84571 333 20197 50090 55008 56000 58009 69917 84620
AAXX 25004 96791 NIL
AAXX 25004 96797 12560 62203 10256 20244 30077 40083 52017 60214 82531 333 20248 50860 55062 5//// 56000 58013 82620
AAXX 25004 96837 31558 70000 10266 20236 30079 40082 52012 70522 82272 333 20258 50120 55050 56000 57800 59001 82823
AAXX 25004 96925 01461 82802 10255 20246 30074 40079 52009 61614 79196 8697/ 333 20246 5//// 55015 56609 57960 57860 58010 60277 81917 85817 86460 80980 80860
AAXX 25004 96933 12560 62802 10264 20249 30075 40079 52015 60214 81571 333 20254 50541 55048 56200 58014 81620 84460
AAXX 25004 96937 12959 70000 10271 20253 30071 40076 52012 60144 87009 333 20253 50410 55042 56000 58011 87280
AAXX 25004 96973 11559 23003 10268 20238 30068 40074 52012 60744 70292 81135 333 20254 50001 55003 56000 57803 58008 81820 80850
AAXX 25004 96987 32560 30000 10260 20239 30018 40077 52014 83531 333 20246 50581 55040 56000 58004
AAXX 25004 97014 12560 30901 10291 20238 39988 40081 52008 60034 81511 333 20226 50240 55000 55508 50833 56000 59008 81624
AAXX 25004 97028 12565 60000 10268 20226 30061 40067 58001 69904 83221 333 20232 50560 55022 56000 57802 59011 83820 84460 80860
AAXX 25004 97048 12460 70000 10258 20231 30045 40069 52010 69904 82231 333 20220 50220 55008 56000 57803 58000 82817 86360 80860
AAXX 25004 97072 01559 60000 10264 20231 39976 40076 53009 69904 70162 82521 333 20232 50440 55046 56000 58002 69907 82620 84460
AAXX 25004 97086 32560 60000 10284 20253 30053 40078 51010 83211 333 20260 50410 55046 56000 57803 56000 82820 85460 80858
AAXX 25004 97096 12460 80000 10266 20251 30075 40096 52024 60064 81221 333 56000 57803 58009 81818 87460 80857
AAXX 25004 97120 31461 62704 10286 20240 30045 40078 51019 71522 84831 333 20252 50490 55051 56600 57862 58012 83818 80860
AAXX 25004 97146 31456 42805 10264 20246 30008 40069 5//// 70511 83572 333 20244 56000 58006 83613
AAXX 25004 97180 01460 70403 10275 20259 30064 40082 53013 60024 70262 81232 333 20252 50150 55030 55508 51534 56000 58003 69927 81819 83360 85080
AAXX 25004 97192 01430 81803 10246 20243 30043 40100 57026 60044 79596 8692/ 333 20240 50441 55030 56209 57923 58016 60037 86916 88460 80917
AAXX 25004 97230 32460 73204 10288 20247 30065 40072 52012 83932 333 20258 50520 55080 56000 57902 58002 81917 85359 80958
AAXX 25004 97260 32568 41404 10280 20242 30058 40065 52009 81101 333 20242 50610 55069 56000 58002 81820 84080
AAXX 25004 97270 12461 30000 10280 20247 30062 40067 51007 60014 81131 333 20250 50500 55032 56000 58002 81813 83080
AAXX 25004 97300 32562 50000 10298 20245 30033 40073 52004 82231 333 20254 50800 55075 56000 57803 58008 82820 80856
AAXX 25004 97340 12570 70000 10282 20265 30052 40067 51011 60024 81102 333 50570 55090 56000 58003 81820 87080
AAXX 25004 97372 12462 50000 10279 20255 30028 40051 5//// 60154 83231 333 20240 50230 50045 56000 58000 83819
AAXX 25004 97430 12560 73505 10276 20250 30047 40076 52014 60084 84252 333 20246 50400 55000 56700 57871 59007 84820 80860
AAXX 25004 97460 11459 52502 10286 20251 30038 40052 52002 60014 70162 83876 333 20242 50050 55000 56600 57862 59005 82817 80858
AAXX 25004 97502 11450 70803 10272 20255 30065 40069 52015 69904 70564 85532 333 20244 55014 56000 58007 85612
AAXX 25004 97530 12460 62705 10282 20250 30059 40064 52011 60074 82232 333 20248 50/// 56000 57804 58010 82814 84360 80833
AAXX 25004 97560 11460 72204 10288 20257 30056 40071 51020 60031 70262 83867 333 20250 5///0 55073 56000 57804 58018 82818 86361 87279 80860
AAXX 25004 97580 12462 12462 70000 10288 20248 30076 40083 52020 60214 81248 333 20232 55065 56000 57804 58014 81814 85275 80856
AAXX 25004 97600 12460 52803 10296 20247 30057 40053 5//// 60124 82231 333 20256 5//// 55000 56600 57863 58000 82818 84360 80858
AAXX 25004 97686 NIL
AAXX 25004 97690 01457 80000 10262 20247 39978 40080 52012 60054 76162 85867 333 20256 55/// 56000 57802 60027 84815 88279
AAXX 25004 97724 11459 63408 10291 20237 30042 40058 52015 60064 70522 84832 333 20250 50650 55032 56700 57871 59007 83818 80850
AAXX 25004 97748 12465 43206 10296 20244 30060 40062 51004 60144 81132 333 20250 50640 55037 56700 57870 58004 81816 83075 80856
AAXX 25004 97760 12460 73008 10300 20270 30056 40065 52013 60044 83232 333 20256 55031 56000 57801 58006 83816 80860
AAXX 25004 97796 11458 60000 10277 20250 30019 40069 50012 60664 70522 81532 333 20232 55053 56000 58003 81615 85362
AAXX 25004 97810 01458 73210 10276 20259 30031 40040 53014 60084 76162 85872 333 20252 50420 55000 56700 57871 59003 60087 82819 80858
AAXX 25004 97876 32360 60000 10274 20242 30074 40104 51008 85832 333 20242 55070 57800 58003 82809 83610
AAXX 25004 97900 NIL
AAXX 25004 97980 02460 70405 10271 20226 30051 40058 52014 60094 86842 333 20240 50130 55000 56000 58004 82816 84620
AAXX 25004 97008 01457 73604 10271 20246 30054 40065 51006 60024 71562 85272 333 20240 50130 55000 56800 57881 58001 69987 85818 80860
AAXX 25004 97016 12562 40000 10288 20229 30064 40066 52004 60044 82131 333 20248 50080 55000 56000 57803 59006 82820 80856
AAXX 25004 97126 12460 50302 10260 20233 30021 40082 51016 60254 81520 333 20214 50470 55056 56000 58006 81618 85460
AAXX 25004 97142 NIL
AAXX 25004 97182 01468 80703 10273 20252 30073 40077 52015 60044 70162 8397/ 333 20248 50310 55004 56009 57901 58029 60037 81918 82819 85460 80960
AAXX 25004 97240 11458 10260 20252 39964 40079 52013 60014 70510 81101 333 20239 50220 55048 56000 58013 81816
AAXX 25004 97284 12462 40000 10226 20180 38848 40086 5//// 60074 82101 333 20174 50250 55049 56000 58007 82814
AAXX 25004 97310 32568 50000 10290 20247 30054 40066 5//// 81102 333 20218 50460 55053 56000 58009 81820 84080
AAXX 25004 97320 12565 63003 10313 20244 30045 40058 5//// 69904 81121 333 20272 50520 55092 56000 58006 81820 83460
AAXX 25004 97378 32570 60000 10296 20271 39889 40051 5//// 86201 333 20244 50490 55060 56600 59006 86820
AAXX 25004 97380 32564 30000 10304 20252 30042 40062 5//// 81131 333 20255 50100 55070 56000 58003 81820
AAXX 25004 97406 11460 72405 10260 20242 30037 40062 52008 60024 70262 84931 333 20222 50120 55000 56000 57981 57881 58004 81917 83818 85360 80975 80860
AAXX 25004 97570 11460 73602 10283 20241 30066 40073 51014 69924 70164 81151 333 20240 55080 56600 58017 81815 87362
AAXX 25004 97630 12467 53508 10298 20230 39904 40064 51013 60054 83833 333 20242 50596 55400 56000 57801 58007 82813 84613 80870
AAXX 25004 97682 12468 71605 10282 20241 30055 40062 52007 60124 83852 333 20238 55065 56000 57804 58015 81814 83620 86362 80850
AAXX 25004 97698 11458 72507 10282 20244 30079 40086 50015 69904 70562 84872 333 20266 55048 56000 57802 58021 82814 82615 85460 80859
AAXX 25004 97700 NIL
AAXX 25004 97722 NIL
AAXX 25004 97780 11460 60000 10202 20158 38229 40241 57003 60254 70266 83951 333 20150 55042 56000 57900 81912 82812 84360
AAXX 25004 97790 11459 72903 10296 20251 30016 40037 52016 60024 70522 83872 333 20226 50470 55022 56600 57862 59007 82818 80858
AAXX 25004 96009 01456 71208 10246 20228 30033 40068 52004 69924 70262 84922 333 20232 50240 55003 56000 57902 59016 69927 82915 82617 80965
AAXX 25004 96011 12560 71204 10246 20233 30045 40071 52006 60044 83532 333 20236 50250 55009 56000 58013 83620
AAXX 25004 96035 11450 70000 10246 20237 30049 40087 53010 69934 70522 83536 333 20239 50280 55012 56000 58002 83618
AAXX 25004 96073 01407 80000 10240 20234 30086 40098 56001 69904 76062 8597/ 333 20213 50580 55010 56009 57900 58022 69907 85910 80900
AAXX 25004 96091 01430 80107 10248 20242 30073 40096 51008 62074 76196 8552/ 333 20242 5//// 55000 56809 58017 60587 85613 88460
AAXX 25004 96109 01450 80105 10238 20235 30048 40087 53005 60334 70562 86672 333 20220 50410 55000 56800 58009 60137 86612
AAXX 25004 96145 01420 83616 10260 20236 30090 40092 5//// 60074 76062 8652/ 333 20240 50003 55000 56809 58024 60017 86615 88460
AAXX 25004 96147 NIL
AAXX 25004 96163 12558 80000 10240 20234 30082 40085 52014 60034 83521 333 20240 55000 56000 58005 83620
AAXX 25004 96179 01457 82805 10210 20207 30064 40099 52014 61194 76162 8422/ 333 20206 5//// 55000 56000 57802 58021 60337 84817 80850
AAXX 25004 96195 01459 80107 10234 20231 30067 40104 52017 60044 76166 8557/ 333 20236 50211 55004 56009 69947 85612 88460
AAXX 25004 96221 12460 83005 10246 20229 30077 40092 52015 8352/ 333 20240 50350 55000 56999 58018 83613 87360
AAXX 25004 96237 11457 80000 10245 20239 30046 40088 52013 60144 70262 83278 333 20238 50500 55002 56000 57801 58014 83816 84460 86280 80858
AAXX 25004 96249 01459 72905 10252 20242 30021 40082 52006 60014 72162 85932 333 20250 50190 55046 56600 57961 57861 58013 69937 81917 84820 80981
AAXX 25004 96253 12558 70000 10253 20238 30042 40063 52013 60034 82832 333 20249 50224 55025 55508 50637 56000 57800 58010 81820 86360
AAXX 25004 96295 NIL
AAXX 25004 96509 12460 70000 10260 20245 30077 40088 53021 60114 83271 333 20245 50274 55006 56000 57804 58009 83815 80865
AAXX 25004 96581 12458 70303 10244 20241 30081 40088 53009 60154 86970 333 20243 50450 55075 56700 57972 58022 81912 86810 80980 80856
AAXX 25004 96633 NIL
AAXX 25004 96645 11440 70000 10246 20239 30050 40082 52012 60054 71022 85572 333 20234 50270 55045 56000 58014 85612
AAXX 25004 96655 12440 80000 10254 20250 30075 40109 52014 69964 86573 333 20244 50240 55035 56600 58017 86611
AAXX 25004 96685 32460 70000 10260 20244 30069 40095 52017 84511 333 20250 50500 55040 56000 58011 84615
AAXX 25004 96749 31450 62102 10267 20234 30073 40086 53019 70522 83921 333 20249 50630 55038 56000 57972 57873 58015 81919 82821 83462 80980
AAXX 25004 96781 NIL
AAXX 25004 96805 01556 80000 10250 20244 30084 40093 51018 60164 76166 8327/ 333 20250 50000 55062 56009 57801 58017 60147 83820 88460 80860
AAXX 25004 96839 31550 70000 10265 20235 30076 40083 52017 70522 83532 333 20250 50511 55058 56000 58017 83620
AAXX 25004 96935 11530 62804 10270 20249 30070 40077 52012 69944 70522 81531 333 20253 50280 55020 56000 58012 81620 85080
BBXX MINUK01 2500/ 99602 70012 46/// ///// 10078 49994 52022
BBXX MINUK04 2500/ 99555 10084 46/// ///// 10070 4//// 52008
AAXX 25004 89016 46/85 /1008 11051 29073 39343 4//// 5////
AAXX 25004 89003 46/80 /3221 11073 29065 38943 4//// 5////
AAXX 25004 89507 46/89 /1411 11277 29065 36766 4//// 5////
BBXX 44140 25001 99429 70515 46/// /0009 10101 40158 5//// 22200 00079 11005 70027 333 91210
AAXX 25001 98134 NIL
AAXX 25001 98223 NIL
AAXX 25001 98232 31565 80409 10220 20210 40183 53031 71542 8557/ 222// 20105 333 20215 56199 59033 85620 88358
AAXX 25001 98325 31460 81803 10246 20210 40123 53023 70544 8457/ 20501 333 20220 56999 58018 84616 88358 98328
AAXX 25001 98328 31462 81404 10162 20149 38534 40126 53028 74044 8557/ 333 20124 50200 55007 56999 58014 85613 88358
AAXX 25001 98330 31475 60202 10253 20224 30104 40136 53025 70544 82206 333 20248 56999 58028 82818 86077 555 00040
AAXX 25001 98336 31468 80408 10218 20211 30164 40169 52028 71522 8257/ 333 20210 56199 58044 82615 88357
AAXX 25001 98429 31560 60101 10258 20202 40129 52017 70544 83830 333 20249 56999 58025 83823 85360
AAXX 25001 98430 11458 63201 10240 20209 40124 52014 69924 70544 82830 333 20235 56999 59022 79992 82818 84358
AAXX 25001 98431 11468 80602 10238 20226 30082 40129 53021 60094 72582 8387/ 333 20220 56999 58028 70086 88458 555 20020
AAXX 25001 98440 11460 80405 10253 20235 30126 40131 52020 60084 72586 8527/ 333 20235 56199 58033 70075 85815 88357 555 20035
AAXX 25001 98444 11458 80406 10244 20236 30105 40124 53036 60134 76186 84377 333 20195 56899 58039 70126 82918 86459 88270 555 20018
AAXX 25001 98526 NIL
AAXX 25001 98531 11570 60609 10290 20234 30091 40095 53018 69944 70544 81236 333 20250 56199 58018 79994 81820 86075
AAXX 25001 98536 11470 80405 10242 20221 39908 40108 52018 60284 70584 8327/ 222// 20101 333 20232 56199 58021 70278 83818 88357 555 0//// 20010
AAXX 25001 98543 11470 80000 10251 20244 30104 40115 53029 60234 78082 84507 333 20239 56199 58024 70234 84618 88272 555 20014
AAXX 25001 98550 NIL
AAXX 25001 98618 NIL
AAXX 25001 98630 NIL
AAXX 25001 98637 NIL
AAXX 25001 98646 11560 70103 10260 20252 30091 40119 52017 60244 76062 83270 333 20244 56199 58020 70240 83820 87459 555 20234
AAXX 25001 98653 11458 80000 10260 20247 30039 40084 52024 60144 76086 8327/ 333 20220 56999 58018 70142 83817 88357 555 20140
AAXX 25001 98741 11468 80402 10267 20252 40076 52009 60044 71582 83907 333 20252 56199 58006 70042 83917 88275 555 20042
AAXX 25001 98747 11458 82202 10238 20217 39883 40088 52025 69904 70584 8487/ 333 20233 56999 58018 79999 84618 88358
AAXX 25001 98753 11458 83602 10250 20242 40099 51022 60034 76186 83827 333 20246 55096 2//// 56899 58017 70032 83616 86459 88279 555 20032
AAXX 25001 98755 11468 80000 10245 20237 40097 53010 60434 78082 8252/ 333 20240 56899 58021 70428 82618 88458 555 20428
AAXX 25001 98836 11462 70402 10268 20247 40090 53021 60034 70182 81878 333 20250 56999 58015 70030 81818 83362 86281 555 20030
BBXX 44140 25001 99429 70515 46/// /0009 10101 40158 5//// 22200 00079 11005 70027 333 91210
BBXX 46036 25001 99484 71339 46/// /2008 10087 40107 57003 22200 00082 11509 70045 333 91209
BBXX 46036 25001 99484 71339 46/// /2008 10087 40107 57003 22200 00082 11509 70045 333 91209
AAXX 25001 88900 46/// /2009 10020 21001 39888 49891 51029 333 10062 20016
AAXX 25001 40859 12965 00000 10014 21068 38718 40161 54000 60001 333
BBXX 62123 25004 99563 10022 41/96 /2429 10098 40139 53002 70222 8//// 22200 20301 325// 40610 5////
BBXX 62303 25004 99516 70051 46/// /2521 10115 20090 40264 51003 22200 00111 10707 70035 333 90710 91129
BBXX 62001 25004 99453 70050 46/// /0803 10112 20021 40378 57004 22200 00140 10805 70025
BBXX 62105 25004 99554 70122 46/// /2213 10106 20100 40098 58016 22200 00107 11013 70064 333 90710 91126
BBXX 63106 25004 99610 10017 46/// /2532 10073 49945 53012 22200
BBXX 63105 25004 99610 10017 47596 ///// 10075 20026 49946 53013 700// 22200
BBXX 62103 25004 99499 70029 46/98 /2631 10114 20078 40302 57008 22200 00120 10704 70019 333 90710 91137
BBXX DANV 25004 99326 10287 41598 43121 10170 20106 40160 54000 7//11 84400 22224 04180 2//// 80133
BBXX DPLE 25003 99506 10005 41298 62630 10110 20082 40285 52005 70222 85769 22264 00110 2//// 80095
AAXX 25004 83437 32597 32703 10240 20201 39405 40113 82260 333 10306 29070 55109 58006
AAXX 25004 83579 32596 60902 10226 20175 39028 40134 86200 333 10302 29072 55078 58014
AAXX 25004 83592 325// 00000 10216 20188 39460 40135 333 10304 29072 55120 58004
AAXX 25001 40859 12965 00000 10014 21068 38718 40161 54000 60001 333
BBXX 46238 25001 99334 71195 46/// ///// 1//// 90020 22200 00145 11705 20501 330// 41704 70023
BBXX 46239 25001 99363 71221 46/// ///// 1//// 90021 22200 00136 11406 21002 330// 41406 70031
AAXX 25004 78318 12565 21004 10244 20206 30188 40192 51011 60001 82800 333 10292 20210 30/// 56900 58010 81820
AAXX 25004 78325 11530 30807 10246 20195 30140 40198 51012 60001 70400 82240 333 10280 20209 30/// 56290 58012 82820
AAXX 25004 78333 12410 40401 10250 20205 30183 40190 53015 60001 84200 333 10288 20191 30/// 56100 58015 84818 555 10402
AAXX 25004 78348 11556 10506 10237 20212 30141 40193 53012 60001 70500 81200 333 10268 20227 30/// 56200 57855 58008 81820 555 10902
AAXX 25004 78349 12550 10201 10236 20208 30070 40180 53002 60001 81400 333 10299 20195 30/// 56900 59009 81820
AAXX 25004 78353 12560 30703 10251 20217 30157 40179 53009 60001 83200 333 10274 20230 30/// 50404 56900 58002 83820
AAXX 25004 78360 12560 41204 10274 20205 30161 40173 53010 60001 84400 333 10299 20208 30/// 56900 57859 58006 82820 92023
AAXX 25004 78369 11464 10708 10259 20210 30166 40175 52013 60001 70500 81200 333 10279 20255 30/// 56900 58006 70002 81818 92045
AAXX 25004 42309 31994 10000 10078 20069 40143 71000 81030 333 58010
AAXX 25004 42410 31992 90000 10114 20114 40147 74244 333 58011
AAXX 25004 42415 31995 00000 10094 20090 40161 71000 333 58006
AAXX 25004 42492 31993 00000 10060 20056 40140 74640 333 58002
AAXX 25004 42587 31995 00000 10074 20051 40140 70500 333 58000
AAXX 25004 42591 31994 02704 10080 20063 40152 71000 333 58003
AAXX 25004 42623 31495 70000 10098 20094 39263 40164 70522 85530 333 58008 85618 85360
AAXX 25004 42701 31995 03203 10090 20048 39389 40148 70500 333 59002
AAXX 25004 42724 31991 90000 10128 20121 40123 74744 333 59004
AAXX 25004 42798 31995 30000 10102 20068 40142 70522 83030 333 59004 83360
AAXX 25004 42886 31996 00000 10106 20086 40141 70500 333 59001
AAXX 25004 42971 31994 33605 10150 20096 40128 71011 82031 333 58005 82360
AAXX 25004 43333 21495 80924 10270 20229 40053 70562 8547/ 333 56290 59020 6019/ 83616 84818 88458
AAXX 25001 20046 41394 81315 11064 21068 39855 49886 57020 77173 8872/ 333 91122 92982
AAXX 25001 20069 NIL
AAXX 25001 20087 31998 41409 11315 21345 30162 40174 57016 73630 82031 333 21317 48018 91112
AAXX 25001 20292 NIL
AAXX 25001 20353 46/// /1414 11042 21057 39932 49935 57013 333 91119
AAXX 25001 20667 41995 81610 11108 21121 30018 40025 57013 73832 8805/
AAXX 25001 20674 31998 52006 11260 21284 30037 40101 58011 73631 83031 333 21270 48023 91108
AAXX 25001 20744 41996 81913 11002 21017 39861 49879 57009 77187 8807/ 333 91119
AAXX 25001 20891 31995 00504 11438 21456 30153 40204 54000 71000 333 21442 47/// 91105
AAXX 25001 23022 41596 71913 11135 21155 39961 40024 57014 73832 87500 333 91117
AAXX 25001 23032 41997 51905 11124 21137 30035 40066 58012 70231 80001
AAXX 25001 23058 41498 81803 11103 21109 30137 40141 54000 70232 885// 333 88611
AAXX 25001 23242 NIL
AAXX 25001 23256 42498 82002 11104 21117 30127 40163 52004 885// 333 88613
AAXX 25001 23330 42197 80000 11259 21277 30106 40129 52002 8463/ 333 84702 93520
AAXX 25001 23445 41997 81201 11193 21212 30120 40147 57003 70272 8801/
AAXX 25001 23552 41496 80901 11252 21270 30144 40182 52003 70272 885// 333 88614
AAXX 25001 23631 41997 80000 11126 21132 30094 40137 57002 77172 8807/
AAXX 25001 23662 41997 80000 11273 21298 30145 40194 52010 77871 80002
AAXX 25001 23724 42998 82001 11097 21105 30070 40137 53002 8805/
AAXX 25001 23734 41998 80000 11104 21110 30054 40149 52002 70272 8802/
AAXX 25001 23849 41356 80000 11117 21132 40173 57003 71022 8262/
AAXX 25001 23867 41997 80000 11158 21177 30122 40199 52004 77172 8807/
AAXX 25001 23933 41696 81301 11112 21122 30099 40158 57002 77187 8652/ 333 86641
AAXX 25001 28064 42598 82001 11117 21144 30065 40161 57003 885//
AAXX 25001 28275 42597 81402 11133 21168 30111 40174 57004 885//
AAXX 25001 28493 42997 01501 11170 21189 30112 40210 57007
AAXX 25001 28698 42997 00000 11239 21257 30039 40209 57012
AAXX 25001 23426 41984 80000 11229 21248 30104 40130 57001 70272 80001
AAXX 25001 23625 41998 80000 11104 21117 30094 40129 52003 70272 8801/
AAXX 25001 28076 42697 80000 11148 21161 30094 40170 57001 885//
AAXX 25001 28367 42584 72201 11200 21219 30030 40169 57005 85501
AAXX 25001 28382 42998 00000 11213 21231 30111 40188 57006
AAXX 25001 28481 42997 81601 11164 21183 30084 40189 57011 80007
AAXX 25001 28491 42997 21301 11183 21202 30074 40192 57009 80001
AAXX 25001 28573 42997 80000 11185 21197 30076 40188 57015 80007
AAXX 25001 28593 42997 01401 11191 21210 30102 40207 57014
AAXX 25001 28786 42997 01601 11200 21233 30027 40197 57010
AAXX 25001 28797 42997 00000 11210 21235 30043 40215 57011
AAXX 25001 28799 42997 01201 11211 21244 30058 40216 57012
AAXX 25001 38847 ///// /1101 10040 21037 39400 40170
AAXX 25004 63688 32980 10810 10087 20078 48/// 80031 333 59002 81358
AAXX 25004 63708 32480 10000 10182 20168 48482 81340 333 59005 81918
AAXX 25004 63740 32475 30205 10165 20136 48511 83500 333 59005 83618
AAXX 25004 63612 NIL
AAXX 25004 63661 NIL
AAXX 25004 63671 NIL
AAXX 25004 63695 NIL
AAXX 25004 63714 NIL
AAXX 25004 63723 NIL
AAXX 25004 63772 NIL
AAXX 25004 63793 NIL
AAXX 25004 63820 NIL
BBXX 51203 25001 99208 71570 46/// ///// 1//// 90013 22200 00249 10301 20301 321// 41301 70007
BBXX 51202 25001 99214 71577 46/// ///// 1//// 90009 22200 00242 10806 20805 306// 41101 70028
BBXX 44099 25001 99369 70757 46/// ///// 1//// 90022 22200 00119 10602 20602 70008
BBXX 46219 25001 99332 71199 46/// ///// 1//// 90028 22200 00139 11507 20502 331// 41507 70035
BBXX 46224 25001 99332 71175 46/// ///// 1//// 90006 22200 00144 11502 20601 320// 41501 70008
BBXX 46214 25001 99379 71235 46/// ///// 1//// 90023 22200 00121 11406 21002 330// 41405 70029
BBXX KAWM 25003 99530 71385 41297 82325 10050 20041 49955 52038 75122 886// 22232 0//// 20302 31925 40805 51211 6//// 80046 ICE /////
BBXX WC5932 25004 99458 70871 43/// /2214 00/// 11003 21050 40164 58022 7//// 8//// 22200 0//// 2//// 3//// 4//// 5//// 6//// 81021 ICE /////
BBXX WRAH 25004 99285 70584 41598 50713 10220 2//// 40218 54/// 7//22 858// 22264 00238 20202 30213 40604 50505 6//// 8//// ICE /////
BBXX WKDY 25003 99271 10349 41498 23319 10180 20130 40175 54000 70300 82800 22234 00226 20205 3//// 4//// 5//// 6//// 80150 ICE /////
BBXX WDA2768 25004 99422 70875 43/// /1222 00/// 10031 21011 40219 58015 7//// 8//// 22283 0//// 2//// 3//// 4//// 5//// 6//// 80014 ICE /////
BBXX V7NV4 25004 99300 71795 41797 72125 10240 20211 40170 56025 7//21 85132 22263 00240 20206 32020 40206 50206 6//// 80220 ICE /////
BBXX WKAE 25004 99432 70598 41497 80222 10010 21047 40225 52045 77072 884// 22255 00070 2//// 3//// 4//// 5//// 6//// 81010 ICE /////
BBXX V7PW3 25003 99133 10495 41/98 /1111 10236 20168 40143 57005 70200 8//// 22264 00256 2//// 80194
BBXX VQIB9 25003 99143 30672 41698 31320 10260 20231 40133 57010 70200 8/400 22254 20603 3//// 4//// 5//// 80240
BBXX V2OH6 25003 99126 50346 41/97 ///20 10270 40150 51010 7//// 8//// 22214 2////
BBXX DGUG2 25004 99017 70306 41598 70916 10255 20227 40120 51010 72052 84850 22244 04280 20402 80235
BBXX ZCBV4 25004 99323 30347 41/97 80716 10222 20219 40213 702// 8//// 22263 00240 20403 323// 40307 5//// 80220
BBXX TBWUK17 25003 99260 30588 41798 21014 10243 20230 40208 50010 70100 82142 22263 04250 20201 31111 40302 50403 80234
BBXX WKDY 25003 99271 10349 41498 23319 10180 20130 40175 54000 70300 82800 22234 00226 20205 3//// 4//// 5//// 6//// 80150 ICE /////
BBXX UBMC 25001 99491 11440 42396 80409 11023 49952 54000 71242 886// 22200 00020 20802
BBXX 52244 25001 99200 11452 46/// ///// 1//// 90008 22200 00270
BBXX 52248 25001 99135 11448 46/// ///// 1//// 90006 22200 00284
BBXX 52246 25001 99152 11457 46/// ///// 1//// 90007 22200 00281
BBXX UGSN 25001 99513 11411 42597 80124 11046 40081 57003 8653/ 22231 00011 20505
BBXX LEQZ3 25003 99506 11598 41/95 91124 10010 2101/ 40034 57020 71044 22252 00090 20903 41206 80000 NNNN
BBXX A8ER9 25001 99515 11658 41298 80912 10028 21018 40130 56010 70322 85620 22264 04093 20809 310// 41006 5//// 80010
BBXX VNVG 25003 99290 11318 41298 53626 10120 20039 40225 52/// 70322 85710 22283 00230 20202 333 // 40505 80080
BBXX 52243 25001 99193 11666 46/// ///// 1//// 92354 22200 00263
BBXX AUYI 25004 99137 10742 41797 20408 10250 20222 40060 54000 70200 82011 22273 00300
BBXX ZCAS2 25004 99249 11331 41/98 50122 10180 20106 40211 52020 70122 82260 22243 00230 20605 335// 41006 80140
BBXX VNVG 25003 99290 11318 41298 53626 10120 20039 40225 52/// 70322 85710 22283 00230 20202 333// 40505 80080
BBXX 44057 25001 99395 70761 46/// /3602 10023 40316 53016 90000 22200 00061 333 91202
BBXX 44057 25001 99395 70761 46/// /3601 1//// 40316 90010 333 91202
BBXX 44059 25001 99368 70763 46/// /0503 1//// 90020 333 91204
BBXX 44059 25001 99368 70763 46/// /0503 10070 40304 53015 90000 22200 00111 333 91203
BBXX 51173 25001 99260 71739 46/// ///// 1//// 90012 22200 00246
BBXX 51172 25001 99284 71783 46/// ///// 1//// 90015 22200 00228
BBXX 46092 25001 99368 71220 46/// /3204 10123 40274 55005 92357 22200 00125 555 11036 22036
BBXX 51176 25001 99278 71758 46/// ///// 1//// 90002 22200 00236
BBXX 44042 25001 99380 70763 46/// /0804 1//// 90020 333 91205
BBXX 44043 25001 99392 70764 46/// /1003 10049 40312 53017 90000 22200 00073 1//00 70002 333 91204
BBXX 44043 25001 99392 70764 46/// /1103 1//// 40311 90010 333 91204
BBXX 44041 25001 99372 70768 46/// /1002 1//// 90020 333 91202
BBXX 44042 25001 99380 70763 46/// /0702 10065 40315 51018 90000 22200 00089 1//00 70001 333 91203
BBXX 44043 25001 99392 70764 46/// /1003 1//// 90020 333 91204
BBXX 44042 25001 99380 70763 46/// /0603 1//// 40315 90010 333 91203
BBXX 44041 25001 99372 70768 46/// /1002 10065 40334 53015 90000 22200 00103 1//00 70001 333 91202
BBXX 44041 25001 99372 70768 46/// /0902 1//// 40335 90010 333 91202
BBXX 44063 25001 99390 70764 46/// /0000 10050 40325 53018 90000 22200 00080 1//00 70001 333 91200
BBXX 44063 25001 99390 70764 46/// /0000 1//// 40325 90010 333 91200
BBXX 44063 25001 99390 70764 46/// /0000 1//// 90020 333 91200
BBXX 44062 25001 99386 70764 46/// /0703 1//// 40295 90010 22200 00087 333 91204
BBXX 44062 25001 99386 70764 46/// /0503 10053 40296 51023 90000 22200 00088 10201 70003 333 91204
BBXX 44062 25001 99386 70764 46/// /0703 1//// 90020 22200 00086 333 91204
BBXX A8JC5 25004 99284 70703 41498 13306 10215 20185 40227 52003 70200 81100 22224 00238 299// 30000 4//// 5//// 80195
BBXX ZCDY2 25004 99236 70751 41598 22630 10245 20196 40245 54000 70300 8/10/ 22235 00260 20402 30000 4//// 5////
BBXX A8RL2 25003 99233 70584 41/98 10419 10255 20185 40200 54000 70200 8//// 22214 04263 20705 304// 41004 80210
BBXX PBHZ 25003 99424 70459 41397 70510 10170 20141 40104 56/// 75155 86700 22213 06183 20401 331// 40402 80152
BBXX 46205 25001 99542 71343 46/// /2011 10076 40025 52006 22200 00074 11710 70051 333 91214
BBXX 46206 25001 99488 71260 46/// /1411 10086 40248 57005 22200 00089 11306 70032 333 91213
BBXX WRAH 25004 99285 70584 41598 50713 10220 2//// 40218 54/// 7//22 858// 22264 00238 20202 30213 40604 50505 6//// 8//// ICE /////
BBXX 46185 25001 99524 71298 46/// /1812 10089 40088 57015 22200 00074 10908 70038 333 91214
BBXX 44029 25001 99425 70706 46/30 /0204 11018 40318 52012 90004 22200 00083 10602 70010 333 91205 555 11041 22042
BBXX 44032 25001 99437 70694 46/30 /0108 11069 40328 51023 90004 22200 00085 10402 70009 333 91211 555 11098 22102
BBXX 44030 25001 99432 70704 46/// /0206 1//// 40323 53017 90004 22200 00082 10501 70006 333 91208 555 11076 22080
BBXX 42085 25001 99179 70665 46/// /0606 10270 40169 90010 333 91208
BBXX 46087 25001 99485 71247 46/// /1405 10094 20071 40272 90020 22200 00086 333 91207 555 11055 22061 30003 41708 60019 135052 163060 172058 180056 176054 182045
BBXX 46088 25001 99483 71232 46/// /1803 10079 40267 90020 22200 00079 10301 20301 70004 333 91204 555 11035 22037 30019 41804 60019 176031 172027 161030 136032 129024 154016
BBXX 41036 25001 99342 70770 46/// ///// 10125 20060 40294 90020 22200 00187
BBXX KAWM 25003 99530 71385 41297 82325 10050 20041 49955 52038 75122 886// 22232 0//// 20302 31925 40805 51211 6//// 80046 ICE /////
BBXX 46036 25001 99484 71339 46/// /2008 10087 40107 57003 22200 00082 11509 70045 333 91209
BBXX 44140 25001 99429 70515 46/// /0009 10101 40158 5//// 22200 00079 11005 70027 333 91210
BBXX YJSW5 25004 99273 70898 411// 80916 10225 20218 40200 57002 7//22 8897/ 22200 00228 20503 308// 40703 5//// 6//// 80220 ICE /////
BBXX A8QM9 25004 99392 70545 41398 80119 10130 20103 40170 54000 76066 8767/ 22263 04150 2//05 80115
BBXX 44258 25001 99445 70634 46/// /3610 11075 40292 52029 22200 00060 11003 70017 333 91213
BBXX KS093 25004 99249 70776 43/// ///// 22244
BBXX KS094 25004 99141 70609 43/// /0810 10253 40164 22200 06257
BBXX KS007 25004 99267 70801 43/// ///// 10239 40191 22200
BBXX 41110 25001 99341 70777 46/// ///// 1//// 90021 22200 00141 10801 20801 70007
BBXX 41009 25001 99285 70802 46/// /0506 10242 20204 40244 90020 22200 00245 10902 20501 300// 40902 70010 333 91207 555 11058 22061
BBXX 42363 25001 99282 70892 46/// /0810 10200 20167 40237 90030 333 91212
BBXX 42362 25001 99278 70907 46/// /0811 10211 20189 40227 90030
BBXX 41112 25001 99307 70813 46/// ///// 1//// 90021 22200 00169 10603 20603 70015
BBXX 42361 25001 99276 70925 46/// ///15 10222 20189 40207 52011 90030 555 11118 22126
BBXX 41113 25001 99284 70805 46/// ///// 1//// 90021 22200 00225 11001 21001 70006
BBXX 42099 25001 99273 70842 46/// ///// 1//// 90027 22200 00230 10502 20502 70009
BBXX 44100 25001 99363 70756 46/// ///// 1//// 90022 22200 00125 10602 20602 70011
BBXX 42364 25001 99291 70881 46/// /0907 10183 20156 40247 90030
BBXX 41010 25001 99289 70785 46/// /0508 10230 40244 90020 22200 00238 10803 20602 300// 40802 70014 333 91209 555 11081 22085
BBXX 42013 25001 99272 70829 46/// ///// 1//// 40229 92340 22200 00207
BBXX 46229 25001 99438 71246 46/// ///// 1//// 90021 22200 00098 11406 21003 327// 41405 70028
BBXX 46225 25001 99329 71174 46/// ///// 1//// 90014 22200 00149 11702 20501 327// 41701 70008
BBXX 46236 25001 99368 71219 46/// ///// 1//// 90020 22200 00123 11305 21002 328// 41304 70024
BBXX 46215 25001 99352 71209 46/// ///// 1//// 90008 22200 00149 11704 21001 324// 41704 70020
BBXX 46243 25001 99462 71241 46/// ///// 1//// 90029 22200 00082 11305 21003 326// 41304 70026
BBXX 46146 25001 99493 71237 46/// /1007 10080 40272 57017 22200 00070 10301 70005 333 91208
BBXX 46246 25001 99500 71451 46/// ///// 1//// 92359 22200 00071 11411 21007 326// 41409 70056
BBXX 46232 25001 99325 71174 46/// ///// 1//// 90008 22200 00150 11703 20601 328// 41702 70013
BBXX 46246 25001 99500 71451 46/// ///// 1//// 90029 22200 00071 11411 21007 325// 41409 70057
BBXX 46247 25001 99378 71228 46/// ///// 1//// 90021 22200 00119 11504 21002 327// 41504 70020
BBXX 46004 25001 99509 71361 46/// /1909 10078 40044 57011 22200 00076 11511 70056 333 91211
BBXX WKAE 25004 99432 70598 41497 80222 10010 21047 40225 52045 77072 884// 22255 00070 2//// 3//// 4//// 5//// 6//// 81010 ICE /////
BBXX V7NV4 25004 99300 71795 41797 72125 10240 20211 40170 56025 7//21 85132 22263 00240 20206 32020 40206 50206 6//// 80220 ICE /////
BBXX 46184 25001 99539 71389 46/// /2311 10061 49974 52035 22200 00064 11511 70057 333 91214
BBXX PCBT 25003 99307 70398 41998 01421 10211 20181 40229 52005 70200 80000 22214 2//// 80191
BBXX 46181 25001 99538 71288 46/// /1200 10030 40083 57033 22200 00036 10300 70000 333 91201
BBXX 44058 25001 99376 70763 46/// /0404 10069 40309 90000 22200 00095 10201 70003 333 91205
BBXX 44058 25001 99376 70763 46/// /0503 1//// 40311 90010 333 91204
BBXX 44059 25001 99368 70763 46/// /0503 1//// 40306 90010 333 91204
BBXX 44057 25001 99395 70761 46/// /3501 1//// 90020 333 91201
BBXX 44058 25001 99376 70763 46/// /0603 1//// 90020 333 91204
BBXX S6JU 25004 99396 71320 41998 72016 10140 20110 40240 50004 70222 875// 22234 04013 20401 32827 40402 50402 6//// 80120 ICE /////
BBXX WDA2768 25004 99422 70875 43/// /1222 00/// 10031 21011 40219 58015 7//// 8//// 22283 0//// 2//// 3//// 4//// 5//// 6//// 80014 ICE /////
BBXX WC5932 25004 99458 70871 43/// /2214 00/// 11003 21050 40164 58022 7//// 8//// 22200 0//// 2//// 3//// 4//// 5//// 6//// 81021 ICE /////
BBXX 51170 25001 99168 71695 46/// ///// 1//// 92348 22200 00258
BBXX 51171 25001 99064 71623 46/// ///// 1//// 92346 22200 00277
BBXX 51179 25001 99143 51708 46/// ///// 1//// 90004 22200 00292
BBXX ZCDS4 25003 99165 51517 41497 40920 10290 20248 40115 57007 70300 84241 22200 04272 20801 3//// 4//// 5//// 80260
BBXX A8IY8 25004 99024 11049 41397 80224 10262 20236 40098 51008 70222 8677/ 22254 04270 20805 399// 4//// 5//// 80243
BBXX 51178 25001 99142 51695 46/// ///// 1//// 92357 22200 00287
BBXX 51174 25001 99142 51697 46/// ///// 1//// 92354 22200 00292
BBXX 51169 25001 99004 51600 46/// ///// 1//// 92354 22200 00259
BBXX ZMFR 25004 99413 31748 43/// /2011 10174 20117 40224 54000 22200 00163
BBXX ZMGB 25004 99394 31779 41/99 39902 10200 20130 40248 51008 70100 83100 22253 02178 20000 31118 40402 50402 80160
BBXX 9HA2479 25004 99223 31664 46/// /0404 10247 20229 30012 40041 52007 22200 04260 85234
BBXX VREN5 25003 99341 31596 41598 50815 10195 20124 40157 54000 703// 8/115 22262 20602 325// 40502 80155
BBXX VROC 25004 99040 31518 41598 50710 10300 20243 40064 56023 70311 84162 22223 04300 20201 30000 80260
BBXX VROB 25004 99347 31512 46/// /0314 10214 20188 30095 40120 52007 22213 04218 85197
BBXX VRDG4 25003 99366 31607 41496 50419 10198 20169 40177 52002 702// 84262 22223 20404 80180
BBXX VNSZ 25004 99412 31464 46/// /3301 10193 20153 30071 40097 57001 22200 04195 85167
BBXX MINUK01 2500/ 99602 70012 46/// ///// 10078 49994 52022
BBXX MINUK04 2500/ 99555 10084 46/// ///// 10070 4//// 52008
BBXX KS089 25004 99374 70122 43/// /0320 10147 22243
BBXX A8GH5 25003 99392 70100 41/97 /0516 10145 20091 40320 56010 70000 8//// 22244 04120 20302 305// 40503 80115
BBXX ZNQO3 25000 99501 70006 41/98 /2313 10110 20075 40310 57025 75022 8//// 22262 04124 2//// 3//// 4//// 5//// 80093
BBXX DDSC2 25003 99450 70185 41298 82026 10130 20121 40335 57/// 70222 886// 22264 00133 21006 330// 40907 80125
AAXX 25004 40255 11650 82206 10084 20072 39432 40149 54002 60231 79566 888// 333 85825 84630
AAXX 25004 40260 31958 02210 10060 21006 39350 40130 54000 70500
AAXX 25004 40270 11540 72306 10078 20063 39246 40147 52005 60031 76122 87800 333 84825 83630
AAXX 25004 40272 NIL
AAXX 25004 40290 NIL
AAXX 25004 40340 NIL
BBXX FHZI 25004 99666 31400 46/// /1103 11005 21091 39937 49948 57005 22200 05019 86032
BBXX ZDLS1 25003 99739 50255 41198 71014 11037 2//// 49792 52010 70222 85771 22200 05019 20000 30000
BBXX ZSAF 25004 99702 50067 41499 71106 11019 21047 49724 57015 70222 8357/ 22242 05016 20000 31500 40701 50000 ICE 66460
AAXX 25001 40001 31570 80305 10082 20060 40123 58002 70520 83510 333 83626 88460
AAXX 25001 40007 11558 81302 10075 20068 40109 55007 60023 76362 8657/ 333 86626 88360
AAXX 25001 40025 11560 52707 10146 20060 40091 58004 60041 70299 85900 333 82926 84630
AAXX 25001 40045 32970 40000 10052 20029 40132 55000 84040 333 84360
AAXX 25001 40061 32970 32402 10067 20028 40116 55000 83050 333 83360
AAXX 25001 40080 11560 62305 10082 20074 39415 40120 51001 69931 70296 85800 333 83826 85630
AAXX 25001 40087 NIL
AAXX 25001 40095 NIL
AAXX 25001 40009 32565 71801 10083 20075 40090 51002 84530 333 84630 87360
AAXX 25001 40016 NIL
AAXX 25001 40022 11565 62101 10150 20107 40084 56003 60021 79599 86900 222// 20000 333 83930 86632
AAXX 25001 40030 11570 60000 10104 20075 40099 57012 60021 70266 83570 333 83630 85360
AAXX 25001 40039 32570 30000 10084 20062 40104 57004 83500 333 83630
AAXX 25001 40066 NIL
AAXX 25001 40072 NIL
AAXX 25001 40083 11570 51401 10040 20011 48422 50000 60012 72262 85800 333 82826 84630
AAXX 25001 DUPE
AAXX 25004 91723 NIL
AAXX 25004 91964 36/// /1204 10246 20210 40191 57011
BBXX A8LG9 25003 99444 11496 41298 42310 10010 21002 49975 51005 70172 8279/ 22215 00000 20202 324// 40406 5//// 80005
BBXX UBMC 25001 99491 11440 42396 80409 11023 49952 54000 71242 886// 22200 00020 20802
BBXX UGSN 25001 99513 11411 42597 80124 11046 40081 57003 8653/ 22231 00011 20505
BBXX OZDL2 25000 99459 71686 41296 81216 10078 20072 49871 57032 76362 8/7// 22224 00080 20806 314// 41108 80075
BBXX V7NV4 25004 99300 71795 41797 72125 10240 20211 40170 56025 7//21 85132 22263 00240 20206 32020 40206 50206 6//// 80220 ICE /////
BBXX 44137 25001 99423 70620 46/// /3510 10034 40241 52036 22200 00091 10706 70028 333 91213
AAXX 25004 41858 31/00 90000 10100 20100 30088 40137 74744 89/// 333 56999 58001 70000
AAXX 25004 41863 31902 00000 10092 20090 30090 40136 74344 333 58007 70000
AAXX 25004 41984 31930 00000 10130 20120 30120 40122 74000 333 59002 70000
BBXX 44137 25001 99423 70620 46/// /3510 10034 40241 52036 22200 00091 10706 70028 333 91213
AAXX 25001 31152 32998 60000 11390 21418 39938 40408 54000 82032 333 21390 47031 55000
AAXX 25001 31163 NIL
AAXX 25001 31285 11998 83601 11153 21180 30209 40293 53003 69900 70272 83076 333 21156
AAXX 25001 31561 11595 83610 11112 21140 30125 40154 52019 69920 77173 8802/ 333 21118 91020 91122
AAXX 25001 31683 11/93 90208 11049 21055 39972 40047 53015 60060 77573 333 21050 47023 92982
AAXX 25001 32010 11496 80311 11054 21072 30102 40152 53002 69970 78583 889// 333 21059 48052 88914 91016 91118
AAXX 25004 42182 31993 00000 10038 20028 40167 71100 333 59002
AAXX 25004 71923 16/// ///13 11202 21219 39632 40088 51023 60001 333 11159 21225 70000
AAXX 25004 71592 46/// /3502 11315 21348 39969 49983 50000 6///1 333 11292 21332 7////
AAXX 25004 71963 16/// /0205 11225 21245 39695 40111 51023 60001 333 11198 21225 70003
AAXX 25004 71761 16/// ///// 11007 21049 60001 333 10042 21016 70000
AAXX 25004 71490 16/// /3315 11299 21326 39793 40128 50016 60001 333 11222 21301 70000 555 10010
AAXX 25004 71277 46/// /1510 10010 21040 6///1 333 10034 21003 7////
AAXX 25004 71761 16/// ///// 11007 21049 60001 333 10042 21016 70000
AAXX 25004 71277 46/// /1510 10010 21040 6///1 333 10034 21003 7////
AAXX 25004 71490 16/// /3315 11299 21326 39793 40128 50016 60001 333 11222 21301 70000 555 10010
AAXX 25004 71592 46/// /3502 11315 21348 39969 49983 50000 6///1 333 11292 21332 7////
AAXX 25004 71963 16/// /0205 11225 21245 39695 40111 51023 60001 333 11198 21225 70003
AAXX 25004 71923 16/// ///13 11202 21219 39632 40088 51023 60001 333 11159 21225 70000
BBXX 44138 25001 99443 70536 46/// /3505 10019 40182 52012 22200 00090 11006 70028 333 91207
BBXX 44138 25001 99443 70536 46/// /3505 10019 40182 52012 22200 00090 11006 70028 333 91207
AAXX 2500/ 89828 46/// ///// 11220 36550 4//// 5//// 90010
AAXX 2500/ 89108 46/// ///// 11148 36991 4//// 5//// 90010
AAXX 2500/ 89108 46/// ///// 11149 36991 4//// 5//// 90020
AAXX 2500/ 89879 46/// ///// 10064 39809 4//// 5//// 90010
AAXX 2500/ 89872 46/// ///// 11008 39841 4//// 5//// 90020
AAXX 2500/ 89869 46/// ///// 10005 39826 4//// 5//// 90010
AAXX 2500/ 89866 46/// ///// 11008 39779 4//// 5//// 90010
AAXX 2500/ 89329 46/// ///// 11036 38768 4//// 5//// 90010
AAXX 2500/ 89329 46/// ///// 11036 38768 4//// 5//// 90020
AAXX 2500/ 89799 46/// ///// 11119 4//// 5//// 90010
AAXX 2500/ 89332 46/// ///// 11019 39205 4//// 5//// 90010
AAXX 2500/ 89332 46/// ///// 11016 39205 4//// 5//// 90020
AAXX 2500/ 89769 46/// ///// 10025 39878 4//// 5//// 90010
AAXX 2500/ 89314 46/// ///// 11038 38268 4//// 5//// 90010
AAXX 2500/ 89314 46/// ///// 11038 38268 4//// 5//// 90020
BBXX 46004 25001 99509 71361 46/// /1909 10078 40044 57011 22200 00076 11511 70056 333 91211
BBXX 46036 25001 99484 71339 46/// /2008 10087 40107 57003 22200 00082 11509 70045 333 91209
BBXX 46181 25001 99538 71288 46/// /1200 10030 40083 57033 22200 00036 10300 70000 333 91201
BBXX 46183 25001 99536 71311 46/// /1703 10080 40065 52003 22200 00081 10805 70026 333 91205
BBXX 46185 25001 99524 71298 46/// /1812 10089 40088 57015 22200 00074 10908 70038 333 91214
BBXX 46204 25001 99514 71288 46/// /1214 10093 40128 57018 22200 00084 11107 70035 333 91218
BBXX 46205 25001 99542 71343 46/// /2011 10076 40025 52006 22200 00074 11710 70051 333 91214
BBXX 46206 25001 99488 71260 46/// /1411 10086 40248 57005 22200 00089 11306 70032 333 91213
BBXX KAWM 25003 99530 71385 41297 82325 10050 20041 49955 52038 75122 886// 22232 0//// 20302 31925 40805 51211 6//// 80046 ICE /////
BBXX S6JU 25004 99396 71320 41998 72016 10140 20110 40240 50004 70222 875// 22234 04013 20401 32827 40402 50402 6//// 80120 ICE /////
AAXX 25004 67023 NIL
AAXX 25004 67131 NIL
AAXX 25004 67002 333 67009 NIL
AAXX 25004 67012 NIL
AAXX 25004 67025 NIL
AAXX 25004 67027 32580 20208 10272 20240 30079 40100 57009 81802 333 0//00 81820 555 81640 82073
AAXX 25004 67045 NIL
AAXX 25004 67072 NIL
AAXX 25004 67073 NIL
AAXX 25004 67083 NIL
AAXX 25004 67095 11470 50000 10252 20248 30123 40129 56009 60031 71560 85800 333 0//02 83817 83633= RR 2,5 67113 NIL
AAXX 25004 67117 NIL
AAXX 25004 67137 NIL
AAXX 25004 67143 NIL
AAXX 25004 67157 NIL
AAXX 25004 67161 NIL
AAXX 25004 67197 32480 30808 10248 20239 30123 40133 50005 83800 333 0//00 82817 555 82633
BBXX LAIP5 2501 99092 70260 41/98 /0819 10258 20224 40132 52010 701// 8//// 22233 04260 20504 3//// 4//// 5//// 80235
---BAD 06d2b341.IN
AAXX 25004 41958 63602 10132 20130 30117 40119 71000 83530 333 56890 58001 70000 83616 85362
AAXX 25004 83064 32996 00000 10279 20228 39815 40083 333 10342 29073 55085 59023
AAXX 25004 83235 21697 60000 10232 20229 39435 40098 71365 86400 333 10340 29/// 55/// 58009 60021
AAXX 25004 83264 32893 21402 10243 20232 39677 40143 82030 333 10310 29087 55013 58002
AAXX 25004 83332 32996 00000 10244 20192 39199 40087 333 10319 29063 55036 58002
AAXX 25004 83358 32/93 90000 10256 20215 39697 40094 8//// 333 10306 29076 55052 58006
AAXX 25004 83423 21595 60503 10232 20191 39318 40128 76092 82272 333 10305 29071 55/// 58018 69911
AAXX 25004 89514 32598 41914 11061 49786 57003 84500 333 10036 21061 84620
AAXX 25004 94210 35/// /2410 10314 30053 40058 52015
AAXX 25004 94289 46/// /1407 10289 30057 40064 51005 90015
AAXX 25004 94379 46/// /1921 10252 30043 40052 51001 90026
AAXX 25004 94290 46/// /0000 10297 30060 40069 51005 90024
AAXX 25004 91532 45/// /0613 10305 20239 30060 40068 57003 333 20261
AAXX 25004 89514 32598 41914 11061 49786 57003 84500 333 10036 21061 84620
AAXX 25004 89573 35980 60915 11028 21110 39815 49837 52017 86030
AAXX 25004 94290 46/// /0000 10297 30060 40069 51005 90024
AAXX 25004 89573 35980 60915 11028 21110 39815 49837 52017 86030
BBXX 41033 25001 99323 70804 46/// /0707 10145 40284 51008 90000 555 11099 22120
BBXX UBMC 25001 99491 11440 42396 80409 11023 49952 54000 71242 886// 22200 00020 20802
BBXX 52244 25001 99200 11452 46/// ///// 1//// 90008 22200 00270
BBXX 52248 25001 99135 11448 46/// ///// 1//// 90006 22200 00284
BBXX 52246 25001 99152 11457 46/// ///// 1//// 90007 22200 00281
BBXX UGSN 25001 99513 11411 42597 80124 11046 40081 57003 8653/ 22231 00011 20505
BBXX LEQZ3 25003 99506 11598 41/95 91124 10010 2101/ 40034 57020 71044 22252 00090 20903 41206 80000
BBXX A8ER9 25001 99515 11658 41298 80912 10028 21018 40130 56010 70322 85620 22264 04093 20809 310// 41006 5//// 80010
BBXX VNVG 25003 99290 11318 41298 53626 10120 20039 40225 52/// 70322 85710 22283 00230 20202 333 40505 80080
BBXX 52243 25001 99193 11666 46/// ///// 1//// 92354 22200 00263
BBXX AUYI 25004 99137 10742 41797 20408 10250 20222 40060 54000 70200 82011 22273 00300
BBXX ZCAS2 25004 99249 11331 41/98 50122 10180 20106 40211 52020 70122 82260 22243 00230 20605 335// 41006 80140
BBXX VNVG 25003 99290 11318 41298 53626 10120 20039 40225 52/// 70322 85710 22283 00230 20202 333// 40505 80080
BBXX DHDH 25004 99255 11211 41597 70530 10130 20094 40280 51020 70200 8671/ 22213 00180 20506 305// 40608 80110
BBXX ELWZ5 25004 99400 11546 41697 73614 10086 20035 40055 57016 7//11 83566 22224 04150 2//02 331// 4//05 5//// 80062
BBXX SHIP 25004 99197 11323 41598 80430 10210 20186 40068 52034 72162 8645/ 22213 00260 20505 303// 40706 80180
BBXX SHIP 25004 99258 11298 41498 83120 10170 20100 40272 51010 7032/ 86334 22272 00260 20603 336// 41006 80130
BBXX 44056 25001 99362 70757 46/// ///// 1//// 92350 22200 00122 10602 20602 70011
AAXX 25001 55279 32980 02507 11080 21316 35681 52005 333 00051
AAXX 25001 55472 32980 02902 11107 21283 35720 52005 333 00000
AAXX 25001 55696 32980 20000 11116 21141 36349 52005 80002 333 00355
AAXX 25001 56079 32980 00000 11150 21170 36676 52005 333 00005
AAXX 25001 56106 32780 10000 11152 21279 36200 57001 81100 333 00251
AAXX 25001 56257 32680 11601 11051 21246 36270 52015 81400 333 00300
AAXX 25001 56374 11580 72002 11067 21126 37456 52007 69901 78588 874// 333 05103 79999
AAXX 25001 56385 11/00 90000 11096 21101 37018 52007 69901 74974 333 05101 30001 70004 92508 93460
AAXX 25001 56954 32563 72001 10144 20136 40176 52009 874// 333 00004
AAXX 25001 56966 32765 81105 10147 20058 40219 52014 885// 333 05151
AAXX 25001 57237 32965 83201 10007 21023 40326 52007 8807/ 333 05205 31005
AAXX 25001 57306 32961 82902 10039 20024 40309 52008 8807/ 333 05204 30017
AAXX 25001 57604 11415 81801 10050 20047 40311 52007 60031 76066 885// 333 05100 70057
AAXX 25001 57707 11350 80000 10003 20003 38555 52008 60021 76066 887// 333 05200 30014 70031
AAXX 25001 57832 31658 82701 10011 21005 39553 40323 52008 71000 885// 333 05104 31029
AAXX 25004 94996 41461 80920 10200 20174 39987 40123 58001 78082 8687/ 90030 333 20187
AAXX 25001 55228 32980 00000 11163 21273 36022 52005 333 00253
AAXX 25001 55578 32980 00000 11117 21220 36368 52007 333 00252
AAXX 25001 55664 32980 00000 11124 21261 36005 52002 333 00158
AAXX 25001 55773 32970 00000 11117 21238 36010 52001 333 00161
AAXX 25001 56116 32980 02701 11096 21142 36342 52003 333 00402
AAXX 25001 56137 32980 03201 11046 21142 36798 52010 333 00305
AAXX 25001 56172 32980 00701 11059 21094 37370 52023 333 00151
AAXX 25001 56247 32980 00000 10003 21184 37427 52025 333 00203
AAXX 25001 56312 32980 00000 11074 21090 37107 52001 333 00151
AAXX 25001 56462 32580 82501 11015 21050 37140 52011 884// 333 00001
AAXX 25001 56651 32680 12901 11011 21041 37645 52008 81400 333 05101
AAXX 25001 56691 11357 81401 11019 21025 37802 52011 69931 76666 887// 333 05202 31003 70004 93431
AAXX 25001 56985 32560 81602 10071 20026 38758 40242 52013 884// 333 05201
AAXX 25001 57633 32761 81401 10037 20013 39517 40323 52007 885// 333 05106 30038
AAXX 25001 57902 32561 81102 10031 20013 38693 40287 52009 885// 333 05201 30032
AAXX 25004 94996 41461 80920 10200 20174 39987 40123 58001 78082 8687/ 90030 333 20187
AAXX 25004 91367 11474 20509 10300 20263 60054 70162 82100 333 20250 562// 82815 555 92500
AAXX 25004 42369 31994 00000 10050 22031 40157 71000 333 58004
AAXX 25004 42475 31994 00000 10090 20089 40151 71000 333 59004
AAXX 25001 20292 32998 02404 11341 21378 30190 40212 58011 333 21353 91105
AAXX 25001 20069 31936 01215 11215 21246 30049 40063 57017 73830 333 21217 47017 91120
BBXX BATFR21 25004 99438 10083 46/// /0027 20140 40245 51022 222//
BBXX 61001 25004 99434 10078 46/// /0426 10138 20015 40230 52016 22200 00146 10705 70024 555 1/032
BBXX BATFR20 25004 99431 10087 46/// ///// 10130 20007 40202 51008 22263
BBXX BATFR31 25004 99426 10074 46/// /0115 10130 20124 40232 53044 22283 00147
BBXX BATFR32 25004 99426 10082 46/// /0721 10134 21010 4//// 5//// 7//// 8//// 22283 00154
BBXX 61002 25004 99421 10047 46/// ///37 10109 2//// 40274 52002 22200 00138 10810 70048 555 1/050
BBXX BATFR01 25004 99395 10137 46/// /2718 10140 20087 40115 58018 22271 00162
BBXX BAREU62 25004 99390 10261 46/// ///// 40215 57005 22234
BBXX BATFR46 25004 99384 10001 44996 20012 10142 20077 40314 50/// 70111 82122 22253 00169 20510
BBXX A8JH8 25004 99383 10248 41/97 /0223 10090 20026 40200 52020 70200 8//// 22214 20402 80060 80115
BBXX A8NO8 25004 99373 10043 41/98 50223 10130 20074 40300 52020 7//11 8/2// 22265 04180 20409 80100
BBXX DCUJ2 25003 99369 10120 41/98 82928 10140 20064 40198 57007 70311 8//// 22234 00150 2//// 80100
BBXX PBEN 25003 99368 10013 41/98 23606 10150 20097 40300 52015 7//22 821// 22263 20501 336// 40601 80120
BBXX BAREU56 25004 99327 10143 46/// ///// 40226 57009 22232
BBXX DANV 25004 99326 10287 41598 43121 10170 20106 40160 54000 7//11 84400 22224 04180 2//// 80133
AAXX 25001 48969 NIL
AAXX 25001 48962 NIL
AAXX 25001 48990 NIL
AAXX 25001 48986 NIL
AAXX 25001 48995 NIL
AAXX 25001 48967 NIL
AAXX 25001 48992 NIL
AAXX 25001 48965 NIL
AAXX 25001 48985 NIL
AAXX 25001 48970 NIL
AAXX 25001 48991 32660 43603 10206 20144 30124 40136 82502 333 20202 58024
AAXX 25001 48964 NIL
AAXX 25001 48997 32697 20503 10192 20179 30110 40118 81506 333 20178
AAXX 25001 48968 NIL
AAXX 25001 48973 NIL
AAXX 25001 48966 NIL
AAXX 25001 48983 NIL
AAXX 25001 48972 NIL
AAXX 25001 48998 NIL
AAXX 25001 48993 NIL
AAXX 25001 48971 NIL
AAXX 25001 48963 NIL
AAXX 25001 48987 NIL
AAXX 25004 71354 16/// /2405 11014 21058 60001 333 10043 21024 70000
AAXX 25004 71981 16/// /2409 10052 21049 60001 333 10069 20009 70000
AAXX 25004 71982 16/// /2203 10027 21038 60001 333 10059 21039 70000
AAXX 25004 71986 16/// /2510 10015 21037 60001 333 10019 21021 70000
AAXX 25004 71990 17/// /2313 11063 21090 38433 40032 55005 69961 7//4/ 333 11062 21109 70023 555 10100
AAXX 25004 71406 16/// /3117 11163 21183 30173 40183 51020 60001 333 11128 21167 70000
AAXX 25004 71418 46/// /3228 11070 21108 30203 40237 53015 6///1 333 11057 21084 7////
AAXX 25004 71048 16/// /2811 11002 21061 60001 333 10057 21023 70000
AAXX 25004 91367 11474 20509 10300 20263 60054 70162 82100 333 20250 562// 82815 555 92500
AAXX 25004 71354 16/// /2405 11014 21058 60001 333 10043 21024 70000
AAXX 25004 71406 16/// /3117 11163 21183 30173 40183 51020 60001 333 11128 21167 70000
AAXX 25004 71418 46/// /3228 11070 21108 30203 40237 53015 6///1 333 11057 21084 7////
AAXX 25004 71048 16/// /2811 11002 21061 60001 333 10057 21023 70000
AAXX 25004 71981 16/// /2409 10052 21049 60001 333 10069 20009 70000
AAXX 25004 71982 16/// /2203 10027 21038 60001 333 10059 21039 70000
AAXX 25004 71986 16/// /2510 10015 21037 60001 333 10019 21021 70000
AAXX 25004 71990 17/// /2313 11063 21090 38433 40032 55005 69961 7//4/ 333 11062 21109 70023 555 10100
AAXX 25004 60555 12970 00000 10071 20040 40260 52004 60001
AAXX 2500/ 89828 46/// ///// 11221 36550 4//// 5//// 90020
AAXX 2500/ 89828 46/// ///// 11221 36550 4//// 5//// 90030
AAXX 2500/ 89108 46/// ///// 11148 36991 4//// 5//// 90030
AAXX 2500/ 89879 46/// ///// 10065 39811 4//// 5//// 90030
AAXX 2500/ 89872 46/// ///// 11005 39841 4//// 5//// 90030
AAXX 2500/ 89872 46/// ///// 11010 39841 4//// 5//// 90010
AAXX 2500/ 89869 46/// ///// 10019 39826 4//// 5//// 90020
AAXX 2500/ 89869 46/// ///// 10019 39826 4//// 5//// 90030
AAXX 2500/ 89866 46/// ///// 11013 39780 4//// 5//// 90020
AAXX 2500/ 89866 46/// ///// 11008 39781 4//// 5//// 90030
AAXX 2500/ 89329 46/// ///// 11035 38768 4//// 5//// 90030
AAXX 2500/ 89799 46/// ///// 11119 4//// 5//// 90020
AAXX 2500/ 89799 46/// ///// 11115 4//// 5//// 90030
AAXX 2500/ 89868 46/// ///// 10041 39835 4//// 5//// 90030
AAXX 2500/ 89332 46/// ///// 11018 39205 4//// 5//// 90030
AAXX 2500/ 89769 46/// ///// 10001 39879 4//// 5//// 90020
AAXX 2500/ 89769 46/// ///// 10008 39881 4//// 5//// 90030
AAXX 2500/ 89314 46/// ///// 11038 38267 4//// 5//// 90030
AAXX 25004 89667 46/// /3304 10008 29056 39886 4//// 5//// 90030
AAXX 25004 89667 46/// /3304 10013 39886 4//// 5//// 90020
AAXX 25004 89667 46/// /3203 10012 39886 4//// 5//// 90010
AAXX 2500/ 89767 46/// ///// 11170 39718 4//// 5////
AAXX 25004 89657 46/// /1307 11030 20058 49888 52008
AAXX 25004 16560 12160 33207 10088 20038 30201 40208 52001 60001 82530 333 81703
AAXX 25004 94997 46/// ///// 10045 39977 49992 5////
BBXX 42360 25001 99267 70905 46/// /1107 10234 90000 22200 00239 10804 70021 333 91209
AAXX 25004 94997 46/// ///// 10045 39977 49992 5////
AAXX 25004 89807 46/// /1416 11006 29092 39812 4//// 5//// 90030 333 90700 91123
AAXX 25004 89807 46/// /1416 11006 29092 39812 4//// 5//// 90030 333 90700 91123
AAXX 25004 82979 32993 0000 10275 20174 39651 4094 333 10330 29095 55089 59003
AAXX 25004 83179 32594 20503 10295 20193 39642 40081 82200 333 10358 29049 55111 59005
AAXX 25004 83339 32995 01405 10237 20159 39155 40110 333 10284 29064 55071 58004
AAXX 25004 82863 21594 80000 10226 20218 39892 40105 70398 885// 333 10324 29084 55036 58000 60221
AAXX 25004 83228 31696 40000 10250 20231 39817 40091 71392 84900 333 10344 29075 55088 59009
AAXX 25004 83270 32995 00000 10250 20225 39651 40134 333 1//// 29083 55083 59005
AAXX 25004 83309 31/92 90000 10236 20231 39796 40117 71000 8//// 333 10312 29094 55/// 58004
AAXX 25004 83319 32993 00000 10230 20218 39774 40147 333 10313 29087 55033 58009
AAXX 25004 83374 21/98 90000 10216 20208 39552 40121 70252 333 10321 29088 55041 58002 69921
AAXX 25004 83405 21691 8//// 10258 20237 39928 40060 71064 885// 333 10378 29078 55072 58008 69981
AAXX 25004 83526 32497 53203 10223 20201 39196 40131 85500 333 10284 29086 55/// 58013
AAXX 25004 83096 32695 10903 10261 20205 30125 40132 81500 333 10299 29072 55040 58001
AAXX 25004 83236 31698 32301 10242 20205 39604 40091 71300 82024 333 10324 29/// 55105 58001
AAXX 25004 83288 32995 00000 10273 20206 39616 40101 333 10339 29058 55109 58008
AAXX 25004 83344 32997 00903 10194 20181 39180 40141 333 10263 29085 55043 58003
AAXX 25004 83599 31/95 899// 10270 20257 40110 51030 72099 8//// 222// 20501 80260
AAXX 25004 83650 42/96 /0607 10245 20217 40210 52015 7//// 8//// 222// 80225 333 10272
AAXX 25004 83925 11/94 /1712 10188 20185 40172 52024 7612/ 8//// 222// 20602 80186 333 10270
AAXX 25004 83970 41/90 /1503 10200 20136 30210 40214 52010 7002/ 8//// 222// 02200 20301 80160 33310200
AAXX 25004 83384 325// 30000 10268 20202 39546 40114 83100 333 10335 29062 55/// 58008
AAXX 25004 83386 32995 00000 10248 20217 39579 40102 333 10318 29072 55121 58004
AAXX 25004 83388 32496 20910 10250 20189 39430 40089 82200 333 10325 29060 55105 58004
AAXX 25004 83393 329// 00000 10220 20195 39422 40142 333 10258 29080 55009 58000
AAXX 25004 83442 32595 10000 10248 20205 39771 40110 81100 333 10346 29068 55/// 58005
AAXX 25004 83479 31598 81808 10244 20207 39338 40127 71311 889// 333 10312 29072 55074 58008
AAXX 25004 83483 32596 83601 10274 20226 39556 40110 888// 333 10328 29068 55105 58006
AAXX 25004 83531 215// 42303 10206 20194 39099 40119 71362 84400 333 10295 29086 55067 58005 60011
AAXX 25004 83538 32595 00000 10205 20178 38725 40101 333 10272 29075 55076 58002
AAXX 25004 83574 217// 80902 10238 20205 39576 40176 5//// 76466 88700 333 1//// 29064 55089 60321
AAXX 25004 83582 325// 80502 10234 20201 39356 40211 53004 88200 333 10303 29075 55079
AAXX 25004 83595 329// 00902 10272 20215 30052 40135 333 10344 29066 55106 59016
AAXX 25004 83687 21696 81406 10218 20192 39109 40104 54000 70262 887// 333 10308 29078 55081 60041
AAXX 25004 83692 32697 73602 10219 20187 39110 40124 53009 87200 333 10281 29080 55067
AAXX 25004 82143 31996 00206 10270 20229 40100 7000/ 80000 222// 80240 333 10/// 58009
AAXX 25004 83117 31197 32801 10250 20222 40145 52014 7020/ 8613/ 222// 02210 80230 333 10310
BBXX UGWJ 24181 99087 30771 42/98 52803 10298 40117 54000 22252 00287 20201
BBXX UGWJ 25001 99092 30763 42/98 91802 10275 40106 56010 22252 00287 20000 31500 40502
BBXX UGWJ 24181 99087 30771 42/98 52803 10298 40117 54000 22252 00287 20201
BBXX UGWJ 25001 99092 30763 42/98 91802 10275 40106 56010 22252 00287 20000 31500 40502
BBXX 41053 25001 99185 70661 46/// /0807 10265 40176 90030 333 91210
BBXX 41053 25001 99185 70661 46/// /0808 10265 40176 90020 333 91209
BBXX 41053 25001 99185 70661 46/// /0808 10265 40174 90010 333 91209
BBXX 41052 25001 99183 70648 46/// /0609 10264 40171 90030 333 91211
BBXX 41052 25001 99183 70648 46/// /0609 10266 40171 90020 333 91211
BBXX 41052 25001 99183 70648 46/// /0609 10266 40169 90010 333 91211
BBXX 42085 25001 99179 70665 46/// /0707 10268 40171 90030 333 91208
BBXX 42085 25001 99179 70665 46/// /0707 10269 40170 90020 333 91209
BBXX 42085 25001 99179 70665 46/// /0606 10270 40168 52019 90000 22200 00275 10702 70012 333 91207
BBXX 44024 25001 99423 70659 46/30 /0110 11003 40282 53031 90004 22200 00080 10805 70024 333 91213 555 11115 22121
BBXX 42360 25001 99267 70905 46/// /1107 10234 90000 22200 00239 10804 70021 333 91209
BBXX 44056 25001 99362 70757 46/// ///// 1//// 92350 22200 00122 10602 20602 70011
BBXX 41033 25001 99323 70804 46/// /0707 10145 40284 51008 90000 555 11099 22120
BBXX DCLH2 25000 99289 71400 41298 82704 10180 20164 40255 57010 70322 8/770 22263 06200 2//// 332// 41204 5//// 80170
BBXX 44138 25001 99443 70536 46/// /3505 10019 40182 52012 22200 00090 11006 70028 333 91207
BBXX PHSG 25004 99266 71144 41498 10221 10220 40190 57020 7//// 8///4 22234 00180 2//// 301// 40302
BBXX 44137 25001 99423 70620 46/// /3510 10034 40241 52036 22200 00091 10706 70028 333 91213
BBXX 46219 25001 99332 71199 46/// ///// 1//// 90028 22200 00139 11507 20502 331// 41507 70035
BBXX 46214 25001 99379 71235 46/// ///// 1//// 90023 22200 00121 11406 21002 330// 41405 70029
BBXX 46224 25001 99332 71175 46/// ///// 1//// 90006 22200 00144 11502 20601 320// 41501 70008
BBXX 44099 25001 99369 70757 46/// ///// 1//// 90022 22200 00119 10602 20602 70008
BBXX 46239 25001 99363 71221 46/// ///// 1//// 90021 22200 00136 11406 21002 330// 41406 70031
BBXX 46238 25001 99334 71195 46/// ///// 1//// 90020 22200 00145 11705 20501 330// 41704 70023
BBXX 9LD2206 25003 99171 70318 41395 82706 10249 20207 40190 52/// 70222 887// 22262 04250 29901 80220
BBXX DHDH 25004 99255 11211 41597 70530 10130 20094 40280 51020 70200 8671/ 22213 00180 20506 305// 40608 80110
BBXX SHIP 25004 99258 11298 41498 83120 10170 20100 40272 51010 7032/ 86334 22272 00260 20603 336// 41006 80130
BBXX SHIP 25004 99197 11323 41598 80430 10210 20186 40068 52034 72162 8645/ 22213 00260 20505 303// 40706 80180
BBXX ELWZ5 25004 99400 11546 41697 73614 10086 20035 40055 57016 7//11 83566 22224 04150 2//02 331// 4//05 5//// 80062
BBXX DPLE 25003 99506 10005 41298 62630 10110 20082 40285 52005 70222 85769 22264 00110 2//// 80095
BBXX DANV 25004 99326 10287 41598 43121 10170 20106 40160 54000 7//11 84400 22224 04180 2//// 80133
BBXX YJSW5 25004 99273 70898 411// 80916 10225 20218 40200 57002 7//22 8897/ 22200 00228 20503 308// 40703 5//// 6//// 80220 ICE /////
BBXX PHSG 25004 99266 71144 41498 10221 10220 40190 57020 7//// 8///4 22234 00180 2//// 301// 40302
BBXX A8GA8 25000 99124 10437 41/98 /1006 10240 20196 40120 51010 7//// 8/1// 22265 2//// 3//// 4//// 5//// 80210
BBXX 64045 25004 99591 70117 46/// /2629 10067 20035 49998 52010 22200 00100 11220 70098 333 90710 91145
BBXX BATEU05 25004 99584 70012 46/// /2532 10087 40050 52020 22222
BBXX 62112 25004 99584 70002 47797 /2820 10087 20033 40062 52019 700// 22200
BBXX 62113 25004 99584 10002 47897 /2525 10089 20032 40074 52024 700// 22200
BBXX 62129 25004 99584 10003 46/// ///// 10089 20033 40073 52025 22200
BBXX 62114 25004 99583 10000 46/// /2528 10090 20029 40061 53018 22200
BBXX PJAI 25004 99581 70014 47997 /2518 10088 20032 40068 53014 700// 22200
BBXX 62111 25004 99580 70003 46/// /2822 10088 20041 40089 52023 22200 10606 70029
BBXX 62117 25004 99579 10000 47797 /2623 10091 20055 40080 52024 700// 22200 10706 70029
BBXX BATUK01 25004 99560 70032 46/// /2605 10094 20050 40122 53015 22200 00055
BBXX 62105 25004 99554 70122 46/// /2213 10106 20100 40098 58016 22200 00107 11013 70064 333 90710 91126
BBXX 62095 25004 99531 70159 46/// /2224 10120 20106 40142 57017 22200 00113 10811 70057 333 90710 91135
BBXX 62301 25004 99524 70047 46/// /2420 10101 20084 40238 50003 22200 00084 10606 70028 333 90710 91128
BBXX 62094 25004 99517 70067 46/// /2424 10112 20093 40258 58002 22200 00107 10606 70030 333 90710 91133
BBXX 62303 25004 99516 70051 46/// /2521 10115 20090 40264 51003 22200 00111 10707 70035 333 90710 91129
BBXX 62023 25003 99514 70079 46/96 /2425 10107 2//// 40277 5//// 22200 10606 70030 555 70048 81019
BBXX 62081 25004 99510 70134 46/// ///// 10121 20112 40240 58009 22200 00121 10810 70048
BBXX DPLE 25003 99506 10005 41298 62630 10110 20082 40285 52005 70222 85769 22264 00110 2//// 80095
BBXX 62305 25004 99504 10000 46/98 /2629 10113 20080 40301 57009 22200 00118 10703 70014 333 90710 91138
BBXX PCEO 25003 99504 10004 41/97 82512 10102 20059 40282 58004 76166 8//// 22264 04115 20802 3//// 4//// 5//// 80080
BBXX 62107 25004 99501 70061 46/// /2425 10111 20086 40311 53003 22200 00116 10806 70028 333 90710 91133
BBXX ZNQO3 25000 99501 70006 41/98 /2313 10110 20075 40310 57025 75022 8//// 22262 04124 2//// 3//// 4//// 5//// 80093
BBXX BATFR60 25004 99500 70018 46/// /2525 10114 20077 40311 55007 22222 00112
BBXX 62103 25004 99499 70029 46/98 /2631 10114 20078 40302 57008 22200 00120 10704 70019 333 90710 91137
BBXX WKAW 25004 99490 70167 41/96 /2227 10120 2011/ 40260 54000 71022 8//// 22224 00120 20406 328// 4//06 5//// 6//// 80118 ICE /////
BBXX 62442 25004 99490 70164 46/// /2125 1//// 2//// 40270 57013 22200 00126 333 90710 91136
BBXX PHAM 25003 99490 70049 41597 42710 10130 20118 40340 57010 7//// 8/400 22213 20801 80123 90749
BBXX SCKB 25003 99489 70287 41/// /2242 10140 20105 40090 56005 75255 8//// 22253 00110 20911 3//// 4//// 5//// 6//// 80120 ICE /////
BBXX 62029 25004 99487 70125 46/// /2320 10124 20089 40312 57004 22200 00129 10808 70041 333 90710 91128
BBXX BATFR14 25004 99481 70091 44/98 82517 10119 20072 40344 56014 70022 8//// 22214 00132 331// 41204 5////
BBXX DIHE 25004 99477 70157 41/97 /2223 10120 20111 40310 54000 75022 8//// 22224 00130 2//// 80115
BBXX SFIR 25004 99475 70182 43/95 82128 10124 40296 58005 22223 00120 2//// 4////
BBXX DCDP2 25003 99475 70127 41/97 82421 10125 20078 40340 54000 70211 8//// 22224 00120 20504 80100
BBXX 62163 25004 99475 70084 46/// /2416 10111 20055 40356 57007 22200 00126 10806 70031
BBXX A8IN9 25003 99467 70119 41/97 /2519 10128 20063 40352 57007 70022 8//// 22214 06140 20303 329// 41206 5//// 80097
BBXX V7CY9 25003 99466 70073 41898 32813 10111 2009/ 40350 5//// 7//10 81145 22213 0//// 20401 331// 40802 5//// 6//// 80100 ICE /////
BBXX BAREU11 25004 99453 70271 46/// ///// 40263 57004 22223
BBXX 62001 25004 99453 70050 46/// /0803 10112 20021 40378 57004 22200 00140 10805 70025
BBXX DDSC2 25003 99450 70185 41298 82026 10130 20121 40335 57/// 70222 886// 22264 00133 21006 330// 40907 80125
BBXX PHQX 25003 99429 70150 41597 50000 10110 20050 40370 70222 83175 22264 2//00 3//// 4//// 5//// 80080
BBXX MGGK4 25000 99429 70106 41298 40612 10130 20121 40349 55/// 70011 82178 22284 00148 20102 3//// 40204 5//// 80125
BBXX BAREU06 25004 99402 70256 46/// ///// 40339 52004 22224
BBXX DANM 25004 99400 70220 41597 71009 10155 20112 40350 54000 70311 8657/ 22265 00150 20301 80130
BBXX A8GH5 25003 99392 70100 41/97 /0516 10145 20091 40320 56010 70000 8//// 22244 04120 20302 305// 40503 80115
BBXX DGZL 25003 99389 70098 41/98 10614 10135 20099 40300 51005 70000 8//// 22284 00150 2//// 80115
BBXX E5U2123 25003 99384 70123 41498 30321 10146 20106 40315 52007 70200 8310/ 22283 00170 20705 399// 4//// 5//// 80125
BBXX BATFR46 25004 99384 10001 44996 20012 10142 20077 40314 50/// 70111 82122 22253 00169 20510
BBXX DBBH 25001 99376 70010 41/98 /0604 10104 20069 40320 54000 7//// 22200 04162
BBXX KS089 25004 99374 70122 43/// /0320 10147 22243
BBXX BATFR09 25004 99362 70035 46/// /0925 10157 20110 40290 50002 22223 00172
BBXX VNVS 25003 99125 31213 41698 42408 10300 20273 40080 53005 70311 83502 22213 00312 299// 399// 4//// 80280
AAXX 25001 47008 32970 03204 11117 21241 30182 40239 53011 333 21135
AAXX 25001 47014 32950 00000 11253 21270 39880 40332 52018 333 21257
AAXX 25001 47016 31570 10000 11235 21267 39382 40306 52025 70341 81500 333 21247
AAXX 25001 47020 32965 00000 11202 21221 39926 40286 52018 333 21205
AAXX 25001 47025 32968 02903 11099 21240 30202 40233 52019 333 21110
AAXX 25001 47035 32970 03202 11123 21201 30316 40326 52016 333 21125
AAXX 25001 47041 32965 03202 11113 21197 30216 40245 52010 333 21158
AAXX 25001 47055 32970 02301 11078 21157 30219 40267 53012 333 21086
AAXX 25001 47058 32962 03202 11112 21208 30267 40318 52015 333 21120
AAXX 25001 47069 32965 03608 11062 21168 30194 40299 53016 333 21090
AAXX 25001 47003 32980 03208 11148 21241 30222 40226 52006 333 21161
AAXX 25001 47005 32980 00000 11291 21315 38542 58006 333 21295
AAXX 25001 47022 32975 03602 11212 21260 38792 53005 333 21239
AAXX 25001 47028 32965 00000 11149 21183 30216 40318 52009 333 21163
AAXX 25001 47031 32970 03402 11207 21247 38914 52014 333 21220
AAXX 25001 47037 32970 03402 11114 21210 30175 40307 53008 333 21145
AAXX 25001 47039 32960 00000 11176 21202 30112 40322 52015 333 21182
AAXX 25001 47046 32969 00000 11116 21188 30210 40234 52016 333 21125
AAXX 25001 47050 32965 00000 11138 21209 30277 40314 52012 333 21145
AAXX 25001 47052 32965 00000 11144 21164 39933 40300 52012 333 21166
AAXX 25001 47060 42960 00000 11111 21207 30253 40315 52024 333 21112
AAXX 25001 47061 32980 03205 11056 21163 30194 40240 52015 333 21070
AAXX 25001 47065 32970 03201 11128 21189 30251 40321 52027 333 21128
AAXX 25001 47067 32970 03202 11108 21192 30191 40320 52016 333 21115
AAXX 25001 47068 32970 00000 11128 21180 30265 40303 53013 333 21128
AAXX 25001 47070 32970 02903 11094 21200 30209 40302 52015 333 21102
AAXX 25001 47075 32980 02303 11133 21194 39768 40226 52021 333 21151
BBXX MINFR00 2500/ 99088 70795 46/// ///// 10265 40089 52029
AAXX 25001 30745 129// 00401 11337 21359 39112 40419 52012 69902 333 21344 47007 55000
BBXX A8ER9 25001 99515 11658 41298 80912 10028 21018 40130 56010 70322 85620 22264 04093 20809 310// 41006 5//// 80010
BBXX ELWZ5 25004 99400 11546 41697 73614 10086 20035 40055 57016 7//11 83566 22224 04150 2//02 331// 4//05 5//// 80062
BBXX LEQZ3 25003 99506 11598 41/95 91124 10010 21010 40034 57020 71044 22252 00090 20903 41206 80000
BBXX MFLM9 25003 99201 31185 41697 13014 10300 20273 40054 56010 70200 80005 222// 00295 20901 327// 40802 80280
BBXX ZQDI9 25003 99220 11192 41597 70518 10185 20122 40222 52030 70286 875// 22213 00240 20505 302// 40507 80150
BBXX A80K4 25003 99128 10481 41598 20807 10240 20164 40050 54000 70211 81117 22224 00/// 2//// 80190
BBXX S6JT 25004 99525 71388 41697 72020 10065 20054 4//// 57030 71822 8787/ 22264 04070 21008 305// 41110 80060
BBXX VRFS2 25004 99319 31139 41498 41617 10200 20184 40173 58006 70100 8346/ 22284 00/// 20404 314// 40508 80190
BBXX HZDD 25003 99060 10848 41397 82922 10268 20250 40047 53011 70260 86793 22264 04261 20604 330// 40806 80255
BBXX V7SY6 25004 99063 10949 41497 21119 10280 20239 40150 57/// 75022 82382 22233 00250 20506 80250
BBXX VRGW2 25004 99190 11137 41297 30527 10200 20184 40215 53005 70011 83451 22244 04250 21005 80190
BBXX MFLM9 25003 99201 31185 41697 13014 10300 20273 40054 56010 70200 80005 222// 00295 20901 327// 40802 80280
BBXX ZQDI9 25003 99220 11192 41597 70518 10185 20122 40222 52030 70286 875// 22213 00240 20505 302// 40507 80150
BBXX A80K4 25003 99128 10481 41598 20807 10240 20164 40050 54000 70211 81117 22224 00/// 2//// 80190
BBXX S6JT 25004 99525 71388 41697 72020 10065 20054 4//// 57030 71822 8787/ 22264 04070 21008 305// 41110 80060
BBXX VRFS2 25004 99319 31139 41498 41617 10200 20184 40173 58006 70100 8346/ 22284 00/// 20404 314// 40508 80190
BBXX HZDD 25003 99060 10848 41397 82922 10268 20250 40047 53011 70260 86793 22264 04261 20604 330// 40806 80255
BBXX V7SY6 25004 99063 10949 41497 21119 10280 20239 40150 57/// 75022 82382 22233 00250 20506 80250
BBXX VRGW2 25004 99190 11137 41297 30527 10200 20184 40215 53005 70011 83451 22244 04250 21005 80190
AAXX 25001 45032 36/// /9901 10077 21022 30258 40275 52002
AAXX 25001 45035 36/// /0306 10099 21045 30235 40279 52005
AAXX 25001 45039 36/// /0203 10105 21027 30255 40270 52001
AAXX 25001 45044 36/// /0006 10102 21022 30168 40265 54000
AAXX 25001 45032 36/// /9901 10077 21022 30258 40275 52002
AAXX 25001 45035 36/// /0306 10099 21045 30235 40279 52005
AAXX 25001 45039 36/// /0203 10105 21027 30255 40270 52001
AAXX 25001 45044 36/// /0006 10102 21022 30168 40265 54000
AAXX 25004 71012 16/// /2707 10000 21066 60001 333 10067 21011 70000
AAXX 25004 71013 16/// ///// 11011 21053 60001 333 10038 21018 7////
AAXX 25004 71060 16/// /3304 10033 21053 38683 40258 55003 60001 333 10053 20000 70000
AAXX 25004 71974 46/// /1604 11365 21400 30078 40123 51018 6///1 333 11261 21366 7////
AAXX 25004 71793 16/// ///// 11002 21069 60001 333 10075 21066 70000
AAXX 25004 71848 16/// ///// 10038 21031 60001 333 20012 7////
AAXX 25004 71565 16/// /1507 10011 21062 60001 333 10062 21011 70010
AAXX 25004 71566 16/// /2003 10029 21082 60001 333 10073 20012 70000
AAXX 25004 71567 16/// /2507 11021 21059 60001 333 10041 21021 70000
AAXX 25004 71399 16/// ///// 11011 21066 60001 333 10078 21041 70000
AAXX 25004 71073 16/// /2109 10029 21034 60001 333 10044 21003 70000
AAXX 25004 71495 16/// /2504 10023 21054 60001 333 10041 20015 70000
BBXX A8GA8 25000 99124 10437 41/98 /1006 10240 20196 40120 51010 7//// 8/1// 22265 2//// 3//// 4//// 5//// 80210
AAXX 25001 37985 41495 83601 10071 20062 30159 40145 52009 75055 886// 555 11007
AAXX 25001 37661 41092 92601 10027 20027 39376 40142 53001 74544 555 11003
AAXX 25001 37851 41497 83203 10050 20033 30084 40154 52002 76162 882//
AAXX 25001 37749 41596 82301 10051 20034 30074 40192 52011 71022 885// 555 11006
AAXX 25001 37989 4296 82503 10082 20074 30171 40144 52008 887// 555 10009
AAXX 25001 37675 42495 82901 11003 21015 39503 40178 52022 8802/ 555 11000
AAXX 25001 37735 41/91 /0000 10027 20024 39760 40140 53007 74544 555 10004
AAXX 25001 37864 31295 83605 10055 20044 40150 52010 75052 886// 333 88706
AAXX 25004 89625 46/// /2703 11297 29073 36526 4//// 5//// 90000
AAXX 25004 89646 46/// /0112 11198 29077 37631 4//// 5////
AAXX 25004 89648 46/// /2412 11225 29067 37195 4//// 5////
AAXX 25004 89659 46/// /2912 11183 29066 37679 4//// 5////
AAXX 25004 89661 46/// /0804 11027 29052 39252 4//// 5////
AAXX 25004 89662 42980 01610 10004 21047 39786 49890 52010 222 ICE 98015
AAXX 25004 89666 46/// /1504 11019 29077 39700 4//// 5////
AAXX 25004 71848 16/// ///// 10038 21031 60001 333 20012 7////
AAXX 25004 71565 16/// /1507 10011 21062 60001 333 10062 21011 70010
AAXX 25004 71566 16/// /2003 10029 21082 60001 333 10073 20012 70000
AAXX 25004 71567 16/// /2507 11021 21059 60001 333 10041 21021 70000
AAXX 25004 71793 16/// ///// 11002 21069 60001 333 10075 21066 70000
AAXX 25004 71399 16/// ///// 11011 21066 60001 333 10078 21041 70000
AAXX 25004 71012 16/// /2707 10000 21066 60001 333 10067 21011 70000
AAXX 25004 71013 16/// ///// 11011 21053 60001 333 10038 21018 7////
AAXX 25004 71060 16/// /3304 10033 21053 38683 40258 55003 60001 333 10053 20000 70000
AAXX 25004 71974 46/// /1604 11365 21400 30078 40123 51018 6///1 333 11261 21366 7////
AAXX 25004 71073 16/// /2109 10029 21034 60001 333 10044 21003 70000
AAXX 25004 71495 16/// /2504 10023 21054 60001 333 10041 20015 70000
AAXX 2500/ 89327 46/// ///// 11015 39525 4//// 5//// 90030
AAXX 2500/ 89879 46/// ///// 10065 39811 4//// 5//// 90020
AAXX 25001 14015 11330 80000 11002 21011 39905 40281 53014 60001 71022 8657/ 333 81707 86530
AAXX 25004 96791 12457 80000 10256 20244 30027 40101 52013 60674 8452/ 333 20242 5///0 55048 56000 58012 84617 88460
AAXX 25001 89063 41/93 90208 11006 21011 39818 49829 52004 77372 333 10002 21012
AAXX 25004 97700 12460 62103 10294 20242 30044 40059 52013 60094 82232 333 20252 50410 55013 56000 57804 58007 82817 80856
AAXX 25004 88963 11215 81413 11016 21024 39810 49841 53003 69931 77772 887// 333 10003 21016 56799 88706 90061 90088 90240 90280 90963 92404 92800 93100 94075 95095 96010
AAXX 25004 88968 32465 83208 11001 21024 39829 49844 56013 886// 333 10016 21001 56199 83712 88620 92417 92733 92840 94075 95065
AAXX 25004 89034 32270 30000 11033 21054 39510 49820 58016 83600 333 10016 21044 56800 83705 92417 92850
AAXX 25004 89053 11208 80906 11004 21010 39817 49831 54000 69911 76876 8572/ 333 10018 21006 56209 85705 88530 90024 90094 90324 90967 92413 92743 92801 94070 94479 95090 96456 97512 98508
AAXX 25004 89055 11250 81809 11029 21052 39601 49844 50001 69901 77072 8372/ 333 11013 21030 56459 83705 88530 90017 90095 92730 92800 95190
AAXX 25004 89066 32470 80000 11002 21013 39814 49824 55000 886// 333 10028 21031 56799 85715 88725 92407 94075 95015
BBXX 46241 25001 99330 71173 46/// ///// 1//// 90011 22200 00145 11802 20401 326// 41802 70009
AAXX 25004 96001 11456 81114 10266 20248 39943 40091 5//// 60024 70522 84522 333 20184 50000 55015 56200 59002 84619
BBXX 51204 25001 99213 71581 46/// ///// 1//// 90022 22200 00245 11002 21002 318// 41401 70012
AAXX 25004 68588 16/// /3603 10225 20199 30147 40163 58010 69943 333 10267 20218 91004 555 20004 91016
AAXX 25004 68581 16/// /0902 10191 20181 39394 48540 57008 69983 333 10227 20190 91004 555 20008 91017
AAXX 25004 68583 16/// /0000 10224 20205 30045 40154 57012 69943 333 10253 20224 91002 555 20004 91015
AAXX 25004 68589 16/// /1902 10125 20089 38280 48543 57013 69963 333 10206 20124 91004 555 20006 91024
BBXX 46216 25001 99343 71198 46/// ///// 1//// 90027 22200 00146 11702 21001 327// 41702 70009
BBXX 46223 25001 99335 71178 46/// ///// 1//// 90030 22200 00154 11502 21001 324// 41502 70009
BBXX 46213 25001 99403 71247 46/// ///// 1//// 90024 22200 00099 11406 21003 330// 41405 70031
BBXX 46231 25001 99327 71174 46/// ///// 1//// 90024 22200 00149 11702 21001 328// 41702 70011
BBXX 46222 25001 99336 71183 46/// ///// 1//// 90026 22200 00150 11702 21001 326// 41702 70011
BBXX 46242 25001 99332 71174 46/// ///// 1//// 90028 22200 00145 11501 20601 321// 41501 70006
BBXX 46221 25001 99339 71186 46/// ///// 1//// 90015 22200 00154 11802 21001 324// 41801 70008
AAXX 25004 83746 32570 23405 10266 20210 30127 40137 51020 82200 333 10357
AAXX 25004 41915 31/02 90000 10110 20110 30101 40127 74744 89/// 333 58001 70000
AAXX 25004 41964 31920 00000 10156 20156 30129 40132 71000 333 58007 70000
BBXX 62105 25004 99554 70122 46/// /2213 10103 20096 40098 58016 22200 00107 11013 70064 333 90710 91126
BBXX 62123 25004 99563 10022 47997 /2430 10098 20072 40111 53005 700// 22200
BBXX 63106 25004 99610 10017 46/// /2532 10073 49945 53012 22200
BBXX 63113 25004 99610 10017 46/// /2630 10076 20024 49969 52011 22200 10813 70063
BBXX 62303 25004 99516 70051 46/// /2521 10115 20090 40264 51003 22200 00111 10608 70038 333 90710 91129
BBXX 62001 25004 99453 70050 46/// /0803 10112 20021 40378 57004 22200 00140 10905 70025
BBXX 62103 25004 99499 70029 46/98 /2527 10116 20078 40310 52003 22200 00120 10704 70019 333 90710 91139
AAXX 25004 48001 NIL
AAXX 25004 48004 32530 70000 10127 20127 87900 333 20119 56500
AAXX 25004 48008 32556 60000 10140 20124 40141 83970 333 20132 56440 59006
AAXX 25004 48010 31205 73601 10155 20151 40143 74044 83770 333 20150 56710 58002
AAXX 25004 48018 32340 60000 10155 20144 40138 84870 333 20085 56990 59003
AAXX 25004 48019 NIL
AAXX 25004 48020 NIL
AAXX 25004 48025 NIL
AAXX 25004 48035 NIL
AAXX 25004 48037 32520 73601 10166 20154 40129 87500 333 20160 56500 59000
AAXX 25004 48042 32558 20000 10174 20154 40130 84450 333 20170 56990 59002
AAXX 25004 48045 NIL
AAXX 25004 48048 32540 60401 10165 20160 40130 84950 333 20154 56490 59001
AAXX 25004 48053 32550 23601 10170 20135 40129 82500 333 20163 56600 58002
AAXX 25004 48057 31429 61402 10132 20113 71011 82876 333 20125 56459
AAXX 25004 48060 31420 80000 10153 20134 40182 71022 85870 333 20148 56560 58008
AAXX 25004 48062 31430 33201 10185 20180 40118 74044 82830 333 20176 56990 58013
AAXX 25004 48071 NIL
AAXX 25004 48077 31956 30401 10200 20168 40118 71022 80001 333 20170 56009 59002
AAXX 25004 48078 32956 43201 10189 20175 40116 80002 333 20161 56909 58002
AAXX 25004 48080 31540 50000 10190 20175 40087 71000 82870 333 20174 56990 59013
AAXX 25004 48094 32456 70401 10220 20210 40098 85940 333 20210 56990 58003
AAXX 25004 48097 31457 71301 10210 20195 40100 70522 8253/ 333 20195 5699/ 59004
AAXX 25004 48108 NIL
AAXX 25004 48109 NIL
AAXX 25004 48110 31995 80000 10220 20185 40100 70522 80006 333 20220 56009 59001
AAXX 25004 48112 21597 80412 10260 20215 40076 83876 333 20183 56199 59008
AAXX 25004 48001 NIL
AAXX 25004 48004 32530 70000 10127 20127 87900 333 20119 56500
AAXX 25004 48008 32556 60000 10140 20124 40141 83970 333 20132 56440 59006
AAXX 25004 48010 31205 73601 10155 20151 40143 74044 83770 333 20150 56710 58002
AAXX 25004 48018 32340 60000 10155 20144 40138 84870 333 20085 56990 59003
AAXX 25004 48019 NIL
AAXX 25004 48020 NIL
AAXX 25004 48025 NIL
AAXX 25004 48035 NIL
AAXX 25004 48037 32520 73601 10166 20154 40129 87500 333 20160 56500 59000
AAXX 25004 48042 32558 20000 10174 20154 40130 84450 333 20170 56990 59002
AAXX 25004 48045 NIL
AAXX 25004 48048 32540 60401 10165 20160 40130 84950 333 20154 56490 59001
AAXX 25004 48053 32550 23601 10170 20135 40129 82500 333 20163 56600 58002
AAXX 25004 48057 31429 61402 10132 20113 71011 82876 333 20125 56459
AAXX 25004 48060 31420 80000 10153 20134 40182 71022 85870 333 20148 56560 58008
AAXX 25004 48062 31430 33201 10185 20180 40118 74044 82830 333 20176 56990 58013
AAXX 25004 48071 NIL
AAXX 25004 48077 31956 30401 10200 20168 40118 71022 80001 333 20170 56009 59002
AAXX 25004 48078 32956 43201 10189 20175 40116 80002 333 20161 56909 58002
AAXX 25004 48080 31540 50000 10190 20175 40087 71000 82870 333 20174 56990 59013
AAXX 25004 48094 32456 70401 10220 20210 40098 85940 333 20210 56990 58003
AAXX 25004 48097 31457 71301 10210 20195 40100 70522 8253/ 333 20195 5699/ 59004
AAXX 25004 48108 NIL
AAXX 25004 48109 NIL
AAXX 25004 48110 31995 80000 10220 20185 40100 70522 80006 333 20220 56009 59001
AAXX 25004 48112 21597 80412 10260 20215 40076 83876 333 20183 56199 59008
AAXX 25001 01332 16/// /0901 10011 21003 60141 333 91106
AAXX 25001 10291 12370 42506 10026 20016 30177 40247 51017 60001 84600 333 31/// 55/// 20057 30057 55300 20000 30000 84707
AAXX 25003 78970 11465 50000 10254 20218 30112 40137 60001 70522 81842 333 0299 10323 20234 58013 81818 85080
AAXX 25003 78962 11450 60608 10245 20222 30139 40147 69901 71682 83802 333 02209 10303 20229 58017 83812 85080 90950
AAXX 25003 78970 11465 50000 10254 20218 30112 40137 60001 70522 81842 333 0299 10323 20234 58013 81818 85080
AAXX 25003 78962 11450 60608 10245 20222 30139 40147 69901 71682 83802 333 02209 10303 20229 58017 83812 85080 90950
AAXX 25004 71006 16/// /2607 10000 21052 60001 333 10062 21010 70000
AAXX 25004 71007 46/// ///// 10038 21044 6///1 333 10076 20024 7////
AAXX 25004 71008 16/// /2309 10014 21024 60001 333 10039 21025 70000
AAXX 25004 71009 16/// /1102 10025 21034 60001 333 10039 20004 70000
AAXX 25004 71035 16/// ///// 10031 21039 60001 333 10035 21025 70000
AAXX 25004 71051 16/// ///// 10011 21029 60001 333 21095 7////
AAXX 25004 71057 16/// ///// 10038 21034 60001 333 10056 20005 70000
AAXX 25004 71070 16/// ///// 10019 21020 60001 333 10076 20012 70000
AAXX 25004 71089 16/// ///// 10001 21064 60001 333 10065 21020 70000
AAXX 25004 71102 16/// ///// 11026 21070 60001 333 10054 21037 70000
AAXX 25004 71105 16/// ///// 10015 21030 60001 333 10074 20014 70000
AAXX 25004 71433 46/// /2420 10014 21014 39904 40136 56018 6///1 333 10015 21014 7////
AAXX 25004 71841 16/// /2204 11050 21072 39678 40081 56018 60001 333 11046 21127 7////
AAXX 25004 71789 16/// ///// 10054 21030 60001 333 10065 20025 70000
AAXX 25004 71791 16/// /2407 11009 21066 60001 333 10055 21024 70000
AAXX 25004 71794 16/// ///// 11032 21069 60001 333 10054 21033 70000
AAXX 25004 71795 16/// ///// 10034 21031 60001 333 10075 20007 70000
AAXX 25004 71796 16/// ///// 11023 21075 60001 333 10071 21023 70000
AAXX 25004 71797 16/// ///// 11016 21063 60001 333 10051 21016 70000
AAXX 25004 71409 16/// ///// 10027 21015 60001 333 10074 20002 70000
AAXX 25004 71502 16/// /3007 11285 21308 30140 40157 51002 60001 333 11252 21285 7////
AAXX 25004 71517 16/// /2724 10062 21029 60001 333 10067 20015 70000
AAXX 25004 71518 16/// /2410 10035 21024 60001 333 10080 20035 70000
AAXX 25004 71519 16/// /2303 10042 21019 60001 333 10087 20022 70000
AAXX 25004 71528 16/// /2514 10056 21026 60001 333 10080 20036 70000
AAXX 25004 71841 16/// /2204 11050 21072 39678 40081 56018 60001 333 11046 21127 7////
AAXX 25004 71433 46/// /2420 10014 21014 39904 40136 56018 6///1 333 10015 21014 7////
AAXX 25004 71051 16/// ///// 10011 21029 60001 333 21095 7////
AAXX 25004 71057 16/// ///// 10038 21034 60001 333 10056 20005 70000
AAXX 25004 71070 16/// ///// 10019 21020 60001 333 10076 20012 70000
AAXX 25004 71089 16/// ///// 10001 21064 60001 333 10065 21020 70000
AAXX 25004 71502 16/// /3007 11285 21308 30140 40157 51002 60001 333 11252 21285 7////
AAXX 25004 71517 16/// /2724 10062 21029 60001 333 10067 20015 70000
AAXX 25004 71518 16/// /2410 10035 21024 60001 333 10080 20035 70000
AAXX 25004 71519 16/// /2303 10042 21019 60001 333 10087 20022 70000
AAXX 25004 71528 16/// /2514 10056 21026 60001 333 10080 20036 70000
AAXX 25004 71789 16/// ///// 10054 21030 60001 333 10065 20025 70000
AAXX 25004 71791 16/// /2407 11009 21066 60001 333 10055 21024 70000
AAXX 25004 71794 16/// ///// 11032 21069 60001 333 10054 21033 70000
AAXX 25004 71795 16/// ///// 10034 21031 60001 333 10075 20007 70000
AAXX 25004 71796 16/// ///// 11023 21075 60001 333 10071 21023 70000
AAXX 25004 71797 16/// ///// 11016 21063 60001 333 10051 21016 70000
AAXX 25004 71006 16/// /2607 10000 21052 60001 333 10062 21010 70000
AAXX 25004 71007 46/// ///// 10038 21044 6///1 333 10076 20024 7////
AAXX 25004 71008 16/// /2309 10014 21024 60001 333 10039 21025 70000
AAXX 25004 71009 16/// /1102 10025 21034 60001 333 10039 20004 70000
AAXX 25004 71035 16/// ///// 10031 21039 60001 333 10035 21025 70000
AAXX 25004 71409 16/// ///// 10027 21015 60001 333 10074 20002 70000
AAXX 25004 71102 16/// ///// 11026 21070 60001 333 10054 21037 70000
AAXX 25004 71105 16/// ///// 10015 21030 60001 333 10074 20014 70000
AAXX 25004 68494 16/// /2402 10200 20188 30030 40161 57006 69923 333 10252 20200 91003 555 20002 91016
AAXX 25004 68479 16/// /0803 10178 20159 38973 48533 57007 60023 333 10271 20177 91004 555 20022 91019
AAXX 25004 68487 36/// /3404 10180 20163 39020 48539 57007 333 10222 20177 91004 555 91020
AAXX 25004 68491 16/// /3503 10209 20200 30150 40159 58003 60013 333 10244 20205 91005 555 20014 91015
AAXX 25004 68497 36/// /1303 10214 20200 30126 40170 53002 333 10274 20213 91005 555 91017
AAXX 25004 41929 31/01 93402 10126 20126 30110 40120 74540 89/// 333 59006 70000
AAXX 25004 41939 31/03 90000 10123 20120 40135 74544 89/// 333 58006 70000
AAXX 25004 41953 31308 80000 10140 20140 30121 40127 74044 886// 333 59006 70000 88706
AAXX 25004 89063 41/93 90208 11006 21011 39818 49829 52004 77372 333 10002 21012
BBXX VRDT5 25004 99175 11334 41196 80329 10230 2022/ 40210 54000 7//22 88/4/ 222// 0//// 20406 323// 40406 5//// 6//// 80220 ICE /////
BBXX WDE2719 25003 99607 71514 41/97 80910 11122 2//// 49950 57/// 702// 8//// 222// 01022 2//00 331// 4//01 5//// 6//// 8//// ICE /////
BBXX A80K4 25003 99128 10481 41598 20807 10240 20164 40050 54000 70211 81117 22224 00/// 2//// 80190
BBXX A8GA8 25000 99124 10437 41/98 /1006 10240 20196 40120 51010 7//// 8/1// 22265 2//// 3//// 4//// 5//// 80210
BBXX VRFS2 25004 99319 31139 41498 41617 10200 20184 40173 58006 70100 8346/ 22284 00/// 20404 314// 40508 80190
BBXX MFLM9 25003 99201 31185 41697 13014 10300 20273 40054 56010 70200 80005 222// 00295 20901 327// 40802 80280
BBXX VNVS 25003 99125 31213 41698 42408 10300 20273 40080 53005 70311 83502 22213 00312 299// 399// 4//// 80280
BBXX UGWJ 25001 99092 30763 42/98 91802 10275 40106 56010 22252 00287 20000 31500 40502
BBXX MINFR00 2500/ 99088 70795 46/// ///// 10265 40089 52029
BBXX 46221 25001 99339 71186 46/// ///// 1//// 90015 22200 00154 11802 21001 324// 41801 70008
BBXX 46216 25001 99343 71198 46/// ///// 1//// 90027 22200 00146 11702 21001 327// 41702 70009
BBXX 46223 25001 99335 71178 46/// ///// 1//// 90030 22200 00154 11502 21001 324// 41502 70009
BBXX 46242 25001 99332 71174 46/// ///// 1//// 90028 22200 00145 11501 20601 321// 41501 70006
BBXX 46213 25001 99403 71247 46/// ///// 1//// 90024 22200 00099 11406 21003 330// 41405 70031
BBXX 46231 25001 99327 71174 46/// ///// 1//// 90024 22200 00149 11702 21001 328// 41702 70011
BBXX 46222 25001 99336 71183 46/// ///// 1//// 90026 22200 00150 11702 21001 326// 41702 70011
BBXX 46241 25001 99330 71173 46/// ///// 1//// 90011 22200 00145 11802 20401 326// 41802 70009
BBXX S6JT 25004 99525 71388 41697 72020 10065 20054 4//// 57030 71822 8787/ 22264 04070 21008 305// 41110 80060
BBXX 41052 25001 99183 70648 46/// /0609 10264 40171 90030 333 91211
BBXX 42085 25001 99179 70665 46/// /0707 10268 40171 90030 333 91208
BBXX 42085 25001 99179 70665 46/// /0707 10269 40170 90020 333 91209
BBXX 44024 25001 99423 70659 46/30 /0110 11003 40282 53031 90004 22200 00080 10805 70024 333 91213 555 11115 22121
BBXX 42085 25001 99179 70665 46/// /0606 10270 40168 52019 90000 22200 00275 10702 70012 333 91207
BBXX 41052 25001 99183 70648 46/// /0609 10266 40169 90010 333 91211
BBXX 41052 25001 99183 70648 46/// /0609 10266 40171 90020 333 91211
BBXX 41053 25001 99185 70661 46/// /0808 10265 40174 90010 333 91209
BBXX 41053 25001 99185 70661 46/// /0808 10265 40176 90020 333 91209
BBXX 41053 25001 99185 70661 46/// /0807 10265 40176 90030 333 91210
BBXX BKHB 25004 99284 11271 41798 83417 10110 20092 40026 52040 70200 887// 22254 04260 20504 334// 40403 80100
BBXX SHIP 25001 99221 11149 41/97 /0909 10125 20049 40250 52018 70200 8//// 22263 04170 20602 3//// 4//// 80090
BBXX WDB9949 25004 99503 11578 41/92 80830 10030 2105/ 49970 57020 76977 886// 22254 00000 20406 308// 41312 5//// 6//// 80000 ICE /////
BBXX VRGW2 25004 99190 11137 41297 30527 10200 20184 40215 53005 70011 83451 22244 04250 21005 80190
BBXX ZQDI9 25003 99220 11192 41597 70518 10185 20122 40222 52030 70286 875// 22213 00240 20505 302// 40507 80150
BBXX V7SY6 25004 99063 10949 41497 21119 10280 20239 40150 57/// 75022 82382 22233 00250 20506 80250
BBXX HZDD 25003 99060 10848 41397 82922 10268 20250 40047 53011 70260 86793 22264 04261 20604 330// 40806 80255
BBXX VRDT5 25004 99175 11334 41196 80329 10230 2022/ 40210 54000 7//22 88/4/ 222// 0//// 20406 323// 40406 5//// 6//// 80220 ICE /////
AAXX 25004 41998 31930 50000 10176 20170 30104 40110 70500 82831 333 56999 58007 70000 81618 83080
BBXX VQIB9 25003 99143 30672 41698 31320 10260 20231 40133 57010 70200 8/400 22254 20603 3//// 4//// 5//// 80240
BBXX TBWUK17 25003 99260 30588 41798 21014 10243 20230 40208 50010 70100 82142 22263 04250 20201 31111 40302 50403 80234
BBXX ZCBV4 25004 99323 30347 41/97 80716 10222 20219 40213 702// 8//// 22263 00240 20403 323// 40307 5//// 80220
AAXX 25004 71481 16/// /1705 11017 21086 60001 333 10054 21017 70000
AAXX 25004 71498 16/// /2308 10020 21027 60001 333 10046 21025 70000
AAXX 25004 71014 16/// /1703 10006 21073 60001 333 10063 20005 70000
AAXX 25004 71857 46/// ///// 11005 21059 6///1 333 10050 21019 7////
AAXX 25004 71674 16/// ///// 11016 21066 60001 333 10062 21024 70000
AAXX 25004 71943 12674 81310 10017 21053 39303 40139 58030 60001 8557/ 333 10031 20010 70000
AAXX 25004 71360 16/// ///// 10006 21064 60001 333 10062 21001 70000
AAXX 25004 71380 16/// /1005 10003 21067 60001 333 10037 20001 70000
AAXX 25004 71383 16/// ///// 11298 21333 39666 40332 56006 60001 333 11219 21368 70000
AAXX 25004 71520 16/// /1609 11278 21302 39579 40318 58012 60001 333 11244 21425 70000
AAXX 25004 71521 16/// ///// 11316 21353 60001 333 11239 21381 70000
AAXX 25004 71523 16/// ///// 11256 21283 39907 40317 58004 60001 333 11199 21365 70000
AAXX 25004 71540 16/// /1801 11018 21070 60001 333 10053 21025 70000
AAXX 25004 71544 16/// ///// 10009 21058 60001 333 10034 20003 70000
AAXX 25004 71548 16/// ///// 11003 21063 60001 333 10052 21003 70000
AAXX 25004 71413 16/// ///// 10000 21063 60001 333 10067 20000 70000
AAXX 25004 71414 16/// ///// 10001 21068 60001 333 10056 21004 70000
AAXX 25004 71440 16/// ///// 10029 21037 60001 333 10043 20001 70000
AAXX 25004 71249 16/// /2716 10011 21047 60001 333 10029 21010 70000
AAXX 25004 71055 46/// /0503 11328 21360 39806 40156 50007 6///1 333 11267 21328 7////
AAXX 25004 71065 16/// ///// 10005 21058 60001 333 10058 21018 70000
AAXX 25004 71346 16/// /2514 10059 21028 60001 333 10090 20038 70000
AAXX 25004 71904 16/// ///// 10012 21056 60001 333 10043 20001 70000
AAXX 25004 71943 12674 81310 10017 21053 39303 40139 58030 60001 8557/ 333 10031 20010 70000
AAXX 25004 71943 12674 81310 10017 21053 39303 40139 58030 60001 8557/ 333 10031 20010 70000
BBXX A8HD5 25001 99076 11086 41697 33616 10255 20193 40120 52015 71011 82310 22213 04245 20608 30300 41206 5//// 80215
AAXX 25004 81225 11670 60000 10244 20235 40126 60061 70382 82552 333 10320 56229 58014 70057 82635 85360
AAXX 25004 81200 11570 30000 10264 20229 40125 60011 70281 81502 333 10/// 56309 58020 70019 81625 83080
AAXX 25004 81202 12470 60812 10270 20235 40128 60001 84832 333 10293 56299 58018 70101 82815 83635 85080
AAXX 25004 81209 NIL
AAXX 25004 81251 NIL
AAXX 25004 DUPE
AAXX 25004 81225 11670 60000 10244 20235 40126 60061 70382 82552 333 10320 56229 58014 70057 82635 85360
AAXX 25004 81200 11570 30000 10264 20229 40125 60011 70281 81502 333 10/// 56309 58020 70019 81625 83080
AAXX 25004 81202 12470 60812 10270 20235 40128 60001 84832 333 10293 56299 58018 70101 82815 83635 85080
AAXX 25004 81209 NIL
AAXX 25004 81251 NIL
AAXX 25004 DUPE
AAXX 25003 64870 32960 70000 10131 20037 38915 48513 80002 333 0//00 59006 87080
BBXX UGWJ 25001 99092 30763 42/98 91802 10275 40106 56010 22252 00287 20000 31500 40502
AAXX 25004 89013 46/// /0911 11169 21209 37685 49701 57003 90000
AAXX 25004 89065 46/// /9901 11031 21046 39721 49798 5//// 90000
AAXX 25004 89257 46/// /2210 11089 21098 39793 49864 57013 90000
AAXX 25004 89262 46/// /1806 11037 21061 39806 49850 57004 90000
AAXX 25004 89272 46/// /0909 11132 21159 38045 49690 57009 90000
AAXX 25004 85452 12597 41313 10189 20115 40186 57013 60001 84500 333 10214 56300 84630
AAXX 25004 85500 12998 02908 10172 20139 40122 54003 60001 333 10200
AAXX 25004 85558 12997 02605 10154 20137 40130 57005 60001 333 10188 17/00
AAXX 25004 85564 12998 00405 10146 20119 40151 57004 60001 333 10188
AAXX 25004 85680 12997 02207 10225 20134 40120 57008 60001 333 10265
AAXX 25004 85648 12997 02404 10140 20108 40121 57006 60001 333 10170
AAXX 25004 85732 12997 01918 10134 20109 40130 57010 60001 333 10175
AAXX 25004 85802 12997 02112 10151 20065 40193 57010 60001 333 10188
AAXX 25004 85812 12998 02106 10142 20103 40195 57010 60001 333 10190
AAXX 25004 85834 12597 32624 10120 20080 40186 57024 60001 83400 333 10140 56500 83622
AAXX 25004 85889 11394 80110 10120 20116 40229 57011 69961 75052 886// 333 10140 56799 88708
AAXX 25004 85896 11596 83308 10108 20097 40219 57014 60021 75065 887// 333 10134 56799 88720
AAXX 25004 85930 12597 82710 10082 20053 40190 54001 60001 885// 333 10094 56699 88628
AAXX 25004 85931 12997 02719 10118 20076 40109 52010 60001 333 10145
AAXX 25004 85970 12497 72460 10065 21050 40062 54003 60001 87500 333 10072 56600 87618 91185
AAXX 25004 85972 11496 82420 10056 20052 40070 54000 60001 71622 887// 333 10075 56799 88618
AAXX 25004 89057 11210 80711 11008 21012 49820 54001 77177 8672/ 333 10013 21009 56779 86705 88515 93105
AAXX 25004 85452 12597 41313 10189 20115 40186 57013 60001 84500 333 10214 56300 84630
AAXX 25004 85500 12998 02908 10172 20139 40122 54003 60001 333 10200
AAXX 25004 85558 12997 02605 10154 20137 40130 57005 60001 333 10188 17/00
AAXX 25004 85564 12998 00405 10146 20119 40151 57004 60001 333 10188
AAXX 25004 85680 12997 02207 10225 20134 40120 57008 60001 333 10265
AAXX 25004 85648 12997 02404 10140 20108 40121 57006 60001 333 10170
AAXX 25004 85732 12997 01918 10134 20109 40130 57010 60001 333 10175
AAXX 25004 85802 12997 02112 10151 20065 40193 57010 60001 333 10188
AAXX 25004 85812 12998 02106 10142 20103 40195 57010 60001 333 10190
AAXX 25004 85834 12597 32624 10120 20080 40186 57024 60001 83400 333 10140 56500 83622
AAXX 25004 85889 11394 80110 10120 20116 40229 57011 69961 75052 886// 333 10140 56799 88708
AAXX 25004 85896 11596 83308 10108 20097 40219 57014 60021 75065 887// 333 10134 56799 88720
AAXX 25004 85930 12597 82710 10082 20053 40190 54001 60001 885// 333 10094 56699 88628
AAXX 25004 85931 12997 02719 10118 20076 40109 52010 60001 333 10145
AAXX 25004 85970 12497 72460 10065 21050 40062 54003 60001 87500 333 10072 56600 87618 91185
AAXX 25004 85972 11496 82420 10056 20052 40070 54000 60001 71622 887// 333 10075 56799 88618
AAXX 25004 89057 11210 80711 11008 21012 49820 54001 77177 8672/ 333 10013 21009 56779 86705 88515 93105
AAXX 25001 98134 11562 60408 10188 20144 30015 40208 52017 60074 70542 83270 333 20152 56199 58050 70066 83820 85358 555 20006
AAXX 25001 98223 31462 50204 10240 20182 40136 53016 70544 81108 333 20200 56999 58011 81819 85279
AAXX 25001 98526 12570 80000 10270 20245 40106 53024 60044 81207 333 20242 56999 58017 70036 81820 88274 98315
AAXX 25001 98550 11460 73202 10261 20248 40101 52022 60094 72582 82268 333 20254 56299 58023 70090 82818 86272 555 20046 98630 12475 80205 10262 20246 40141 53009 60114 83207 222// 2//03 333 20254 56199 58011 70110 83818 88275
AAXX 25001 98618 12480 70709 10271 20238 40097 53020 60074 83278 333 20251 56999 59011 70071 83819 84458 87274
OOXX AUP09 24221 99124 31309 ///// 00321 26/// ///// 1//// 29/// 3//// 92214 333 6///0
OOXX AUP09 24221 99124 31309 ///// 00321 26/// ///// 1//// 29/// 3//// 92224 333 6///0
OOXX AUP09 24221 99124 31309 ///// 00321 26/// ///// 1//// 29/// 3//// 92234 333 6///0
OOXX AUP09 24221 99124 31309 ///// 00321 26/// ///// 1//// 29/// 3//// 92244 333 6///0
OOXX AUP09 24221 99124 31309 ///// 00321 26/// ///// 1//// 29/// 3//// 92254 333 6///0
OOXX AUP09 24231 99124 31309 ///// 00321 26/// ///// 1//// 29/// 3//// 92304 333 6///0
OOXX AUP09 24231 99124 31309 ///// 00321 26/// ///// 1//// 29/// 3//// 92314 333 6///0
OOXX AUP09 24231 99124 31309 ///// 00321 26/// ///// 1//// 29/// 3//// 92324 333 6///0
OOXX AUP09 24231 99124 31309 ///// 00321 26/// ///// 1//// 29/// 3//// 92334 333 6///0
OOXX AUP09 24231 99124 31309 ///// 00321 26/// ///// 1//// 29/// 3//// 92344 333 6///0
OOXX AUP09 24231 99124 31309 ///// 00321 26/// ///// 1//// 29/// 3//// 92354 333 6///0
OOXX AUP09 25001 99124 31309 ///// 00321 26/// ///// 1//// 29/// 3//// 90004 333 6///0
OOXX MYP42 24221 99045 11014 ///// 15551 26/// /1007 10165 29092 38421 92204 333 60000
OOXX MYP42 24221 99045 11014 ///// 15551 26/// /0913 10166 29093 38403 92214 333 60000
OOXX MYP42 24221 99045 11014 ///// 15551 26/// /1103 10164 29092 38401 92224 333 60000
OOXX MYP42 24221 99045 11014 ///// 15551 26/// /0813 10165 29092 38407 92234 333 60000
OOXX MYP42 24221 99045 11014 ///// 15551 26/// /0713 10166 29092 38407 92244 333 60000
OOXX MYP42 24221 99045 11014 ///// 15551 26/// /0708 10166 29093 38421 92254 333 60000
OOXX MYP42 24231 99045 11014 ///// 15551 26/// /0204 10163 29093 38414 92304 333 60000
OOXX MYP42 24231 99045 11014 ///// 15551 26/// /0911 10162 29095 38420 92314 333 60000
OOXX MYP42 24231 99045 11014 ///// 15551 26/// /1110 10164 29094 38412 92324 333 60000
OOXX MYP42 24231 99045 11014 ///// 15551 26/// /0210 10163 29094 38403 92334 333 60000
OOXX MYP42 24231 99045 11014 ///// 15551 26/// /0207 10164 29094 38409 92344 333 60000
OOXX MYP42 24231 99045 11014 ///// 15551 26/// /0703 10165 29094 38421 92354 333 60000
AAXX 25001 38838 429// 80000 11018 21032 39495 48117
AAXX 25001 58968 32566 60904 10131 20057 30269 40277 53008 82420
AAXX 25001 58974 32580 70407 10127 20038 30165 40293 52013 8644/
AAXX 25001 59358 31757 73603 10125 20058 30206 40239 52017 70522 8653/
AAXX 25001 59559 32565 60310 10173 20092 30190 40219 51018 82450
AAXX 25001 59792 32460 80310 10182 20140 30217 40222 52015 8562/
AAXX 25001 59158 32665 20901 10116 20057 30133 40237 52017 82500
AAXX 25001 59562 32662 83502 10148 20068 30246 40258 52020 8252/
AAXX 25001 59567 32460 63607 10154 20108 39849 40236 53017 86800
AAXX 25004 63820 32480 10000 10260 20246 40105 81100 333 59012 81819
AAXX 25004 81225 11670 60000 10244 20235 40126 60061 70382 82552 333 10320 56229 58014 70057 82635 85360
AAXX 25004 81200 11570 30000 10264 20229 40125 60011 70281 81502 333 10/// 56309 58020 70019 81625 83080
AAXX 25004 81202 12470 60812 10270 20235 40128 60001 84832 333 10293 56299 58018 70101 82815 83635 85080
AAXX 25004 81209 NIL
AAXX 25004 81251 NIL
AAXX 25004 DUPE
AAXX 25004 71507 16/// /1907 11009 21069 60001 333 10041 21010 70000
AAXX 25004 91844 46/// /3611 10276 40113 22200 00276
BBXX S6JT 25004 99525 71388 41697 72020 10065 20054 4//// 57030 71822 8787/ 22264 04070 21008 305// 41110 80060
BBXX 46145 25001 99544 71324 46/// /1806 10074 40041 57007 22200 00072 11104 70020 333 91208
BBXX 46145 25001 99544 71324 46/// /1806 10074 40041 57007 22200 00072 11104 70020 333 91208
AAXX 2500/ 89872 46/// ///// 11010 39842 4//// 5////
AAXX 2500/ 89869 46/// ///// 10023 39825 4//// 5////
AAXX 2500/ 89329 46/// ///// 11036 38769 4//// 5////
AAXX 2500/ 89327 46/// ///// 11011 39489 4//// 5////
AAXX 2500/ 89769 46/// ///// 10006 39873 4//// 5////
AAXX 25004 89610 46/// /0421 11008 39680 4//// 5//// 333 90700 91127
AAXX 25004 89610 46/// /0421 11008 39680 4//// 5//// 333 90700 91127
AAXX 25004 89610 46/// /0421 11008 39680 4//// 5//// 333 90700 91127
AAXX 25003 89065 46/// /9901 11031 21046 39721 49798 5//// 90000
BBXX 62123 25004 99563 10022 41/96 /2429 10098 40139 53002 70222 8//// 22200 20301 325// 40610 5////
BBXX 62303 25004 99516 70051 46/// /2521 10115 20090 40264 51003 22200 00111 10707 70035 333 90710 91129
BBXX 62001 25004 99453 70050 46/// /0803 10112 20021 40378 57004 22200 00140 10805 70025
BBXX 62105 25004 99554 70122 46/// /2213 10106 20100 40098 58016 22200 00107 11013 70064 333 90710 91126
BBXX 63106 25004 99610 10017 46/// /2532 10073 49945 53012 22200
BBXX 63105 25004 99610 10017 47596 ///// 10075 20026 49946 53013 700// 22200
BBXX 62103 25004 99499 70029 46/98 /2631 10114 20078 40302 57008 22200 00120 10704 70019 333 90710 91137
BBXX ONFP 25004 99123 30775 43596 61112 10270 2021/ 40090 51010 70111 86132 22213 04283 20804 31414 40905 50905 6//// 80230 ICE /////
BBXX C6FR4 25004 99100 70860 416// 20909 10250 2//// 40080 56010 7//// 821// 22232 04290 20501 330// 41002 5//// 6//// 8//// ICE /////
BBXX 46145 25001 99544 71324 46/// /1806 10074 40041 57007 22200 00072 11104 70020 333 91208
BBXX WDE2719 25003 99607 71514 41/97 80910 11122 2//// 49950 57/// 702// 8//// 222// 01022 2//00 331// 4//01 5//// 6//// 8//// ICE /////
BBXX C6FR4 25004 99100 70860 416// 20909 10250 2//// 40080 56010 7//// 821// 22232 04290 20501 330// 41002 5//// 6//// 8//// ICE /////
BBXX A8OU4 25004 99134 70973 41498 23510 10270 20241 40110 56010 70200 81149 22234 00300 20602 3//// 4//// 5//// 80250
BBXX ONFP 25004 99123 30775 43596 61112 10270 2021/ 40090 51010 70111 86132 22213 04283 20804 31414 40905 50905 6//// 80230 ICE /////
BBXX A8HD5 25001 99076 11086 41697 33616 10255 20193 40120 52015 71011 82310 22213 04245 20608 30300 41206 5//// 80215
BBXX BSH03 25001 99540 10081 46/// ///// 22200 00065 20704 70019
BBXX BSH05 25001 99549 10082 46/// ///// 22200 20604 70019
AAXX 25001 38838 429// 11018 21032 39495 48117 57005 83032
OOXX AAEMI 25004 99785 31731 57083 00521 46/// /2304 11019 21123 39861 49926 5//// 92350
OOXX ISP34 24221 99641 70219 ///// 01301 26/// /1101 10005 29001 39728 92210 333 6///0
OOXX ISP34 24221 99641 70219 ///// 01301 26/// /3302 10004 29001 39728 92220 333 6///0
OOXX ISP34 24221 99641 70219 ///// 01301 26/// /2201 10002 29001 39727 92230 333 6///0
OOXX ISP34 24221 99641 70219 ///// 01301 26/// /0601 11001 29001 39726 92240 333 6///0
OOXX ISP34 24221 99641 70219 ///// 01301 26/// /2701 11003 29001 39725 92250 333 6///0
OOXX ISP34 24231 99641 70219 ///// 01301 26/// /3101 11004 29001 39724 92300 333 6///0
OOXX ISP34 24231 99641 70219 ///// 01301 26/// /2701 11005 29001 39724 92310 333 6///0
OOXX ISP34 24231 99641 70219 ///// 01301 26/// /2501 11006 29001 39723 92320 333 6///0
OOXX ISP34 24231 99641 70219 ///// 01301 26/// /2702 11008 29001 39723 92330 333 6///0
OOXX ISP34 24231 99641 70219 ///// 01301 26/// /2602 11012 29001 39723 92340 333 6///0
OOXX ISP34 24231 99641 70219 ///// 01301 26/// /2502 11014 29001 39722 92350 333 6///0
OOXX ISP34 25001 99641 70219 ///// 01301 26/// /2302 11015 29001 39722 90000 333 6///0
OOXX RUP58 24221 99442 11320 ///// 01121 26/// /0000 11204 29059 30034 92252 333 60000
OOXX RUP58 24231 99442 11320 ///// 01121 26/// /0201 11204 29058 30034 92302 333 60000
OOXX RUP58 24231 99442 11320 ///// 01121 26/// /0401 11203 29058 30035 92312 333 60000
OOXX RUP58 24231 99442 11320 ///// 01121 26/// /0401 11202 29057 30035 92322 333 60000
OOXX RUP58 24231 99442 11320 ///// 01121 26/// /0501 11201 29057 30036 92332 333 60000
OOXX RUP58 24231 99442 11320 ///// 01121 26/// /0401 11200 29056 30037 92342 333 60000
OOXX RUP58 24231 99442 11320 ///// 01121 26/// /0501 11198 29057 30038 92352 333 60000
OOXX RUP58 25001 99442 11320 ///// 01121 26/// /0401 11197 29057 30038 90002 333 60000
OOXX RUP58 25001 99442 11320 ///// 01121 26/// /0101 11196 29057 30039 90012 333 60000
OOXX RUP58 25001 99442 11320 ///// 01121 26/// /0101 11196 29057 30040 90022 333 60000
OOXX RUP58 25001 99442 11320 ///// 01121 26/// /0201 11195 29058 30040 90032 333 60000
OOXX RUP58 25001 99442 11320 ///// 01121 26/// /0201 11193 29057 30042 90042 333 60000
OOXX AUP06 24221 99192 31468 ///// 00071 26/// /0505 10288 29066 30058 92253 333 60000
OOXX AUP06 24231 99192 31468 ///// 00071 26/// /0604 10297 29059 30060 92303 333 60000
OOXX AUP06 24231 99192 31468 ///// 00071 26/// /0605 10294 29060 30060 92313 333 60000
OOXX AUP06 24231 99192 31468 ///// 00071 26/// /0705 10290 29061 30060 92323 333 60000
OOXX AUP06 24231 99192 31468 ///// 00071 26/// /0605 10288 29061 30060 92333 333 60000
OOXX AUP06 24231 99192 31468 ///// 00071 26/// /0706 10294 29060 30059 92343 333 60000
OOXX AUP06 24231 99192 31468 ///// 00071 26/// /0606 10294 29062 30059 92353 333 60000
OOXX AUP06 25001 99192 31468 ///// 00071 26/// /0605 10299 29060 30059 90003 333 60000
OOXX AUP06 25001 99192 31468 ///// 00071 26/// /0706 10298 29060 30059 90013 333 60000
OOXX AUP06 25001 99192 31468 ///// 00071 26/// /0606 10298 29060 30059 90023 333 60000
OOXX AUP06 25001 99192 31468 ///// 00071 26/// /0506 10302 29060 30058 90033 333 60000
OOXX AUP06 25001 99192 31468 ///// 00071 26/// /0506 10305 29060 30058 90043 333 60000
OOXX CAP17 24221 99476 70527 ///// 01331 26/// /0104 11088 29076 30026 92200 333 60000
OOXX CAP17 24221 99476 70527 ///// 01331 26/// /0205 11090 29077 30028 92210 333 60000
OOXX CAP17 24221 99476 70527 ///// 01331 26/// /0205 11092 29076 30031 92220 333 60000
OOXX CAP17 24221 99476 70527 ///// 01331 26/// /0205 11093 29077 30032 92230 333 60000
OOXX CAP17 24221 99476 70527 ///// 01331 26/// /0205 11094 29078 30031 92240 333 60000
OOXX CAP17 24221 99476 70527 ///// 01331 26/// /0205 11095 29077 30034 92250 333 60000
OOXX CAP17 24231 99476 70527 ///// 01331 26/// /0205 11096 29076 30035 92300 333 60000
OOXX CAP17 24231 99476 70527 ///// 01331 26/// /0205 11098 29076 30038 92310 333 60000
OOXX CAP17 24231 99476 70527 ///// 01331 26/// /0205 11098 29076 30038 92320 333 60000
OOXX CAP17 24231 99476 70527 ///// 01331 26/// /0205 11100 29074 30038 92330 333 60000
OOXX CAP17 24231 99476 70527 ///// 01331 26/// /0205 11103 29073 30038 92340 333 60000
OOXX CAP17 24231 99476 70527 ///// 01331 26/// /0205 11105 29075 30038 92350 333 60000
OOXX CAP14 24221 99487 71234 ///// 00431 26/// /0501 10086 29084 30215 92230 333 60000
OOXX CAP14 24221 99487 71234 ///// 00431 26/// /0000 10084 29083 30215 92240 333 60000
OOXX CAP14 24221 99487 71234 ///// 00431 26/// /2901 10082 29085 30214 92250 333 60000
OOXX CAP14 24231 99487 71234 ///// 00431 26/// /2901 10079 29085 30214 92300 333 60000
OOXX CAP14 24231 99487 71234 ///// 00431 26/// /2901 10078 29085 30214 92310 333 60000
OOXX CAP14 24231 99487 71234 ///// 00431 26/// /3001 10077 29085 30214 92320 333 60000
OOXX CAP14 24231 99487 71234 ///// 00431 26/// /2801 10078 29086 30211 92330 333 60000
OOXX CAP14 24231 99487 71234 ///// 00431 26/// /2702 10078 29085 30212 92340 333 60000
OOXX CAP14 24231 99487 71234 ///// 00431 26/// /2702 10075 29085 30211 92350 333 60000
OOXX CAP14 25001 99487 71234 ///// 00431 26/// /2501 10071 29086 30210 90000 333 60000
OOXX CAP14 25001 99487 71234 ///// 00431 26/// /1801 10058 29086 30209 90010 333 60000
OOXX CAP14 25001 99487 71234 ///// 00431 26/// /0000 10052 29087 30209 90020 333 60000
OOXX GBP68 24221 99371 50123 ///// 00641 26/// /3506 10000 29094 30159 92210 333 60000
OOXX GBP68 24221 99371 50123 ///// 00641 26/// /3507 10000 29094 30161 92220 333 60000
OOXX GBP68 24221 99371 50123 ///// 00641 26/// /3507 10000 29094 30160 92230 333 60000
OOXX GBP68 24221 99371 50123 ///// 00641 26/// /3507 10000 29093 30159 92240 333 60000
OOXX GBP68 24221 99371 50123 ///// 00641 26/// /3507 10000 29093 30161 92250 333 60000
OOXX GBP68 24231 99371 50123 ///// 00641 26/// /3507 10000 29093 30161 92300 333 60000
OOXX GBP68 24231 99371 50123 ///// 00641 26/// /3507 10000 29093 30161 92310 333 60000
OOXX GBP68 24231 99371 50123 ///// 00641 26/// /3506 10000 29093 30162 92320 333 60000
OOXX GBP68 24231 99371 50123 ///// 00641 26/// /3506 10000 29092 30162 92330 333 60000
OOXX GBP68 24231 99371 50123 ///// 00641 26/// /3506 10000 29092 30162 92340 333 60000
OOXX GBP68 24231 99371 50123 ///// 00641 26/// /3506 10000 29092 30161 92350 333 60000
OOXX GBP68 25001 99371 50123 ///// 00641 26/// /3506 10000 29092 30159 90000 333 60000
OOXX GBP67 24221 99159 50057 ///// 04381 26/// /0803 10164 29089 39687 92220 333 60000
OOXX GBP67 24221 99159 50057 ///// 04381 26/// /0804 10164 29089 39688 92230 333 60000
OOXX GBP67 24221 99159 50057 ///// 04381 26/// /0904 10164 29091 39686 92240 333 60000
OOXX GBP67 24221 99159 50057 ///// 04381 26/// /0804 10164 29092 39689 92250 333 60000
OOXX GBP67 24231 99159 50057 ///// 04381 26/// /0804 10165 29090 39689 92300 333 60000
OOXX GBP67 24231 99159 50057 ///// 04381 26/// /0703 10165 29088 39689 92310 333 60000
OOXX GBP67 24231 99159 50057 ///// 04381 26/// /0503 10166 29080 39689 92320 333 60000
OOXX GBP67 24231 99159 50057 ///// 04381 26/// /0503 10168 29078 39689 92330 333 60000
OOXX GBP67 24231 99159 50057 ///// 04381 26/// /0303 10168 29081 39689 92340 333 60000
OOXX GBP67 24231 99159 50057 ///// 04381 26/// /0503 10167 29083 39686 92350 333 60000
OOXX GBP67 25001 99159 50057 ///// 04381 26/// /0703 10167 29080 39686 90000 333 60000
OOXX GBP67 25001 99159 50057 ///// 04381 26/// /0703 10168 29077 39686 90010 333 60000
OOXX RUP54 24221 99586 10494 ///// 01271 26/// /0000 11139 29088 30014 92227 333 60120
OOXX RUP54 24221 99586 10494 ///// 01271 26/// /0000 11139 29088 30015 92237 333 60120
OOXX RUP54 24221 99586 10494 ///// 01271 26/// /0000 11139 29088 30014 92247 333 60120
OOXX RUP54 24221 99586 10494 ///// 01271 26/// /0000 11140 29088 30014 92257 333 60120
OOXX RUP54 24231 99586 10494 ///// 01271 26/// /0000 11142 29088 30015 92307 333 60120
OOXX RUP54 24231 99586 10494 ///// 01271 26/// /0000 11144 29088 30015 92317 333 60120
OOXX RUP54 24231 99586 10494 ///// 01271 26/// /0000 11145 29088 30015 92327 333 60120
OOXX RUP54 24231 99586 10494 ///// 01271 26/// /0000 11147 29088 30014 92337 333 60120
OOXX RUP54 24231 99586 10494 ///// 01271 26/// /0000 11148 29088 30015 92347 333 60120
OOXX RUP54 24231 99586 10494 ///// 01271 26/// /0000 11150 29088 30015 92357 333 60120
OOXX RUP54 25001 99586 10494 ///// 01271 26/// /0000 11151 29088 30016 90007 333 60120
OOXX RUP54 25001 99586 10494 ///// 01271 26/// /0000 11151 29088 30016 90017 333 60120
OOXX MNP45 24221 99479 11063 ///// 17291 26/// /2605 11157 29077 38455 92211 333 60000
OOXX MNP45 24221 99479 11063 ///// 17291 26/// /2705 11158 29078 38455 92221 333 60000
OOXX MNP45 24221 99479 11063 ///// 17291 26/// /2605 11159 29078 38457 92231 333 60000
OOXX MNP45 24221 99479 11063 ///// 17291 26/// /2605 11160 29078 38456 92241 333 60000
OOXX MNP45 24221 99479 11063 ///// 17291 26/// /2605 11161 29078 38458 92251 333 60000
OOXX MNP45 24231 99479 11063 ///// 17291 26/// /2505 11168 29080 38459 92301 333 60000
OOXX MNP45 24231 99479 11063 ///// 17291 26/// /2505 11166 29080 38460 92311 333 60000
OOXX MNP45 24231 99479 11063 ///// 17291 26/// /2505 11164 29079 38460 92321 333 60000
OOXX MNP45 24231 99479 11063 ///// 17291 26/// /2605 11164 29078 38461 92331 333 60000
OOXX MNP45 24231 99479 11063 ///// 17291 26/// /2505 11163 29078 38462 92341 333 60000
OOXX MNP45 24231 99479 11063 ///// 17291 26/// /2506 11163 29077 38461 92351 333 60000
OOXX MNP45 25001 99479 11063 ///// 17291 26/// /2605 11164 29077 38461 90001 333 60000
OOXX MRP43 24221 99181 70159 ///// 00101 26/// /0502 10215 29014 30164 92250 333 60000
OOXX MRP43 24231 99181 70159 ///// 00101 26/// /0302 10214 29014 30164 92300 333 60000
OOXX MRP43 24231 99181 70159 ///// 00101 26/// /0303 10209 29014 30164 92310 333 60000
OOXX MRP43 24231 99181 70159 ///// 00101 26/// /0202 10205 29015 30163 92320 333 60000
OOXX MRP43 24231 99181 70159 ///// 00101 26/// /0202 10201 29015 30160 92330 333 60000
OOXX MRP43 24231 99181 70159 ///// 00101 26/// /0202 10196 29016 30158 92340 333 60000
OOXX MRP43 24231 99181 70159 ///// 00101 26/// /0102 10195 29016 30160 92350 333 60000
OOXX MRP43 25001 99181 70159 ///// 00101 26/// /0101 10191 29017 30159 90000 333 60000
OOXX MRP43 25001 99181 70159 ///// 00101 26/// /0302 10189 29017 30156 90010 333 60000
OOXX MRP43 25001 99181 70159 ///// 00101 26/// /0102 10184 29017 30156 90020 333 60000
OOXX MRP43 25001 99181 70159 ///// 00101 26/// /0202 10179 29018 30155 90030 333 60000
OOXX MRP43 25001 99181 70159 ///// 00101 26/// /3402 10176 29018 30160 90040 333 60000
OOXX ARP01 24221 99345 50585 ///// 00311 26/// /1101 10097 29032 30209 92210 333 60000
OOXX ARP01 24221 99345 50585 ///// 00311 26/// /1101 10096 29033 30209 92220 333 60000
OOXX ARP01 24221 99345 50585 ///// 00311 26/// /1601 10096 29033 30209 92230 333 60000
OOXX ARP01 24221 99345 50585 ///// 00311 26/// /1101 10094 29033 30210 92240 333 60000
OOXX ARP01 24221 99345 50585 ///// 00311 26/// /1102 10093 29033 30209 92250 333 60000
OOXX ARP01 24231 99345 50585 ///// 00311 26/// /1101 10091 29033 30210 92300 333 60000
OOXX ARP01 24231 99345 50585 ///// 00311 26/// /0000 10090 29033 30210 92310 333 60000
OOXX ARP01 24231 99345 50585 ///// 00311 26/// /0000 10089 29032 30211 92320 333 60000
OOXX ARP01 24231 99345 50585 ///// 00311 26/// /0000 10089 29032 30211 92330 333 60000
OOXX ARP01 24231 99345 50585 ///// 00311 26/// /0000 10090 29032 30211 92340 333 60000
OOXX ARP01 24231 99345 50585 ///// 00311 26/// /0000 10090 29032 30211 92350 333 60000
OOXX ARP01 25001 99345 50585 ///// 00311 26/// /1401 10090 29032 30212 90000 333 60000
OOXX NZP46 24221 99438 51765 ///// 00221 26/// /2003 10138 29/// 30224 92230 333 60000
OOXX NZP46 24221 99438 51765 ///// 00221 26/// /1902 10140 29/// 30224 92240 333 60000
OOXX NZP46 24221 99438 51765 ///// 00221 26/// /1302 10145 29099 30224 92250 333 60000
OOXX NZP46 24231 99438 51765 ///// 00221 26/// /1902 10150 29097 30225 92300 333 60000
OOXX NZP46 24231 99438 51765 ///// 00221 26/// /1603 10148 29095 30225 92310 333 60000
OOXX NZP46 24231 99438 51765 ///// 00221 26/// /1504 10148 29098 30226 92320 333 60000
OOXX NZP46 24231 99438 51765 ///// 00221 26/// /1503 10148 29097 30225 92330 333 60000
OOXX NZP46 24231 99438 51765 ///// 00221 26/// /1605 10145 29100 30225 92340 333 60000
OOXX NZP46 24231 99438 51765 ///// 00221 26/// /1304 10142 29/// 30226 92350 333 60000
OOXX NZP46 25001 99438 51765 ///// 00221 26/// /1304 10144 29100 30226 90000 333 60000
OOXX NZP46 25001 99438 51765 ///// 00221 26/// /1204 10147 29098 30225 90010 333 60000
OOXX NZP46 25001 99438 51765 ///// 00221 26/// /1403 10151 29094 30226 90020 333 60000
OOXX KIP39 24221 99020 51574 ///// 00181 26/// /1005 10283 29071 30088 92230 333 60000
OOXX KIP39 24221 99020 51574 ///// 00181 26/// /1006 10279 29073 30087 92240 333 60000
OOXX KIP39 24221 99020 51574 ///// 00181 26/// /1006 10281 29073 30086 92250 333 60000
OOXX KIP39 24231 99020 51574 ///// 00181 26/// /1005 10282 29073 30085 92300 333 60000
OOXX KIP39 24231 99020 51574 ///// 00181 26/// /1005 10282 29073 30083 92310 333 60000
OOXX KIP39 24231 99020 51574 ///// 00181 26/// /1005 10282 29073 30082 92320 333 60000
OOXX KIP39 24231 99020 51574 ///// 00181 26/// /1005 10280 29074 30080 92330 333 60000
OOXX KIP39 24231 99020 51574 ///// 00181 26/// /1005 10280 29073 30077 92340 333 60000
OOXX KIP39 24231 99020 51574 ///// 00181 26/// /1005 10280 29074 30077 92350 333 60000
OOXX KIP39 25001 99020 51574 ///// 00181 26/// /1005 10281 29074 30074 90000 333 60000
OOXX KIP39 25001 99020 51574 ///// 00181 26/// /1005 10278 29073 30074 90010 333 60000
OOXX KIP39 25001 99020 51574 ///// 00181 26/// /1005 10280 29074 30073 90020 333 60000
OOXX AABRI 25004 99839 51342 60134 05251 46/// /0620 11021 21212 39236 49847 5//// 92350
OOXX AUP04 24231 99377 31451 ///// 00311 26/// /0702 10246 29059 30004 92307 333 60000
OOXX AUP04 24231 99377 31451 ///// 00311 26/// /0302 10244 29060 30002 92317 333 60000
OOXX AUP04 24231 99377 31451 ///// 00311 26/// /0202 10246 29059 30000 92327 333 60000
OOXX AUP04 24231 99377 31451 ///// 00311 26/// /3101 10248 29059 30005 92337 333 60000
OOXX AUP04 24231 99377 31451 ///// 00311 26/// /1401 10250 29058 39999 92347 333 60000
OOXX AUP04 24231 99377 31451 ///// 00311 26/// /0602 10251 29057 39993 92357 333 60000
OOXX AUP04 25001 99377 31451 ///// 00311 26/// /0503 10259 29056 39991 90007 333 60000
OOXX AUP04 25001 99377 31451 ///// 00311 26/// /3603 10262 29052 39993 90017 333 60000
OOXX AUP04 25001 99377 31451 ///// 00311 26/// /0103 10265 29053 39992 90027 333 60000
OOXX AUP04 25001 99377 31451 ///// 00311 26/// /0302 10273 29050 39992 90037 333 60000
OOXX AUP04 25001 99377 31451 ///// 00311 26/// /3604 10276 29047 39994 90047 333 60000
OOXX AUP04 25001 99377 31451 ///// 00311 26/// /0103 10275 29047 39993 90057 333 60000
OOXX AUP07 24221 99/// ///// ///// ///// 26/// /3003 10072 29096 30067 92249 333 60000
OOXX AUP07 24221 99/// ///// ///// ///// 26/// /2703 10077 29096 30066 92259 333 60000
OOXX AUP07 24231 99/// ///// ///// ///// 26/// /2804 10077 29095 30066 92309 333 60000
OOXX AUP07 24231 99/// ///// ///// ///// 26/// /2904 10078 29096 30066 92319 333 60000
OOXX AUP07 24231 99/// ///// ///// ///// 26/// /2903 10077 29096 30067 92329 333 60000
OOXX AUP07 24231 99/// ///// ///// ///// 26/// /2804 10075 29095 30068 92339 333 60000
OOXX AUP07 24231 99/// ///// ///// ///// 26/// /2804 10076 29095 30068 92349 333 60000
OOXX AUP07 24231 99/// ///// ///// ///// 26/// /3003 10076 29095 30067 92359 333 60000
OOXX AUP07 25001 99/// ///// ///// ///// 26/// /3103 10075 29095 30068 90009 333 60000
OOXX AUP07 25001 99/// ///// ///// ///// 26/// /3103 10076 29095 30067 90019 333 60000
OOXX AUP07 25001 99/// ///// ///// ///// 26/// /3104 10078 29096 30067 90029 333 60000
OOXX AUP07 25001 99/// ///// ///// ///// 26/// /2904 10078 29095 30067 90039 333 60000
OOXX RUP59 24221 99539 10848 ///// 02121 26/// /0000 11272 29072 39980 92240 333 60000
OOXX RUP59 24221 99539 10848 ///// 02121 26/// /0000 11275 29071 39981 92250 333 60000
OOXX RUP59 24231 99539 10848 ///// 02121 26/// /0000 11274 29071 39980 92300 333 60000
OOXX RUP59 24231 99539 10848 ///// 02121 26/// /0000 11273 29072 39979 92310 333 60000
OOXX RUP59 24231 99539 10848 ///// 02121 26/// /0000 11273 29071 39979 92320 333 60000
OOXX RUP59 24231 99539 10848 ///// 02121 26/// /0000 11277 29070 39979 92330 333 60000
OOXX RUP59 24231 99539 10848 ///// 02121 26/// /0000 11277 29071 39981 92340 333 60000
OOXX RUP59 24231 99539 10848 ///// 02121 26/// /0000 11276 29072 39981 92350 333 60000
OOXX RUP59 25001 99539 10848 ///// 02121 26/// /0000 11277 29071 39981 90000 333 60000
OOXX RUP59 25001 99539 10848 ///// 02121 26/// /0000 11275 29072 39981 90010 333 60000
OOXX RUP59 25001 99539 10848 ///// 02121 26/// /0000 11277 29071 39980 90020 333 60000
OOXX RUP59 25001 99539 10848 ///// 02121 26/// /0000 11277 29071 39980 90030 333 60000
OOXX FJP26 24221 99178 31775 ///// 00311 26/// /2803 10300 29071 30044 92220 333 60000
OOXX FJP26 24221 99178 31775 ///// 00311 26/// /2703 10298 29074 30043 92230 333 60000
OOXX FJP26 24221 99178 31775 ///// 00311 26/// /2703 10301 29074 30043 92240 333 60000
OOXX FJP26 24221 99178 31775 ///// 00311 26/// /2703 10305 29075 30042 92250 333 60000
OOXX FJP26 24231 99178 31775 ///// 00311 26/// /2804 10304 29075 30041 92300 333 60000
OOXX FJP26 24231 99178 31775 ///// 00311 26/// /3006 10296 29076 30041 92310 333 60000
OOXX FJP26 24231 99178 31775 ///// 00311 26/// /3106 10292 29079 30040 92320 333 60000
OOXX FJP26 24231 99178 31775 ///// 00311 26/// /3106 10293 29078 30039 92330 333 60000
OOXX FJP26 24231 99178 31775 ///// 00311 26/// /3106 10301 29076 30038 92340 333 60000
OOXX FJP26 24231 99178 31775 ///// 00311 26/// /3206 10304 29074 30036 92350 333 60000
OOXX FJP26 25001 99178 31775 ///// 00311 26/// /3106 10309 29072 30035 90000 333 60000
OOXX FJP26 25001 99178 31775 ///// 00311 26/// /3107 10305 29071 30034 90010 333 60000
AAXX 25004 48566 12560 60508 10265 20220 30073 40082 52011 69964 82846 333 20254 58000 70006
AAXX 25004 67002 32580 10804 10244 20223 30081 40115 81800 333 0//00 59015 81820 924/7
AAXX 25004 67083 32470 10000 10188 20176 38755 48532 58015 81800 333 0//00 81817
AAXX 25004 91559 46/// /9901 10305 40044 22200 00285
OOXX AAVIT 25004 99785 31778 57087 00501 46/// /2406 11011 21096 39819 49881 5//// 92350
OOXX AALAU 25004 99775 31708 57070 00371 46/// /2804 11012 21104 39844 49890 5//// 92340
OOXX AAERI 25004 99849 51288 60048 09901 46/// /0815 11030 21061 38807 49909 5//// 92350
OOXX AAMIZ 25004 99707 30443 58304 22602 46/// /0915 11244 2//// 37343 49622 5//// 92350
OOXX AAPEG 25004 99779 31666 57186 00051 46/// /3004 10018 21068 39886 49892 5//// 92350
OOXX AAERC 25004 99815 31639 60713 00451 46/// /3108 10004 21032 39816 49871 5//// 92350
AAXX 25004 87765 32960 03202 10163 21089 39260 48546 53008 333 10183 21044 96120
AAXX 25004 71612 16/// /1003 11157 21194 30247 40343 58010 60001 333 11119 21166 70000
AAXX 25004 71713 16/// /1305 11200 21226 60001 333 11131 21201 70000
AAXX 25004 71425 16/// /3016 11103 21166 30261 40299 52009 60001 333 11098 21141 70000
AAXX 25004 91531 46/// /0510 1//// 40051 22200 00260
AAXX 25004 42189 31994 00000 10090 20054 40149 74144 333 58///
AAXX 2500/ 89868 46/// ///// 10029 39835 4//// 5//// 90010
AAXX 2500/ 89828 46/// ///// 11213 36551 4//// 5////
AAXX 2500/ 89879 46/// ///// 10059 39809 4//// 5////
AAXX 2500/ 89869 46/// ///// 10011 39825 4//// 5////
AAXX 2500/ 89866 46/// ///// 11008 39778 4//// 5////
AAXX 2500/ 89314 46/// ///// 11038 38268 4//// 5////
BBXX ONFP 25004 99123 30775 43596 61112 10270 2021/ 40090 51010 70111 86132 22213 04283 20804 31414 40905 50905 6//// 80230 ICE /////
BBXX WDB9949 25004 99503 11578 41/92 80830 10030 21050 49970 57020 76977 886// 22254 00000 20406 308// 41312 5//// 6//// 80000 ICE /////
BBXX 46109 25001 99481 71234 46/// /1903 10083 40275 92357 22200 00077
BBXX 46110 25001 99481 71230 46/// /1802 10083 40274 92358
BBXX CFO383 25004 99439 70602 47698 /3426 11024 2107/ 40243 5//// 771// 8//// 22200 00071 10804 2//// 70022 81039 333 91032
AAXX 25004 62600 32970 00208 10155 20040 39989 40212 333 58030
AAXX 25004 62640 31968 03617 10180 21090 39772 40137 70700 333 58023
AAXX 25004 62641 32970 03210 10230 20200 30107 40155 333 58021
AAXX 25004 62650 32970 03604 10140 20000 39899 40178 333 58023
AAXX 25004 62660 32970 03608 10180 20000 39856 40163 333 58015
AAXX 25004 62680 31965 03610 10210 20080 39730 40130 70600 333 58014
AAXX 25004 62721 32970 73305 10230 20060 39684 40113 80007 333 56009 58012 87275
AAXX 25004 62730 32970 00404 10255 20150 39580 40142 333 58003
AAXX 25004 62733 32970 03604 10210 20140 39607 40121 333 58013
AAXX 25004 62750 32970 73410 10225 20100 39679 40112 80007 333 56009 58027 87275
AAXX 25004 62751 32970 70104 10184 20026 39663 40133 80007 333 56009 58017 87275
AAXX 25004 62752 32970 70203 10230 20000 39437 40112 80007 333 56009 58024 87275
AAXX 25004 62762 32970 73604 10170 20100 39623 40108 80007 333 56009 58013 87275
AAXX 25004 62771 32970 73508 10210 20020 39486 40158 80007 333 56009 58014 87275
AAXX 25004 62772 32970 03407 10220 20102 39679 40113 333 59002
AAXX 25004 62781 32970 70405 10200 20040 39494 40125 80007 333 56009 58010 87275
AAXX 25004 62790 32970 70206 10200 20000 39399 40131 80007 333 56009 58000 87275
AAXX 25004 62795 32970 73404 10210 20100 39598 40102 80007 333 56009 58016 87275
AAXX 25004 62600 32970 00208 10155 20040 39989 40212 333 58030
AAXX 25004 62640 31968 03617 10180 21090 39772 40137 70700 333 58023
AAXX 25004 62641 32970 03210 10230 20200 30107 40155 333 58021
AAXX 25004 62650 32970 03604 10140 20000 39899 40178 333 58023
AAXX 25004 62660 32970 03608 10180 20000 39856 40163 333 58015
AAXX 25004 62680 31965 03610 10210 20080 39730 40130 70600 333 58014
AAXX 25004 62721 32970 73305 10230 20060 39684 40113 80007 333 56009 58012 87275
AAXX 25004 62730 32970 00404 10255 20150 39580 40142 333 58003
AAXX 25004 62733 32970 03604 10210 20140 39607 40121 333 58013
AAXX 25004 62750 32970 73410 10225 20100 39679 40112 80007 333 56009 58027 87275
AAXX 25004 62751 32970 70104 10184 20026 39663 40133 80007 333 56009 58017 87275
AAXX 25004 62752 32970 70203 10230 20000 39437 40112 80007 333 56009 58024 87275
AAXX 25004 62762 32970 73604 10170 20100 39623 40108 80007 333 56009 58013 87275
AAXX 25004 62771 32970 73508 10210 20020 39486 40158 80007 333 56009 58014 87275
AAXX 25004 62772 32970 03407 10220 20102 39679 40113 333 59002
AAXX 25004 62781 32970 70405 10200 20040 39494 40125 80007 333 56009 58010 87275
AAXX 25004 62790 32970 70206 10200 20000 39399 40131 80007 333 56009 58000 87275
AAXX 25004 62795 32970 73404 10210 20100 39598 40102 80007 333 56009 58016 87275
BBXX CFO383 25004 99439 70602 47698 /3426 11024 2107/ 40243 5//// 771// 8//// 22200 00071 10804 2//// 70022 81039 333 91032
AAXX 25004 71988 16/// /3616 11066 21090 30298 40318 53017 60001 333 11019 21071 70021
AAXX 25004 71016 16/// ///// 10042 60001 333 10045 21002 70000
AAXX 25004 91642 46/// /0000 1//// 40059 22200 0////
BBXX SHIP 25004 99302 11341 41598 53125 10110 20050 40211 57010 70222 85200 22243 00220 20504 329// 40606 80080
BBXX A8RV7 25004 99027 11383 41498 60910 10288 20254 40080 52020 70322 85268 22273 00300 20401 31011 41204 50603 80263
BBXX A8RV7 25004 99027 11383 41498 60910 10288 20254 40080 52020 70322 85268 22273 00300 20401 31011 41204 50603 80263
AAXX 25004 89108 46/// /1208 11141 36990 4//// 5//// 92350
AAXX 25004 89314 46/// /0913 11036 38252 4//// 5//// 92350
AAXX 25004 89327 46/// /0000 11011 39456 49729 5//// 92350
AAXX 25004 89329 46/// /0408 11036 38764 49814 5//// 92350
AAXX 25004 89332 46/// /0612 11019 39205 49807 5//// 92350
AAXX 25004 89376 46/// /2005 11017 39789 49856 5//// 92350
AAXX 25004 89667 46/// /3004 10018 39886 49896 5//// 92350
AAXX 25004 89734 46/// /1611 11295 35966 4//// 5//// 92350
AAXX 25004 89744 46/// /0508 11280 36329 4//// 5//// 92350
AAXX 25004 89769 46/// ///01 10018 39832 49883 5//// 92350
AAXX 25004 89799 46/// /3610 11115 36791 4//// 5//// 92350
AAXX 25004 89865 46/// ///// 1//// 3//// 4//// 5//// 92350
AAXX 25004 89866 46/// /3403 11006 39744 49876 5//// 92350
AAXX 25004 89869 46/// ///01 10022 39808 49885 5//// 92350
AAXX 25004 89872 46/// /2708 11010 39829 49885 5//// 92350
BBXX C6XC2 25004 99024 31323 41897 43419 10290 20263 40070 52/// 7//22 84485 22264 00300 20202 323// 4//// 5//// 6//// 80270 ICE /////
BBXX SHIP 25004 99302 11341 41598 53125 10110 20050 40211 57010 70222 85200 22243 00220 20504 329// 40606 80080
BBXX AUTV 25004 99159 11157 41597 71736 10240 20197 40167 52010 70225 876// 22213
BBXX CFO383 25004 99439 70602 47698 /3426 11024 2107/ 40243 5//// 771// 8//// 22200 00071 10804 2//// 70022 81039 333 91032
BBXX 46110 25001 99481 71230 46/// /1802 10083 40274 92358
BBXX 46109 25001 99481 71234 46/// /1903 10083 40275 92357 22200 00077
BBXX 66022 25001 99541 10142 46/// /2507 10039 30210 22200 00038
BBXX A8RV7 25004 99027 11383 41498 60910 10288 20254 40080 52020 70322 85268 22273 00300 20401 31011 41204 50603 80263
BBXX C6TQ3 25004 99100 51399 41698 71028 10238 20214 40098 56015 70362 86373 22273 04280 20704 312// 41005 5//// 80222
BBXX C6XC2 25004 99024 31323 41897 43419 10290 20263 40070 52/// 7//22 84485 22264 00300 20202 323// 4//// 5//// 6//// 80270 ICE /////
BBXX 44056 25001 99362 70757 46/// ///// 1//// 90020 22200 00122 10602 20602 70011
BBXX 46094 25001 99446 71243 46/// /2002 10093 90030
BBXX 46094 25001 99446 71243 46/// /1802 10095 90020
BBXX 46094 25001 99446 71243 46/// /1902 10097 90010
BBXX 46094 25001 99446 71243 46/// /2002 10098 90000
BBXX 46094 25001 99446 71243 46/// /2001 10098 92350
BBXX 46094 25001 99446 71243 46/// /2102 10096 92340
AAXX 25004 92036 46/// /0404 10300 40066 22200 00320
AAXX 25004 97900 11567 82708 10276 20253 30999 40028 52018 60274 70296 8327/ 333 20252 50350 55017 56609 57861 59001 83820 87460 80850
BBXX 46145 25001 99544 71324 46/// /1806 10074 40041 57007 22200 00072 11104 70020 333 91208
BBXX 62105 25004 99554 70122 46/// /2213 10103 20096 40098 58016 22200 00107 11013 70064 333 90710 91126
BBXX 62123 25004 99563 10022 47997 /2430 10098 20072 40111 53005 700// 22200
BBXX 63106 25004 99610 10017 46/// /2532 10073 49945 53012 22200
BBXX 63113 25004 99610 10017 46/// /2630 10076 20024 49969 52011 22200 10813 70063
BBXX 62303 25004 99516 70051 46/// /2521 10115 20090 40264 51003 22200 00111 10608 70038 333 90710 91129
BBXX 62001 25004 99453 70050 46/// /0803 10112 20021 40378 57004 22200 00140 10905 70025
BBXX 62103 25004 99499 70029 46/98 /2527 10116 20078 40310 52003 22200 00120 10704 70019 333 90710 91139
AAXX 25004 93713 46/// /0000 10178 40204 22200 00155
OOXX AAPIG 25004 99758 51003 56251 08502 46/// /0818 11073 21157 38840 49805 57006 92350
AAXX 2500/ 89868 46/// ///// 10029 39835 4//// 5//// 90020
AAXX 2500/ 89327 46/// ///// 11011 39496 4//// 5//// 90020
AAXX 25004 91689 46/// /1308 10293 40061 22200 01230
BBXX 46094 25001 99446 71243 46/// /2001 10098 92350
BBXX 46094 25001 99446 71243 46/// /2102 10096 92340
BBXX 46094 25001 99446 71243 46/// /1802 10095 90020
BBXX 46094 25001 99446 71243 46/// /2002 10093 90030
BBXX 46094 25001 99446 71243 46/// /1902 10097 90010
BBXX 46094 25001 99446 71243 46/// /2002 10098 90000
BBXX 44056 25001 99362 70757 46/// ///// 1//// 90020 22200 00122 10602 20602 70011
AAXX 25004 96633 01560 82508 10251 20246 30077 40085 52022 60114 72162 8357/ 333 20240 50320 55030 56609 58020 69927 83620 87460
BBXX MINUK05 2500/ 99571 70021 46/// ///// 10070 40095 52016
AAXX 25004 04418 NIL
AAXX 25004 04425 NIL
AAXX 25004 04432 NIL
AAXX 25004 04436 46/// /0000 11406 21445 52039
AAXX 25004 04464 46/// /3503 11366 21402 333 553// 20004
AAXX 25004 04485 NIL
AAXX 25004 04488 46/// /2525 11425 21460 37051 57014 333 553// 20000
BBXX SHIP 25004 99302 11341 41598 53125 10110 20050 40211 57010 70222 85200 22243 00220 20504 329// 40606 80080
AAXX 25001 98132 11462 70407 10197 20168 40243 52024 69924 70544 81230 333 20162 56199 58038 79992 81817 87357
AAXX 25001 98133 31460 70709 10/// 20/// 40188 5//// 71544 85550 222// 20703 333 20/// 56199 58044 70002 85618 87360
AAXX 25001 98222 31575 20202 10220 20211 40127 53011 70544 81201 333 20199 56999 58011 81820
AAXX 25001 98233 31570 83602 10215 20193 40170 52019 70544 8357/ 333 20180 56199 59037 83620 88358 555 0////
AAXX 25001 98324 NIL
AAXX 25001 98327 31665 73204 10235 20182 39965 40141 52021 70544 82138 333 20220 56999 58025 82842 84359 87280
AAXX 25001 98334 31465 70000 10230 20204 39951 40158 52023 71521 83870 333 20224 56889 58039 83817 87359
AAXX 25001 98425 31560 83403 10262 20195 40128 52036 70544 8467/ 333 20252 56999 58027 84620 88359
AAXX 25001 98426 31570 70506 10255 20177 40131 52020 69904 70544 81179 333 20242 56999 58021 79999 81820 87358
AAXX 25001 98427 11462 80205 10226 20210 39933 40113 53016 60064 78186 8327/ 333 20215 56199 58024 70060 83818 88357
AAXX 25001 98428 NIL
AAXX 25001 98432 11568 70404 10253 20213 40128 52032 69904 70544 82272 333 20222 56999 58020 79999 82820 85356
AAXX 25001 98433 NIL
AAXX 25001 98434 11464 83602 10248 20234 30143 40151 52031 60104 71586 8487/ 333 20230 56199 58043 70096 84817 88358 555 20025
AAXX 25001 98435 NIL
AAXX 25001 98442 NIL
AAXX 25001 98446 11475 80902 10248 20240 30090 40136 51028 60114 71682 84207 333 20236 56299 58040 70108 84818 88270 555 20012
AAXX 25001 98447 11465 80906 10240 20232 39866 40133 5//// 60684 76166 8482/ 222// 2//// 333 20/// 56299 58040 70684 84816 88456 555 20170
AAXX 25001 98538 11440 83606 10255 20239 30110 40115 52020 60264 76166 83267 333 20248 56119 58022 70260 83811 84357 88272 555 20150
AAXX 25001 98546 11465 80406 10274 20260 30106 40114 52024 60504 71582 83907 333 20229 56199 58032 83915 88275 555 20108
AAXX 25001 98548 NIL
AAXX 25001 98553 11464 83602 10267 20244 30100 40104 52028 60154 71584 83907 333 20250 56999 58022 70146 82915 88272 555 20116
AAXX 25001 98558 11464 80707 10280 20254 40105 53029 60124 70584 8397/ 222// 20600 333 20262 56199 58023 70121 81915 88357 555 20030
AAXX 25001 98642 11465 83202 10262 20243 30087 40096 52020 60074 71582 84277 333 20252 56199 58016 70072 84815 85358 88272 555 20010
AAXX 25001 98644 11465 80303 10258 20242 30092 40101 53025 69944 70584 8227/ 333 20238 56119 58014 70004 82817 88358 555 20004
AAXX 25001 98648 11470 60000 10265 20245 30021 40103 52021 60084 70564 82262 333 20205 56299 58021 70080 82817 85072 555 20032
AAXX 25001 98746 NIL
AAXX 25001 98751 11475 80000 10217 20207 39420 40095 52025 69904 76064 8491/ 333 20165 56999 58013 79999 84915 88456 555 29999
AAXX 25001 98752 11458 80000 10254 20246 40109 52017 60021 76186 8357/ 333 20256 56999 58025 70024 83616 88358
AAXX 25001 98851 11470 83602 10252 20233 39940 40087 53020 69904 78088 8261/ 333 20240 56999 58022 79999 82615 88458 555 29999
BBXX 62123 25004 99563 10022 41/96 /2429 10098 40139 53002 70222 8//// 22200 20301 325// 40610 5////
BBXX 62303 25004 99516 70051 46/// /2521 10115 20090 40264 51003 22200 00111 10707 70035 333 90710 91129
BBXX 62001 25004 99453 70050 46/// /0803 10112 20021 40378 57004 22200 00140 10805 70025
BBXX 62105 25004 99554 70122 46/// /2213 10106 20100 40098 58016 22200 00107 11013 70064 333 90710 91126
BBXX 63106 25004 99610 10017 46/// /2532 10073 49945 53012 22200
BBXX 63105 25004 99610 10017 47596 ///// 10075 20026 49946 53013 700// 22200
BBXX 62103 25004 99499 70029 46/98 /2631 10114 20078 40302 57008 22200 00120 10704 70019 333 90710 91137
BBXX 42013 25001 99272 70829 46/// ///// 1//// 40232 90020 22200 00208
BBXX 42013 25001 99272 70829 46/// ///// 1//// 40231 53013 90000 22200 00208
BBXX MINUK05 2500/ 99571 70021 46/// ///// 10070 40095 52016
BBXX BAREU56 25004 99327 10143 46/// ///// 40226 57009 22232
BBXX BAREU11 25004 99453 70271 46/// ///// 40263 57004 22223
BBXX BAREU05 25004 99465 70722 46/// ///// 40346 57002 22212
BBXX BAREU61 25004 99053 70040 46/// ///// 10277 29082 40111 22211
BBXX SKEC 25001 99601 10191 46/// ///// 10015 40049 52009 22235 00042
AAXX 25004 71408 46/// /3121 11098 21147 30116 40198 5/022 6///1 333 7////
AAXX 25001 27835 41996 71901 11075 21088 30058 40224 52004 71022 875// 333 87626
BBXX MINUK05 2500/ 99571 70021 46/// ///// 10070 40095 52016
AAXX 25004 41506 02995 03602 10000 21062 48554 60002 333 58007 60007
AAXX 25004 41508 22996 00000 11022 21069 48534 60002 333 58001 60007
AAXX 25004 41523 12996 00000 10020 21020 48510 60002 333 58001 60007
AAXX 25004 41535 12997 30000 10005 21008 48475 60002 83030 333 56090 58008 83360
AAXX 25004 41536 12996 00000 10010 20010 48482 60002 333 59003
AAXX 25004 41573 12996 00000 10025 21012 48490 60002 333 58003
AAXX 25004 41600 01/91 90000 10020 20020 39837 40149 60002 74740 8//// 333 59015 60007
AAXX 25004 41630 11996 00000 10025 21002 40166 60002 70400 333 59006
AAXX 25004 41678 11996 00000 10060 20036 40176 60002 333 58019
AAXX 25004 41696 02996 00000 11060 21159 37994 48529 60002 333 59007 60007
AAXX 25004 41697 02996 00000 10033 20009 30005 40172 60002 333 58005 60007
AAXX 25004 41700 11995 00000 10050 20012 30017 40153 60002 70400 333 59004
AAXX 25004 41725 02996 00000 10080 20058 30073 40156 60002 333 59013 60007
AAXX 25004 41746 02996 00000 10070 20059 30085 40143 60002 333 59035 60007
AAXX 25004 41759 11996 00000 10135 20049 30150 40156 60002 70500 333 59012
AAXX 25004 41785 02996 00000 10105 20062 30121 40135 60002 333 59018 60007
AAXX 25004 41515 02995 00000 10016 21027 38582 48541 60002 333 59006 60007
AAXX 25004 41560 22696 40503 11020 21164 38280 48516 60002 82230 333 58010 60007
AAXX 25004 41571 119// 00000 10015 21011 39558 40174 60002 71000 333 59007
AAXX 25004 41594 319// 00000 10025 20003 39932 40163 71000 333 59007
AAXX 25004 41685 32993 00000 10025 21087 38895 48463 333 59007
AAXX 25004 41710 01995 03102 10000 21166 39393 40216 60002 70600 333 59016 60007
AAXX 25004 41718 11996 00000 10040 20014 30049 40157 60002 70400 333 59006
AAXX 25004 41739 01995 00506 11020 21036 39042 48474 60002 70500 333 59037 60007
AAXX 25004 41744 32996 00000 10020 21154 38779 48492 333 59007
AAXX 25004 41749 01994 00000 10060 20036 30118 40151 60002 71000 333 58020 60007
AAXX 25004 41529 12995 00000 10012 21036 39779 40183 60002 333 59006
AAXX 25004 41598 11995 00000 10025 21002 39866 40153 60002 70400 333 59005
AAXX 25004 41620 32995 01805 10035 21120 38600 48500 333 58002
AAXX 25004 41624 02995 00000 10035 21022 39944 40156 60002 333 59008 60007
AAXX 25004 41640 01995 00000 10070 20047 39895 40155 60002 70400 333 59004 60007
AAXX 25004 41660 119// 00000 11030 21061 38428 48522 60002 70500 333 59006
AAXX 25004 41675 11995 00000 10040 20000 30013 40156 60002 70400 333 59001
AAXX 25004 41712 12996 00000 11010 21123 39224 48497 60002 333 58004
AAXX 25004 41715 01996 00000 10075 20027 30095 40163 60002 70400 333 58004 60007
AAXX 25004 41756 01994 02304 10140 20131 30072 40137 60002 70404 333 59029 60007
AAXX 25004 41764 32996 03614 10125 20036 30098 40150 60002 70400 333 59001 60007
AAXX 25004 41768 02996 00000 10060 20036 30137 40144 60002 333 59011 60007
AAXX 25004 41780 02996 00502 10100 20031 40146 60002 333 59006 60007
BBXX 42369 25001 99272 70903 46/// /0909 1//// 92340 22200 10504 70018
BBXX 42370 25001 99273 70905 46/// ///// 10198 92340 22200 10403 70017
BBXX MINUK03 2500/ 99550 70015 46/// ///// 10095 40155 57046
BBXX A8UA9 25004 99031 70095 41696 71317 10250 20222 40150 50/// 710// 87678 22233 00220 20402 80230
BBXX DAJT 25004 99321 30320 41297 70920 10225 20191 40140 50/// 75122 8477/ 22254 04210 2//02 80202
BBXX A8ZS7 25004 99319 50261 41898 23514 10215 20191 40180 54000 70100 82/4/ 22264 04200 29901 30000 80200
BBXX DGOQ 25004 99548 10096 41/// /2317 10047 40200 54000 22200 04058
BBXX A8RU5 25004 99060 10879 41396 73234 10266 20234 40022 53012 76466 8479/ 22264 20505 315// 40907 80243
BBXX A8RV8 25004 99052 10920 41397 81818 10275 20241 40030 54000 76082
BBXX 42376 25001 99291 70879 46/// /0708 10183 40242 92340 22200 10402 70011
BBXX 42887 25001 99282 70885 46/// /0908 10218 92340 22200 10503 70017
BBXX C6TH9 25003 99165 51517 41297 31215 10280 2021/ 40120 54/// 7//11 832// 22200 00270 2//// 3//// 4//// 5//// 6//// 80230 ICE /////
BBXX 42376 25001 99291 70879 46/// /0708 10183 40242 92340 22200 10402 70011
BBXX 42887 25001 99282 70885 46/// /0908 10218 92340 22200 10503 70017
BBXX 42369 25001 99272 70903 46/// /0909 1//// 92340 22200 10504 70018
BBXX 42370 25001 99273 70905 46/// ///// 10198 92340 22200 10403 70017
BBXX 42013 25001 99272 70829 46/// ///// 1//// 40232 90020 22200 00208
BBXX 42013 25001 99272 70829 46/// ///// 1//// 40231 53013 90000 22200 00208
BBXX A8ZS7 25004 99319 50261 41898 23514 10215 20191 40180 54000 70100 82/4/ 22264 04200 29901 30000 80200
BBXX DAJT 25004 99321 30320 41297 70920 10225 20191 40140 50/// 75122 8477/ 22254 04210 2//02 80202
BBXX A8UA9 25004 99031 70095 41696 71317 10250 20222 40150 50/// 710// 87678 22233 00220 20402 80230
BBXX BAREU61 25004 99053 70040 46/// ///// 10277 29082 40111 22211
BBXX DGOQ 25004 99548 10096 41/// /2317 10047 40200 54000 22200 04058
BBXX MINUK03 2500/ 99550 70015 46/// ///// 10095 40155 57046
BBXX SKEC 25001 99601 10191 46/// ///// 10015 40049 52009 22235 00042
BBXX BAREU56 25004 99327 10143 46/// ///// 40226 57009 22232
BBXX BAREU11 25004 99453 70271 46/// ///// 40263 57004 22223
BBXX A8RV8 25004 99052 10920 41397 81818 10275 20241 40030 54000 76082
BBXX A8RU5 25004 99060 10879 41396 73234 10266 20234 40022 53012 76466 8479/ 22264 20505 315// 40907 80243
BBXX DAJT 25004 99321 30320 41297 70920 10225 20191 40140 50/// 75122 8477/ 22254 04210 2//02 80202
BBXX AUYK 25004 99359 11212 41797 13510 10022 20020 4//// 54000 70902 84203 22213 00122 21002
BBXX DHHZ 25004 99171 11142 41396 70328 10230 20177 40180 53/// 71022 85773 22213 00/// 20310 80195
BBXX MINFR03 2500/ 99190 10729 46/// ///// 10215 40104 57002
BBXX MINUK03 2500/ 99550 70015 46/// ///// 10095 40155 57046
AAXX 25004 42895 31996 33601 10120 20066 40132 70500 80001 333 58005 83075
BBXX MINFR05 2500/ 99145 70174 46/// ///// 10220 40154 52003
AAXX 25004 78954 12480 30810 10260 20223 30086 40151 60001 70211 83202 333 10298 20237 58014 83816
AAXX 25004 78954 12480 30810 10260 20223 30086 40151 60001 70211 83202 333 10298 20237 58014 83816
AAXX 25004 97686 11459 70000 10184 20156 38342 40074 52002 60064 70522 85846 333 20160 50/// 55012 56000 57802 84811 86361 80858
BBXX 62105 25004 99554 70122 46/// /2213 10103 20096 40098 58016 22200 00107 11013 70064 333 90710 91126
BBXX 62123 25004 99563 10022 47997 /2430 10098 20072 40111 53005 700// 22200
BBXX 63106 25004 99610 10017 46/// /2532 10073 49945 53012 22200
BBXX 63113 25004 99610 10017 46/// /2630 10076 20024 49969 52011 22200 10813 70063
BBXX 62303 25004 99516 70051 46/// /2521 10115 20090 40264 51003 22200 00111 10608 70038 333 90710 91129
BBXX 62001 25004 99453 70050 46/// /0803 10112 20021 40378 57004 22200 00140 10905 70025
BBXX 62103 25004 99499 70029 46/98 /2527 10116 20078 40310 52003 22200 00120 10704 70019 333 90710 91139
BBXX SHIP 25004 99371 11443 41498 73230 10060 20002 40072 52013 70222 87183 90000 22254 00150 20604 332// 40806 80035
AAXX 25004 67009 NIL
AAXX 25004 67012 NIL
AAXX 25004 67025 NIL
AAXX 25004 67027 32580 20208 10272 20240 30079 40100 57009 81802 333 0//00 81820 555 81640 82073
AAXX 25004 67045 NIL
AAXX 25004 67072 NIL
AAXX 25004 67073 NIL
AAXX 25004 67083 NIL
AAXX 25004 67095 11470 50000 10252 20248 30123 40129 56009 60031 71560 85800 333 0//02 83817 83633
AAXX 25004 67113 NIL
AAXX 25004 67117 NIL
AAXX 25004 67137 NIL
AAXX 25004 67143 NIL
AAXX 25004 67157 NIL
AAXX 25004 67161 NIL
AAXX 25004 67197 32480 30808 10248 20239 30123 40133 50005 83800 333 0//00 82817 555 82633
AAXX 25004 89628 46/// /2511 11143 36859 4//// 5////
AAXX 25004 60444 12560 70000 10060 20048 39171 48580 58002 60001 872// 333 87830 95990
BBXX SHIP 25004 99371 11443 41498 73230 10060 20002 40072 52013 70222 87183 90000 22254 00150 20604 332// 40806 80035
BBXX MINFR03 2500/ 99190 10729 46/// ///// 10215 40104 57002
BBXX DHHZ 25004 99171 11142 41396 70328 10230 20177 40180 53/// 71022 85773 22213 00/// 20310 80195
BBXX AUYK 25004 99359 11212 41797 13510 10022 20020 4//// 54000 70902 84203 22213 00122 21002
BBXX C6TH9 25003 99165 51517 41297 31215 10280 2021/ 40120 54/// 7//11 832// 22200 00270 2//// 3//// 4//// 5//// 6//// 80230 ICE /////
BBXX MINFR05 2500/ 99145 70174 46/// ///// 10220 40154 52003
AAXX 25004 89262 46/// /1807 11038 21062 39806 49850 5//// 90020
AAXX 25004 89272 46/// /0908 11134 21164 38044 49690 57007 90020
AAXX 25004 89065 46/// /0000 11034 21047 39721 49799 5//// 90010
AAXX 25004 89272 46/// /1008 11133 21159 38044 49689 57011 90010
AAXX 25004 89266 46/// /1716 11064 21078 39720 49859 57001 90020
AAXX 25004 89065 46/// /0000 11027 21041 39721 49798 5//// 90020
AAXX 25004 89266 46/// /1716 11066 21079 39720 49859 57002 90010
AAXX 25004 64005 NIL
AAXX 25004 64040 NIL
AAXX 25004 64210 11459 40000 10255 20241 39747 40095 60041 72161 81530 333 0//00 59010 81616 84361
AAXX 25004 64360 NIL
AAXX 25004 89266 46/// /1716 11066 21079 39720 49859 57002 90010
AAXX 25004 88897 46/// /2424 10079 20031 40046 52015
AAXX 25001 98428 31466 63603 10261 20208 40127 52024 70541 82838 333 20258 56299 58027 82618 84275
AAXX 25001 98435 11468 80406 10250 20230 40133 5//// 60134 72162 8427/ 333 20192 56199 58032 70126 84817 88357 555 20050
AAXX 25001 98548 11475 70000 10255 20243 30090 40096 53021 60044 78082 83870 333 20235 56299 58022 70040 83816 87357 98301 555 20014
AAXX 25001 98746 31462 80903 10268 20223 40097 52030 70544 83977 333 20234 56999 59007 83918 85358 87275
AAXX 25004 91375 46/// /0711 10233 40074 22200 00281
BBXX AUYK 25004 99359 11212 41797 13510 10022 20020 4//// 54000 70902 84203 22213 00122 21002
BBXX SHIP 25004 99371 11443 41498 73230 10060 20002 40072 52013 70222 87183 90000 22254 00150 20604 332// 40806 80035
AAXX 25004 16153 12999 03617 10090 21163 39979 40248 52028 60001 555 0////
AAXX 25004 NIL
BBXX 42369 25001 99272 70903 46/// /0908 1//// 90000 22200 10504 70020
BBXX 42370 25001 99273 70905 46/// ///// 10203 90000 22200 10504 70018
BBXX 42376 25001 99291 70879 46/// /0709 10184 40241 90000 22200 10402 70011
BBXX 42887 25001 99282 70885 46/// /1008 10217 90000 22200 10503 70016
AAXX 25004 91165 12566 80519 10233 20172 30172 40208 58023 69901 92353
AAXX 25004 91212 32566 41007 10283 20222 31375 40110 51020 92354
AAXX 25004 91245 32966 00816 10290 20240 30134 92350
AAXX 25004 91285 11558 83205 10217 20194 30181 40196 56014 60011 761// 92353
AAXX 25004 91324 11474 80907 10278 20247 30075 40077 60034 70262 83203
AAXX 25004 91334 12474 80512 10306 20239 30080 40083 50012 60014 82171
AAXX 25004 91348 12474 80605 10292 20244 30039 40091 50007 60014 84201
AAXX 25004 91356 11566 80608 10294 20233 30079 40086 52014 69904 7028/ 84275
AAXX 25004 91367 11474 20509 10300 20263 60054 70162 82100
AAXX 25004 91371 32474 20916 10306 20284 30098 40101 81100
AAXX 25004 91376 11432 81014 10271 20240 30075 40078 50002 60044 78182 883//
AAXX 25004 91408 11466 81206 10261 20254 30046 40084 51015 60374 78088 8532/
AAXX 25004 91413 11469 70908 10290 20263 30073 40098 51030 60064 72582 82271
AAXX 25004 91610 11599 40710 10305 20232 40061 58011 60001 70220 83101
AAXX 25004 91155 NIL
AAXX 25004 91203 NIL
AAXX 25004 91217 NIL
AAXX 25004 91232 NIL
AAXX 25004 91250 NIL
AAXX 25004 91275 NIL
AAXX 25004 91317 NIL
AAXX 25004 91339 NIL
AAXX 25004 91353 NIL
AAXX 25004 91366 NIL
AAXX 25004 91369 NIL
AAXX 25004 91378 NIL
AAXX 25004 91425 NIL
AAXX 25004 91434 NIL
AAXX 25004 91601 NIL
BBXX 62123 25004 99563 10022 41/96 /2429 10098 40139 53002 70222 8//// 22200 20301 325// 40610 5////
BBXX 62303 25004 99516 70051 46/// /2521 10115 20090 40264 51003 22200 00111 10707 70035 333 90710 91129
BBXX 62001 25004 99453 70050 46/// /0803 10112 20021 40378 57004 22200 00140 10805 70025
BBXX 62105 25004 99554 70122 46/// /2213 10106 20100 40098 58016 22200 00107 11013 70064 333 90710 91126
BBXX 63106 25004 99610 10017 46/// /2532 10073 49945 53012 22200
BBXX 63105 25004 99610 10017 47596 ///// 10075 20026 49946 53013 700// 22200
BBXX 62103 25004 99499 70029 46/98 /2631 10114 20078 40302 57008 22200 00120 10704 70019 333 90710 91137
AAXX 25004 91165 12566 80519 10233 20172 30172 40208 58023 69901 92353
AAXX 25004 91212 32566 41007 10283 20222 31375 40110 51020 92354
AAXX 25004 91285 11558 83205 10217 20194 30181 40196 56014 60011 761// 92353
AAXX 25004 91334 12474 80512 10306 20239 30080 40083 50012 60014 82171
AAXX 25004 91348 12474 80605 10292 20244 30039 40091 50007 60014 84201
AAXX 25004 91356 11566 80608 10294 20233 30079 40086 52014 69904 7028/ 84275
AAXX 25004 91371 32474 20916 10306 20284 30098 40101 81100
AAXX 25004 91376 11432 81014 10271 20240 30075 40078 50002 60044 78182 883//
AAXX 25004 91408 11466 81206 10261 20254 30046 40084 51015 60374 78088 8532/
AAXX 25004 91413 11469 70908 10290 20263 30073 40098 51030 60064 72582 82271
AAXX 25004 91245 32966 00816 10290 20240 30134 92350
BBXX A8VL8 25004 99034 11054 41796 80432 10260 20246 40100 51010 7//11 8767/ 22212 00240 2//// 3//// 4//// 5//// 6//// 80250 ICE /////
BBXX 42887 25001 99282 70885 46/// /1008 10217 90000 22200 10503 70016
BBXX 42376 25001 99291 70879 46/// /0709 10184 40241 90000 22200 10402 70011
BBXX 42370 25001 99273 70905 46/// ///// 10203 90000 22200 10504 70018
BBXX 42369 25001 99272 70903 46/// /0908 1//// 90000 22200 10504 70020
BBXX A8VL8 25004 99034 11054 41796 80432 10260 20246 40100 51010 7//11 8767/ 22212 00240 2//// 3//// 4//// 5//// 6//// 80250 ICE /////
AAXX 25004 71392 16/// /3401 11170 21190 60001 333 11138 21184 70000
AAXX 25004 89667 46/// /3203 10016 39887 4//// 5//// 90040
AAXX 25004 71758 16/// /3007 11089 21124 30178 40258 51016 60001 333 11045 21090 70008
AAXX 25004 64910 32460 50000 10256 20250 30102 40111 85300 333 0//00 59003 86613 81916 94945 95835
BBXX 62105 25004 99554 70122 46/// /2213 10103 20096 40098 58016 22200 00107 11013 70064 333 90710 91126
BBXX 62123 25004 99563 10022 47997 /2430 10098 20072 40111 53005 700// 22200
BBXX 63106 25004 99610 10017 46/// /2532 10073 49945 53012 22200
BBXX 63113 25004 99610 10017 46/// /2630 10076 20024 49969 52011 22200 10813 70063
BBXX 62303 25004 99516 70051 46/// /2521 10115 20090 40264 51003 22200 00111 10608 70038 333 90710 91129
BBXX 62001 25004 99453 70050 46/// /0803 10112 20021 40378 57004 22200 00140 10905 70025
BBXX 62103 25004 99499 70029 46/98 /2527 10116 20078 40310 52003 22200 00120 10704 70019 333 90710 91139
AAXX 25001 38847 429// 80000 10039 21037 40208 58013 87057
BBXX 42369 25001 99272 70903 46/// /0908 1//// 90020 22200 10504 70020
BBXX 42370 25001 99273 70905 46/// ///// 10204 90020 22200 10503 70016
BBXX 42376 25001 99291 70879 46/// /0709 10184 40241 90020 22200 10402 70011
BBXX 42887 25001 99282 70885 46/// /0908 10220 90020 22200 10503 70016
BBXX 42887 25001 99282 70885 46/// /0908 10220 90020 22200 10503 70016
BBXX 42370 25001 99273 70905 46/// ///// 10204 90020 22200 10503 70016
BBXX 42376 25001 99291 70879 46/// /0709 10184 40241 90020 22200 10402 70011
BBXX 42369 25001 99272 70903 46/// /0908 1//// 90020 22200 10504 70020
BBXX 62123 25004 99563 10022 41/96 /2429 10098 40139 53002 70222 8//// 22200 20301 325// 40610 5////
BBXX 62303 25004 99516 70051 46/// /2521 10115 20090 40264 51003 22200 00111 10707 70035 333 90710 91129
BBXX 62001 25004 99453 70050 46/// /0803 10112 20021 40378 57004 22200 00140 10805 70025
BBXX 62105 25004 99554 70122 46/// /2213 10106 20100 40098 58016 22200 00107 11013 70064 333 90710 91126
BBXX 63106 25004 99610 10017 46/// /2532 10073 49945 53012 22200
BBXX 63105 25004 99610 10017 47596 ///// 10075 20026 49946 53013 700// 22200
BBXX 62103 25004 99499 70029 46/98 /2631 10114 20078 40302 57008 22200 00120 10704 70019 333 90710 91137
BBXX MINFR09 2500/ 99120 31546 46/// ///// 40069 52015
AAXX 2500/ 68902 46/// ///// 40156 52001
AAXX 25004 64500 32460 62008 10270 20237 30094 40107 86500 92351 333 0//00 59004 83610 85633
AAXX 25004 64501 32458 52006 10256 20236 3//// 4//// 83502 333 0//00 5//// 83610 85073
AAXX 25004 64570 32565 62204 10245 20230 39609 40115 86500 333 0//00 59008 83630 86640
BBXX MINFR09 2500/ 99120 31546 46/// ///// 40069 52015
AAXX 25001 29253 119// 80000 11102 21130 30039 40218 52005 69972 77172 8802/ 333 21108 47045
BBXX 62105 25004 99554 70122 46/// /2213 10103 20096 40098 58016 22200 00107 11013 70064 333 90710 91126
BBXX 62123 25004 99563 10022 47997 /2430 10098 20072 40111 53005 700// 22200
BBXX 63106 25004 99610 10017 46/// /2532 10073 49945 53012 22200
BBXX 63113 25004 99610 10017 46/// /2630 10076 20024 49969 52011 22200 10813 70063
BBXX 62303 25004 99516 70051 46/// /2521 10115 20090 40264 51003 22200 00111 10608 70038 333 90710 91129
BBXX 62001 25004 99453 70050 46/// /0803 10112 20021 40378 57004 22200 00140 10905 70025
BBXX 62103 25004 99499 70029 46/98 /2527 10116 20078 40310 52003 22200 00120 10704 70019 333 90710 91139
AAXX 25003 63612 32980 02705 10234 20175 333 59001
AAXX 25003 63695 32480 70000 10155 20143 875// 333 87614
AAXX 25001 32389 41496 81102 11240 21252 30211 40252 57020 78582 889// 333 86712
AAXX 25004 71245 46/// /2343 11052 21077 6///1 333 11051 21075 7////
AAXX 25004 71245 46/// /2343 11052 21077 6///1 333 11051 21075 7////
AAXX 25001 24329 32998 50801 11435 21461 39975 40333 57010 85010 333 21494 47029 55000
AAXX 25001 31512 129// 53303 11223 21272 30103 40286 53013 69902 83041 333 21226 47///
AAXX 25004 44404 22905 02602 10060 21032 38122 48472 333 58000
AAXX 25004 44406 NIL
AAXX 25004 44409 42903 00000 10074 20070 39912 40119 333 59002
AAXX 25004 44416 42958 00000 10060 20045 39367 40138 333 58008
AAXX 25004 44418 41820 50000 10076 20076 39962 40158 710// 85030 333 59000
AAXX 25004 44424 42965 00000 11054 21060 37679 4708/ 333 59002
AAXX 25004 44429 NIL
AAXX 25004 44434 42962 00000 10064 20056 39230 48529 333 58008
AAXX 25004 44438 41/00 90000 10070 20070 30022 40152 747// 89/// 333 58007
AAXX 25004 44449 41915 00000 10060 20051 39998 40158 710// 333 58019
AAXX 25004 44454 42956 00000 10030 20022 38656 48489 333 58003
AAXX 25004 44462 42965 00000 10050 2//// 38255 48476 333 58008
AAXX 25004 44474 NIL
AAXX 25004 44477 NIL
AAXX 25004 44478 NIL
AAXX 25004 78388 441570 11509 10250 20201 30167 40176 70500 81800 333 00200 58004 81824
AAXX 25004 DUPE
AAXX 25004 64656 33960 00000 10225 20210 39538 40083 333 59010
AAXX 25004 78388 441570 11509 10250 20201 30167 40176 70500 81800 333 00200 58004 81824
AAXX 25004 DUPE
AAXX 25001 25745 12699 60903 11262 21301 30316 40373 58001 69960 86500 333 21253 47008 55000
AAXX 25001 22113 /1482 72105 11004 21019 39845 49907 52006 78582 87900 333 91008 91111
AAXX 25001 30252 119// 50000 11387 21408 30047 40418 52006 69902 74874 80001 333 21390 47024 55001
AAXX 25001 29570 41599 82602 11049 21190 39889 40242 58002 88007
BBXX 62123 25004 99563 10022 41/96 /2429 10098 40139 53002 70222 8//// 22200 20301 325// 40610 5////
BBXX 62303 25004 99516 70051 46/// /2521 10115 20090 40264 51003 22200 00111 10707 70035 333 90710 91129
BBXX 62001 25004 99453 70050 46/// /0803 10112 20021 40378 57004 22200 00140 10805 70025
BBXX 62105 25004 99554 70122 46/// /2213 10106 20100 40098 58016 22200 00107 11013 70064 333 90710 91126
BBXX 63106 25004 99610 10017 46/// /2532 10073 49945 53012 22200
BBXX 63105 25004 99610 10017 47596 ///// 10075 20026 49946 53013 700// 22200
BBXX 62103 25004 99499 70029 46/98 /2631 10114 20078 40302 57008 22200 00120 10704 70019 333 90710 91137
AAXX 25001 29570 42899 82602 11049 21190 39889 40242 58002 88007
AAXX 25004 71307 16/// /2407 10011 21027 30006 40262 58009 60001 333 10022 21031 70000
AAXX 25004 71619 16/// /2908 11156 21211 30248 40311 51014 60001 333 11121 21174 70000
AAXX 25004 71307 16/// /2407 10011 21027 30006 40262 58009 60001 333 10022 21031 70000
AAXX 25004 71619 16/// /2908 11156 21211 30248 40311 51014 60001 333 11121 21174 70000
AAXX 25004 96745 32558 80000 10274 20245 30078 40083 52015 8452/ 333 20270 50560 55042 56609 58009 84620 88460
AAXX 25004 65563 32956 00000 10196 20190 39872 40112 333 59009
BBXX 62105 25004 99554 70122 46/// /2213 10103 20096 40098 58016 22200 00107 11013 70064 333 90710 91126
BBXX 62123 25004 99563 10022 47997 /2430 10098 20072 40111 53005 700// 22200
BBXX 63106 25004 99610 10017 46/// /2532 10073 49945 53012 22200
BBXX 63113 25004 99610 10017 46/// /2630 10076 20024 49969 52011 22200 10813 70063
BBXX 62303 25004 99516 70051 46/// /2521 10115 20090 40264 51003 22200 00111 10608 70038 333 90710 91129
BBXX 62001 25004 99453 70050 46/// /0803 10112 20021 40378 57004 22200 00140 10905 70025
BBXX 62103 25004 99499 70029 46/98 /2527 10116 20078 40310 52003 22200 00120 10704 70019 333 90710 91139
AAXX 25003 63661 32980 00000 10146 20137 48535 333 59002
AAXX 25003 63671 32980 01706 10227 20200 333
AAXX 2500/ 89329 46/// ///// 11036 38767 4//// 5//// 90040
AAXX 2500/ 89332 46/// ///// 11016 39206 4//// 5//// 90040
AAXX 2500/ 89314 46/// ///// 11036 38266 4//// 5//// 90040
AAXX 2500/ 89327 46/// ///// 11013 39529 4//// 5//// 90040
BBXX 62123 25004 99563 10022 41/96 /2429 10098 40139 53002 70222 8//// 22200 20301 325// 40610 5////
BBXX 62303 25004 99516 70051 46/// /2521 10115 20090 40264 51003 22200 00111 10707 70035 333 90710 91129
BBXX 62001 25004 99453 70050 46/// /0803 10112 20021 40378 57004 22200 00140 10805 70025
BBXX 62105 25004 99554 70122 46/// /2213 10106 20100 40098 58016 22200 00107 11013 70064 333 90710 91126
BBXX 63106 25004 99610 10017 46/// /2532 10073 49945 53012 22200
BBXX 63105 25004 99610 10017 47596 ///// 10075 20026 49946 53013 700// 22200
BBXX 62103 25004 99499 70029 46/98 /2631 10114 20078 40302 57008 22200 00120 10704 70019 333 90710 91137
AAXX 25004 17115 12560 53509 10022 21019 30173 40226 52009 60001 83570 333 83632 85360
BBXX 62105 25004 99554 70122 46/// /2213 10103 20096 40098 58016 22200 00107 11013 70064 333 90710 91126
BBXX 62123 25004 99563 10022 47997 /2430 10098 20072 40111 53005 700// 22200
BBXX 63106 25004 99610 10017 46/// /2532 10073 49945 53012 22200
BBXX 63113 25004 99610 10017 46/// /2630 10076 20024 49969 52011 22200 10813 70063
BBXX 62303 25004 99516 70051 46/// /2521 10115 20090 40264 51003 22200 00111 10608 70038 333 90710 91129
BBXX 62001 25004 99453 70050 46/// /0803 10112 20021 40378 57004 22200 00140 10905 70025
BBXX 62103 25004 99499 70029 46/98 /2527 10116 20078 40310 52003 22200 00120 10704 70019 333 90710 91139
AAXX 25004 17084 11670 80202 10003 21021 39242 40168 52005 69901 72272 8552/ 333 85635 88460 91109 93100
AAXX 25001 63332 NIL
AAXX 25001 63333 NIL
AAXX 25001 63340 NIL
AAXX 25001 63402 NIL
AAXX 25001 63450 42980 03102 10132 20055 38838 40154 333 58006
AAXX 25001 63451 NIL
AAXX 25001 63471 NIL
AAXX 25001 NNNN
AAXX 25004 89262 46/// /1807 11038 21061 39806 49850 5//// 90030
AAXX 25004 89262 46/// /1907 11039 21059 39806 49850 5//// 90040
AAXX 25004 67009 33580 7//// 10240 20219 39975 40093 56010 81902 333 0//00 81820 81920 87075 94979 95816
AAXX 25004 67073 33980 0//// 10270 20216 30084 40110 56006 333 0//00
AAXX 25004 67137 31265 2//02 10210 20189 38908 48515 56010 715// 82800 333 0//00 81705 81817 555 82620
AAXX 25004 67157 31470 5//// 10/// 20/// 30152 40159 56005 715// 85800 333 0//00 81817 85633
AAXX 25004 67023 33580 22204 10228 20197 30099 40105 58011 81830 333 0//00 81820 555 81640 81360
AAXX 25004 67131 33980 00000 10/// 20/// 300999 40104 57017 333 0//00
AAXX 25004 67023 33580 22204 10228 20197 30099 40105 58011 81830 333 0//00 81820 555 81640 81360
AAXX 25004 67131 33980 00000 10/// 20/// 30099 40104 57017 333 0//00
BBXX 62123 25004 99563 10022 41/96 /2429 10098 40139 53002 70222 8//// 22200 20301 325// 40610 5////
BBXX 62303 25004 99516 70051 46/// /2521 10115 20090 40264 51003 22200 00111 10707 70035 333 90710 91129
BBXX 62001 25004 99453 70050 46/// /0803 10112 20021 40378 57004 22200 00140 10805 70025
BBXX 62105 25004 99554 70122 46/// /2213 10106 20100 40098 58016 22200 00107 11013 70064 333 90710 91126
BBXX 63106 25004 99610 10017 46/// /2532 10073 49945 53012 22200
BBXX 63105 25004 99610 10017 47596 ///// 10075 20026 49946 53013 700// 22200
BBXX 62103 25004 99499 70029 46/98 /2631 10114 20078 40302 57008 22200 00120 10704 70019 333 90710 91137
AAXX 25001 11157 11560 82804 10012 21030 39520 40312 52007 69901 78582 878// 333 84628 87640 91115 91208
AAXX 25004 71170 16/// /2819 10009 21042 60001 333 10030 21105 70000
AAXX 25004 71170 16/// /2819 10009 21042 60001 333 10030 21105 70000
BBXX 62105 25004 99554 70122 46/// /2213 10103 20096 40098 58016 22200 00107 11013 70064 333 90710 91126
BBXX 62123 25004 99563 10022 47997 /2430 10098 20072 40111 53005 700// 22200
BBXX 63106 25004 99610 10017 46/// /2532 10073 49945 53012 22200
BBXX 63113 25004 99610 10017 46/// /2630 10076 20024 49969 52011 22200 10813 70063
BBXX 62303 25004 99516 70051 46/// /2521 10115 20090 40264 51003 22200 00111 10608 70038 333 90710 91129
BBXX 62001 25004 99453 70050 46/// /0803 10112 20021 40378 57004 22200 00140 10905 70025
BBXX 62103 25004 99499 70029 46/98 /2527 10116 20078 40310 52003 22200 00120 10704 70019 333 90710 91139
AAXX 25001 63332 NIL
AAXX 25001 63333 NIL
AAXX 25001 63340 NIL
AAXX 25001 63402 NIL
AAXX 25001 63450 42980 03102 10132 20055 38838 40154 333 58006
AAXX 25001 63451 NIL
AAXX 25001 63471 NIL
AAXX 25001
AAXX 25001 63332 NIL
AAXX 25001 63333 NIL
AAXX 25001 63340 NIL
AAXX 25001 63402 NIL
AAXX 25001 63450 42980 03102 10132 20055 38838 40154 333 58006
AAXX 25001 63451 NIL
AAXX 25001 63471 NIL
AAXX 25004 67023 33580 22204 10228 20197 30099 40105 58011 81830 333 0//00 81820 555 81640 81360
AAXX 25004 67131 33980 00000 10/// 20/// 30099 40104 57017 333 0//00
AAXX 25003 63723 32980 00000 10253 20220 40115 333 58008
BBXX 52243 25001 99193 11666 46/// ///// 1//// 90000 22200 00265
BBXX 51178 25001 99142 51695 46/// ///// 1//// 90000 22200 00288
BBXX 51174 25001 99142 51697 46/// ///// 1//// 90000 22200 00291
BBXX 51171 25001 99064 71623 46/// ///// 1//// 90000 22200 00277
BBXX 51170 25001 99168 71695 46/// ///// 1//// 90000 22200 00259
BBXX 51169 25001 99004 51600 46/// ///// 1//// 90000 22200 00259
BBXX 62123 25004 99563 10022 41/96 /2429 10098 40139 53002 70222 8//// 22200 20301 325// 40610 5////
BBXX 62303 25004 99516 70051 46/// /2521 10115 20090 40264 51003 22200 00111 10707 70035 333 90710 91129
BBXX 62001 25004 99453 70050 46/// /0803 10112 20021 40378 57004 22200 00140 10805 70025
BBXX 62105 25004 99554 70122 46/// /2213 10106 20100 40098 58016 22200 00107 11013 70064 333 90710 91126
BBXX 63106 25004 99610 10017 46/// /2532 10073 49945 53012 22200
BBXX 63105 25004 99610 10017 47596 ///// 10075 20026 49946 53013 700// 22200
BBXX 62103 25004 99499 70029 46/98 /2631 10114 20078 40302 57008 22200 00120 10704 70019 333 90710 91137
BBXX 52243 25001 99193 11666 46/// ///// 1//// 90000 22200 00265
BBXX 51169 25001 99004 51600 46/// ///// 1//// 90000 22200 00259
BBXX 51174 25001 99142 51697 46/// ///// 1//// 90000 22200 00291
BBXX 51178 25001 99142 51695 46/// ///// 1//// 90000 22200 00288
BBXX 51171 25001 99064 71623 46/// ///// 1//// 90000 22200 00277
BBXX 51170 25001 99168 71695 46/// ///// 1//// 90000 22200 00259
AAXX 25001 10609 12574 72305 10025 20006 39992 40334 58004 60001 8553/ 333 31/// 55/// 20172 30158 55300 20000 30000 82620 83656 86361
AAXX 25004 13610 12960 00000 10006 21043 39795 40235 51010 60001
AAXX 25004 13600 12970 00904 10002 21012 30147 40202 51007 60001
AAXX 25004 13619 12660 80000 11034 21056 39430 42809 54004 60001 885// 333 88640
AAXX 25004 13624 12960 01410 10032 21005 30134 40174 54005 60001
AAXX 25004 13629 11956 00000 11062 21062 39130 42787 53008 60001 71000
AAXX 25004 13601 12960 00000 10036 21004 30059 40162 54003 60001
AAXX 25004 13625 12960 00000 10030 20000 39965 40203 52006 60001
BBXX 62105 25004 99554 70122 46/// /2213 10103 20096 40098 58016 22200 00107 11013 70064 333 90710 91126
BBXX 62123 25004 99563 10022 47997 /2430 10098 20072 40111 53005 700// 22200
BBXX 63106 25004 99610 10017 46/// /2532 10073 49945 53012 22200
BBXX 63113 25004 99610 10017 46/// /2630 10076 20024 49969 52011 22200 10813 70063
BBXX 62303 25004 99516 70051 46/// /2521 10115 20090 40264 51003 22200 00111 10608 70038 333 90710 91129
BBXX 62001 25004 99453 70050 46/// /0803 10112 20021 40378 57004 22200 00140 10905 70025
BBXX 62103 25004 99499 70029 46/98 /2527 10116 20078 40310 52003 22200 00120 10704 70019 333 90710 91139
AAXX 25004 42131 32996 00000 10018 21022 40172 333 59003
AAXX 25001 78090 15/// /0000 10228 30248 40251 69901 90000 222// 00284
AAXX 25004 71723 16/// /1104 11187 21211 30338 40349 58007 60001 333 11142 21193 70000
AAXX 25004 89272 46/// /1008 11133 21159 38044 49689 5//// 90010
AAXX 25004 89272 46/// /0908 11134 21164 38044 49690 5//// 90020
AAXX 25004 71723 16/// /1104 11187 21211 30338 40349 58007 60001 333 11142 21193 70000
AAXX 25004 89266 46/// /1716 11066 21079 39720 49859 5//// 90010
AAXX 25004 89266 46/// /1716 11064 21078 39720 49859 5//// 90020
BBXX 62123 25004 99563 10022 41/96 /2429 10098 40139 53002 70222 8//// 22200 20301 325// 40610 5////
BBXX 62303 25004 99516 70051 46/// /2521 10115 20090 40264 51003 22200 00111 10707 70035 333 90710 91129
BBXX 62001 25004 99453 70050 46/// /0803 10112 20021 40378 57004 22200 00140 10805 70025
BBXX 62105 25004 99554 70122 46/// /2213 10106 20100 40098 58016 22200 00107 11013 70064 333 90710 91126
BBXX 63106 25004 99610 10017 46/// /2532 10073 49945 53012 22200
BBXX 63105 25004 99610 10017 47596 ///// 10075 20026 49946 53013 700// 22200
BBXX 62103 25004 99499 70029 46/98 /2631 10114 20078 40302 57008 22200 00120 10704 70019 333 90710 91137
BBXX 62105 25004 99554 70122 46/// /2213 10103 20096 40098 58016 22200 00107 11013 70064 333 90710 91126
BBXX 62123 25004 99563 10022 47997 /2430 10098 20072 40111 53005 700// 22200
BBXX 63106 25004 99610 10017 46/// /2532 10073 49945 53012 22200
BBXX 63113 25004 99610 10017 46/// /2630 10076 20024 49969 52011 22200 10813 70063
BBXX 62303 25004 99516 70051 46/// /2521 10115 20090 40264 51003 22200 00111 10608 70038 333 90710 91129
BBXX 62001 25004 99453 70050 46/// /0803 10112 20021 40378 57004 22200 00140 10905 70025
BBXX 62103 25004 99499 70029 46/98 /2527 10116 20078 40310 52003 22200 00120 10704 70019 333 90710 91139
BBXX 62123 25004 99563 10022 41/96 /2429 10098 40139 53002 70222 8//// 22200 20301 325// 40610 5////
BBXX 62303 25004 99516 70051 46/// /2521 10115 20090 40264 51003 22200 00111 10707 70035 333 90710 91129
BBXX 62001 25004 99453 70050 46/// /0803 10112 20021 40378 57004 22200 00140 10805 70025
BBXX 62105 25004 99554 70122 46/// /2213 10106 20100 40098 58016 22200 00107 11013 70064 333 90710 91126
BBXX 63106 25004 99610 10017 46/// /2532 10073 49945 53012 22200
BBXX 63105 25004 99610 10017 47596 ///// 10075 20026 49946 53013 700// 22200
BBXX 62103 25004 99499 70029 46/98 /2631 10114 20078 40302 57008 22200 00120 10704 70019 333 90710 91137
AAXX 25001 11976 16/// /0000 11012 21018 39966 40240 52008 69921 333 55000
AAXX 25004 16682 12460 40000 10078 20056 30147 40166 54000 60001 81150 333 81818 84358 90730 91106 555 40000 47640 44190 50000 50068
AAXX 25004 91723 NIL
AAXX 25004 91964 36/// /1204 10246 20210 40191 57011
BBXX 62105 25004 99554 70122 46/// /2213 10103 20096 40098 58016 22200 00107 11013 70064 333 90710 91126
BBXX 62123 25004 99563 10022 47997 /2430 10098 20072 40111 53005 700// 22200
BBXX 63106 25004 99610 10017 46/// /2532 10073 49945 53012 22200
BBXX 63113 25004 99610 10017 46/// /2630 10076 20024 49969 52011 22200 10813 70063
BBXX 62303 25004 99516 70051 46/// /2521 10115 20090 40264 51003 22200 00111 10608 70038 333 90710 91129
BBXX 62001 25004 99453 70050 46/// /0803 10112 20021 40378 57004 22200 00140 10905 70025
BBXX 62103 25004 99499 70029 46/98 /2527 10116 20078 40310 52003 22200 00120 10704 70019 333 90710 91139
AAXX 25001 30838 11597 50000 11284 21290 39300 40396 52005 69952 78581 85900 333 21289 47015
AAXX 25001 10513 01682 61702 10030 20011 30185 40311 58008 69901 72122 8353/ 333 31/// 55/// 20133 30131 55300 20000 30000 69907 82635 86358
AAXX 25004 71618 15464 13322 11183 21210 30056 40094 51029 60001 333 11063 21183 70006
BBXX 62123 25004 99563 10022 41/96 /2429 10098 40139 53002 70222 8//// 22200 20301 325// 40610 5////
BBXX 62303 25004 99516 70051 46/// /2521 10115 20090 40264 51003 22200 00111 10707 70035 333 90710 91129
BBXX 62001 25004 99453 70050 46/// /0803 10112 20021 40378 57004 22200 00140 10805 70025
BBXX 62105 25004 99554 70122 46/// /2213 10106 20100 40098 58016 22200 00107 11013 70064 333 90710 91126
BBXX 63106 25004 99610 10017 46/// /2532 10073 49945 53012 22200
BBXX 63105 25004 99610 10017 47596 ///// 10075 20026 49946 53013 700// 22200
BBXX 62103 25004 99499 70029 46/98 /2631 10114 20078 40302 57008 22200 00120 10704 70019 333 90710 91137
AAXX 25004 42260 31994 09901 10026 20026 40165 71000 333 59004
BBXX 62105 25004 99554 70122 46/// /2213 10103 20096 40098 58016 22200 00107 11013 70064 333 90710 91126
BBXX 62123 25004 99563 10022 47997 /2430 10098 20072 40111 53005 700// 22200
BBXX 63106 25004 99610 10017 46/// /2532 10073 49945 53012 22200
BBXX 63113 25004 99610 10017 46/// /2630 10076 20024 49969 52011 22200 10813 70063
BBXX 62303 25004 99516 70051 46/// /2521 10115 20090 40264 51003 22200 00111 10608 70038 333 90710 91129
BBXX 62001 25004 99453 70050 46/// /0803 10112 20021 40378 57004 22200 00140 10905 70025
BBXX 62103 25004 99499 70029 46/98 /2527 10116 20078 40310 52003 22200 00120 10704 70019 333 90710 91139
AAXX 25004 71560 16/// /2811 10018 21038 39802 40108 55004 60001 333 10038 21114 70000
AAXX 25004 67012 33580 5//// 10259 20211 30088 40099 56007 83830 333 0//00 82820 555 82640 82360
AAXX 25004 67072 33980 0//06 10276 20247 30127 40130 57015 333 0//00 924/8
BBXX 62123 25004 99563 10022 41/96 /2429 10098 40139 53002 70222 8//// 22200 20301 325// 40610 5////
BBXX 62303 25004 99516 70051 46/// /2521 10115 20090 40264 51003 22200 00111 10707 70035 333 90710 91129
BBXX 62001 25004 99453 70050 46/// /0803 10112 20021 40378 57004 22200 00140 10805 70025
BBXX 62105 25004 99554 70122 46/// /2213 10106 20100 40098 58016 22200 00107 11013 70064 333 90710 91126
BBXX 63106 25004 99610 10017 46/// /2532 10073 49945 53012 22200
BBXX 63105 25004 99610 10017 47596 ///// 10075 20026 49946 53013 700// 22200
BBXX 62103 25004 99499 70029 46/98 /2631 10114 20078 40302 57008 22200 00120 10704 70019 333 90710 91137
BBXX VNW6069 25003 99122 31230 41497 52415 10308 20267 40056 53010 70322 85101 22200 02298 2//// 80278
BBXX VNW6069 25003 99122 31230 41497 52415 10308 20267 40056 53010 70322 85101 22200 02298 2//// 80278
BBXX VNW6069 25003 99122 31230 41497 52415 10308 20267 40056 53010 70322 85101 22200 02298 2//// 80278
BBXX 42046 25001 99279 70940 46/// /0814 1//// 40188 90030 22200 00222 333 91216
BBXX 42046 25001 99279 70940 46/// /0814 1//// 40188 90030 22200 00222 333 91216
AAXX 25004 65594 32460 40000 10258 20247 30083 40117 84200 333 59008 84613 94907
BBXX S6SR 25004 99039 50003 41997 11813 10240 20226 40130 54000 7//00 81/// 22273 00230 2//// 3//// 4//// 5//// 6//// 80230 ICE /////
BBXX S6SR 25004 99039 50003 41997 11813 10240 20226 40130 54000 7//00 81/// 22273 00230 2//// 3//// 4//// 5//// 6//// 80230 ICE /////
AAXX 25001 15335 03/// /2701 11050 21065 30235 40242 52004 6///1 333 4//// 55000 6///7 91002 91103
AAXX 25001 15335 03/// /2701 11050 21065 30235 40242 52004 6///1 333 4//// 55000 6///7 91002 91103
AAXX 25004 41264 36/70 /0704 10120 21027 39773 40154 333 0E015 59011
BBXX A8CB7 25003 99314 30337 41397 41021 10220 20206 40160 54000 70222 84462 22254 06250 21003 323// 41106 80210
BBXX A8CB7 25003 99314 30337 41397 41021 10220 20206 40160 54000 70222 84462 22254 06250 21003 323// 41106 80210
BBXX A8CB7 25003 99314 30337 41397 41021 10220 20206 40160 54000 70222 84462 22254 06250 21003 323// 41106 80210
BBXX ONGI 25004 99043 50365 41798 71030 10290 20249 40130 54000 7//21 862// 22222 00280 20706 310// 40403 5//// 6//// 80260 ICE /////
AAXX 25004 96147 31456 73615 10260 20237 30100 40106 5//// 71522 83571 333 20230 56800 58019 83613
BBXX ONGI 25004 99043 50365 41798 71030 10290 20249 40130 54000 7//21 862// 22222 00280 20706 310// 40403 5//// 6//// 80260 ICE /////
AAXX 25001 26531 /1256 82202 10005 20002 30037 40114 52009 72176 886// 333 88703 91004 91105 934// 555 1/100 4/997 60041
AAXX 25001 26531 /1256 82202 10005 20002 30037 40114 52009 72176 886// 333 88703 91004 91105 934//
AAXX 25004 60355 12658 63618 10147 20075 40274 50002 60001 82232 333 0//00 82833 83360 95990
BBXX 4XFB 25004 99356 10189 41998 02210 10150 20050 40175 54000 70200 8//// 22234 00190 20402 3//// 4//// 5//// 80100
BBXX 4XFB 25004 99356 10189 41998 02210 10150 20050 40175 54000 70200 8//// 22234 00190 20402 3//// 4//// 5//// 80100
BBXX SFIR 25004 99482 70146 43/94 82128 10126 40310 51015 22223 00120 20902 41003
BBXX SFIR 25004 99482 70146 43/94 82128 10126 40310 51015 22223 00120 20902 41003
BBXX SFIR 25004 99482 70146 43/94 82128 10126 40310 51015 22223 00120 20902 41003
BBXX WDF9323 25003 99096 71757 41/98 /0524 10270 2023/ 40080 56010 700// 8//// 22211 0//// 29907 399// 4//07 5//// 6//// 80240 ICE /////
BBXX ONCT 25004 99196 70853 41299 20714 10270 2023/ 40140 54000 70200 8210/ 22234 00270 20802 30707 40802 50802 6//// 80240 ICE /////
BBXX ONCT 25004 99196 70853 41299 20714 10270 2023/ 40140 54000 70200 8210/ 22234 00270 20802 30707 40802 50802 6//// 80240 ICE /////
AAXX 25004 60115 15560 31402 10099 20083 40293 50001 60001 83200 333 83820
BBXX C6OT4 25004 99163 71248 41398 80623 10220 20172 40136 57010 70322 887// 22223 04243 20907 305// 41106 5//// 80190
AAXX 25004 68054 42660 41006 10230 20186 48561 50001 81970
AAXX 25004 78397 112570 13107 10282 20227 30138 40154 60001 81801 333 01009 10335 20227 58006 81822
AAXX 25004 DUPE
AAXX 25004 78397 112570 13107 10282 20227 30138 40154 60001 81801 333 01009 10335 20227 58006 81822
AAXX 25004 DUPE
AAXX 25004 85585 12498 71917 10163 20113 40186 56004 60001 87800 333 10186 56400 83817 84620
AAXX 25004 85586 12960 03003 10160 20114 40140 54000 60001 333 10190
AAXX 25004 85629 12984 02308 10298 20074 40084 56002 60001 333 10338
AAXX 25004 85672 12970 01805 10298 20060 40107 54000 60001 333 10336
AAXX 25004 85682 12965 02410 10229 20088 40109 56011 60001 333 10280
AAXX 25004 85743 12960 02908 10215 20105 40139 53005 60001 333 10312
AAXX 25004 85766 NIL
AAXX 25004 85782 NIL
AAXX 25004 85799 12960 01611 10142 20077 40200 57008 60001 333 10185
AAXX 25004 85830 NIL
AAXX 25004 85406 12970 41703 10223 20160 40131 53022 60001 84030 333 10252 56000 84362
AAXX 25004 85418 12965 62211 10217 20165 40129 52013 60001 83031 333 10250 56000 83363 83080
AAXX 25004 85432 NIL
AAXX 25004 85442 12470 51808 10192 20150 40122 53008 60001 81504 333 10225 56407 81617 84080
AAXX 25004 85467 NIL
AAXX 25004 85469 11570 33310 10248 20180 40194 57007 69921 70182 83800 333 56800 82820
AAXX 25004 85488 3//// /9905 10177 20120 40123 55001 333 10210
AAXX 25004 85574 12960 02011 10255 21010 39560 40091 54000 60001 333 10324
AAXX 25004 85577 12965 01703 10255 21029 39516 40100 53005 60001 333 10332
AAXX 25001 10113 154// 82208 10060 20048 30203 40222 57013 60001 333 55/// 20300 30152 55300 20000 30000 81/12 88/50 88/60 91113
AAXX 25001 10641 07/// ///// 1//// 2//// 3//// 4//// 5//// 6///1 7//// 333 55300 6///7
