AAXX 30184 48001 NIL
AAXX 30184 48004 NIL
AAXX 30184 48008 32510 50000 10160 20144 40167 83950 333 56180 58003
AAXX 30184 48010 NIL
AAXX 30184 48018 32920 03201 10180 20165 40159 333 59009
AAXX 30184 48019 NIL
AAXX 30184 48020 NIL
AAXX 30184 48025 NIL
AAXX 30184 48035 NIL
AAXX 30184 48037 NIL
AAXX 30184 48042 32556 70000 10220 20205 40156 84850 333 56880 59011
AAXX 30184 48045 NIL
AAXX 30184 48048 NIL
AAXX 30184 48053 32540 40000 10200 20185 40160 81956 333 56899 59011
AAXX 30184 48057 NIL
AAXX 30184 48060 32410 10000 10162 20144 40176 81100 333 56500 59019
AAXX 30184 48062 32450 30000 10230 20210 40140 83800 333 56900 58002
AAXX 30184 48071 32940 00000 10240 20226 40133 333 59008
AAXX 30184 48077 NIL
AAXX 30184 48078 NIL
AAXX 30184 48080 32550 20000 10212 20195 40132 81870 333 56990 59002
AAXX 30184 48094 32950 00903 10240 20210 40144 333 59004
AAXX 30184 48097 32956 03602 10240 20191 40140 333 59004
AAXX 30184 48108 NIL
AAXX 30184 48109 NIL
AAXX 30184 48110 31594 43603 10240 20209 40143 705// 81536 333 56999 58000
AAXX 30184 48112 32597 60906 10261 20215 40110 82876 333 56299 59010
BBXX ZMFR 30174 99413 31748 43/// /1922 10122 20122 40129 54000 22200 00144
BBXX 44172 30181 99445 70634 46/// ///// 1//// 91731 22200 00055 11104 21004 319// 41103 70022
BBXX 44097 30181 99410 70711 46/// ///// 1//// 91732 22200 00109 10802 20802 70010
BBXX 46218 30181 99345 71208 46/// ///// 1//// 91732 22200 00133 11306 20705 330// 41303 70030
BBXX WZP8164 30184 99467 70920 43/98 /3001 11038 2//// 40085 5//// 7//// 8//// 22231 0//// 2//01 3//// 4//// 5//// 6//// 8//// ICE /////
AAXX 30184 40255 42960 40000 10088 20023 39449 40178 54002 84030 333 10115 84360
AAXX 30184 40272 11958 40000 10100 20023 39334 40175 52010 70500 69902 83031 333 10140 83360 83070
BBXX 42362 30181 99278 70907 46/// /2107 10228 20133 40197 91745
BBXX 42363 30181 99282 70892 46/// /2005 10228 20117 40197 91745 333 91207
BBXX 42364 30181 99291 70881 46/// /2208 10217 20133 40197 91745
BBXX WSNB 30184 99433 71289 41198 63330 00/// 10106 2009/ 40125 52058 72562 8616/ 22273 0//// 20811 332// 41010 5//// 6//// 80098 ICE /////
BBXX C6DM2 30183 99055 11001 416// 30309 10280 20224 40120 51020 7//00 83/8/ 22211 0//// 2//// 3//// 4//// 5//// 6//// 80240 ICE /////
AAXX 30184 89664 32561 19906 12016 210123 39778 49820 57002 81800 333 56000 81630
AAXX 30184 89664 32561 19906 12016 210123 39778 49820 57002 81800 333 56000 81630
AAXX 30184 08495 12984 02609 10147 20068 30307 40315 55000 60002 91750 333 10170
AAXX 30184 89664 32561 19906 12016 210123 39778 49820 57002 81800 333 56000 81630
AAXX 30184 91376 11462 80909 10259 20241 30086 40090 53003 60191 72286 8687/ 333 5629/ 70495 555 93018
AAXX 30184 91376 11462 80909 10259 20241 30086 40090 53003 60191 72286 8687/ 333 5629/ 70495 555 93018
AAXX 30184 40340 12660 43606 10150 20076 40161 52005 69912 84200 333 10170 84830
AAXX 30184 91772 31498 20905 10260 20237 4//// 60001 70200 82200 333 562// 83817
AAXX 30184 91776 NIL
AAXX 30184 91779 31398 31307 10248 20223 40102 53019 60001 70200 83700 333 563// 81708 83816
AAXX 30184 91784 31498 71011 10265 20232 40104 53018 60001 70301 878// 333 562// 82817 87640
AAXX 30184 91792 31599 21204 10240 20216 40120 53015 60001 70200 82100 333 563// 81817
AAXX 30184 91772 31498 20905 10260 20237 4//// 60001 70200 82200 333 562// 83817
AAXX 30184 91776 NIL
AAXX 30184 91779 31398 31307 10248 20223 40102 53019 60001 70200 83700 333 563// 81708 83816
AAXX 30184 91784 31498 71011 10265 20232 40104 53018 60001 70301 878// 333 562// 82817 87640
AAXX 30184 91792 31599 21204 10240 20216 40120 53015 60001 70200 82100 333 563// 81817
BBXX 41012 30181 99300 70805 46/// /2301 10188 40202 58021 91750 22200 00229 11401 309// 41401 70005 333 91203 555 11013 22013 31703 42503 61749 237013 240016 243019 228017 244022 243017
BBXX 41060 30181 99148 70510 46/// ///// 1//// 91750 22200 10907 70034
BBXX 41001 30181 99347 70727 46/// ///// 10190 20117 40201 56016 91750 22200 00217 10703 70017
BBXX 44025 30181 99402 70732 46/// /2306 10097 20046 40165 58015 91750 22200 00101 10902 20501 314// 40901 70008 333 91207 555 11060 22064 31651 42208 61749 227057 225061 220061 220061 221060 220064
BBXX 41008 30181 99314 70809 46/// /1602 10149 20083 40205 58023 91750 22200 00162 11401 300// 41401 70004 333 91202 555 11015 22016 31744 41602 61749 163015 149012 132009 160007 225005 270012
BBXX 46060 30181 99606 71468 46/// /2002 11058 49913 54000 91750 22200 00048 10901 20401 320// 40901 70007 333 91203 555 11017 22018 31655 41606 61749 191017 207018 203018 194031 248021 178025 81605 91655
BBXX 32012 30181 99197 50856 46/// ///// 1//// 91750 22200 11203 70017
BBXX 46088 30181 99483 71232 46/// /2413 10073 40039 51035 91750 22200 00077 10402 20402 70009 333 91215 555 11134 22143 31733 42417 61749 237125 239135 241121 243123 230109 234091
BBXX 46014 30181 99394 71240 46/// /1905 10114 40228 53017 91750 22200 00113 11707 20501 3//// 41706 70033 333 91206 555 11056 22059 31655 41609 61749 185052 174052 166056 153067 155068 161072
BBXX 46011 30181 99350 71210 46/// /3210 10122 40215 51021 91750 22200 00132 11305 20703 331// 41304 70024 333 91212 555 11108 22114 31746 43212 61749 321100 323093 320094 321088 324087 325093
BBXX 46105 30181 99590 71522 46/// ///// 1//// 91750 22200 10808 70038
BBXX BAREU56 30184 99404 10100 46/// ///// 40118 57009 22282
AAXX 30181 13586 31450 80000 11022 21039 39847 40149 55004 71022 886// 333 11021 88712
AAXX 30184 91334 32474 60607 10269 20232 30091 40094 55007 82101 333 56199 555 93018
AAXX 30184 91334 32474 60607 10269 20232 30091 40094 55007 82101 333 56199 555 93018
AAXX 30184 08594 32459 30720 10221 20125 40190 70600 81202 333 10247 58010 83614
AAXX 30184 08589 31447 70620 10227 20132 40172 70622 81504 333 10256 58004 81618 87070
AAXX 30184 08583 31559 50626 10228 20118 40190 70621 83501 333 10260 58001 83623 83070
AAXX 30184 78954 11570 30921 10288 20228 30084 40148 60001 70511 83202 333 10303 20233 59006 83820
AAXX 30184 78954 11570 30921 10288 20228 30084 40148 60001 70511 83202 333 10303 20233 59006 83820
BBXX DBBU 30181 99542 10120 46/// /3210 10051 20046 40056 52029 22251 00057
BBXX DBFR 30181 99535 10086 46/// /3005 10055 20040 40111 52015 22220 00054
BBXX DBKV 30181 99169 70250 46/// /0707 10223 20120 40193 57005 22210 00228
BBXX DBBT 30181 99339 30184 46/// /1509 10208 20114 40142 52010 22220 00157
AAXX 30184 68906 11398 73223 10203 20160 30064 40127 57018 60052 72166 8267/ 222// 00136 333 10204 20152 91041 555 20056 91012
AAXX 30184 68994 11395 83118 10083 20081 39934 49962 57010 69962 74544 886// 222// 00070 333 10095 20070 91025 555 20006 90996
AAXX 30184 68382 36/// /3504 10213 20147 39343 48526 53005 333 10276 20213 91006 555 91015
AAXX 30184 89054 11250 82918 10020 20009 49674 52010 69991 71077 887// 333 56699 88703 96063
AAXX 30184 89056 11225 83021 10011 20005 49668 52008 69963 76862 885// 333 56699 88605
AAXX 30184 89057 11860 82719 10018 20006 49669 52017 60033 70277 8802/ 333 56079 88457
AAXX 30184 89058 11558 82917 10024 20009 39648 49668 52009 69951 71076 885//
AAXX 30184 89059 11325 82506 10002 21011 49651 57009 60043 77172 885// 333 76099 82606
AAXX 30184 89251 31258 83023 10018 20004 49657 52006 71022 8672/
AAXX 30184 67665 41760 71801 10210 20210 48508 71392 81932 333 10255 58008 81950 84360 87280
BBXX TESTFR9 30184 99503 70041 46/// /2630 10115 29100 40178 57022 22275
AAXX 30184 16597 11662 33015 10107 20077 30049 40137 53010 60012 72582 83200 333 10142 83838 91139 91531
AAXX 30184 40270 11950 42204 10104 20006 39269 40177 54003 69902 70511 84030 333 84360
BBXX BAREU63 30184 99342 10179 46/// /2911 10153 29071 40127 57001 22233
AAXX 30184 61901 169// /1314 10174 20134 39671 40179 53002 60002 91750 333 10200 8//99 555 7/090
AAXX 30184 78862 11478 50817 10278 20218 30151 40174 60001 70511 84802 333 10284 20240 58003 83820 83636
AAXX 30184 TAF TUPJ 281000Z 2812/2912 08013KT 9999 SCT022 PROB40 TEMPO 2812/2912 BKN015
AAXX 30184 TAF TKPN 281000Z 2812/2912 08013KT 9999 SCT022 PROB40 TEMPO 2812/2912 BKN015
AAXX 30184 2504/2512 06013G23KT SHRA
AAXX 30184 G28KT SHRA PROB30 TEMPO 2412/2424 07016G26KT SHRA
AAXX 30184 TAF TUPJ 232200Z 2400/2424 07016KT 9999 SCT020 SCT040 PROB40 TEMPO 2400/2412 07018G28KT SHRA TEMPO 2412/2424 07016G26KT SHRA
AAXX 30184 TAF TUPJ 041000Z 04012/0512 07008KT 9999 SCT016 BKN038 SCT270 TEMPO 0412/0512 SHRA BKN015 PROB40 TEMPO 0418/0512 5000 SHRA BKN014 BKN036 PROB30 0420/0512 4000 TSRA FEW012CB
AAXX 30184 918 4000 TSRA FEW012CB
AAXX 30184 N015 BKN036 PROB40 TEMPO 0704/0724 3000 +TSRA SCT011CB BKN012 BECMG 0712/0714 14008KT
AAXX 30184 21/2712 07017G28KT 5000 SHRA BKN015 BKN036 PROB TEMPO 2700/2712 4000 TSRA FEW013CB
AAXX 30184 PROB30 TEMPO 0800/0806 4000 TSRA FEW012CB PROB40 TEMPO 0800/0824 2000 +SHRA/TSRA SCT010CB BKN012 BKN250
AAXX 30184 78862 11478 50817 10278 20218 30151 40174 60001 70511 84802 333 10284 20240 58003 83820 83636
AAXX 30184 TAF TUPJ 281000Z 2812/2912 08013KT 9999 SCT022 PROB40 TEMPO 2812/2912 BKN015
AAXX 30184 TAF TKPN 281000Z 2812/2912 08013KT 9999 SCT022 PROB40 TEMPO 2812/2912 BKN015
AAXX 30184 2504/2512 06013G23KT SHRA
AAXX 30184 G28KT SHRA PROB30 TEMPO 2412/2424 07016G26KT SHRA
AAXX 30184 TAF TUPJ 232200Z 2400/2424 07016KT 9999 SCT020 SCT040 PROB40 TEMPO 2400/2412 07018G28KT SHRA TEMPO 2412/2424 07016G26KT SHRA
AAXX 30184 TAF TUPJ 041000Z 04012/0512 07008KT 9999 SCT016 BKN038 SCT270 TEMPO 0412/0512 SHRA BKN015 PROB40 TEMPO 0418/0512 5000 SHRA BKN014 BKN036 PROB30 0420/0512 4000 TSRA FEW012CB
AAXX 30184 918 4000 TSRA FEW012CB
AAXX 30184 N015 BKN036 PROB40 TEMPO 0704/0724 3000 +TSRA SCT011CB BKN012 BECMG 0712/0714 14008KT
AAXX 30184 21/2712 07017G28KT 5000 SHRA BKN015 BKN036 PROB TEMPO 2700/2712 4000 TSRA FEW013CB
AAXX 30184 PROB30 TEMPO 0800/0806 4000 TSRA FEW012CB PROB40 TEMPO 0800/0824 2000 +SHRA/TSRA SCT010CB BKN012 BKN250
AAXX 30184 91413 11469 60812 10270 20232 30069 40095 58010 69951 70282 83171 333 56299 70005 555 93018
AAXX 30184 91408 11473 60807 10258 20238 30046 40084 57019 60051 70282 82201 333 569/9 70531 555 93018
AAXX 30184 91348 11474 50805 10277 20238 30051 40103 55000 60011 70281 83101 333 562/9 70013 555 93018
AAXX 30184 61902 32584 31416 10249 20178 40135 83800 333 10281 59004 81824 83538
AAXX 30184 91413 11469 60812 10270 20232 30069 40095 58010 69951 70282 83171 333 56299 70005 555 93018
AAXX 30184 91408 11473 60807 10258 20238 30046 40084 57019 60051 70282 82201 333 569/9 70531 555 93018
AAXX 30184 91348 11474 50805 10277 20238 30051 40103 55000 60011 70281 83101 333 562/9 70013 555 93018
BBXX DBKV 30181 99169 70250 46/// /0707 10223 20120 40193 57005 22210 00228
BBXX DBBT 30181 99339 30184 46/// /1509 10208 20114 40142 52010 22220 00157
BBXX NWS0022 30184 99416 70714 43/// /2014 10111 20060 40165 5//// 7//// 8//// 222// 04092 2//// 3//// 4//// 5//// 6//// 8//// ICE /////
BBXX WDC6698 30184 99213 71579 43/// /1706 1//// 2//// 40170 5//// 7//// 8//// 222// 04239 2//// 3//// 4//// 5//// 6//// 8//// ICE /////
BBXX 9HA2064 30183 99373 11343 41/// /3115 10040 20017 40260 52020 700// 8//// 22234 0//// 2//// 3//// 4//// 5//// 6//// 80030 ICE /////
BBXX ONCE 30184 99140 11158 41998 00422 10265 2023/ 40150 50010 70204 80400 22213 00275 2//// 3//// 4//// 5//// 6//// 80240 ICE /////
BBXX 32012 30181 99197 50856 46/// ///// 1//// 91750 22200 11203 70017
BBXX SHIP 30183 99191 31183 41/95 12526 10270 2021/ 40075 57010 70200 81/// 22263 00283 2//// 3//// 4//// 5//// 6//// 80230 ICE /////
BBXX TBWUK42 30184 99135 30731 41597 81817 10275 20247 40095 57/// 70500 81800 22213 20903 313// 41407 5//// 80255
BBXX ONDY 30184 99132 30753 41397 82126 10260 2023/ 40060 57020 78082 8//// 22214 00290 2//// 3//// 4//// 5//// 6//// 80240 ICE /////
BBXX 4XIS 30183 99141 70960 43998 00507 10270 2024/ 40160 54000 80000 22234 20202 335// 40301 80250
BBXX DBFR 30181 99535 10086 46/// /3005 10055 20040 40111 52015 22220 00054
BBXX DBBU 30181 99542 10120 46/// /3210 10051 20046 40056 52029 22251 00057
BBXX ZQTP2 30184 99376 10107 41597 33030 10140 20082 40144 54000 70211 839// 22272 00160 2//// 3//// 4//// 5//// 80111
BBXX C6LU3 30183 99466 70108 41496 82225 10140 2012/ 40290 53005 76062 886// 22254 20908 80130
BBXX WSLH 30184 99295 71408 41498 80309 10183 2008/ 40250 5//// 70222 8864/ 22254 00150 20101 330// 40802 5//// 6//// 80128 ICE /////
BBXX WCX8883 30184 99416 71497 41195 81547 10100 2008/ 40080 57010 76366 886// 22225 00120 20808 31518 40804 5//// 6//// 80090 ICE /////
BBXX LAIG7 30184 99280 71356 41597 80516 10170 2012/ 40260 51020 70322 8662/ 22223 00188 20201 332// 40403 5//// 6//// 80140 ICE /////
BBXX 46060 30181 99606 71468 46/// /2002 11058 49913 54000 91750 22200 00048 10901 20401 320// 40901 70007 333 91203 555 11017 22018 31655 41606 61749 191017 207018 203018 194031 248021 178025 81605 91655
BBXX 44025 30181 99402 70732 46/// /2306 10097 20046 40165 58015 91750 22200 00101 10902 20501 314// 40901 70008 333 91207 555 11060 22064 31651 42208 61749 227057 225061 220061 220061 221060 220064
BBXX 46014 30181 99394 71240 46/// /1905 10114 40228 53017 91750 22200 00113 11707 20501 3//// 41706 70033 333 91206 555 11056 22059 31655 41609 61749 185052 174052 166056 153067 155068 161072
BBXX 46105 30181 99590 71522 46/// ///// 1//// 91750 22200 10808 70038
BBXX 41008 30181 99314 70809 46/// /1602 10149 20083 40205 58023 91750 22200 00162 11401 300// 41401 70004 333 91202 555 11015 22016 31744 41602 61749 163015 149012 132009 160007 225005 270012
BBXX 46011 30181 99350 71210 46/// /3210 10122 40215 51021 91750 22200 00132 11305 20703 331// 41304 70024 333 91212 555 11108 22114 31746 43212 61749 321100 323093 320094 321088 324087 325093
BBXX 46088 30181 99483 71232 46/// /2413 10073 40039 51035 91750 22200 00077 10402 20402 70009 333 91215 555 11134 22143 31733 42417 61749 237125 239135 241121 243123 230109 234091
BBXX 41012 30181 99300 70805 46/// /2301 10188 40202 58021 91750 22200 00229 11401 309// 41401 70005 333 91203 555 11013 22013 31703 42503 61749 237013 240016 243019 228017 244022 243017
BBXX 41001 30181 99347 70727 46/// ///// 10190 20117 40201 56016 91750 22200 00217 10703 70017
BBXX 41060 30181 99148 70510 46/// ///// 1//// 91750 22200 10907 70034
BBXX LAVD4 30184 99205 71519 41499 30818 10210 2018/ 40190 52015 70321 82390 22263 00230 20704 331// 41005 80190
BBXX A8UT7 30184 99400 70577 41597 82620 10150 20060 40180 58010 70200 8449/ 22262 20909 327// 41210 80103
BBXX KRGB 30184 99314 71366 41/98 50904 10161 2015/ 40249 52009 7//22 85/// 22214 00178 20801 328// 41305 5//// 6//// 80156 ICE /////
BBXX WDC3786 30184 99289 71320 41498 70513 10167 2012/ 40273 52010 7//22 8/1// 22254 0//// 20302 331// 41007 5//// 6//// 80139 ICE /////
BBXX A8JF3 30184 99402 70453 41596 72624 10190 2016/ 40240 56010 71022 86608 22264 00170 20608 325// 41208 5//// 6//// 80170 ICE /////
BBXX WSNB 30184 99433 71289 41198 63330 00/// 10106 2009/ 40125 52058 72562 8616/ 22273 0//// 20811 332// 41010 5//// 6//// 80098 ICE /////
BBXX 42364 30181 99291 70881 46/// /2208 10217 20133 40197 91745
BBXX 42363 30181 99282 70892 46/// /2005 10228 20117 40197 91745 333 91207
BBXX 42362 30181 99278 70907 46/// /2107 10228 20133 40197 91745
AAXX 30184 41170 41959 03008 10183 20134 30220 40233 70500 333 10217 58001
AAXX 30184 89009 41924 00414 11246 36838 58005 77671
AAXX 30184 78062 12669 61206 10239 20179 40193 60001 86200 333 58007 86830 90908
AAXX 30184 78062 12669 61206 10239 20179 40193 60001 86200 333 58007 86830 90908
AAXX 30184 78062 12669 61206 10239 20179 40193 60001 86200 333 58007 86830 90908
AAXX 30184 89009 41924 00414 11246 36838 58005 77671
BBXX 41049 30181 99275 70630 46/// /1604 10237 20193 40234 56020 91750 22200 00233 11003 20401 300// 41003 70017 333 91205 555 11047 22052 31719 41707 61749 162043 164048 162052 162052 162051 156052 81606 91720
BBXX 42020 30181 99270 70967 46/// /2105 10195 20176 40168 50000 91750 22200 00200 10501 20501 315// 40501 70006 333 91206 555 11056 22059 31745 42106 61749 212053 214048 210041 204045 210040 214038
BBXX 41044 30181 99217 70587 46/// /0809 10253 20192 40215 91750 22200 00262 333 91210 555 11094 22099 31718 41011 61749 083087 084089 081087 084089 089090 088087 80810 91734
BBXX 41048 30181 99320 70696 46/// /1401 10210 20099 40215 56020 91750 22200 00226 10903 20401 3//// 40903 70013 333 91201 555 11009 22009 31727 41302 61749 142009 130010 132016 151013 157010 125010 81202 91727
BBXX 42065 30181 99149 70750 46/// /0708 10269 20220 91750 22200 10703 20703 3//// 40801 70016 333 91209 555 11081 22087 31702 40610 61749 067075 065072 069074 069076 068080 070075 80709 91707
BBXX 42001 30181 99259 70897 46/// /2102 10233 20159 40197 58006 91750 22200 00237 10301 20301 70005 333 91203 555 11022 22022 31652 42004 61749 206021 210023 201024 211025 205029 203036
BBXX 42058 30181 99149 70749 46/// /0809 10272 20227 40131 58018 91750 22200 00271 10704 20704 70020 333 91211 555 11096 22103 31703 40812 61749 078090 080093 081096 080090 082095 080093 80810 91703
BBXX 42012 30181 99301 70876 46/// /2005 10204 20160 40180 58011 91750 22200 00199 10601 20401 311// 40601 70006 333 91206 555 11053 22059 31742 42006 61749 200049 198048 196051 196046 195045 193047
BBXX 42035 30181 99292 70944 46/// /2001 10163 20162 40173 50000 91750 22200 00142 10601 20401 321// 40601 70007 333 91201 555 11009 22011 31705 41702 61749 199009 211011 196011 182011 176016 197012
BBXX 42060 30181 99163 70635 46/// /0711 10272 20204 40170 58021 91750 22200 00272 10704 20704 300// 40902 70022 333 91213 555 11115 22122 31719 40713 61749 072107 070102 075107 072110 070105 072101 80712 91720
BBXX 42036 30181 99285 70845 46/// /1706 10207 20174 40189 58012 91750 22200 00212 10603 20603 70014 333 91208 555 11064 22067 31711 41709 61749 165059 168071 165071 169074 170073 170077
BBXX 42056 30181 99198 70849 46/// /0907 10264 20225 40173 58016 91750 22200 00271 10801 20401 309// 40801 70007 333 91207 555 11069 22072 31702 40908 61749 086064 084060 087064 089062 092064 086064 80907 91702
BBXX 42059 30181 99151 70675 46/// /0910 10275 20215 40149 58022 91750 22200 00277 10804 20604 3//// 40802 70022 333 91212 555 11109 22116 31721 40912 61749 093101 096100 098097 092101 093099 096103 81011 91656
BBXX 42019 30181 99279 70954 46/// /2405 10233 20199 40164 50000 91750 22200 10602 20401 322// 40601 70009 333 91207 555 11058 22061 31651 42808 61749 245056 281061 280058 282062 281059 279063
BBXX 44005 30181 99432 70691 46/// /0000 10024 21057 40188 56014 91750 22200 00080 11001 20401 3//// 41001 70007 333 91201 555 11005 22005 31705 43202 61749 256004 334001 008002 285005 291009 239004
BBXX 42040 30181 99292 70882 46/// /2207 10216 40182 58010 91750 22200 00222 10601 20601 70007 333 91208 555 11071 22075 31707 42209 61749 217072 218071 224072 222070 215071 216070
BBXX 46070 30181 99551 11753 46/// /2906 11030 21090 40131 56008 91750 22200 00032 10603 20502 3//// 40603 70017 333 91210 555 11061 22064 31718 42912 61749 288059 305051 300081 292084 294064 297064 82911 91718
BBXX 46047 30181 99324 71195 46/// /3310 10127 40196 52022 91750 22200 00138 11206 20804 331// 41204 70029 333 91211 555 11104 22110 31701 43312 61749 333097 334100 332096 328097 331104 337098
BBXX 46086 30181 99325 71180 46/// /1501 10114 40191 53017 91750 22200 00148 11403 326// 41403 70016 333 91203 555 11013 22014 31731 41403 61749 149014 160016 160015 140010 107014 106017
BBXX 46027 30181 99419 71244 46/// /2108 10106 40183 51032 91750 22200 00096 11307 20703 329// 41306 70033 333 91209 555 11084 22091 31736 42110 61749 211077 207077 210077 208073 209068 209067
BBXX 46088 30181 99483 71232 46/// /2413 10073 40039 91750 22200 00077 10402 20402 70009 333 91215 555 11134 22143 31733 42417 61749 237125 239135 241121 243123 230109 234091
BBXX 46050 30181 99442 71246 46/// /3005 10089 40115 53027 91750 22200 00097 11607 20501 326// 41607 70037 333 91206 555 11052 22054 31717 42911 61749 303047 305051 301065 279065 263044 260046
BBXX 46069 30181 99337 71202 46/// /3211 10127 40192 51018 91750 22200 00134 10706 20704 330// 40804 70028 333 91214 555 11122 22130 31703 43215 61749 322114 326112 323111 323115 321117 322114
BBXX 46013 30181 99382 71233 46/// /2203 10115 40232 53015 91750 22200 00112 11406 20401 3//// 41405 70028 333 91203 555 11029 22032 31736 42304 61749 224026 222030 214020 207023 174025 167029
BBXX 46012 30181 99374 71229 46/// /0000 10116 40237 51015 91750 22200 00121 11706 20401 330// 41706 70030 333 91202 555 11003 22003 31650 42904 61749 060003 064002 329004 279010 303019 295025
BBXX 46087 30181 99485 71247 46/// /2813 10084 20045 40045 53029 91750 22200 00081 11109 20804 324// 41108 70045 333 91217 555 11143 22153 31720 42818 61749 279128 288134 281142 279123 278129 278139
BBXX 46029 30181 99461 71245 46/// /2809 10093 20038 40103 53037 91750 22200 00092 11109 20704 327// 41108 70044 333 91212 555 11100 22106 31742 42812 61749 281093 280088 285079 287082 284084 283095
BBXX 46028 30181 99357 71219 46/// /3111 10124 40219 53021 91750 22200 00131 11306 20604 331// 41305 70030 333 91213 555 11117 22124 31723 43114 61749 312108 311109 312107 311109 311100 310103
BBXX 46054 30181 99342 71204 46/// /3212 10122 40191 53018 91750 22200 00133 333 91214 555 11124 22132
BBXX 46025 30181 99337 71191 46/// /3601 10108 20106 40188 51020 91750 22200 00144 10803 20401 328// 40803 70014 333 91201 555 11006 22006 31702 42803 61749 359006 008006 336006 325011 288014 263008
BBXX 46006 30181 99408 71375 46/// /3306 10099 40260 53033 91750 22200 00119 11209 20502 3//// 41209 70047 333 91207 555 11058 22060 31700 43310 61749 327056 321063 321064 325071 330075 320080
BBXX 46002 30181 99426 71305 46/// ///// 10099 40203 51057 91750 22200 00118 11009 70044
BBXX 46084 30181 99566 71361 46/// ///// 10013 21044 49980 53028 91750 22200 00070 11007 70034
BBXX 46075 30181 99539 71608 46/// /3007 11023 21099 40080 54000 91750 22200 00039 10704 20703 300// 40802 70019 333 91209 555 11078 22081 31650 43211 61749 301075 311072 312067 311071 322081 318090 83110 91654
BBXX 46005 30181 99461 71310 46/// ///11 10076 40156 53057 91750 22200 00096 11110 20805 3//// 41108 70048 333 91213 555 11114 22120
BBXX 46059 30181 99380 71300 46/// /3209 10136 40251 53036 91750 22200 00141 11407 20804 3//// 41406 70037 333 91212 555 11100 22106 31705 43112 61749 319095 316094 310092 312096 309096 308096
BBXX 46080 30181 99580 71500 46/// /2711 11087 21144 49964 52013 91750 22200 00047 10807 20705 3//// 40805 70035 333 91214 555 11116 22121 31651 42815 61749 277113 288112 286114 282112 276107 276117 82814 91651
BBXX 41004 30181 99325 70791 46/// /2203 10167 20067 40203 58024 91750 22200 00202 11301 20401 3//// 41301 70005 333 91205 555 11032 22033 31749 42205 61749 221030 227030 228029 223037 227035 217027
BBXX 44009 30181 99385 70747 46/// /2006 10096 40177 58025 91750 22200 00102 10502 20501 300// 40701 70008 333 91206 555 11058 22061 31725 42007 61749 198055 202056 202058 203056 208056 212054
BBXX 44014 30181 99366 70748 46/// /2107 1//// 40180 58026 91750 22200 00134 11202 20401 312// 41201 70009 333 91209 555 11073 22073 31729 42109 61749 212073 211075 209072 207072 207074 209074
BBXX 44027 30181 99443 70673 46/// /2702 11016 21115 40195 57008 91750 22200 00076 10603 20401 3//// 40603 70014 333 91203 555 11021 22022 31700 43005 61749 271022 291020 290022 302028 300030 309032
BBXX 44065 30181 99404 70737 46/// /2104 10086 20035 40166 58014 91750 22200 00104 10501 20301 318// 40501 70006 333 91205 555 11044 22045 31653 42105 61749 206042 205040 202036 207040 207041 210044 82105 91653
BBXX 41013 30181 99334 70777 46/// /2305 10168 20067 40196 58022 91750 22200 00213 11301 20401 314// 41301 70007 333 91207 555 11050 22051 31729 42307 61749 227048 218051 221045 223051 229054 224052
AAXX 30184 78862 11478 50817 10278 20218 30151 40174 60001 70511 84802 333 10284 20240 58003 83820 83636
AAXX 30184 TAF TUPJ 281000Z 2812/2912 08013KT 9999 SCT022 PROB40 TEMPO 2812/2912 BKN015
AAXX 30184 TAF TKPN 281000Z 2812/2912 08013KT 9999 SCT022 PROB40 TEMPO 2812/2912 BKN015
AAXX 30184 2504/2512 06013G23KT SHRA
AAXX 30184 G28KT SHRA PROB30 TEMPO 2412/2424 07016G26KT SHRA
AAXX 30184 TAF TUPJ 232200Z 2400/2424 07016KT 9999 SCT020 SCT040 PROB40 TEMPO 2400/2412 07018G28KT SHRA TEMPO 2412/2424 07016G26KT SHRA
AAXX 30184 TAF TUPJ 041000Z 04012/0512 07008KT 9999 SCT016 BKN038 SCT270 TEMPO 0412/0512 SHRA BKN015 PROB40 TEMPO 0418/0512 5000 SHRA BKN014 BKN036 PROB30 0420/0512 4000 TSRA FEW012CB
AAXX 30184 918 4000 TSRA FEW012CB
AAXX 30184 N015 BKN036 PROB40 TEMPO 0704/0724 3000 +TSRA SCT011CB BKN012 BECMG 0712/0714 14008KT
AAXX 30184 21/2712 07017G28KT 5000 SHRA BKN015 BKN036 PROB TEMPO 2700/2712 4000 TSRA FEW013CB
AAXX 30184 PROB30 TEMPO 0800/0806 4000 TSRA FEW012CB PROB40 TEMPO 0800/0824 2000 +SHRA/TSRA SCT010CB BKN012 BKN250
AAXX 30184 85574 12960 02218 10292 20095 39553 40074 57005 60001
AAXX 30184 85585 12498 41813 10201 20132 30152 40188 58002 60001 84500 333 56400 84617
AAXX 30184 85586 11457 62809 10180 20111 40151 60001 70522 86500 333 56600 86615
AAXX 30184 85672 12970 02107 10298 20136 40096 57014 60001 333
AAXX 30184 85682 12960 02412 10241 20116 40106 58012 60001
AAXX 30184 85766 12960 01710 10273 20078 40137 57013 60001
AAXX 30184 85799 12960 21412 10199 20129 40171 57006 60001 80001 333 56004 82070
BBXX VOXS 30184 99467 70480 41697 72437 10035 2102/ 40091 51003 71022 87500 22200 04019 20809 324// 41010 80015
AAXX 30184 85406 12982 02110 10253 20140 40115 57013 60001
AAXX 30184 85418 12970 42214 10235 20125 40121 57010 60001 80001 333 56000 84080
AAXX 30184 85432 12870 52519 10230 20032 37748 48404 58009 60001 81101 333 56606 81858 84072
AAXX 30184 85442 12575 21811 10223 20128 40113 57014 60001 82500 333 56400 82630
AAXX 30184 85467 12560 52809 10214 20130 40139 5808 60001 85500 333 56600 85623
AAXX 30184 85469 41465 51108 10226 20177 40210 52002 72522 85201 333 56200 82815 84820
AAXX 30184 85488 11460 82909 10194 20134 40139 58004 60001 70252 885// 333 56699 82615 88622
BBXX 46005 30181 99461 71310 46/// ///11 10076 40156 53057 91750 22200 00096 11110 20805 3//// 41108 70048 333 91213 555 11114 22120
BBXX 46006 30181 99408 71375 46/// /3306 10099 40260 53033 91750 22200 00119 11209 20502 3//// 41209 70047 333 91207 555 11058 22060 31700 43310 61749 327056 321063 321064 325071 330075 320080
BBXX 46013 30181 99382 71233 46/// /2203 10115 40232 53015 91750 22200 00112 11406 20401 3//// 41405 70028 333 91203 555 11029 22032 31736 42304 61749 224026 222030 214020 207023 174025 167029
BBXX 46014 30181 99394 71240 46/// /1905 10114 40228 53017 91750 22200 00113 11707 20501 3//// 41706 70033 333 91206 555 11056 22059 31655 41609 61749 185052 174052 166056 153067 155068 161072
BBXX 46029 30181 99461 71245 46/// /2809 10093 20038 40103 53037 91750 22200 00092 11109 20704 327// 41108 70044 333 91212 555 11100 22106 31742 42812 61749 281093 280088 285079 287082 284084 283095
BBXX 46050 30181 99442 71246 46/// /3005 10089 40115 53027 91750 22200 00097 11607 20501 326// 41607 70037 333 91206 555 11052 22054 31717 42911 61749 303047 305051 301065 279065 263044 260046
BBXX 46054 30181 99342 71204 46/// /3212 10122 40191 53018 91750 22200 00133 333 91214 555 11124 22132
BBXX KRGB 30184 99314 71366 41/98 50904 10161 20150 40249 52009 7//22 85/// 22214 00178 20801 328// 41305 5//// 6//// 80156 ICE /////
BBXX WCX8883 30184 99416 71497 41195 81547 10100 20080 40080 57010 76366 886// 22225 00120 20808 31518 40804 5//// 6//// 80090 ICE /////
BBXX WSNB 30184 99433 71289 41198 63330 00/// 10106 20090 40125 52058 72562 8616/ 22273 0//// 20811 332// 41010 5//// 6//// 80098 ICE /////
AAXX 30184 91824 11499 31310 10257 20227 40100 52017 60001 70122 838// 333 563// 555 1////
AAXX 30184 Scanned by MailMarshal - M86 Security's comprehensive email content s ecur
AAXX 30184 ity solution.
AAXX 30184 --_000_15A73B2E9A32B34CBBB7D7F59DAEB2C0DCC07152mailniuegovloca_ html code found in mail The rest of this message has been deleted
BBXX VOXS 30184 99467 70480 41697 72437 10035 2102/ 40091 51003 71022 87500 22200 04019 20809 324// 41010 80015
AAXX 30181 76040 32960 02301 10170 20081 30176 40190 52014 91750 333 10236 20061 30/// 59012 98660
AAXX 30181 76055 32980 00902 10208 21040 30147 40166 52004 91740 333 10252 20085 30/// 59022
AAXX 30181 76113 32980 02101 10182 20024 39696 40168 52005 91745 333 10188 20046 30/// 58000
AAXX 30181 76122 32970 00000 10164 21034 38569 40226 57003 91750 333 10169 20000 30/// 58007
AAXX 30181 76220 32958 00000 10064 21057 38196 40322 54000 91735 333 10064 21072 30/// 58008
AAXX 30181 76225 32960 00701 10170 21058 38663 40205 57004 91745 333 10170 20015 30/// 58012
AAXX 30181 76256 32980 00000 10192 20004 30173 40187 57021 91745 333 10202 20060 30/// 58009
AAXX 30181 76305 32970 10601 10228 20027 30170 40178 52009 81010 91735 333 10233 20080 30/// 56040 58001 81460
AAXX 30181 76342 3296 02201 10260 21061 39506 40220 52012 91750 333 10268 20100 30/// 59003
AAXX 30181 76382 32980 00701 10190 20060 38940 40223 54000 91745 333 10196 20034 30/// 59002
AAXX 30181 76390 31968 02002 10198 21087 38257 40200 52005 70544 91730 333 10210 20025 30/// 58007
AAXX 30181 76402 31957 10000 10198 20134 30115 40120 52006 70544 80004 91745 333 10198 20066 30/// 56005 58009
AAXX 30181 76423 32580 30000 10172 21045 38182 40200 58003 81405 91740 333 10187 20047 30/// 56909 58008 81630 82067
AAXX 30181 76458 32970 11503 10234 20128 30158 40162 55002 80001 91737 333 10251 20101 30/// 56//3 58009 81072
AAXX 30181 76491 32960 60000 10242 20114 39795 40194 54000 80004 91750 333 10246 20080 30/// 56009 59018 81077
AAXX 30181 76499 31860 40000 10231 20137 30144 40166 54000 70222 84030 91750 333 10232 20087 30/// 56090 59028 84357
AAXX 30181 76525 32980 53304 10132 21008 37493 40157 52003 80006 91740 333 10132 20098 30/// 56//5 58002 85080
AAXX 30181 76543 31870 20702 10256 20143 30148 40181 58005 70544 81085 91745 333 10256 20105 30/// 56075 59031
AAXX 30181 76548 31870 12502 10238 20175 30167 40177 58001 70144 81030 91745 333 10244 20162 30/// 5606/ 59029 81357
AAXX 30181 76556 32970 40203 10242 20122 39134 40166 51007 84030 91735 333 10248 20124 30/// 56070 58008 84360
AAXX 30181 76571 32975 51801 10212 20054 38185 40203 55003 80004 91748 333 10214 20052 30/// 56005 58001 85067
AAXX 30181 76577 32970 42304 10200 20159 38060 40180 58001 80003 91740 333 10205 20085 30/// 56005 58001
AAXX 30181 76581 32975 40402 10237 20098 39057 40181 57014 80006 91750 333 10244 20048 30/// 56006 59026 84070
AAXX 30181 76632 31660 32104 10182 20081 37647 40142 57005 70500 83400 91740 333 10187 20092 30/// 56300 59003 83641 98560
AAXX 30181 76658 31556 32302 10267 20161 39654 40162 57007 70540 81234 91743 333 10277 20180 30/// 56811 58016 81822 81358 81070 94083 98904
AAXX 30181 76675 31575 12902 10180 20039 37393 40202 57005 70544 81200 91745 333 10184 20006 30/// 569// 59002 81826 98475
AAXX 30181 76681 31960 00502 10210 20065 37798 40176 57010 70500 91745 333 10210 20054 30/// 58003
AAXX 30181 76683 31662 40901 10210 20092 37838 40198 56015 70544 84200 91745 333 10220 20064 30/// 56100 58003 84840 94011 94181
AAXX 30181 76685 31550 23601 10204 20072 37884 40168 52005 70544 82100 91750 333 10206 20080 30/// 56900 58013 82827
AAXX 30181 76687 31570 10701 10216 20128 38693 40191 50002 70300 81500 91740 333 10218 20100 30/// 563// 59018 81626
AAXX 30181 76692 31550 30601 10244 20206 30149 40168 58002 71042 832// 91445 333 10254 20174 30/// 563// 59023 81820 82724
AAXX 30181 76698 32560 70902 10282 20231 30165 40176 57014 87200 91750 333 10303 20202 30/// 56200 59002 87820
AAXX 30181 76737 31480 21602 10216 20144 38783 40173 58002 70300 82200 91735 333 10217 20109 30/// 56200 59020 82817 91106 91516
AAXX 30181 76750 32560 31103 10301 20230 30162 40172 57009 83100 91745 333 10321 20206 30/// 56300 58003 83820
AAXX 30181 76762 31504 13601 10281 20226 38772 40146 58007 70400 81200 91730 333 10284 20160 30/// 56300 59012 81830
AAXX 30181 76773 31566 13601 10242 20109 38436 40165 57014 70544 81100 91746 333 10244 20084 30/// 56200 58000 81820
AAXX 30181 76775 31560 11202 10260 20111 38533 40177 57015 70300 81100 91735 333 10274 20102 30/// 56800 59002 81627
AAXX 30181 76805 32570 12503 10296 20223 30133 40137 57021 81200 91750 333 10320 20222 30/// 567// 59005 81830
AAXX 30181 76833 32970 03604 10314 20189 30131 40133 57014 91745 333 10314 20224 30/// 59011 92001
AAXX 30181 76840 32560 20000 10328 20196 30089 40145 55001 82100 91745 333 10335 20198 30/// 569// 59007 82827
AAXX 30181 76843 32965 03601 10258 20166 39501 40146 58002 91736 333 10268 20175 30/// 59001
AAXX 30181 76848 32770 10501 10239 20099 38391 40103 51001 81100 91750 333 10242 20137 30/// 56100 58002 81850
AAXX 30181 76160 32962 00501 10190 20024 39928 40180 52006 91730 333 10190 20075 30/// 58008
AAXX 30181 76243 32974 02703 10192 20058 39892 40193 52017 91730 333 10204 20048 30/// 58008
AAXX 30181 76405 32980 12401 10225 20109 30151 40173 50002 80001 91750 333 10225 20088 30/// 56005 58001 81070
AAXX 30181 76640 31458 31402 10240 20200 30169 40181 57003 70200 832// 91740 333 10256 20174 30/// 563// 59038 83817
AAXX 30181 76855 32980 01801 10304 20220 30070 40119 56008 91745 333 10312 20210 30/// 59016 92000
AAXX 30181 76040 32960 02301 10170 20081 30176 40190 52014 91750 33310236 20061 30/// 59012 98660
AAXX 30181 76055 32980 00902 10208 21040 30147 40166 52004 91740 33310252 20085 30/// 59022
AAXX 30181 76113 32980 02101 10182 20024 39696 40168 52005 91745 33310188 20046 30/// 58000
AAXX 30181 76122 32970 00000 10164 21034 38569 40226 57003 91750 33310169 20000 30/// 58007
AAXX 30181 76220 32958 00000 10064 21057 38196 40322 54000 91735 33310064 21072 30/// 58008
AAXX 30181 76225 32960 00701 10170 21058 38663 40205 57004 91745 33310170 20015 30/// 58012
AAXX 30181 76256 32980 00000 10192 20004 30173 40187 57021 91745 33310202 20060 30/// 58009
AAXX 30181 76305 32970 10601 10228 20027 30170 40178 52009 81010 91735333 10233 20080 30/// 56040 58001 81460
AAXX 30181 76342 3296 02201 10260 21061 39506 40220 52012 91750 333 10268 20100 30/// 59003
AAXX 30181 76382 32980 00701 10190 20060 38940 40223 54000 91745 33310196 20034 30/// 59002
AAXX 30181 76390 31968 02002 10198 21087 38257 40200 52005 70544 91730333 10210 20025 30/// 58007
AAXX 30181 76402 31957 10000 10198 20134 30115 40120 52006 70544 8000491745 333 10198 20066 30/// 56005 58009
AAXX 30181 76423 32580 30000 10172 21045 38182 40200 58003 81405 91740333 10187 20047 30/// 56909 58008 81630 82067
AAXX 30181 76458 32970 11503 10234 20128 30158 40162 55002 80001 91737333 10251 20101 30/// 56//3 58009 81072
AAXX 30181 76491 32960 60000 10242 20114 39795 40194 54000 80004 91750333 10246 20080 30/// 56009 59018 81077
AAXX 30181 76499 31860 40000 10231 20137 30144 40166 54000 70222 8403091750 333 10232 20087 30/// 56090 59028 84357
AAXX 30181 76525 32980 53304 10132 21008 37493 40157 52003 80006 91740333 10132 20098 30/// 56//5 58002 85080
AAXX 30181 76543 31870 20702 10256 20143 30148 40181 58005 70544 8108591745 333 10256 20105 30/// 56075 59031
AAXX 30181 76548 31870 12502 10238 20175 30167 40177 58001 70144 8103091745 333 10244 20162 30/// 5606/ 59029 81357
AAXX 30181 76556 32970 40203 10242 20122 39134 40166 51007 84030 91735333 10248 20124 30/// 56070 58008 84360
AAXX 30181 76571 32975 51801 10212 20054 38185 40203 55003 80004 91748333 10214 20052 30/// 56005 58001 85067
AAXX 30181 76577 32970 42304 10200 20159 38060 40180 58001 80003 91740333 10205 20085 30/// 56005 58001
AAXX 30181 76581 32975 40402 10237 20098 39057 40181 57014 80006 91750333 10244 20048 30/// 56006 59026 84070
AAXX 30181 76632 31660 32104 10182 20081 37647 40142 57005 70500 8340091740 333 10187 20092 30/// 56300 59003 83641 98560
AAXX 30181 76658 31556 32302 10267 20161 39654 40162 57007 70540 8123491743 333 10277 20180 30/// 56811 58016 81822 81358 8107094083 98904
AAXX 30181 76675 31575 12902 10180 20039 37393 40202 57005 70544 8120091745 333 10184 20006 30/// 569// 59002 81826 98475
AAXX 30181 76681 31960 00502 10210 20065 37798 40176 57010 70500 91745333 10210 20054 30/// 58003
AAXX 30181 76683 31662 40901 10210 20092 37838 40198 56015 70544 8420091745 333 10220 20064 30/// 56100 58003 84840 94011 94181
AAXX 30181 76685 31550 23601 10204 20072 37884 40168 52005 70544 8210091750 333 10206 20080 30/// 56900 58013 82827
AAXX 30181 76687 31570 10701 10216 20128 38693 40191 50002 70300 8150091740 333 10218 20100 30/// 563// 59018 81626
AAXX 30181 76692 31550 30601 10244 20206 30149 40168 58002 71042 832//91445 333 10254 20174 30/// 563// 59023 81820 82724
AAXX 30181 76698 32560 70902 10282 20231 30165 40176 57014 87200 91750333 10303 20202 30/// 56200 59002 87820
AAXX 30181 76737 31480 21602 10216 20144 38783 40173 58002 70300 8220091735 333 10217 20109 30/// 56200 59020 82817 91106 91516
AAXX 30181 76750 32560 31103 10301 20230 30162 40172 57009 83100 91745333 10321 20206 30/// 56300 58003 83820
AAXX 30181 76762 31504 13601 10281 20226 38772 40146 58007 70400 8120091730 333 10284 20160 30/// 56300 59012 81830
AAXX 30181 76773 31566 13601 10242 20109 38436 40165 57014 70544 8110091746 333 10244 20084 30/// 56200 58000 81820
AAXX 30181 76775 31560 11202 10260 20111 38533 40177 57015 70300 8110091735 333 10274 20102 30/// 56800 59002 81627
AAXX 30181 76805 32570 12503 10296 20223 30133 40137 57021 81200 91750333 10320 20222 30/// 567// 59005 81830
AAXX 30181 76833 32970 03604 10314 20189 30131 40133 57014 91745 33310314 20224 30/// 59011 92001
AAXX 30181 76840 32560 20000 10328 20196 30089 40145 55001 82100 91745333 10335 20198 30/// 569// 59007 82827
AAXX 30181 76843 32965 03601 10258 20166 39501 40146 58002 91736 33310268 20175 30/// 59001
AAXX 30181 76848 32770 10501 10239 20099 38391 40103 51001 81100 91750333 10242 20137 30/// 56100 58002 81850
AAXX 30181 76160 32962 00501 10190 20024 39928 40180 52006 91730 33310190 20075 30/// 58008
AAXX 30181 76243 32974 02703 10192 20058 39892 40193 52017 91730 33310204 20048 30/// 58008
AAXX 30181 76405 32980 12401 10225 20109 30151 40173 50002 80001 91750333 10225 20088 30/// 56005 58001 81070
AAXX 30181 76640 31458 31402 10240 20200 30169 40181 57003 70200 832//91740 333 10256 20174 30/// 563// 59038 83817
AAXX 30181 76855 32980 01801 10304 20220 30070 40119 56008 91745 33310312 20210 30/// 59016 92000
BBXX BAREU08 30184 99480 70080 46/// ///// 40236 52005 22254
BBXX BAREU05 30184 99403 70206 46/// ///// 40379 52006 22224
AAXX 30184 40270 11950 42204 10104 20006 39269 40177 54003 69902 70511 84030 333 10115 84360
AAXX 30184 68352 16/// /1010 10223 20015 39063 48515 52012 69922 333 10295 20222 91015 555 20002 69925 91016
AAXX 30184 85832 12780 19904 10253 20094 40135 57019 60001 81100 333 56000 81850
AAXX 30184 85836 12960 02409 10246 20103 40192 57021 60001
AAXX 30184 85864 12680 33507 10198 20149 40128 57007 60001 83200 333 56800 83833
AAXX 30184 85874 12980 23127 10210 20106 39493 40088 57010 60001 80001 333 56006 82070
AAXX 30184 85886 12670 52834 10272 20221 40057 55010 60001 81231 333 56666 81840 84070
AAXX 30184 85892 12670 33115 10252 20067 40054 57011 60001 83141 333 56666 83840
AAXX 30184 85934 11580 42734 10169 20071 49889 52012 69921 70182 83530 333 56660 83620
AAXX 30184 85968 11558 80809 10101 20086 49842 53016 69901 76062 8422/ 333 56229 84823 88541
AAXX 30184 89056 11225 83021 10011 20005 49668 52008 69963 76862 885// 333 56699 88605
AAXX 30184 89057 11860 82719 10018 20006 49669 52017 60033 70277 8802/ 333 56079 88457
AAXX 30184 89058 11558 82917 10024 20009 39648 49668 52009 69951 71076 885//
AAXX 30184 89059 11325 82506 10002 21011 49651 57009 60043 77172 885// 333 76099 82606
AAXX 30184 89251 31258 83023 10018 20004 49657 52006 71022 8672/
AAXX 30184 81405 01350 70807 10262 20241 30106 40115 60021 76186 878// 333 60027 59012 83806 84820 85658 555 60025
AAXX 30184 78583 31570 30906 10275 20220 40167 60001 70341 83800 333 01200 58001 83820
BBXX 46249 30181 99338 71197 46/// ///// 1//// 91740 22200 00149 11303 21002 326// 41302 70015
BBXX 46248 30181 99461 71247 46/// ///// 1//// 91734 22200 00096 11109 21006 329// 41106 70044
BBXX 46244 30181 99409 71244 46/// ///// 1//// 91735 22200 00102 11708 21005 329// 41706 70040
AAXX 30184 78388 11578 50716 10280 20221 30150 40159 70182 85801 333 01209 10300 20231 58007 84822 90920
BBXX 46237 30181 99378 71226 46/// ///// 1//// 91740 22200 00110 11305 21002 326// 41304 70023
BBXX 46212 30181 99408 71243 46/// ///// 1//// 91742 22200 00105 11307 20904 329// 41305 70034
AAXX 30184 97180 31457 70902 10247 20247 30083 40101 57017 70262 83272 333 56000 83819 85459
AAXX 30181 01001 NIL
AAXX 30181 01008 11589 61108 11164 21218 30039 40075 57002 60002 70310 865// 333 11164 91111
AAXX 30181 01010 11470 62403 11030 21044 39979 49996 52021 60012 78587 85870 333 11022 91106
AAXX 30181 01026 11689 61301 11057 21092 39853 49998 52016 60002 70122 82577 333 11035 4/025 91102
AAXX 30181 01055 46/// /1305 11013 21061 39995 40013 52013 333 11009 91112
AAXX 30181 01062 NIL
AAXX 30181 01098 11360 80607 11014 21055 39994 40012 50009 69952 78582 883// 333 11012 91113
AAXX 30181 01115 11470 83515 10024 21025 39968 49988 53010 60042 70282 8296/ 333 10029 91123
AAXX 30181 01152 11X20 90803 11020 21030 39968 49984 51011 69962 78582 333 11011 91107
AAXX 30181 01205 NIL
AAXX 30181 01212 16/// /1503 10021 20015 30044 40061 51017 6////
AAXX 30181 01271 16/// /3503 11008 21022 30024 40045 53031 6//// 333 10022 91110
AAXX 30181 01288 11680 21401 11060 21076 39280 40046 53027 60012 70181 82101 333 11025 91110
AAXX 30181 01300 NIL
AAXX 30181 01317 11982 11302 11007 21023 30061 40076 52001 69902 70200 80008 333 10033 91105
AAXX 30181 01367 NIL
AAXX 30181 01384 11989 13204 11004 21063 39790 40040 52012 60002 70200 80008 333 10008 91106
AAXX 30181 01403 11580 40203 10011 21010 30010 40081 54000 60042 70281 84900 333 10048 91114
AAXX 30181 01415 16/// /3602 10018 21011 30067 40078 50004 6//// 333 10050 91109
AAXX 30181 01482 46/// /3104 11008 21059 30040 40048 51011 333 10039 91105
AAXX 30181 01492 NIL
AAXX 30181 01003 NIL
AAXX 30181 01007 11689 31304 11181 21241 30068 40078 57006 60002 70200 81038 333 11171 91108
AAXX 30181 01028 NIL
AAXX 30181 01047 11650 83605 11070 21087 39605 49980 52010 69962 77172 8802/ 333 11050
AAXX 30181 01049 NIL
AAXX 30181 01078 11365 81010 11013 21058 30003 40016 52008 60012 78582 86360 333 11004 91114
AAXX 30181 01102 46/// /3415 10038 21049 30000 40019 53017 333 10043 91125
AAXX 30181 01160 NIL
AAXX 30181 01218 NIL
AAXX 30181 01238 41465 61804 11065 21081 38895 40031 51015 70222 84940 333 11054 91110
AAXX 30181 01241 11486 32202 11006 21016 30033 40045 51025 60022 70182 82862 333 10034 91113
AAXX 30181 01281 NIL
AAXX 30181 01338 16/// /3102 10014 21034 30008 40075 51013 60002 333 10035 91106
AAXX 30181 01359 NIL
AAXX 30181 01397 NIL
AAXX 30181 01400 NIL
AAXX 30181 01427 11582 13304 10031 21014 30059 40075 51011 60002 70200 81400 333 10053 91111
AAXX 30181 01447 NIL
AAXX 30181 01448 46/// /3605 10018 21029 30055 40065 53012 333 10044 91108
AAXX 30181 33815 11496 82701 10020 20011 39895 40105 52008 69942 71022 885// 333 10037 555 80016
AAXX 30184 78388 11578 50716 10280 20221 30150 40159 70182 85801 333 01209 10300 20231 58007 84822 90920
BBXX BATFR56 30184 99022 11018 46/// /0208 10269 20267 40115 58005 22233 00294
BBXX BATFR53 30184 99185 51358 46/// /1115 10255 20202 40172 51004 22222 00267
BBXX BATFR24 30184 99427 10095 46/// /3506 10145 20000 40134 22211 00147
BBXX BAREU12 30184 99537 10056 46/// ///// 4//// 22264
BBXX BATFR52 30184 99503 70042 46/// /2535 10115 20109 40170 58009 22273 00110
BBXX BATFR04 30184 99581 70097 46/// /2529 10102 20090 49936 50003 22243 00107
BBXX BATFR19 30184 99067 30055 46/// /1812 10235 20192 40136 53010 22200 00257
BBXX BATEU01 30184 99489 70069 44596 82628 10120 20112 40205 53003 72022 886// 22254 00117 21006 325// 41006 5////
BBXX BATFR03 30184 99500 70006 46/// /2323 10112 20110 40161 22284
BBXX BATFR14 30184 99495 10001 46/// /1401 10087 20080 40181 56020 22261 00089
BBXX BATFR15 30184 99427 70207 46/// /2217 10160 20144 40348 56010 22214 00152
BBXX FVNM 30184 99098 70801 46/// /0314 10274 20239 40119 58015 22200 00274
BBXX 44020 30181 99414 70702 46/// /1706 10076 20044 40177 56020 91750 22200 00067 10301 20301 70004 333 91207 555 11065 22069 31746 41707 61749 185061 267054 268058 269058 270056 264060
BBXX 44098 30181 99428 70702 46/// ///// 1//// 91737 22200 00082 11001 21001 70005
BBXX 51203 30181 99208 71570 46/// ///// 1//// 91743 22200 00244 11301 20801 327// 41301 70007
BBXX 52200 30181 99134 11448 46/// ///// 1//// 91745 22200 00286 11004 21004 310// 41101 70020
BBXX 51201 30181 99217 71581 46/// ///// 1//// 91742 22200 00239 11303 21002 332// 41302 70017
BBXX 46211 30181 99469 71242 46/// ///// 1//// 91736 22200 00092 11209 21006 328// 41206 70043
AAXX 30184 78925 12575 40717 10290 20215 40161 56024 60001 84200 333 10294 20246 59004 84830
BBXX BATEU07 30184 99100 10853 46/// /1617 10269 40130 58008 22252
AAXX 30181 13579 32560 83401 10009 21017 39275 40124 56002 885// 333 10043 82720 88650
AAXX 30184 78925 12575 40717 10290 20215 40161 56024 60001 84200 333 10294 20246 59004 84830
BBXX BATEU05 30184 99601 10014 46/// /1306 10047 40066 58011 22273
AAXX 30181 12772 31968 71903 10012 21004 39821 40111 53005 70322 8707/ 333 10015 4/000
AAXX 30181 12822 16/// /2402 10029 21007 39976 40121 52021 69922 333 10044
AAXX 30181 12843 11958 72001 10004 21006 39944 40119 53009 69912 70362 85072 333 10025 4/000
AAXX 30181 12882 31558 81904 10011 20010 39989 40124 52006 70122 8457/ 333 10031 4/000 84626
AAXX 30181 12925 36/// /3301 11013 21019 39957 40134 52020 333 10023
AAXX 30181 12942 31656 83002 10005 20002 39878 40129 52010 70222 8357/ 333 10032 4/000 83633
AAXX 30181 12982 31930 81603 10016 20003 30023 40126 53006 71022 8807/ 333 10039 4/000
BBXX 51205 30181 99210 71564 46/// ///// 1//// 91748 22200 00236 11004 21004 333// 41102 70021
BBXX 46114 30181 99364 71222 46/// ///// 1//// 91734 22200 00122 11307 21003 330// 41306 70034
BBXX 42003 30181 99260 70856 46/// /2404 1//// 91750 22200 10501 20301 311// 40501 70005 333 91205 555 11045 22047 31659 42205 61749 240042 238043 231037 228040 222042 219041 82205 91659
BBXX 41047 30181 99275 70715 46/// /0804 10230 40209 58024 91750 22200 00254 11003 20401 305// 41003 70013 333 91205 555 11044 22045 31700 40806 61749 079044 069044 076047 077048 078049 078052 80806 91700
BBXX 42055 30181 99222 70940 46/// /1206 10252 20215 40167 58005 91750 22200 00249 10501 20501 70007 333 91207 555 11059 22064 31652 41208 61749 121055 123058 119062 124062 122061 122065 81207 91653
BBXX 42002 30181 99258 70937 46/// /1906 10245 20203 40180 58004 91750 22200 00244 10501 20501 70006 333 91207 555 11058 22062 31656 41908 61749 189058 189058 188057 189055 189057 188061
BBXX 41043 30181 99211 70650 46/// /1209 10255 20222 40203 56021 91750 22200 00258 11105 20704 300// 41103 70025 333 91210 555 11094 22100 31701 41312 61749 123088 113089 116091 117094 118094 121097 81311 91700
BBXX 41036 30181 99342 70770 46/// ///// 10157 20053 40194 58022 91750 22200 00174 10501 70007
BBXX 44066 30181 99396 70726 46/// /2307 10125 20059 40169 56022 91750 22200 00134 10502 20502 3//// 40901 70009 333 91208 555 11072 22076 31724 42209 61749 225069 220070 220074 218070 211071 209070
BBXX 41115 30181 99184 70673 46/// ///// 1//// 91735 22200 11303 21002 301// 41303 70015
BBXX 41114 30181 99276 70802 46/// ///// 1//// 91746 22200 00233 11402 20301 307// 41401 70009
BBXX A8GH5 30183 99164 70212 41896 50920 10225 20175 40190 56025 70200 80008 22254 20405 301// 40306 80192
AAXX 30184 78858 11578 11114 10280 20223 30117 40173 69901 70181 81830 333 10291 20241 59002 81822
AAXX 30184 78073 12565 20000 10250 20188 40193 60001 82100 333 58017 82820
AAXX 30184 78897 11570 51015 10280 20203 40173 56024 60021 70286 85802 333 022// 10286 20232 58003 70042 84826 84076
AAXX 30184 78897 11570 51015 10280 20203 40173 56024 60021 70286 85802 333 022// 10286 20232 58003 70042 84826 84076
BBXX CGDS 30184 99431 70792 46/// /2103 10071 20034 4//// 5//// 7//// 8//// 22241 00057 2////
AAXX 30184 85406 12982 02110 10253 20140 40115 57013 60001
AAXX 30184 85418 12970 42214 10235 20125 40121 57010 60001 80001 333 56000 84080
AAXX 30184 85432 12870 52519 10230 20032 37748 48404 58009 60001 81101 333 56606 81858 84072
AAXX 30184 85442 12575 21811 10223 20128 40113 57014 60001 82500 333 56400 82630
AAXX 30184 85467 12560 52809 10214 20130 40139 5808 60001 85500 333 56600 85623
AAXX 30184 85469 41465 51108 10226 20177 40210 52002 72522 85201 333 56200 82815 84820
AAXX 30184 85488 11460 82909 10194 20134 40139 58004 60001 70252 885// 333 56699 82615 88622
AAXX 30184 85832 12780 19904 10253 20094 40135 57019 60001 81100 333 56000 81850
AAXX 30184 85836 12960 02409 10246 20103 40192 57021 60001
AAXX 30184 85864 12680 33507 10198 20149 40128 57007 60001 83200 333 56800 83833
AAXX 30184 85874 12980 23127 10210 20106 39493 40088 57010 60001 80001 333 56006 82070
AAXX 30184 85886 12670 52834 10272 20221 40057 55010 60001 81231 333 56666 81840 84070
AAXX 30184 85892 12670 33115 10252 20067 40054 57011 60001 83141 333 56666 83840
AAXX 30184 85934 11580 42734 10169 20071 49889 52012 69921 70182 83530 333 56660 83620
AAXX 30184 85968 11558 80809 10101 20086 49842 53016 69901 76062 8422/ 333 56229 84823 88541
AAXX 30184 89056 11225 83021 10011 20005 49668 52008 69963 76862 885// 333 56699 88605
AAXX 30184 89057 11860 82719 10018 20006 49669 52017 60033 70277 8802/ 333 56079 88457
AAXX 30184 89058 11558 82917 10024 20009 39648 49668 52009 69951 71076 885//
AAXX 30184 89059 11325 82506 10002 21011 49651 57009 60043 77172 885// 333 76099 82606
AAXX 30184 89251 31258 83023 10018 20004 49657 52006 71022 8672/
AAXX 30184 85574 12960 02218 10292 20095 39553 40074 57005 60001
AAXX 30184 85585 12498 41813 10201 20132 30152 40188 58002 60001 84500 333 56400 84617
AAXX 30184 85586 11457 62809 10180 20111 40151 60001 70522 86500 333 56600 86615
AAXX 30184 85672 12970 02107 10298 20136 40096 57014 60001 333
AAXX 30184 85682 12960 02412 10241 20116 40106 58012 60001
AAXX 30184 85766 12960 01710 10273 20078 40137 57013 60001
AAXX 30184 85799 12960 21412 10199 20129 40171 57006 60001 80001 333 56004 82070
BBXX PCEO 30183 99301 70403 41498 22402 10220 20175 40317 56011 7//// 81207 22254 04217 2//// 318// 40602 5//// 80190
BBXX PHQX 30183 99210 70540 41598 40712 10272 20197 40215 56035 70211 84162 22254 20704 301// 40805 5//// 80220
AAXX 30181 63021 42980 00902 10094 20075 37758 40216 333 59001
AAXX 30181 10004 NIL
AAXX 30181 10015 11770 23109 10064 20017 30098 40108 51015 69932 70380 82500 222// 02065 333 10074 20054 31004 55300 20000 30000 82650 91119 91215
AAXX 30181 10020 17780 13110 10049 20027 30055 40088 51020 60012 70065 333 10067 20040 3/003 55300 20000 30000 81/56 91120 91216
AAXX 30181 10035 11570 42804 10031 20020 30025 40084 51022 69912 70361 84500 333 10061 20012 31000 55300 20000 30000 40974 84633 91115 91211
AAXX 30181 10055 01981 13209 10047 20016 30059 40069 51034 69902 70181 81030 333 10056 20040 31003 55300 20000 30000 69907 81362 91118 91214
AAXX 30181 10147 01570 32905 10048 20025 30078 40097 52024 69912 72580 83800 333 10065 20023 31000 55300 20000 30000 41048 69907 81820 83640 91113
AAXX 30181 10162 07480 83005 10044 20016 39989 40072 53022 69902 75165 333 10056 20026 3/002 55300 20000 30000 69907 87/19 88/50 91114
AAXX 30181 10184 01380 52803 10042 20032 30035 40043 53016 69932 72162 85800 333 10050 20030 31002 55300 20000 30000 69927 82808 85626
AAXX 30181 10200 11580 42603 10036 20020 30128 40126 51011 60012 72580 84801 333 10074 20025 32001 55300 20000 30000 81827 83644 91114
AAXX 30181 10224 01675 72806 10047 20019 30113 40119 51016 69912 78081 875// 333 10070 20033 32002 55300 20000 30000 69907 87640 91113
AAXX 30181 10270 16660 72705 10040 20007 30016 40072 51010 60022 222// 06044 333 10048 20022 3/002 55300 87/42
AAXX 30181 10338 01775 22706 10038 20017 30045 40119 51016 69982 70181 82500 333 10061 20020 31002 55300 20000 30000 69907 82650 91114 96481 96480
AAXX 30181 10361 11981 02804 10036 20009 30001 40106 51017 69942 70181 333 10059 20021 31001 55300 20000 30000
AAXX 30181 10393 01475 82707 10033 20024 39945 40073 51015 60022 70187 878// 333 10033 20002 32000 55300 20000 30000 69927 82810 87642
AAXX 30181 10400 01470 72604 10043 20024 30116 40167 51010 69922 72582 878// 333 10062 20037 32003 55300 20000 30000 69907 82813 83625 85640
AAXX 30181 10438 07980 02504 10028 20010 39864 40149 51022 60022 75165 333 10043 20020 3/001 55300 69927 91115
AAXX 30181 10469 01682 72405 10022 20010 39948 40116 51023 60022 70382 878// 333 10043 20015 31100 55300 69907 82840 86650
AAXX 30181 10488 01472 72807 10018 20004 39820 40106 51019 60052 72186 8683/ 333 10029 20004 32100 55300 20000 30000 41119 60027 81810 84636 85656 96486
AAXX 30181 10506 01470 82603 10009 21007 39587 40183 50007 69982 72287 885// 333 10018 20006 31100 55300 20000 30000 69907 88612 96485
AAXX 30181 10548 01575 32704 10018 21009 39604 40155 51021 69902 70387 83500 333 10021 20003 31101 41998 55300 20000 30000 69907 83633 96483 96468 96451
AAXX 30181 10637 01583 72404 10047 20003 30039 40179 51015 69902 70281 878// 333 10064 20027 31001 55300 69907 82823 87634 91116
AAXX 30181 10685 01381 72704 10002 21003 39455 40142 51021 60032 72272 875// 333 10005 21010 3/102 44011 55300 20000 30000 69927 87608 96477 96473
AAXX 30181 10738 12584 72303 10022 21006 39718 40198 51019 69972 878// 333 10043 20010 31000 55300 82830 86640
AAXX 30181 10763 01475 72705 10024 20004 39777 40167 52022 69932 72588 878// 333 10033 20013 31100 55300 20000 30000 69907 82815 86650 91114 96483
AAXX 30181 10788 07481 72604 10018 20007 39719 40160 51023 69922 70076 333 10029 20012 3/000 55300 20000 30000 69907 83/12 84/20 87/50 91116
AAXX 30181 10852 01481 82604 10014 20001 39607 40189 52024 69922 72272 885// 333 10025 20005 31000 55300 20000 30000 69907 88617
AAXX 30181 10946 07569 82504 10003 21018 39354 40206 53016 60022 77175 333 10007 21015 3/102 4/005 55300 20000 30000 69917 81/23 88/34
AAXX 30181 01037 NIL
AAXX 30181 01046 NIL
AAXX 30181 01058 16/// /0303 11071 21086 39526 40000 52009 60012 333 11070 4/020 91107
AAXX 30181 01065 NIL
AAXX 30181 01092 NIL
AAXX 30181 01107 16/// /3415 10026 2//// 39995 49999 51016 60032 333 10034 91123
AAXX 30181 01114 NIL
AAXX 30181 01144 46/// /3005 11002 21008 333 10017 91114
AAXX 30181 01199 NIL
AAXX 30181 01245 NIL
AAXX 30181 01259 16/// /3515 10028 21025 30009 40032 53020 60002 333 10045 91119
AAXX 30181 01262 NIL
AAXX 30181 01278 11785 20000 11014 21023 39930 40034 51029 69992 70111 82800 333 10008
AAXX 30181 01293 16/// /0101 11019 21025 39826 40037 51030 60052 333 10004 91105
AAXX 30181 01329 NIL
AAXX 30181 01337 NIL
AAXX 30181 01344 16/// ///// 11078 21097 60002 333 11029 4/073
AAXX 30181 01364 NIL
AAXX 30181 01373 11989 03201 11076 21087 39862 40069 53020 60002 70200 333 11043 91103
AAXX 30181 01374 31989 03401 11064 21088 70200 333 11028
AAXX 30181 01380 16/// /3105 11065 21101 6//// 333 11051 4/032 91113
AAXX 30181 01389 NIL
AAXX 30181 01393 NIL
AAXX 30181 01424 11780 4//// 11011 21037 30081 40084 52011 60002 70210 84400 333 10014
AAXX 30181 01431 16/// /1401 11070 21080 39403 40091 50008 60002 333 10001 91105
AAXX 30181 01436 NIL
AAXX 30181 01465 11982 23204 10016 21033 30043 40062 51012 60002 70221 80001 333 10045 91107
AAXX 30181 01471 16/// /2401 11053 21082 60002 333 10007 91111
AAXX 30181 01483 NIL
AAXX 30181 01015 NIL
AAXX 30181 01023 11588 62801 11081 21097 39903 40001 52018 60002 70122 81578 333 11069 91102
AAXX 30181 01033 NIL
AAXX 30181 01059 11487 83503 11036 21067 39996 40006 52012 69902 77172 8352/ 333 11028 91108
AAXX 30181 01089 16/// /0804 11027 21029 39883 49991 50005 6//// 333 11024 91108
AAXX 30181 01167 31787 23302 11064 21070 39985 49989 53020 70110 81470 333 11036 91103
AAXX 30181 01180 NIL
AAXX 30181 01210 41259 82902 10026 21001 30033 40060 52007 78382 8696/ 333 10037 91111
AAXX 30181 01228 NIL
AAXX 30181 01240 16/// /3510 10041 21043 30022 40041 51025 6//// 333 10050 91119
AAXX 30181 01304 46/// /0000 10026 21001 30041 40073 52004 333 10037 91100
AAXX 30181 01311 46/// /1302 11017 21019 30014 40078 52001 333 10029 91105
AAXX 30181 01340 NIL
AAXX 30181 01355 16/// ///// 11009 21034 30069 40074 51014 60002 333 10011
AAXX 30181 01360 NIL
AAXX 30181 01392 11880 11702 11037 21059 39811 40042 53016 60002 70200 81040 333 10006 91108
AAXX 30181 01406 NIL
AAXX 30181 01411 16/// /3203 10028 21005 30053 40079 50004 6//// 333 10053 91113
AAXX 30181 01425 NIL
AAXX 30181 01433 46/// /0000 11083 21101 38795 40090 52006 333 11035 91102
AAXX 30181 01442 NIL
AAXX 30181 01450 NIL
AAXX 30181 01452 11988 11101 11002 21032 30046 40067 53012 60002 70100 80001 333 10043 91108
AAXX 30181 01473 11685 42702 11035 21057 39845 40058 52014 69902 70122 82440 333 11011 91104
AAXX 30181 01494 11985 00901 11006 21030 39983 40050 52013 60002 70220 333 10019 91104
AAXX 30181 10609 12682 52303 10024 21014 39856 40194 51007 69902 85500 333 10047 20007 31101 55300 20000 30000 85640
AAXX 30181 10616 01481 72703 10016 21009 39575 40188 51009 69902 70287 878// 333 10022 20003 31101 4/998 55300 69907 83814 83618 86630 96485
AAXX 30181 10641 07586 72405 10046 20003 30026 40175 51016 69902 70065 333 10058 20023 3/001 55300 69907 81/27 86/35 87/43
AAXX 30181 10655 01585 72704 10033 20005 39837 40171 51019 69942 72186 875// 333 10043 20009 31101 55300 20000 30000 69907 83623 86630 91114
AAXX 30181 10675 07481 72604 10031 20005 39865 40162 53019 60022 72265 333 10036 20005 3/000 55300 20000 30000 69907 81/11 83/23 87/47
AAXX 30181 10688 07320 72602 10009 20001 39621 40155 51021 60012 77276 333 10015 20001 3/000 55300 20000 30000 69917 87/07 87/12
AAXX 30181 10708 12683 72605 10033 21010 39805 40198 51011 69972 875// 333 10052 20006 31100 55300 20000 30000 87635 91113
AAXX 30181 10729 17683 82503 10056 20004 30073 40197 51017 69912 70065 333 10063 20032 3/000 55300 20000 30000 81/36 87/48 88/50
AAXX 30181 10731 01480 82405 10049 20006 30051 40197 51018 69932 72162 888// 333 10058 20022 31001 55300 20000 30000 69907 82813 88640
AAXX 30181 10742 07680 72504 10032 20006 39850 40188 51017 69932 76176 333 10037 20019 3/001 55300 20000 30000 69907 81/33 87/45 91113
AAXX 30181 10776 01481 72806 10019 20002 39707 40160 51026 69932 72161 878// 333 10029 20009 31100 55300 20000 30000 69907 81815 87650 91114
AAXX 30181 10791 01/00 93013 11057 21062 38463 48412 51024 60132 77174 333 11053 21064 49125 55300 60017 91122 91216 92962 96049 96038
AAXX 30181 10805 12784 72404 10044 21002 30018 40213 51015 69902 875// 333 10062 20030 31002 55300 20000 30000 87650
AAXX 30181 10815 07441 82505 11013 21013 39245 48465 51016 60032 77287 333 10000 21014 3/102 4/012 55300 20000 30000 60017 82/12 84/25 88/35 91116 91211
AAXX 30181 10836 01260 82808 11009 21009 39302 40195 51019 60022 77087 887// 333 11001 21017 3/102 43005 55300 20000 30000 69987 86704 91116 91211 96286 96487 98670
AAXX 30181 10870 01465 82704 10012 20008 39635 40181 53024 60032 72687 878// 333 10026 20004 3/000 42/// 55300 69987 81811 85615 86638 96286 96486 96471 96461
AAXX 30181 10895 01160 82806 10005 20005 39574 40157 53024 60032 77887 877// 333 10014 21001 3/000 43004 55300 20000 30000 69997 81702 87705 91114 96487 96486 96473
AAXX 30181 10908 01/65 82508 11062 21062 38475 48473 51013 60042 77087 885// 333 11043 21064 3/107 49092 55300 20000 30000 69907 816// 88615 91118 91214 96487 96449
AAXX 30181 10929 11580 62402 10012 21011 39672 40218 52019 60042 70386 8153/ 333 10042 20006 31101 55300 20000 30000 81633 86359 96385
AAXX 30181 10948 07660 83303 11004 21027 39244 48473 53015 60092 77170 333 10017 21020 3/102 4/038 55300 20000 30000 60027 87/33 87/41 88/49
AAXX 30181 10961 11/00 93510 11162 21162 36986 47945 53013 60212 77187 333 11124 21169 49225 55300 20000 40955 91119 91211 96049 96488
AAXX 30181 10962 01462 82506 11025 21028 39019 48453 53016 60022 77187 875// 333 11011 21029 3/103 48010 55300 20000 30000 69907 85612 87619 91114 96488 96485
AAXX 30181 10980 11/01 92912 11081 21084 38084 48443 53010 60072 77174 333 11056 21088 3/109 44092 55300 20000 30000 91119 91215 96049 96473 96471 96449
AAXX 30181 10007 NIL
AAXX 30181 10044 NIL
AAXX 30181 10046 11970 22704 10029 20010 30043 40083 51028 69902 70181 81031 333 10060 20017 31101 81359 91116 91211
AAXX 30181 10091 07482 83105 10041 20026 39987 40038 53022 69902 72365 333 10048 20034 3/002 55300 20000 30000 69907 83/11 84/19 88/44
AAXX 30181 10113 11665 23209 10062 20003 30102 40121 51011 69912 70281 81501 333 10072 20057 32004 55300 20000 30000 81645 91116 91213 96480
AAXX 30181 10124 NIL
AAXX 30181 10131 07680 63108 10055 20020 30090 40105 51017 69922 70065 333 10066 20044 3/003 55300 20000 30000 69917 85/47 86/56 86/57 91114
AAXX 30181 10170 01575 83109 10048 20036 30041 40057 53026 69952 72582 878// 333 10055 20037 31002 55300 20000 30000 69937 84820 87636 91117 91213
AAXX 30181 10264 06583 82806 10045 20015 39960 40067 53016 69942 333 10049 20016 3/001 55300 20000 30000 69907 87/26 88/35 88/50
AAXX 30181 10291 01580 72405 10036 20021 39989 40057 51010 60032 76081 875// 333 10040 20006 31000 55300 20000 30000 69927 86620 85656 96484
AAXX 30181 10315 01970 02603 10023 20015 30081 40147 51008 60022 70181 333 10069 20021 31000 55300 20000 30000 69927
AAXX 30181 10379 01681 72607 10032 20016 39953 40076 51014 60042 70381 875// 333 10040 20014 31001 55300 20000 30000 41042 69907 87646
AAXX 30181 10382 01680 72707 10038 20015 30028 40073 51014 60032 70282 875// 333 10047 20008 31000 55300 20000 30000 69907 87639
AAXX 30181 10384 06/// /2606 10041 20018 30013 40073 51014 60032 333 10049 20014 3/001 55300 20000 30000 69917
AAXX 30181 10427 01/02 92907 11013 21013 39130 48425 51014 60072 74187 333 11010 21024 3/102 48039 55300 20000 30000 69907 91117 91211 96285 96487
AAXX 30181 10430 17487 82603 10029 20012 39953 40149 51016 60032 70086 333 10052 20022 3/002 55300 20000 30000 82/17 85/29 88/49
AAXX 30181 10439 12470 73202 10018 21002 39931 40156 52017 69912 8683/ 333 10051 20009 32103 81818 85625
AAXX 30181 10453 11/90 93013 11039 21039 38761 48391 53016 60192 74984 333 11031 21046 3/104 49115 55300 91124 91217 96036 96288 96286 96238 96488 96486 96449 96438
AAXX 30181 10496 01680 12504 10029 20021 39998 40084 51020 60042 72576 81500 333 10035 20014 31001 55300 20000 30000 69917 81638
AAXX 30181 10499 01350 82803 10008 20002 39796 40092 51024 60042 75876 877// 333 10025 20006 32000 55300 20000 30000 60017 87707
AAXX 30181 10505 01670 82504 10029 20011 39892 40179 50003 60022 70282 875// 333 10034 20024 32002 55300 20000 30000 69917 82635 87645
AAXX 30181 10513 11475 72704 10043 20021 30054 40177 51012 69992 70282 878// 333 10053 20032 31002 55300 20000 30000 83813 85815 96481 96480 96416 96415
AAXX 30181 10532 07468 82003 10025 20016 39912 40165 51014 69932 70065 333 10042 20019 3/001 55300 20000 30000 69917 86/19 88/25 88/34
AAXX 30181 10544 NIL
AAXX 30181 10554 01480 72807 10019 20006 39743 40138 51018 69952 78087 878// 333 10027 20005 31100 55300 20000 30000 69907 82812 87640
AAXX 30181 10567 01783 42905 10013 21002 39747 40130 51020 60012 70186 84500 333 10028 20003 31100 55300 20000 30000 69927 84650
AAXX 30181 10578 11/01 92816 11039 21042 38687 48386 51021 60122 77074 333 11038 21049 3/105 48070 55300 20000 30000 96049
BBXX VEP717 30184 99467 70487 41798 82560 10029 2104/ 40068 52002 70322 885// 22200 06021 20814 80004
AAXX 30181 01121 46/// /3508 10018 21006 39988 40000 50017 333 10020 91115
AAXX 30181 01135 NIL
AAXX 30181 01143 16/// /2003 11060 21079 60002 333 11031 91105
AAXX 30181 01150 16/// /0401 11105 21123 60002 333 11081 91103
AAXX 30181 01192 NIL
AAXX 30181 01225 46/// /1605 10023 20000 30050 40055 53022 333 10054 91114
AAXX 30181 01230 16/// /1901 11048 21053 60042 333 11024 4/048 91104
AAXX 30181 01232 16/// /0000 11007 21010 39985 40066 51017 60062 333 10028 4/011 91105
AAXX 30181 01234 16/// /2103 10003 21005 60032 333 10024 91108
AAXX 30181 01253 NIL
AAXX 30181 01254 16/// /3301 11007 21013 60022 333 10001 4/033 91104
AAXX 30181 01257 NIL
AAXX 30181 01277 NIL
AAXX 30181 01291 16/// /3003 11014 21018 60052 333 11014 4/042 91108
AAXX 30181 01332 16/// /3502 11028 21040 69942 333 10010 91103
AAXX 30181 01366 46/// /3002 11141 21162 38421 40108 51012 333 11088 91110
AAXX 30181 01370 NIL
AAXX 30181 01376 16/// /0702 11035 21053 60002 333 11013 91104
AAXX 30181 01383 46/// /0000 11104 21110 39730 40058 52022 333 11046 91100
AAXX 30181 01386 16/// ///// 11028 21055 60002 333 11002
AAXX 30181 01416 16/// ///// 11003 21003 69932 333 10040
AAXX 30181 01419 NIL
AAXX 30181 01430 16/// ///// 11001 21032 60002 333 10046
AAXX 30181 01434 16/// /2702 11103 21119 39088 40068 50006 60002 333 11026 91105
AAXX 30181 01455 NIL
AAXX 30181 01468 16/// /2401 11050 21057 60002 333 11004 91105
AAXX 30181 01470 16/// /3101 11023 21040 39943 40060 52014 60002 333 10018 4/003 91104
AAXX 30181 01476 NIL
AAXX 30181 01481 NIL
AAXX 30181 01488 NIL
AAXX 30181 01025 16/// /1101 11048 21084 39986 49997 52016 60002 333 11026 91103
AAXX 30181 01052 16/// /0201 11053 21099 39907 40008 52013 60002 333 11029 91105
AAXX 30181 01122 16/// /2002 11076 21084 39917 40010 53020 60042 333 11070 91105
AAXX 30181 01132 16/// /0201 11063 21072 39612 40010 53015 69952 333 11063 91103
AAXX 30181 01156 NIL
AAXX 30181 01203 46/// /2903 10034 21040 30018 40067 52003 333 10041 91112
AAXX 30181 01233 16/// /2302 11053 21065 69952 333 11025 91106
AAXX 30181 01265 NIL
AAXX 30181 01273 NIL
AAXX 30181 01307 46/// /0903 10018 21003 30046 40074 54000 333 10045 91110
AAXX 30181 01321 16/// /1601 11035 21037 39818 40078 51007 60012 333 11006 91102
AAXX 30181 01327 11480 40000 11063 21075 60002 70221 83808 333 11009 91105
AAXX 30181 01350 16/// /2805 11096 21103 38645 40043 50009 60002 333 11059 91112
AAXX 30181 01361 16/// /2502 11067 21084 39023 40075 51014 60022 333 11039 4/080 91111
AAXX 30181 01375 NIL
AAXX 30181 01378 16/// /0203 11035 21070 39745 40043 51014 60002 333 11020 91105
AAXX 30181 01385 16/// /3004 11023 21068 39771 40047 53014 60002 333 11007 91106
AAXX 30181 01412 16/// /3604 10020 21012 30050 40080 52006 60002 333 10055 91113
AAXX 30181 01422 16/// /1103 10001 21024 60002 333 10048 91107
AAXX 30181 01440 NIL
AAXX 30181 01441 NIL
AAXX 30181 01467 NIL
AAXX 30181 01469 NIL
AAXX 30181 01477 16/// /2701 11019 21059 60002 333 10008 4/014 91105
AAXX 30181 01480 16/// /0201 11024 21050 60002 333 11007 91106
AAXX 30181 01484 16/// /3501 11064 21076 39887 40048 51013 60002 333 11008 91102
AAXX 30181 01490 16/// /3403 11026 21065 60002 333 11010 91107
AAXX 30181 01495 16/// /3503 10021 21034 30036 40049 53012 60002 333 10039 91107
AAXX 30181 11816 12575 72504 10041 21011 39949 40114 52019 69902 87800 333 10059 82823 87630
AAXX 30181 11826 11556 82102 10013 20006 39900 40103 52009 60032 71076 885// 333 10014 44001 85625 88640
AAXX 30181 11903 11562 79901 10001 21006 39713 40101 51008 60042 70287 87500 333 10007 43005 87630
AAXX 30181 11934 11582 42605 11007 21040 39251 42696 51009 69902 70177 82542 333 10017 82626 83070
AAXX 30181 11968 11250 82304 10011 21002 39815 40100 52005 69902 71076 886// 333 10014 85706 88712
AAXX 30184 07005 04/57 /1604 10056 20041 30090 40182 56015 60022 761// 333 10077 20056 60027 90710 91106 555 60015
AAXX 30184 07015 01659 81906 10050 20032 30119 40177 57013 69922 76062 885// 333 10068 20047 69927 88635 90710 91108 93100 555 69925
AAXX 30184 07020 01410 82718 10119 20114 30154 40181 56013 60062 76262 886// 333 10119 20098 60047 88713 90710 91125 555 60015
AAXX 30184 07027 01356 82411 10106 20101 30097 40178 56025 6///2 76165 877// 333 10106 20078 60037 87708 90710 91116 93100 555 60025
AAXX 30184 07037 04119 81707 10060 20059 30001 40188 56020 60032 761// 333 10082 20058 60037 90710 91110 555 60015
AAXX 30184 07070 04570 82304 10058 20030 30085 40198 58005 60002 700// 333 10072 20044 60007 90710 91106 555 60005
AAXX 30184 07110 01258 82710 10117 20115 30111 40226 58007 60062 76162 877// 333 10117 20099 60027 87705 90710 91122 93100 555 60015
AAXX 30184 07117 01440 82516 10117 20114 30138 40208 56006 60072 76162 887// 333 10117 20103 60037 90710 91129 92436 555 69965
AAXX 30184 07130 04458 82711 10116 20107 30161 40213 56013 60012 761// 333 10119 20088 69987 90710 91119 555 69965
AAXX 30184 07139 06/// /2508 10097 20088 30018 40193 56020 60032 333 10098 20076 60017 90710 91112 555 69965
AAXX 30184 07149 01459 81805 10060 20051 30091 40202 58014 60012 76162 875// 333 10087 20060 60017 82710 87630 90710 91108 93100 555 60015
AAXX 30184 07168 04/69 /2306 10061 20038 30066 40212 58004 69902 761// 333 10079 20052 69907 90710 91108 555 69905
AAXX 30184 07181 04984 82006 10027 20003 39790 40212 50003 60002 700// 333 10048 20021 60007 90710 91108 555 60005
AAXX 30184 07190 04785 72206 10038 21008 30023 40211 51015 69962 700// 333 10076 20024 60007 90710 91110 555 60005
AAXX 30184 07207 02560 82924 10124 20111 60012 885// 222// 328// 333 10124 20106 60007 91035 90710 91137 92447 555 60005
AAXX 30184 07222 01240 82815 10115 20110 30201 40233 57016 60012 75865 877// 333 10115 20096 69987 87704 90710 91124 555 69905
AAXX 30184 07240 01380 82512 10101 20090 30077 40213 58017 60012 7212/ 886// 333 10105 20086 69967 88707 90710 91121 93100 555 69925
AAXX 30184 07255 04236 82607 10089 20084 30019 40221 58014 60052 761// 333 10089 20075 60027 90710 91113 555 69945
AAXX 30184 07280 04584 81805 10052 20024 39949 40228 50006 60012 700// 333 10075 20048 60007 90710 91110 555 60005
AAXX 30184 07299 01575 42510 10027 21008 39885 40223 51017 60012 70186 83802 333 10065 20027 60007 81825 83656 90710 91116 93100 555 60005
AAXX 30184 07314 06/// /2722 10115 20109 30235 40263 56012 60012 333 10119 20109 60007 90710 91129 555 60005
AAXX 30184 07335 04382 82411 10095 20087 30095 40242 58012 60012 761// 333 10107 20082 69947 90710 91117 555 69905
AAXX 30184 07434 04219 82711 10076 20076 39767 40253 58006 60062 760// 333 10078 20059 60047 90710 91123 555 60015
AAXX 30184 07460 01564 81503 10071 20060 39842 40238 50001 60022 76162 878// 333 10094 20063 60027 83830 83640 85650 90710 91104 93100 555 69985
AAXX 30184 07471 04461 /3208 10041 20029 39258 48840 51009 6///2 761// 333 10050 20028 6///7 90710 91120 555 60015
AAXX 30184 07481 01457 83205 10040 20027 39958 40255 51020 60102 76166 885// 333 10066 20040 60057 81710 87613 90710 91111 93100 555 60025
AAXX 30184 07510 01470 72609 10101 20093 30222 40288 57004 60022 72165 875// 333 10119 20081 60017 83711 85618 87656 90710 91114 93100 555 69945
AAXX 30184 07535 06/// /2707 10084 20081 39958 40276 55000 60032 333 10086 20057 60017 90710 91117 555 69965
AAXX 30184 07558 06/// /3018 10061 20052 39401 40250 51008 60022 333 10064 20024 69927 90710 91137 555 69925
AAXX 30184 07577 04/70 /0110 10050 20030 30156 40248 51016 60052 761// 333 10059 20008 60037 90710 91120 555 69965
AAXX 30184 07591 04/// /0000 11007 21011 39171 4//// 53012 60072 700// 333 10006 21049 69947 90710 91100 555 60005
AAXX 30184 07607 04363 82607 10096 20087 30236 40309 57003 60012 700// 333 10119 20070 69907 90710 91113 555 69905
AAXX 30184 07621 01460 82510 10076 20059 39875 40318 58003 60022 72165 888// 333 10086 20058 69927 84613 87643 90710 91119 93100 555 69905
AAXX 30184 07627 06/// /3109 10084 20036 39809 40306 52003 69922 333 10095 20065 60007 90710 91123 555 60005
AAXX 30184 07630 01475 82814 10091 20074 30111 40295 53004 69922 70352 878// 333 10110 20070 69907 85810 85624 90710 91122 93100 555 60005
AAXX 30184 07643 02584 43016 10130 20049 30212 40222 51007 60002 83440 333 10135 20079 60007 82630 90710 91125 555 60005
AAXX 30184 07650 02984 03313 10082 20026 30161 40200 52016 60002 333 10138 20030 60007 90710 91125 93100 555 60005
AAXX 30184 07661 02580 12925 10116 20018 30005 40166 53014 60002 81100 333 10136 20074 60007 81826 91036 90710 91144 555 60005
AAXX 30184 07690 02984 01517 10141 20078 30096 40130 51029 60002 333 10188 20062 60007 90710 91120 93100 555 60005
AAXX 30184 07747 02675 73017 10127 20041 30199 40253 53001 60002 875// 333 10134 20090 60007 87641 91027 90710 91134 93100 555 60005
AAXX 30184 07761 01670 50608 10084 20051 30118 40129 55002 69942 70162 85800 333 10115 20036 69927 84833 84650 90710 91111 93100 555 69905
AAXX 30184 07790 02582 13208 10112 20032 30109 40124 53023 60002 81100 333 10150 20062 60007 81830 90710 91115 93100 555 60005
AAXX 30184 61901 169// /1314 10174 20134 39671 40179 53002 60002 91750 333 10200 8//99 555 7/090
AAXX 30184 61902 32584 31416 10249 20178 40135 83800 333 10281 59004 81824 83538
AAXX 30184 88889 12988 73036 10227 20052 39834 49913 55011 60001 83072 91750 333 81358 83365 87072 91045 90710 91146
AAXX 30184 03005 12580 71615 10041 20001 39941 40042 58023 60002 8457/ 91750 333 10042 55300 20000 82624 84642 87361
AAXX 30184 03017 17460 /1617 10038 20019 39989 40021 58034 69942 761// 91750 333 10042 55300 20000 85/18 84/40 90710 91126
AAXX 30184 03023 17136 /2419 10099 20099 39964 49969 56020 60112 751// 91750 333 10099 88/02
AAXX 30184 03026 17256 /1814 10086 20082 39937 49955 57049 60112 761// 91750 333 10086 55300 20000 85/05 87/17
AAXX 30184 03063 17664 /2209 10023 20006 39732 40010 56045 60112 762// 91750 333 10023 55300 20000 87/41 85/57 91022
AAXX 30184 03066 17658 /1003 10031 20021 30004 40010 58048 60042 762// 91750 333 10045 55300 20000 87/35 85/50
AAXX 30184 03075 17461 /1417 10040 20022 39970 40014 58042 69962 762// 91750 333 10048 86/12 90710 91125
AAXX 30184 03091 17459 /1709 10012 20004 39967 40048 56035 60022 762// 91750 333 10044 55300 20000 86/19 85/42
AAXX 30184 03100 17145 /2619 10105 20105 39982 49998 56020 60172 761// 91750 333 10105 55300 20000 88/02 90710 91126
AAXX 30184 03111 16225 /2416 10104 20100 30016 40029 56025 60142 91750 333 10105 87/03
AAXX 30184 03134 16/// /1701 10035 20032 3//// 4//// 5//// 60092 91750 333 10040 55300 20000
AAXX 30184 03136 17362 /2007 10087 20082 39996 40029 56035 60102 781// 91750 333 10088 55300 20000 87/07
AAXX 30184 03162 17123 /2101 10023 20017 39775 40065 58034 60092 762// 91750 333 10027 55300 20000 88/02
AAXX 30184 03166 17568 /0301 10034 20031 39964 40034 56047 60042 723// 91750 333 10046 55300 20000 88/23
AAXX 30184 03171 11465 81509 10036 20025 30033 40045 57045 60082 76176 885// 91750 333 10045 55300 20000 81710 86618 88630
AAXX 30184 03204 11370 72516 10110 20103 30044 40064 56024 60112 72162 875// 91750 333 10110 55300 20000 81708 83616 85628
AAXX 30184 03240 17359 /1614 10041 20036 30043 40071 58037 60082 762// 91750 333 10054 55300 20000 81/07 87/28
AAXX 30184 03257 17236 /1611 10041 20037 30047 40088 57037 60052 751// 91750 333 10063 55300 20000 87/04 84/26
AAXX 30184 03292 163// /1914 10045 20039 30085 40104 58028 60032 91750 333 10054 81/07 86/14
AAXX 30184 03302 17235 /2316 10106 20106 30080 40093 55017 60062 751// 91750 333 10107 55300 20000 84/05 87/20
AAXX 30184 03354 17257 /1906 10051 20047 39968 40112 58034 60042 781// 91750 333 10053 55300 20000 88/03
AAXX 30184 03377 11232 81709 10043 20039 30031 40117 57032 60042 75865 885// 91750 333 10064 55300 20000 81705 88621
AAXX 30184 03414 17357 /1602 10075 20075 30012 40100 56034 60062 782// 91750 333 10075 55300 20000 84/07 87/50
AAXX 30184 03462 17230 /1709 10051 20051 30032 40122 57036 60032 751// 91750 333 10061 55300 20000 86/03 83/19
AAXX 30184 03482 17557 /1708 10047 20039 30105 40131 58029 60032 762// 91750 333 10061 81/28 87/42
AAXX 30184 03502 17014 /2528 10105 20102 39962 40122 58016 60042 723// 91750 333 10109 55300 20000 86/01 85/56 90710 91137
AAXX 30184 03535 17230 /1807 10061 20061 39995 40113 56034 60052 781// 91750 333 10061 55300 20000 88/03
AAXX 30184 03590 17459 /1907 10046 20041 30031 40142 58026 60022 762// 91750 333 10058 55300 20000 81/18 87/47
AAXX 30184 03649 11258 82302 10079 20076 30030 40130 57031 60052 72165 886// 91750 333 10079 55300 2//// 86704 88706
AAXX 30184 03716 17/09 /2613 10103 20101 30077 40137 56019 60062 751// 91750 333 10105 55300 20000
AAXX 30184 03740 16021 /2108 10085 20085 39960 40137 56026 60052 91750 333 10086 55300 2//// 88/01
AAXX 30184 03746 17119 /2109 10085 20085 39990 40144 56025 60042 782// 91750 333 10085 88/02
AAXX 30184 03772 17258 /1707 10068 20061 30108 40138 58034 60032 761// 91750 333 10076 55300 20000 85/05 86/16
AAXX 30184 03796 46/// /2509 10047 20041 30020 40165 58015 91750 333 10061
AAXX 30184 03803 NIL
AAXX 30184 03808 11368 72715 10108 20100 30078 40183 58009 60052 72165 8652/ 91750 333 10112 55300 20000 83707 85620 87457 90710 91126
AAXX 30184 03809 11258 72717 10109 20099 30088 40181 58010 60062 75865 877// 91750 333 10112 87703 90710 91130 91030
AAXX 30184 03827 17366 /2716 10113 20113 30111 40173 58010 60032 723// 91750 333 10115 87/09
AAXX 30184 03840 17123 /2610 10100 20100 39851 40154 57013 60032 762// 91750 333 10101 88/02
AAXX 30184 03853 17483 /2507 10110 20106 30123 40147 58018 60032 723// 91750 333 10111 55300 20000 81/16 86/33
AAXX 30184 03874 46/// /2009 10090 20086 30137 40148 58027 91750 333 10090
AAXX 30184 03882 17450 /2004 10057 20053 30096 40161 58022 60032 762// 91750 333 10070 55300 20000 85/11 87/20
AAXX 30184 03894 11015 82623 10112 20110 40189 56009 60062 75865 887// 333 10113 83700 87701 90710 91132
AAXX 30184 03917 17056 /2314 10105 20105 39977 40053 56016 60062 751// 91750 333 10105 55300 20000 84/01 87/07
BBXX 42039 30181 99288 70860 46/// /2705 10217 40187 58011 91750 22200 00230 10702 20401 300// 40702 70010 333 91206 555 11053 22056 31717 42508 61749 266052 271057 265056 259061 265055 262056 82507 91718
BBXX 41040 30181 99145 70530 46/// /0610 10267 20211 40158 56018 91750 22200 00270 11407 20605 3//// 41406 70036 333 91212 555 11105 22111 31741 40712 61749 065098 068100 063097 070090 070098 067100 80711 91741
AAXX 30181 78221 31462 50806 10254 20194 30169 40196 57020 70222 85200 333 85815
AAXX 30181 78224 31560 29902 10272 20143 30117 40190 58019 70544 82100 333 82825
AAXX 30181 78229 32559 31001 10194 20169 30126 40201 52010 83200 333 83820
AAXX 30181 78239 31559 50505 10250 20210 30183 40186 57020 70560 85800 333 10260 20216 84820
AAXX 30181 12345 42560 41003 10276 20200 30136 40180 57024 84100 333 84820
AAXX 30181 78243 42559 40806 10255 20192 30068 40191 57023 84210 333 84820
AAXX 30181 78255 42559 30405 10278 20184 30039 40188 57020 83200 333 10280 20190 83820
AAXX 30181 78264 31559 22004 10295 20181 30092 40167 57030 70500 82100 333 10319 20205 82825
AAXX 30181 78265 31560 30703 10303 20149 30070 40170 57030 70344 83200 333 10303 20173 83830
AAXX 30181 78256 11559 20602 10308 20118 30120 40180 57027 60004 70544 82100 333 10314 20183 82825
AAXX 30181 78259 31559 40803 10325 20115 30090 40180 57027 70544 84200 333 10325 20156 84820
AAXX 30181 78268 11460 50703 10278 20240 30163 40182 57021 60001 70311 83200 333 83815 83820
BBXX VCRG 30184 99469 70617 46/// /2627 11033 21053 40127 51014 7//// 8//// 22242 00061 2////
BBXX 46072 30181 99517 71722 46/// /3606 11015 21077 40137 53003 91750 22200 00042 10903 20501 3//// 40902 70013 333 91208 555 11063 22065 31701 40309 61749 001059 010058 019056 016052 019065 005062 80308 91701
BBXX 46082 30181 99597 71434 46/// ///// 11026 49933 52017 91750 22200 00057 10905 70024
BBXX 46072 30181 99517 71722 46/// /3606 11015 21077 40137 53003 91750 22200 00042 10903 20501 3//// 40902 70013 333 91208 555 11063 22065 31701 40309 61749 001059 010058 019056 016052 019065 005062 80308 91701
BBXX 44007 30181 99435 70701 46/// /0602 11002 21080 40191 56015 91750 22200 00078 11001 3//// 41001 70005 333 91203 555 11021 22022 31736 40504 61749 063023 055024 070022 070018 069018 069016
BBXX 46026 30181 99378 71228 46/// /2202 10112 40234 51013 91750 22200 00113 11905 20301 329// 41905 70024 333 91202 555 11018 22018 31707 43303 61749 228016 317016 326017 313016 320020 334016
BBXX 46041 30181 99474 71247 46/// /3007 10071 40085 53044 91750 22200 00086 11110 20603 3//// 41109 70049 333 91209 555 11073 22076 31728 42917 61749 302073 301104 280111 282098 290105 278092
BBXX 51004 30181 99175 71524 46/// /0608 10243 20196 91750 555 11089 22095
BBXX 51002 30181 99171 71578 46/// /0708 10239 40171 53013 91750 22200 00246 333 91210 555 11085 22090 31736 40711 61749 070080 073086 072087 070085 071084 076081
AAXX 30181 78221 31462 50806 10254 20194 30169 40196 57020 70222 85200 333 85815
AAXX 30181 78224 31560 29902 10272 20143 30117 40190 58019 70544 82100 333 82825
AAXX 30181 78229 32559 31001 10194 20169 30126 40201 52010 83200 333 83820
AAXX 30181 78239 31559 50505 10250 20210 30183 40186 57020 70560 85800 333 10260 20216 84820
AAXX 30181 12345 42560 41003 10276 20200 30136 40180 57024 84100 333 84820
AAXX 30181 78243 42559 40806 10255 20192 30068 40191 57023 84210 333 84820
AAXX 30181 78255 42559 30405 10278 20184 30039 40188 57020 83200 333 10280 20190 83820
AAXX 30181 78264 31559 22004 10295 20181 30092 40167 57030 70500 82100 333 10319 20205 82825
AAXX 30181 78265 31560 30703 10303 20149 30070 40170 57030 70344 83200 333 10303 20173 83830
AAXX 30181 78256 11559 20602 10308 20118 30120 40180 57027 60004 70544 82100 333 10314 20183 82825
AAXX 30181 78259 31559 40803 10325 20115 30090 40180 57027 70544 84200 333 10325 20156 84820
AAXX 30181 78268 11460 50703 10278 20240 30163 40182 57021 60001 70311 83200 333 83815 83820
AAXX 30181 14648 11665 83602 10044 20032 39978 40100 55000 60052 76166 8352/ 333 10075 83643 88458
AAXX 30181 14652 11000 83606 11060 21063 37817 48388 53004 60012 77174 8802/ 333 11059 49073 88500
AAXX 30181 14542 11510 83401 10014 20004 39943 40138 53012 60012 76076 8802/ 333 10014 42001 88533 95990
AAXX 30184 91503 31470 50000 10252 20243 40072 5//// 70522 81838 333 56000 81815 85279
AAXX 30184 91517 01470 81806 10245 20239 40080 57007 69921 78022 889// 333 56699 69927 84815 81916 83625
AAXX 30181 10044 46/// /2808 10039 20015 30045 40077 51030 222// 00058 333 10062 20032 55300 91120 91216
AAXX 30181 10124 46/// ///// 10061 2//// 30067 40105 51016 222// 00060 333 10069 20049 553// 911// 912//
AAXX 30184 65201 31957 61904 10284 20246 30071 40124 70522 80008 333 10345 56000 59004 86280 91106
BBXX DBEA 30181 99540 10084 46/// /3209 10062 20027 40104 52022 22270 00055
BBXX BATFR42 30184 99498 70017 46/// /2636 10117 20112 40169 22245 00122
AAXX 30181 14528 NIL
AAXX 30181 14537 NIL
AAXX 30181 14544 NIL
AAXX 30181 14557 11630 70000 10012 20009 39751 40126 52010 60012 76064 85570 333 85633 86360 87461
AAXX 30181 14640 NIL
BBXX DBFH 30181 99535 10086 46/// /3005 10057 20029 40113 52014 22270 00059
BBXX BATFR60 30184 99466 70033 46/// /2727 10129 20114 40260 58001 22232 00125
BBXX BATEU08 30184 99588 70188 46/// /2731 10079 20054 49922 53014 22223
AAXX 30181 10870 01465 82704 10012 20008 39635 40181 53024 60032 72687 878// 333 10026 20004 3/000 42997 55300 69987 81811 85615 86638 96286 96486 96471 96461
BBXX DBKR 30181 99541 10121 46/// /3206 10045 20045 40055 52025 22200 00056
BBXX DBBC 30181 99535 10100 46/// /2905 10050 20028 40093 52019 22210 00059
BBXX DBBA 30181 99541 10121 46/// /3108 10045 20027 40054 52025 22220 00054
BBXX DBJM 30181 99542 10079 46/// /3109 10064 20016 40107 52016 22260 00075
BBXX 41101 30184 99146 70562 46/// /0721 10265 20223 40150 57016 22200 00269 10907 70035 555 1/028
BBXX DBBI 30181 99535 10100 46/// /2905 10050 20050 40090 52018 22260 00056
BBXX 61001 30184 99434 10078 46/// /0612 10141 20036 40130 52038 22200 00140 10804 70022
AAXX 30181 76040 32960 02301 10170 20081 30176 40190 52014 91750 333 10236 20061 30/// 59012 98660
AAXX 30181 76055 32980 00902 10208 21040 30147 40166 52004 91740 333 10252 20085 30/// 59022
AAXX 30181 76113 32980 02101 10182 20024 39696 40168 52005 91745 333 10188 20046 30/// 58000
AAXX 30181 76122 32970 00000 10164 21034 38569 40226 57003 91750 333 10169 20000 30/// 58007
AAXX 30181 76220 32958 00000 10064 21057 38196 40322 54000 91735 333 10064 21072 30/// 58008
AAXX 30181 76225 32960 00701 10170 21058 38663 40205 57004 91745 333 10170 20015 30/// 58012
AAXX 30181 76256 32980 00000 10192 20004 30173 40187 57021 91745 333 10202 20060 30/// 58009
AAXX 30181 76305 32970 10601 10228 20027 30170 40178 52009 81010 91735 333 10233 20080 30/// 56040 58001 81460
AAXX 30181 76323 32970 00601 10190 20004 38306 40291 58003 91755 333 10200 20000 30/// 59003
AAXX 30181 76342 3296 02201 10260 21061 39506 40220 52012 91750 333 10268 20100 30/// 59003
AAXX 30181 76382 32980 00701 10190 20060 38940 40223 54000 91745 333 10196 20034 30/// 59002
AAXX 30181 76390 31968 02002 10198 21087 38257 40200 52005 70544 91730 333 10210 20025 30/// 58007
AAXX 30181 76402 31957 10000 10198 20134 30115 40120 52006 70544 80004 91745 333 10198 20066 30/// 56005 58009
AAXX 30181 76423 32580 30000 10172 21045 38182 40200 58003 81405 91740 333 10187 20047 30/// 56909 58008 81630 82067
AAXX 30181 76458 32970 11503 10234 20128 30158 40162 55002 80001 91737 333 10251 20101 30/// 56//3 58009 81072
AAXX 30181 76471 32980 00000 10188 20004 37714 40150 52004 91750 333 10190 20081 30/// 58007
AAXX 30181 76491 32960 60000 10242 20114 39795 40194 54000 80004 91750 333 10246 20080 30/// 56009 59018 81077
AAXX 30181 76499 31860 40000 10231 20137 30144 40166 54000 70222 84030 91750 333 10232 20087 30/// 56090 59028 84357
AAXX 30181 76525 32980 53304 10132 21008 37493 40157 52003 80006 91740 333 10132 20098 30/// 56//5 58002 85080
AAXX 30181 76543 31870 20702 10256 20143 30148 40181 58005 70544 81085 91745 333 10256 20105 30/// 56075 59031
AAXX 30181 76548 31870 12502 10238 20175 30167 40177 58001 70144 81030 91745 333 10244 20162 30/// 5606/ 59029 81357
AAXX 30181 76556 32970 40203 10242 20122 39134 40166 51007 84030 91735 333 10248 20124 30/// 56070 58008 84360
AAXX 30181 76571 32975 51801 10212 20054 38185 40203 55003 80004 91748 333 10214 20052 30/// 56005 58001 85067
AAXX 30181 76577 32970 42304 10200 20159 38060 40180 58001 80003 91740 333 10205 20085 30/// 56005 58001
AAXX 30181 76581 32975 40402 10237 20098 39057 40181 57014 80006 91750 333 10244 20048 30/// 56006 59026 84070
AAXX 30181 76585 32980 00901 10212 20158 39998 40158 58013 91740 333 10230 20090 30/// 59034
AAXX 30181 76593 32370 40504 10272 20256 30171 40173 57015 83240 91750 333 10310 20202 30/// 5611/ 59010 83820 81330 91005 91505
AAXX 30181 76612 32962 20000 10237 20145 38488 40174 58004 80001 91750 333 10247 20099 30/// 56006 59003 82072
AAXX 30181 76625 32960 00000 10236 20074 38162 40147 57007 91755 333 10239 20113 30/// 58005
AAXX 30181 76632 31660 32104 10182 20081 37647 40142 57005 70500 83400 91740 333 10187 20092 30/// 56300 59003 83641 98560
AAXX 30181 76634 31570 23203 10220 20070 37866 40167 57006 70500 82200 91450 333 10226 20092 30/// 563// 58002 82827
AAXX 30181 76644 32460 61102 10298 20207 30153 40165 57020 86200 91750 333 10302 20200 30/// 56300 59007 86820 91005 91511
AAXX 30181 76654 31450 22701 10278 20215 30160 40164 57007 70544 82200 91750 333 10279 20231 30/// 56100 87814 58002 81820
AAXX 30181 76658 31556 32302 10267 20161 39654 40162 57007 70540 81234 91743 333 10277 20180 30/// 56811 58016 81822 81358 81070 94083 98904
AAXX 30181 76662 32670 42601 10232 20131 38483 40174 57004 81101 91748 333 10242 20065 30/// 56/0/ 58005 81833 83070
AAXX 30181 76675 31575 12902 10180 20039 37393 40202 57005 70544 81200 91745 333 10184 20006 30/// 569// 59002 81826 98475
AAXX 30181 76680 31556 30501 10198 20072 37768 40106 57009 70500 83200 91755 333 10202 20085 30/// 56100 59001 83828
AAXX 30181 76681 31960 00502 10210 20065 37798 40176 57010 70500 91745 333 10210 20054 30/// 58003
AAXX 30181 76683 31662 40901 10210 20092 37838 40198 56015 70544 84200 91745 333 10220 20064 30/// 56100 58003 84840 94011 94181
AAXX 30181 76685 31550 23601 10204 20072 37884 40168 52005 70544 82100 91750 333 10206 20080 30/// 56900 58013 82827
AAXX 30181 76687 31570 10701 10216 20128 38693 40191 50002 70300 81500 91740 333 10218 20100 30/// 563// 59018 81626
AAXX 30181 76692 31550 30601 10244 20206 30149 40168 58002 71042 832// 91445 333 10254 20174 30/// 563// 59023 81820 82724
AAXX 30181 76695 32560 20603 10308 20225 30149 40154 57013 82100 91750 333 10310 20225 30/// 562// 59010 82828
AAXX 30181 76698 32560 70902 10282 20231 30165 40176 57014 87200 91750 333 10303 20202 30/// 56200 59002 87820
AAXX 30181 76726 32970 02001 10263 20167 38401 40113 52007 91755 333 10263 20142 30/// 59013
AAXX 30181 76737 31480 21602 10216 20144 38783 40173 58002 70300 82200 91735 333 10217 20109 30/// 56200 59020 82817 91106 91516
AAXX 30181 76743 31457 60901 10265 20221 30147 40155 57012 70211 861// 91750 333 10283 20210 30/// 562// 59020 86818
AAXX 30181 76750 32560 31103 10301 20230 30162 40172 57009 83100 91745 333 10321 20206 30/// 56300 58003 83820
AAXX 30181 76762 31504 13601 10281 20226 38772 40146 58007 70400 81200 91730 333 10284 20160 30/// 56300 59012 81830
AAXX 30181 76773 31566 13601 10242 20109 38436 40165 57014 70544 81100 91746 333 10244 20084 30/// 56200 58000 81820
AAXX 30181 76775 31560 11202 10260 20111 38533 40177 57015 70300 81100 91735 333 10274 20102 30/// 56800 59002 81627
AAXX 30181 76805 32570 12503 10296 20223 30133 40137 57021 81200 91750 333 10320 20222 30/// 567// 59005 81830
AAXX 30181 76833 32970 03604 10314 20189 30131 40133 57014 91745 333 10314 20224 30/// 59011 92001
AAXX 30181 76840 32560 20000 10328 20196 30089 40145 55001 82100 91745 333 10335 20198 30/// 569// 59007 82827
AAXX 30181 76843 32965 03601 10258 20166 39501 40146 58002 91736 333 10268 20175 30/// 59001
AAXX 30181 76845 32960 00000 10210 20135 37955 40183 56015 91750 333 10220 20066 30/// 58000
AAXX 30181 76848 32770 10501 10239 20099 38391 40103 51001 81100 91750 333 10242 20137 30/// 56100 58002 81850
AAXX 30181 76160 32962 00501 10190 20024 39928 40180 52006 91730 333 10190 20075 30/// 58008
AAXX 30181 76243 32974 02703 10192 20058 39892 40193 52017 91730 333 10204 20048 30/// 58008
AAXX 30181 76405 32980 12401 10225 20109 30151 40173 50002 80001 91750 333 10225 20088 30/// 56005 58001 81070
AAXX 30181 76640 31458 31402 10240 20200 30169 40181 57003 70200 832// 91740 333 10256 20174 30/// 563// 59038 83817
AAXX 30181 76647 32570 61402 10287 20214 30153 40184 58011 86200 91750 333 10296 20202 30/// 56300 59007 86830
AAXX 30181 76656 32965 11601 10240 20106 38522 40178 58007 80002 91750 333 10248 20078 30/// 56005 58002 81080
AAXX 30181 76855 32980 01801 10304 20220 30070 40119 56008 91745 333 10312 20210 30/// 59016 92000
BBXX DBCK 30181 99/// ///// 46/// ///// 10058 20056 40109 52015 22220 00054
BBXX DBND 30181 99536 10086 46/// /3005 10060 20032/40109 52016 22260 0006/
AAXX 30184 91503 31470 50000 10252 20243 40072 5//// 70522 81838 333 56000 81815 85279
AAXX 30184 91517 01470 81806 10245 20239 40080 57007 69921 78022 889// 333 56699 69927 84815 81916 83625
BBXX CGUM 30184 99447 70636 46/// /2809 10009 21099 40181 51009 7//// 8//// 22200 0//// 2////
AAXX 30181 76040 32960 02301 10170 20081 30176 40190 52014 91750 333 10236 20061 30/// 59012 98660
AAXX 30181 76055 32980 00902 10208 21040 30147 40166 52004 91740 333 10252 20085 30/// 59022
AAXX 30181 76113 32980 02101 10182 20024 39696 40168 52005 91745 333 10188 20046 30/// 58000
AAXX 30181 76122 32970 00000 10164 21034 38569 40226 57003 91750 333 10169 20000 30/// 58007
AAXX 30181 76220 32958 00000 10064 21057 38196 40322 54000 91735 333 10064 21072 30/// 58008
AAXX 30181 76225 32960 00701 10170 21058 38663 40205 57004 91745 333 10170 20015 30/// 58012
AAXX 30181 76256 32980 00000 10192 20004 30173 40187 57021 91745 333 10202 20060 30/// 58009
AAXX 30181 76305 32970 10601 10228 20027 30170 40178 52009 81010 91735 333 10233 20080 30/// 56040 58001 81460
AAXX 30181 76323 32970 00601 10190 20004 38306 40291 58003 91755 333 10200 20000 30/// 59003
AAXX 30181 76342 3296 02201 10260 21061 39506 40220 52012 91750 333 10268 20100 30/// 59003
AAXX 30181 76382 32980 00701 10190 20060 38940 40223 54000 91745 333 10196 20034 30/// 59002
AAXX 30181 76390 31968 02002 10198 21087 38257 40200 52005 70544 91730 333 10210 20025 30/// 58007
AAXX 30181 76402 31957 10000 10198 20134 30115 40120 52006 70544 80004 91745 333 10198 20066 30/// 56005 58009
AAXX 30181 76423 32580 30000 10172 21045 38182 40200 58003 81405 91740 333 10187 20047 30/// 56909 58008 81630 82067
AAXX 30181 76458 32970 11503 10234 20128 30158 40162 55002 80001 91737 333 10251 20101 30/// 56//3 58009 81072
AAXX 30181 76471 32980 00000 10188 20004 37714 40150 52004 91750 333 10190 20081 30/// 58007
AAXX 30181 76491 32960 60000 10242 20114 39795 40194 54000 80004 91750 333 10246 20080 30/// 56009 59018 81077
AAXX 30181 76499 31860 40000 10231 20137 30144 40166 54000 70222 84030 91750 333 10232 20087 30/// 56090 59028 84357
AAXX 30181 76525 32980 53304 10132 21008 37493 40157 52003 80006 91740 333 10132 20098 30/// 56//5 58002 85080
AAXX 30181 76543 31870 20702 10256 20143 30148 40181 58005 70544 81085 91745 333 10256 20105 30/// 56075 59031
AAXX 30181 76548 31870 12502 10238 20175 30167 40177 58001 70144 81030 91745 333 10244 20162 30/// 5606/ 59029 81357
AAXX 30181 76556 32970 40203 10242 20122 39134 40166 51007 84030 91735 333 10248 20124 30/// 56070 58008 84360
AAXX 30181 76571 32975 51801 10212 20054 38185 40203 55003 80004 91748 333 10214 20052 30/// 56005 58001 85067
AAXX 30181 76577 32970 42304 10200 20159 38060 40180 58001 80003 91740 333 10205 20085 30/// 56005 58001
AAXX 30181 76581 32975 40402 10237 20098 39057 40181 57014 80006 91750 333 10244 20048 30/// 56006 59026 84070
AAXX 30181 76585 32980 00901 10212 20158 39998 40158 58013 91740 333 10230 20090 30/// 59034
AAXX 30181 76593 32370 40504 10272 20256 30171 40173 57015 83240 91750 333 10310 20202 30/// 5611/ 59010 83820 81330 91005 91505
AAXX 30181 76612 32962 20000 10237 20145 38488 40174 58004 80001 91750 333 10247 20099 30/// 56006 59003 82072
AAXX 30181 76625 32960 00000 10236 20074 38162 40147 57007 91755 333 10239 20113 30/// 58005
AAXX 30181 76632 31660 32104 10182 20081 37647 40142 57005 70500 83400 91740 333 10187 20092 30/// 56300 59003 83641 98560
AAXX 30181 76634 31570 23203 10220 20070 37866 40167 57006 70500 82200 91450 333 10226 20092 30/// 563// 58002 82827
AAXX 30181 76644 32460 61102 10298 20207 30153 40165 57020 86200 91750 333 10302 20200 30/// 56300 59007 86820 91005 91511
AAXX 30181 76654 31450 22701 10278 20215 30160 40164 57007 70544 82200 91750 333 10279 20231 30/// 56100 87814 58002 81820
AAXX 30181 76658 31556 32302 10267 20161 39654 40162 57007 70540 81234 91743 333 10277 20180 30/// 56811 58016 81822 81358 81070 94083 98904
AAXX 30181 76662 32670 42601 10232 20131 38483 40174 57004 81101 91748 333 10242 20065 30/// 56/0/ 58005 81833 83070
AAXX 30181 76675 31575 12902 10180 20039 37393 40202 57005 70544 81200 91745 333 10184 20006 30/// 569// 59002 81826 98475
AAXX 30181 76680 31556 30501 10198 20072 37768 40106 57009 70500 83200 91755 333 10202 20085 30/// 56100 59001 83828
AAXX 30181 76681 31960 00502 10210 20065 37798 40176 57010 70500 91745 333 10210 20054 30/// 58003
AAXX 30181 76683 31662 40901 10210 20092 37838 40198 56015 70544 84200 91745 333 10220 20064 30/// 56100 58003 84840 94011 94181
AAXX 30181 76685 31550 23601 10204 20072 37884 40168 52005 70544 82100 91750 333 10206 20080 30/// 56900 58013 82827
AAXX 30181 76687 31570 10701 10216 20128 38693 40191 50002 70300 81500 91740 333 10218 20100 30/// 563// 59018 81626
AAXX 30181 76692 31550 30601 10244 20206 30149 40168 58002 71042 832// 91445 333 10254 20174 30/// 563// 59023 81820 82724
AAXX 30181 76695 32560 20603 10308 20225 30149 40154 57013 82100 91750 333 10310 20225 30/// 562// 59010 82828
AAXX 30181 76698 32560 70902 10282 20231 30165 40176 57014 87200 91750 333 10303 20202 30/// 56200 59002 87820
AAXX 30181 76726 32970 02001 10263 20167 38401 40113 52007 91755 333 10263 20142 30/// 59013
AAXX 30181 76737 31480 21602 10216 20144 38783 40173 58002 70300 82200 91735 333 10217 20109 30/// 56200 59020 82817 91106 91516
AAXX 30181 76743 31457 60901 10265 20221 30147 40155 57012 70211 861// 91750 333 10283 20210 30/// 562// 59020 86818
AAXX 30181 76750 32560 31103 10301 20230 30162 40172 57009 83100 91745 333 10321 20206 30/// 56300 58003 83820
AAXX 30181 76762 31504 13601 10281 20226 38772 40146 58007 70400 81200 91730 333 10284 20160 30/// 56300 59012 81830
AAXX 30181 76773 31566 13601 10242 20109 38436 40165 57014 70544 81100 91746 333 10244 20084 30/// 56200 58000 81820
AAXX 30181 76775 31560 11202 10260 20111 38533 40177 57015 70300 81100 91735 333 10274 20102 30/// 56800 59002 81627
AAXX 30181 76805 32570 12503 10296 20223 30133 40137 57021 81200 91750 333 10320 20222 30/// 567// 59005 81830
AAXX 30181 76833 32970 03604 10314 20189 30131 40133 57014 91745 333 10314 20224 30/// 59011 92001
AAXX 30181 76840 32560 20000 10328 20196 30089 40145 55001 82100 91745 333 10335 20198 30/// 569// 59007 82827
AAXX 30181 76843 32965 03601 10258 20166 39501 40146 58002 91736 333 10268 20175 30/// 59001
AAXX 30181 76845 32960 00000 10210 20135 37955 40183 56015 91750 333 10220 20066 30/// 58000
AAXX 30181 76848 32770 10501 10239 20099 38391 40103 51001 81100 91750 333 10242 20137 30/// 56100 58002 81850
AAXX 30181 76160 32962 00501 10190 20024 39928 40180 52006 91730 333 10190 20075 30/// 58008
AAXX 30181 76243 32974 02703 10192 20058 39892 40193 52017 91730 333 10204 20048 30/// 58008
AAXX 30181 76405 32980 12401 10225 20109 30151 40173 50002 80001 91750 333 10225 20088 30/// 56005 58001 81070
AAXX 30181 76640 31458 31402 10240 20200 30169 40181 57003 70200 832// 91740 333 10256 20174 30/// 563// 59038 83817
AAXX 30181 76647 32570 61402 10287 20214 30153 40184 58011 86200 91750 333 10296 20202 30/// 56300 59007 86830
AAXX 30181 76656 32965 11601 10240 20106 38522 40178 58007 80002 91750 333 10248 20078 30/// 56005 58002 81080
AAXX 30181 76855 32980 01801 10304 20220 30070 40119 56008 91745 333 10312 20210 30/// 59016 92000
AAXX 30181 76040 32960 02301 10170 20081 30176 40190 52014 91750 33310236 20061 30/// 59012 98660
AAXX 30181 76055 32980 00902 10208 21040 30147 40166 52004 91740 33310252 20085 30/// 59022
AAXX 30181 76113 32980 02101 10182 20024 39696 40168 52005 91745 33310188 20046 30/// 58000
AAXX 30181 76122 32970 00000 10164 21034 38569 40226 57003 91750 33310169 20000 30/// 58007
AAXX 30181 76220 32958 00000 10064 21057 38196 40322 54000 91735 33310064 21072 30/// 58008
AAXX 30181 76225 32960 00701 10170 21058 38663 40205 57004 91745 33310170 20015 30/// 58012
AAXX 30181 76256 32980 00000 10192 20004 30173 40187 57021 91745 33310202 20060 30/// 58009
AAXX 30181 76305 32970 10601 10228 20027 30170 40178 52009 81010 91735333 10233 20080 30/// 56040 58001 81460
AAXX 30181 76323 32970 00601 10190 20004 38306 40291 58003 91755 33310200 20000 30/// 59003
AAXX 30181 76342 3296 02201 10260 21061 39506 40220 52012 91750 333 10268 20100 30/// 59003
AAXX 30181 76382 32980 00701 10190 20060 38940 40223 54000 91745 33310196 20034 30/// 59002
AAXX 30181 76390 31968 02002 10198 21087 38257 40200 52005 70544 91730333 10210 20025 30/// 58007
AAXX 30181 76402 31957 10000 10198 20134 30115 40120 52006 70544 8000491745 333 10198 20066 30/// 56005 58009
AAXX 30181 76423 32580 30000 10172 21045 38182 40200 58003 81405 91740333 10187 20047 30/// 56909 58008 81630 82067
AAXX 30181 76458 32970 11503 10234 20128 30158 40162 55002 80001 91737333 10251 20101 30/// 56//3 58009 81072
AAXX 30181 76471 32980 00000 10188 20004 37714 40150 52004 91750 33310190 20081 30/// 58007
AAXX 30181 76491 32960 60000 10242 20114 39795 40194 54000 80004 91750333 10246 20080 30/// 56009 59018 81077
AAXX 30181 76499 31860 40000 10231 20137 30144 40166 54000 70222 8403091750 333 10232 20087 30/// 56090 59028 84357
AAXX 30181 76525 32980 53304 10132 21008 37493 40157 52003 80006 91740333 10132 20098 30/// 56//5 58002 85080
AAXX 30181 76543 31870 20702 10256 20143 30148 40181 58005 70544 8108591745 333 10256 20105 30/// 56075 59031
AAXX 30181 76548 31870 12502 10238 20175 30167 40177 58001 70144 8103091745 333 10244 20162 30/// 5606/ 59029 81357
AAXX 30181 76556 32970 40203 10242 20122 39134 40166 51007 84030 91735333 10248 20124 30/// 56070 58008 84360
AAXX 30181 76571 32975 51801 10212 20054 38185 40203 55003 80004 91748333 10214 20052 30/// 56005 58001 85067
AAXX 30181 76577 32970 42304 10200 20159 38060 40180 58001 80003 91740333 10205 20085 30/// 56005 58001
AAXX 30181 76581 32975 40402 10237 20098 39057 40181 57014 80006 91750333 10244 20048 30/// 56006 59026 84070
AAXX 30181 76585 32980 00901 10212 20158 39998 40158 58013 91740 33310230 20090 30/// 59034
AAXX 30181 76593 32370 40504 10272 20256 30171 40173 57015 83240 91750333 10310 20202 30/// 5611/ 59010 83820 81330 91005 91505
AAXX 30181 76612 32962 20000 10237 20145 38488 40174 58004 80001 91750333 10247 20099 30/// 56006 59003 82072
AAXX 30181 76625 32960 00000 10236 20074 38162 40147 57007 91755 33310239 20113 30/// 58005
AAXX 30181 76632 31660 32104 10182 20081 37647 40142 57005 70500 8340091740 333 10187 20092 30/// 56300 59003 83641 98560
AAXX 30181 76634 31570 23203 10220 20070 37866 40167 57006 70500 8220091450 333 10226 20092 30/// 563// 58002 82827
AAXX 30181 76644 32460 61102 10298 20207 30153 40165 57020 86200 91750333 10302 20200 30/// 56300 59007 86820 91005 91511
AAXX 30181 76654 31450 22701 10278 20215 30160 40164 57007 70544 8220091750 333 10279 20231 30/// 56100 87814 58002 81820
AAXX 30181 76658 31556 32302 10267 20161 39654 40162 57007 70540 8123491743 333 10277 20180 30/// 56811 58016 81822 81358 8107094083 98904
AAXX 30181 76662 32670 42601 10232 20131 38483 40174 57004 81101 91748333 10242 20065 30/// 56/0/ 58005 81833 83070
AAXX 30181 76675 31575 12902 10180 20039 37393 40202 57005 70544 8120091745 333 10184 20006 30/// 569// 59002 81826 98475
AAXX 30181 76680 31556 30501 10198 20072 37768 40106 57009 70500 8320091755 333 10202 20085 30/// 56100 59001 83828
AAXX 30181 76681 31960 00502 10210 20065 37798 40176 57010 70500 91745333 10210 20054 30/// 58003
AAXX 30181 76683 31662 40901 10210 20092 37838 40198 56015 70544 8420091745 333 10220 20064 30/// 56100 58003 84840 94011 94181
AAXX 30181 76685 31550 23601 10204 20072 37884 40168 52005 70544 8210091750 333 10206 20080 30/// 56900 58013 82827
AAXX 30181 76687 31570 10701 10216 20128 38693 40191 50002 70300 8150091740 333 10218 20100 30/// 563// 59018 81626
AAXX 30181 76692 31550 30601 10244 20206 30149 40168 58002 71042 832//91445 333 10254 20174 30/// 563// 59023 81820 82724
AAXX 30181 76695 32560 20603 10308 20225 30149 40154 57013 82100 91750333 10310 20225 30/// 562// 59010 82828
AAXX 30181 76698 32560 70902 10282 20231 30165 40176 57014 87200 91750333 10303 20202 30/// 56200 59002 87820
AAXX 30181 76726 32970 02001 10263 20167 38401 40113 52007 91755 33310263 20142 30/// 59013
AAXX 30181 76737 31480 21602 10216 20144 38783 40173 58002 70300 8220091735 333 10217 20109 30/// 56200 59020 82817 91106 91516
AAXX 30181 76743 31457 60901 10265 20221 30147 40155 57012 70211 861//91750 333 10283 20210 30/// 562// 59020 86818
AAXX 30181 76750 32560 31103 10301 20230 30162 40172 57009 83100 91745333 10321 20206 30/// 56300 58003 83820
AAXX 30181 76762 31504 13601 10281 20226 38772 40146 58007 70400 8120091730 333 10284 20160 30/// 56300 59012 81830
AAXX 30181 76773 31566 13601 10242 20109 38436 40165 57014 70544 8110091746 333 10244 20084 30/// 56200 58000 81820
AAXX 30181 76775 31560 11202 10260 20111 38533 40177 57015 70300 8110091735 333 10274 20102 30/// 56800 59002 81627
AAXX 30181 76805 32570 12503 10296 20223 30133 40137 57021 81200 91750333 10320 20222 30/// 567// 59005 81830
AAXX 30181 76833 32970 03604 10314 20189 30131 40133 57014 91745 33310314 20224 30/// 59011 92001
AAXX 30181 76840 32560 20000 10328 20196 30089 40145 55001 82100 91745333 10335 20198 30/// 569// 59007 82827
AAXX 30181 76843 32965 03601 10258 20166 39501 40146 58002 91736 33310268 20175 30/// 59001
AAXX 30181 76845 32960 00000 10210 20135 37955 40183 56015 91750 33310220 20066 30/// 58000
AAXX 30181 76848 32770 10501 10239 20099 38391 40103 51001 81100 91750333 10242 20137 30/// 56100 58002 81850
AAXX 30181 76160 32962 00501 10190 20024 39928 40180 52006 91730 33310190 20075 30/// 58008
AAXX 30181 76243 32974 02703 10192 20058 39892 40193 52017 91730 33310204 20048 30/// 58008
AAXX 30181 76405 32980 12401 10225 20109 30151 40173 50002 80001 91750333 10225 20088 30/// 56005 58001 81070
AAXX 30181 76640 31458 31402 10240 20200 30169 40181 57003 70200 832//91740 333 10256 20174 30/// 563// 59038 83817
AAXX 30181 76647 32570 61402 10287 20214 30153 40184 58011 86200 91750333 10296 20202 30/// 56300 59007 86830
AAXX 30181 76656 32965 11601 10240 20106 38522 40178 58007 80002 91750333 10248 20078 30/// 56005 58002 81080
AAXX 30181 76855 32980 01801 10304 20220 30070 40119 56008 91745 33310312 20210 30/// 59016 92000
AAXX 30184 78866 02480 61216 10278 20218 30173 40178 57023 60001 86461 333 59001 60007 86818
AAXX 30181 02741 17599 83103 11010 21031 39961 49977 52022 60032 70087 88/// 91739 333 10015 21012
AAXX 30181 02755 37262 82602 11020 21024 39806 49901 52015 77187 88/// 91739 333 11012 21021
AAXX 30181 02805 17513 83403 11057 21072 39862 49997 52007 60012 77187 88/// 91739 333 11051 21076
AAXX 30181 02807 47650 80405 11052 21057 39783 49968 771// 88/// 91800 333 11049 21075
AAXX 30181 02836 47450 70603 11054 21062 39707 49932 52009 77170 87/// 91739 333 11054 21060
AAXX 30181 02845 47542 80505 11051 21052 39658 49909 52012 77476 88/// 91739 333 11048 21052
AAXX 30181 02849 47433 70903 11048 21057 39645 49921 52010 77170 87/// 91739 333 11046 21050
AAXX 30181 02866 17565 80603 11031 21031 39741 49890 52011 69962 77187 88/// 91739 333 11006 21031
AAXX 30181 02897 47108 82603 11009 21009 39704 49885 785// 88/// 91800 333 10003 21009
AAXX 30181 02913 47557 82703 11026 21034 39869 49921 777// 88/// 333 11001 21026
AAXX 30181 02917 47283 82905 10004 20003 39765 49886 785// 88/// 91800 333 10010 21003
AAXX 30181 02924 47361 82901 11024 21029 39722 49920 52022 77187 88/// 91739 333 10011 21025
AAXX 30181 02926 17480 83202 11008 21015 39936 49948 52018 69972 724// 88/// 91800 333 10018 21012
AAXX 30181 02935 17344 82903 11013 21020 39739 49912 52030 60042 77787 88/// 91739 333 10010 21014
AAXX 30181 02939 17128 81703 10003 20003 39686 49878 52005 60022 77187 88/// 91739 333 10013 20003
AAXX 30181 02944 47280 82703 11019 21022 39789 49937 771// 88/// 91800 333 10006 21019
AAXX 30181 02947 47384 82603 10007 20003 49909 52033 70072 88/// 91751 333 10022 20004
AAXX 30181 02963 46/// /3003 11013 21021 49940 333 1//// 2////
AAXX 30181 02974 11380 72806 10008 21007 39871 49937 52027 69942 76162 875// 333 10037 20007 32///
AAXX 30181 02976 46/// /2805 10026 20023 39908 49924 52023 91739 333 10040 20026
AAXX 30181 02981 37499 83110 10007 2//// 39959 49969 52025 70087 88/// 91739 333 10034 20007
AAXX 30181 02982 46/// /3109 10016 21013 39947 49955 52025 91739 333 10039 20014
AAXX 30184 78016 11464 81906 10199 20179 30222 40226 56027 60011 78086 8677/ 333 10202 20162 70010 90931
AAXX 30181 02741 17599 83103 11010 21031 39961 49977 52022 60032 70087 88/// 91739 333 10015 21012
AAXX 30181 02755 37262 82602 11020 21024 39806 49901 52015 77187 88/// 91739 333 11012 21021
AAXX 30181 02805 17513 83403 11057 21072 39862 49997 52007 60012 77187 88/// 91739 333 11051 21076
AAXX 30181 02807 47650 80405 11052 21057 39783 49968 771// 88/// 91800 333 11049 21075
AAXX 30181 02836 47450 70603 11054 21062 39707 49932 52009 77170 87/// 91739 333 11054 21060
AAXX 30181 02845 47542 80505 11051 21052 39658 49909 52012 77476 88/// 91739 333 11048 21052
AAXX 30181 02849 47433 70903 11048 21057 39645 49921 52010 77170 87/// 91739 333 11046 21050
AAXX 30181 02866 17565 80603 11031 21031 39741 49890 52011 69962 77187 88/// 91739 333 11006 21031
AAXX 30181 02897 47108 82603 11009 21009 39704 49885 785// 88/// 91800 333 10003 21009
AAXX 30181 02913 47557 82703 11026 21034 39869 49921 777// 88/// 333 11001 21026
AAXX 30181 02917 47283 82905 10004 20003 39765 49886 785// 88/// 91800 333 10010 21003
AAXX 30181 02924 47361 82901 11024 21029 39722 49920 52022 77187 88/// 91739 333 10011 21025
AAXX 30181 02926 17480 83202 11008 21015 39936 49948 52018 69972 724// 88/// 91800 333 10018 21012
AAXX 30181 02935 17344 82903 11013 21020 39739 49912 52030 60042 77787 88/// 91739 333 10010 21014
AAXX 30181 02939 17128 81703 10003 20003 39686 49878 52005 60022 77187 88/// 91739 333 10013 20003
AAXX 30181 02944 47280 82703 11019 21022 39789 49937 771// 88/// 91800 333 10006 21019
AAXX 30181 02947 47384 82603 10007 20003 49909 52033 70072 88/// 91751 333 10022 20004
AAXX 30181 02963 46/// /3003 11013 21021 49940 333 1//// 2////
AAXX 30181 02974 11380 72806 10008 21007 39871 49937 52027 69942 76162 875// 333 10037 20007 32///
AAXX 30181 02976 46/// /2805 10026 20023 39908 49924 52023 91739 333 10040 20026
AAXX 30181 02981 37499 83110 10007 2//// 39959 49969 52025 70087 88/// 91739 333 10034 20007
AAXX 30181 02982 46/// /3109 10016 21013 39947 49955 52025 91739 333 10039 20014
BBXX 3FZK3 30184 99489 71237 46/// /2610 10071 20036 40011 51025 7//// 8//// 22200 0//// 2////
BBXX CGJV 30184 99457 70627 46/// /3207 11040 21114 40172 51018 7//// 8//// 22200 0//// 2////
BBXX CGHL 30184 99476 70527 46/// /3016 11008 21061 40048 51027 7//// 8//// 22200 0//// 2////
BBXX CGBY 30184 99487 71235 46/// /2215 10073 20030 40035 51030 7//// 8//// 22200 0//// 2////
BBXX CG2960 30184 99429 70824 46/// /1505 10032 20016 40076 58021 7//// 8//// 22200 0//// 2////
BBXX CZ9742 30184 99506 70969 46/// /1705 11087 21108 4//// 5//// 7//// 8//// 22200 0//// 2////
BBXX VCSZ 30184 99455 70735 46/// /0110 11130 21152 40178 58021 7//// 8//// 22200 0//// 2////
BBXX CG2958 30184 99532 71291 46/// /2718 10031 21002 49967 53074 7//// 8//// 22281 0//// 2////
BBXX CG2350 30184 99433 70798 46/// /3304 10006 20005 40102 58008 7//// 8//// 22200 0//// 2////
BBXX VOFG 30184 99456 70614 46/// /2918 11035 21090 40160 51023 7//// 8//// 22200 0//// 2////
BBXX CGSB 30184 99483 70709 46/// /1503 11180 21233 40248 53020 7//// 8//// 22262 00019 2////
BBXX CGDR 30184 99492 71239 46/// /1506 10078 20045 40009 51023 7//// 8//// 22200 00119 2////
BBXX VXKF 30184 99462 70602 46/// /2616 11053 21103 40140 51023 7//// 8//// 22200 0//// 2////
BBXX VOLG 30184 99449 70617 46/// /2619 10008 21073 40151 51023 7//// 8//// 22253 0//// 2////
BBXX VCWL 30184 99468 70712 46/// /2003 11132 21161 40207 58019 7//// 8//// 22200 0//// 2////
BBXX C6SI6 30184 99406 11444 46/// /3128 10034 21018 40096 56003 7//// 8//// 22213 0//// 2////
BBXX VCLM 30184 99468 70712 46/// /2007 11131 21156 40201 58017 7//// 8//// 22200 0//// 2////
BBXX VRYO3 30184 99456 70735 46/// /0113 11136 21167 40177 58023 7//// 8//// 22200 0//// 2////
BBXX VCBW 30184 99461 70731 46/// /0208 11136 21192 40272 58008 7//// 8//// 22252 00022 2////
BBXX VOPP 30184 99456 70735 46/// /0108 11132 21154 4//// 5//// 7//// 8//// 22200 0//// 2////
BBXX CGBR 30184 99507 71275 46/// /0903 10027 20026 40018 51100 7//// 8//// 22200 0//// 2////
BBXX CGJK 30184 99484 71234 46/// /2328 10072 20038 40040 51033 7//// 8//// 22200 0//// 2////
BBXX VOKJ 30184 99460 70732 46/// /0211 11142 21191 40194 58033 7//// 8//// 22252 0//// 2////
BBXX VOKF 30184 99490 70669 46/// /2208 11102 21140 40181 51019 7//// 8//// 22200 0//// 2////
BBXX CGTF 30184 99476 70527 46/// /1615 11010 21061 40048 51027 7//// 8//// 22200 0//// 2////
AAXX 30181 01001 11450 80913 11039 21045 30011 40023 58034 69912 77172 887// 333 11036 91116
AAXX 30181 01160 41989 20405 11011 21041 39969 49986 53016 70211 80001 333 11006 91107
AAXX 30184 78866 02480 61216 10278 20218 30173 40178 57023 60001 86461 333 59001 60007 86818
AAXX 30184 78016 11464 81906 10199 20179 30222 40226 56027 60011 78086 8677/ 333 10202 20162 70010 90931
AAXX 30184 78016 11464 81906 10199 20179 30222 40226 56027 60011 78086 8677/ 333 10202 20162 70010 90931
AAXX 30184 78866 02480 61216 10278 20218 30173 40178 57023 60001 86461 333 59001 60007 86818
AAXX 30184 68386 36/// /2902 10236 20194 39688 48612 52008 333 10297 20236 91002 555 91022
AAXX 30181 11423 01162 82706 11010 21013 39248 42746 53023 60032 72274 877// 333 11010 48011 69905 87702 91116
AAXX 30181 11487 01570 72706 10009 21009 39498 40131 51021 60012 72682 874// 333 10015 43002 69905 86622 87636 91011 91117
AAXX 30181 11518 01582 62405 10012 21007 39670 40117 52023 60012 70182 86500 333 10021 60005 83630 86640 91111
AAXX 30181 11603 01225 83103 10006 21009 39607 40097 51022 60022 77272 885// 333 10016 43002 69935 82706 83710 87615 91112
AAXX 30181 11659 01468 83004 10006 20005 39461 40110 52030 69992 72272 887// 333 10024 43002 69915 88718 91113
AAXX 30181 11723 01465 72604 10025 21006 39800 40102 53017 69932 76876 86530 333 10049 69905 85715 86620 91112
AAXX 30181 11782 01665 82208 10018 20001 39773 40082 52008 60012 72186 8657/ 333 10033 69905 82633 85650 88357
BBXX CGCC 30184 99463 70725 46/// /0504 11132 21190 40204 57024 7//// 8//// 22200 0//// 2////
BBXX VAAP 30184 99446 70635 46/// /2614 10006 21091 40172 51009 7//// 8//// 22200 0//// 2////
BBXX CGDT 30184 99468 70712 46/// /1908 11124 21155 40208 58018 7//// 8//// 22200 0//// 2////
BBXX CGDX 30184 99468 70712 46/// /1904 11121 21158 40209 58017 7//// 8//// 22200 0//// 2////
BBXX CGDG 30184 99447 70636 46/// /2308 10007 21017 40178 51008 7//// 8//// 22200 0//// 2////
BBXX CGBN 30184 99447 70636 46/// /1702 10027 21072 40178 51008 7//// 8//// 22200 0//// 2////
BBXX VAAZ 30184 99/// ///// 46/// /2735 11003 21006 49875 53003 7//// 8//// 22200 0//// 2////
BBXX 41010 30181 99289 70785 46/// /1102 10216 40198 58023 91750 22200 00237 11402 300// 41402 70008 333 91203 555 11022 22022
BBXX 42057 30181 99168 70815 46/// /0708 10274 20220 40160 58014 91750 22200 00275 10503 20503 3//// 40801 70015 333 91212 555 11084 22089 31719 40712 61749 071082 075060 068079 066085 064085 081085 80711 91719
BBXX 41009 30181 99285 70802 46/// /3401 10207 20148 40203 58020 91750 22200 00230 11401 300// 41401 70006 333 91202 555 11014 22015
AAXX 30184 89642 40/// /1208 10010 21037 39802 49855 53002
AAXX 30181 11812 36/// /2910 11006 21014 39396 42710 52014 333 10019
AAXX 30181 11813 12580 62504 10024 21012 39759 40113 52019 69902 86500 333 10050 81630 86643
AAXX 30181 11816 12575 72504 10041 21011 39949 40114 52019 69902 87800 333 10059 82823 87630
AAXX 30181 11819 16/// /2604 10025 21001 39888 40107 52013 60022 333 10027
AAXX 30181 11826 11556 82102 10013 20006 39900 40103 52009 60032 71076 885// 333 10014 44001 85625 88640
AAXX 30181 11841 11470 82603 10008 21002 39708 40090 50000 60042 70277 885// 333 10008 43006 86714 88620
AAXX 30181 11855 11670 89901 10012 20000 39941 40110 52012 60012 70262 885// 333 10036 88646
AAXX 30181 11856 16/// /2601 10007 20000 39786 40110 52011 60032 333 10011
AAXX 30181 11858 12565 72604 10031 21011 39962 40116 52016 60002 87500 333 10042 87630
AAXX 30181 11867 11256 89902 10005 21008 39780 40102 53008 60062 71022 886// 333 10007 43004 84706 88711
AAXX 30181 11880 11520 70000 10000 21000 39936 40111 52009 60022 71072 87500 333 10015 87623
AAXX 30181 11900 16/// /3001 10007 20000 39766 40107 52010 60042 333 10014
AAXX 30181 11903 11562 79901 10001 21006 39713 40101 51008 60042 70287 87500 333 10007 43005 87630
AAXX 30181 11916 11/01 92706 11103 21120 37826 48350 51005 69952 74974 333 11094 44048 89/00 91120 93598
AAXX 30181 11918 11580 52305 11011 21034 39251 42694 50004 69902 72672 83870 333 10011 43997 82820 83359
AAXX 30181 11927 11557 89901 10011 20005 39838 40104 52008 60022 71076 885// 333 10012 85625 88633
AAXX 30181 11930 11/00 92806 11146 21160 37198 47851 51003 60042 77174 333 11111 48032 89/00 91122
AAXX 30181 11933 11/80 69902 11058 21066 38545 48366 51007 69982 72287 84571 333 11037 48038 816// 84615 444 16//6
AAXX 30181 11934 11582 42605 11007 21040 39251 42696 51009 69902 70177 82542 333 10017 82626 83070
AAXX 30181 11938 11362 72102 11029 21034 39010 42695 50008 60012 77172 875// 333 11025 44018 81706 87616
AAXX 30181 11952 16/// /9902 11006 21043 39243 42697 52008 60002 333 10015
AAXX 30181 11958 36/// /2208 11052 21060 38636 48372 52009 333 11035
AAXX 30181 11968 11250 82304 10011 21002 39815 40100 52005 69902 71076 886// 333 10014 85706 88712
AAXX 30181 11976 11356 81603 10017 20002 39827 40094 53007 60002 71022 885// 333 10018 85708 88620
AAXX 30181 11978 11457 81603 10023 20007 39967 40099 51001 69902 71066 885// 333 10024 85710 88633
AAXX 30181 11993 11260 81804 10015 20009 39883 40103 53002 60002 72075 886// 333 10020 88706
AAXX 30184 60150 32960 03302 10111 20050 39657 40324 53007 333 10142
AAXX 30184 60155 32465 236// 10140 20064 40313 58003 82100 333 10170 82816
AAXX 30184 60096 NIL
AAXX 30184 60101 NIL
AAXX 30184 60115 NIL
AAXX 30184 60135 NIL
AAXX 30184 60156 NIL
AAXX 30184 60230 NIL
AAXX 30184 60252 NIL
AAXX 30184 60340 32965 03404 10113 20070 40325 53007 333 10158
AAXX 30184 60285 NIL
AAXX 30184 60060 32960 00409 10155 20103 40295 52003 333 10182
AAXX 30184 60105 32958 03407 10123 20086 40326 51004 333 10166
AAXX 30184 60107 32565 12202 10107 20072 40315 58001 81200 333 10171 81820 95300
AAXX 30184 60127 32960 00000 10118 20028 39713 40319 52011 333 10165
AAXX 30184 60141 32960 00000 10076 20031 39645 40332 51010 333 10147
AAXX 30184 60185 32970 00609 10154 20078 40315 53003 333 10187
AAXX 30184 60190 32972 02403 10137 20023 40293 55000 333 10167
AAXX 30184 60191 32970 03002 10135 20045 40305 53002 333 10184
AAXX 30184 60210 32965 02802 10111 21038 39099 48610 52004 333 10137
AAXX 30184 60220 32960 03610 10158 20094 40294 52006 333 10172
AAXX 30184 60265 32970 03501 10121 21096 38986 48604 53002 333 10154
AAXX 30184 60106 NIL
AAXX 30184 60195 NIL
AAXX 30184 60318 NIL
AAXX 30184 64500 32460 52008 10274 20240 30099 40112 83230 333 10290 58001 83811 85360 94916 95836
BBXX DBLK 30181 99488 30014 41196 82813 10060 20057 49996 52008 75152 886// 22212 04053 20605 328// 41007
AAXX 30184 81401 06/// /0508 10299 20213 30105 40111 60001 333 60007 59008 555 60005
AAXX 30184 81408 06/// /3502 10257 20234 30103 40111 60081 333 60027 59006 555 60005
AAXX 30184 16008 11560 50203 11054 21091 38492 48454 52022 60032 70272 85500 333 11030 43025 85625 92810
AAXX 30184 16084 12970 03210 10054 21074 39972 40141 52023 60002 333 10088
AAXX 30184 16088 11950 02202 10005 20005 30027 40149 52038 60002 71000 333 10060
AAXX 30184 16110 12998 00606 10050 20024 30119 40123 52018 60002 333 10104 555 0////
AAXX 30184 16134 12970 00117 11066 21089 37740 48436 51015 60002 333 11034 44021 92845
AAXX 30184 16153 12998 00222 10090 21035 39860 40126 52027 60002 333 10140 555 0////
AAXX 30184 16158 12960 00000 10050 20029 30119 40127 52019 60002 333 10100
AAXX 30184 16206 12582 60205 10076 20061 30102 40111 53003 60002 83830 333 10128 82828 83362
AAXX 30184 16219 41/00 90644 11010 21010 38020 48410 58004 6///2 77374 333 11010 41006 89/00 95090 95190 93101 92827
AAXX 30184 16252 12765 70000 10040 20015 39152 42721 54000 60002 86078 333 10070 82356 85457
AAXX 30184 16280 12497 50109 10104 20083 39879 40100 54000 69982 84860 333 10106 82815 83625 555 0////
AAXX 30184 16310 11897 42803 10072 20058 39869 40093 55006 60032 70162 82016 333 10116 55300 82458 555 0////
AAXX 30184 16320 11457 72805 10086 20071 30086 40099 58006 60002 71022 87800 333 10112 83815 85625 555 0////
AAXX 30184 16325 11598 83105 10090 20061 30070 40084 57006 69962 72162 885// 333 10112 88630 98070 555 0////
AAXX 30184 16360 12597 73406 10102 20071 39957 40092 58008 60002 82534 333 10128 82625 555 0////
AAXX 30184 16400 12497 43317 10102 20055 39840 40130 52001 69942 83270 333 10158 55300 83816 555 0327/
AAXX 30184 16420 11596 73202 10110 20091 30049 40115 53001 60042 75065 85862 333 10150 83825 83630 90002 555 0////
AAXX 30184 16429 11462 62917 10120 20087 30123 40134 57003 60012 70262 86260 333 10140 85818 85357
AAXX 30184 16470 11560 43019 10124 20083 39911 40147 54000 60042 70261 84500 333 10130 55300 22/// 84626 95000
AAXX 30184 16480 12597 63105 10114 20081 30043 40105 51007 60002 84570 333 10160 84620 84358 555 0////
AAXX 30184 16522 12497 43430 10124 20103 39906 40150 53011 60002 84200 333 10130 55300 84818 555 0////
AAXX 30184 16539 12497 63242 10126 20108 30051 40166 53001 60002 86200 333 10128 86815 555 0////
AAXX 30184 16550 12598 53117 10130 20061 39928 40106 52005 60002 84840 333 10140 81825 84635 555 0////
AAXX 30184 16021 12960 03122 11074 21173 37905 48438 52018 69922 333 11048 47011 92832
AAXX 30184 16022 12988 03420 11086 21165 37782 48440 52026 60002 333 11048 43013 92872
AAXX 30184 16033 12565 42502 11042 21085 38716 48423 52012 69982 84500 333 11008 43022 84630 92822
AAXX 30184 16040 12965 03201 11036 21046 39213 42746 52025 69922 333 10010 43009 92842
AAXX 30184 16052 11/06 90339 11182 21198 36530 47966 52012 69942 74374 333 11140 49999 89/03 93199
AAXX 30184 16061 12984 31012 10038 20012 39299 42753 52024 60002 83030 333 10088 83360
AAXX 30184 16098 11904 00000 10008 21001 30079 40132 52020 60002 74241 333 10062
AAXX 30184 16138 11920 03103 10022 20012 30126 40137 51020 60002 71000 333 10054
AAXX 30184 16148 11928 20305 10029 20022 30120 40133 52021 60002 71021 82030 333 10074 82360
AAXX 30184 16168 12265 52910 10064 20041 39360 42728 54000 60002 81130 333 10100 81804 84350
AAXX 30184 16172 11230 20000 10034 20028 39827 40132 53005 60062 71086 82600 333 10082 82705
AAXX 30184 16179 11565 73208 10032 20017 39430 42729 53019 60032 72162 8327/ 333 10076 83825 83356
AAXX 30184 16224 12960 53002 10070 20033 39778 40099 55002 60002 85030 333 10100 85359
AAXX 30184 16232 12997 62410 10084 20062 30041 40095 53000 60002 86070 333 10116 83459 83359 555 0////
AAXX 30184 16245 12765 43507 10078 20042 30073 40099 57004 60002 84070 333 10126 83356
AAXX 30184 16253 11420 60504 10054 20036 30091 40103 55001 69982 71022 81630 333 10098 81715 85357
AAXX 30184 16258 12460 33511 10014 21005 39091 42708 57007 60002 82530 333 10050 82615
AAXX 30184 16263 11/00 92811 10020 20004 38840 48408 54000 60022 74564 333 10036 89/00
AAXX 30184 16294 NIL
AAXX 30184 16337 11497 83208 10058 20044 39526 40102 57010 60002 70292 884// 333 10114 88610 555 0////
AAXX 30184 16344 11/00 92709 11008 21008 38224 48413 57009 69982 77174 333 1???? 4???? 89/00
AAXX 30184 16434 11356 83107 10028 20024 38930 48431 53001 60022 76065 888// 333 10066 85808 87615 95090 95103
AAXX 30184 16450 11260 60303 10040 20040 39011 48474 58001 69942 76061 86200 333 10070 86804
AAXX 30184 16459 12564 72914 10110 20045 30083 40119 53011 60002 87800 333 10172 83825 86630
AAXX 30184 16546 11562 83226 10120 20087 30126 40155 58002 69982 76062 8587/ 333 10134 83820 83635 85357
AAXX 30184 16564 NIL
BBXX 51100 30181 99236 71539 46/// /1006 10223 40208 53014 91750 22200 00231 11005 20402 311// 41005 70025 333 91208 555 11063 22066 31711 41010 61749 102058 100057 096059 099071 096065 099070
BBXX 46035 30181 99571 71778 46/// /1207 1//// 40131 56016 91750 22200 10602 20602 300// 41002 70011 333 91209 555 11073 22078 31732 41110 61749 116073 111077 116070 123064 122060 121061 81109 91732
BBXX 46077 30181 99579 71543 46/// /2813 11133 21166 49983 56004 91750 22200 00040 10704 20704 70022 333 91216 555 11136 22142 31739 42817 61749 277128 272133 269135 271124 278122 257121 82814 91730
BBXX 51101 30181 99243 71621 46/// /1003 10230 20161 40202 53009 91750 22200 00236 11204 20401 329// 41204 70021 333 91204 555 11032 22033 31735 40905 61749 100032 089033 073025 068027 061027 063030
BBXX 46061 30181 99602 71468 46/// /3204 11068 49912 52004 91750 22200 00040 11102 20401 300// 41102 70012 333 91206 555 11042 22043 31707 43306 61749 322039 309038 314034 319038 316041 292038
AAXX 30184 16045 NIL
AAXX 30184 16090 11910 02302 10000 21003 30055 40140 52024 60002 71041 333 10058 92600
AAXX 30184 16149 11630 83308 10066 20049 30110 40126 52014 60002 71022 8451/ 333 10092 84640 84460
AAXX 30184 16261 11958 72509 10070 20056 30017 40090 56003 60002 71022 86028 333 10112 55300 86462
AAXX 30184 16453 12597 53505 10128 20073 30047 40125 53007 60002 83430 333 10158 55300 83622 85359 555 0100/
AAXX 30184 16560 12460 63026 10130 20083 30142 40148 53003 60002 86800 333 10140 83815 83625
BBXX 44172 30181 99445 70634 46/// ///// 1//// 91801 22200 00055 11005 21004 321// 41102 70023
BBXX 44097 30181 99410 70711 46/// ///// 1//// 91802 22200 00109 10802 20802 70010
AAXX 30181 89061 379// 03101 10031 20010 39629 49636 57007 72144 333 91002 91104
AAXX 30184 78948 11578 40921 10289 20221 30147 40155 69901 70581 82801 333 01205 10296 20250 59010 70003 82828 83080 90955
AAXX 30184 78962 11465 70924 10288 20217 30134 40142 69991 71581 82832 333 02299 10300 20234 59008 82818 84360 87080 90936
AAXX 30183 78970 41460 71208 10287 20228 30108 10133 60011 71582 85878 333 02299 10311 20238 59006 83816 83460 87277 90926
BBXX 44100 30181 99363 70756 46/// ///// 1//// 91752 22200 00123 11301 21001 307// 41301 70005
BBXX 41110 30181 99341 70777 46/// ///// 1//// 91751 22200 00133 11301 20501 70006
BBXX 42099 30181 99273 70842 46/// ///// 1//// 91757 22200 00244 10602 20602 70012
BBXX 41113 30181 99284 70805 46/// ///// 1//// 91751 22200 00219 11501 20701 307// 41501 70004
BBXX 41112 30181 99307 70813 46/// ///// 1//// 91751 22200 00172 11501 309// 41501 70004
AAXX 30181 89061 379// 03101 10031 20010 39629 49636 57007 72144 333 91002 91104
AAXX 30184 78962 11465 70924 10288 20217 30134 40142 69991 71581 82832 333 02299 10300 20234 59008 82818 84360 87080 90936
AAXX 30183 78970 41460 71208 10287 20228 30108 10133 60011 71582 85878 333 02299 10311 20238 59006 83816 83460 87277 90926
AAXX 30183 78970 41460 71208 10287 20228 30108 10133 60011 71582 85878 333 02299 10311 20238 59006 83816 83460 87277 90926
AAXX 30184 85041 32470 53610 10304 20238 39815 40071 57035 84201 333 56100 59014 84820 84070
AAXX 30184 85140 32470 63414 10315 20248 39873 40079 57031 84204 333 56707 59017 84817 86070
AAXX 30184 85141 32484 53510 10315 20245 39843 40072 57034 84104 333 56707 59014 84817 85070
AAXX 30184 85151 NIL
AAXX 30184 85152 32470 83210 10308 20240 39845 40074 57025 83207 333 56700 59013 83817 88270
AAXX 30184 85201 11465 73109 10132 20049 36287 57020 69921 71582 84963 333 56411 59013 83817 81920 84357 87070
AAXX 30184 85230 NIL
AAXX 30184 85242 11484 40000 10128 20085 36545 57017 69981 72122 82310 333 56880 59004 81817 81920 84457
AAXX 30184 48698 01465 70105 10253 20240 30099 40117 60001 70522 82848 333 60007 81818 85365
AAXX 30184 48698 01465 70105 10253 20240 30099 40117 60001 70522 82848 333 60007 81818 85365
AAXX 30181 01062 11981 20505 11134 21156 30076 40089 50001 60002 70300 80005 333 11132 91107
AAXX 30181 01367 11989 03402 11089 21106 39615 40076 53017 60002 70200 333 11055 91106
AAXX 30181 01492 11989 00202 11028 21046 39926 40047 52015 60002 70200 333 10015 91103
AAXX 30181 01028 11485 80909 11058 21084 30014 40034 58008 60002 70222 888// 333 11058 91113
AAXX 30181 01049 16/// /2202 11048 21066 30002 40005 51010 60002 333 11028 91104
AAXX 30181 01218 11480 80000 10001 21004 30051 40073 51016 60072 78582 889// 333 10019 91106
AAXX 30181 01359 11689 10101 11082 21124 39139 40083 53007 60002 70200 81200 333 11014 91109
AAXX 30181 01397 16/// /1101 11134 21144 39591 40052 52018 60002 333 11088 91103
AAXX 30184 48601 11559 70203 10260 20236 30116 40120 69901 70562 82532 333 82625 84364 87077
AAXX 30184 48615 11357 80807 10253 20229 30122 40128 60021 76166 8352/ 333 81707 83620 88469
AAXX 30184 48620 11259 70000 10244 20239 30112 40121 69941 71062 83548 333 81705 83630 87276
AAXX 30184 48647 11357 70000 10257 20241 30095 40120 69981 76162 84948 333 81708 81917 84364 87276
AAXX 30184 48657 11358 73204 10236 20225 30105 40123 69901 72162 82538 333 81708 84366 86276
AAXX 30184 48665 12564 70405 10254 20231 30111 40121 60001 81542 333 81628 84364 86077
AAXX 30184 96413 12565 70000 10245 20242 30090 40117 6///1 83531 333 83620 86365
AAXX 30184 96421 11365 70401 10258 20250 30080 40116 60031 72162 8557/ 333 81707 84618 87365
AAXX 30184 96441 11468 70801 10247 20243 30085 40112 69921 71362 83931 333 82614 81915 86365
AAXX 30184 96449 12465 71202 10251 20245 30094 40113 60001 8257/ 333 82614 87365
AAXX 30184 96465 11458 70000 10266 20258 30081 40114 69941 76062 83878 333 82810 85363 87278
AAXX 30184 96471 12468 71204 10249 20227 30109 40112 6///1 82848 333 81815 84364 87277
AAXX 30184 96481 12462 70802 10251 20234 30091 40110 60001 82841 333 81817 84364 86080
AAXX 30184 96491 11330 80205 10257 20248 30103 40115 60061 76362 85757 333 82708 83630 88276
BBXX 46232 30181 99325 71174 46/// ///// 1//// 91738 22200 00146 11203 20802 328// 41202 70015
BBXX 46247 30181 99378 71228 46/// ///// 1//// 91751 22200 00114 11805 21003 327// 41804 70024
BBXX 46243 30181 99462 71241 46/// ///// 1//// 91759 22200 00084 11207 20805 326// 41205 70037
BBXX 46240 30181 99366 71219 46/// ///// 1//// 91742 22200 00121 11303 21001 335// 41302 70013
BBXX 46236 30181 99368 71219 46/// ///// 1//// 91750 22200 00122 11205 21002 329// 41204 70023
BBXX 46217 30181 99342 71194 46/// ///// 1//// 91742 22200 00144 11302 20802 327// 41301 70011
BBXX 46225 30181 99329 71174 46/// ///// 1//// 91744 22200 00149 11402 20801 324// 41401 70010
BBXX 46213 30181 99403 71247 46/// ///// 1//// 91754 22200 00110 11407 20904 329// 41406 70036
BBXX 46215 30181 99352 71209 46/// ///// 1//// 91738 22200 00138 11305 20703 327// 41303 70024
BBXX 46219 30181 99332 71199 46/// ///// 1//// 91758 22200 00131 11206 20805 330// 41203 70030
BBXX 46214 30181 99379 71235 46/// ///// 1//// 91750 22200 00120 11306 21003 330// 41305 70032
AAXX 30181 37682 32997 70000 11079 21085 38160 48562 57007 8707/ 333 11045
AAXX 30181 37717 329// 02101 11052 21081 38098 48534 57010 333 11002
AAXX 30181 37788 41995 00000 11048 21065 39260 40311 57001 71000 333 10030
BBXX 44099 30181 99369 70757 46/// ///// 1//// 91752 22200 00101 10401 20401 70006
AAXX 30181 10004 46/60 /3109 10072 20001 30121 40121 51009 222// 00076 333 10079 20056 55300 91119 91214
AAXX 30184 13600 12760 80906 10050 20031 30052 40106 58010 60002 8355/ 333 10066 83650 85360
AAXX 30184 13610 11640 70000 10002 21035 39710 40146 56012 60002 71022 87500 333 10012 87633
AAXX 30184 13611 12662 60000 10092 20023 30009 40100 54002 60002 86500 333 10122 86636
AAXX 30184 13619 11/10 90000 11026 21029 39341 42734 54004 60002 74544 333 11024
AAXX 30184 13622 11662 80902 10098 20019 30079 40086 57007 69902 72022 885// 333 10124 88636
AAXX 30184 13624 11957 80000 10062 20037 30053 40093 54000 69922 76022 8802/ 333 10104 88460
AAXX 30184 13625 NIL
AAXX 30184 13629 NIL
AAXX 30184 13601 11658 80000 10070 20037 39973 40074 57006 60002 71022 885// 333 10090 88640
AAXX 30184 13602 NIL
AAXX 30184 13623 NIL
AAXX 30184 71805 01560 72725 11018 21058 30090 40099 53021 69902 72687 878// 333 10003 21032 45997 69907 86822 87636 91039 90710 91142 93197 555 69905
BBXX PCSV 30183 99319 30135 41598 22015 10190 20157 40185 53/// 70111 82100 22273 04193 20603 319// 40803 80169
BBXX DCPC2 30184 99230 71419 41598 30820 10230 20170 40220 54000 70211 8247/ 22264 00211 2//// 3//// 4//// 5////
BBXX A8ME3 30180 99119 11119 41497 70113 10260 20233 40140 54000 70211 8/8// 22213 04265 20604 302// 41006 5////
BBXX A8EH3 30183 99463 11519 41/98 80940 10015 40120 57050 70322 88/// 22254 04020 29904 399// 40904
BBXX V7OX3 30181 99320 50311 41/// /0408 10230 20215 40110 52/// 7//// 8//// 22223 20507 3//// 4//// 5//// 80220
AAXX 30184 48300 31558 10000 10202 20188 39850 40169 51008 71000 81100 333 58006
AAXX 30184 48327 31558 10000 10218 20191 39812 40173 52005 71000 81500 333 58004
AAXX 30184 48331 NIL
AAXX 30184 48353 31957 00000 10195 20179 39876 40172 57003 71000 333 58018
AAXX 30184 48356 32960 00000 10185 20154 39983 40186 56003 333 58021
AAXX 30184 48375 31958 00000 10228 20183 39916 40144 52003 71000 333 58006
AAXX 30184 48378 31556 30000 10236 20195 30103 40157 56001 71020 81505 333 58014
AAXX 30184 48381 32960 00904 10213 20167 39953 40174 57001 333 58022
AAXX 30184 48407 32960 30305 10208 20169 30010 40154 57002 80001 333 58018
AAXX 30184 48431 32960 10805 10226 20185 39945 40162 51001 80001 333 58014
AAXX 30184 48456 NIL
AAXX 30184 48480 31957 20000 10255 20195 30123 40127 57006 71000 80001 333 58002
AAXX 30184 48500 NIL
AAXX 30184 48551 31550 60000 10253 20234 30126 40134 52001 71022 82876 333 58008
AAXX 30184 48565 NIL
AAXX 30184 48569 01440 71506 10237 20216 30088 40129 57004 60123 76162 85876 333 59003 60127 70118
AAXX 30184 48583 NIL
AAXX 30184 48310 31956 00000 10184 20177 39711 40177 52006 71000 333 58008
AAXX 30184 48325 31956 00000 10200 20189 39910 40158 52003 71000 333 58004
AAXX 30184 48329 31930 00000 10205 20189 39819 40164 52008 71000 333 58011
AAXX 30184 48352 32960 00202 10206 20163 39977 40183 52002 333 58022
AAXX 30184 48357 32960 11203 10183 20156 30010 40185 57006 80001 333 58023
AAXX 30184 48380 31956 80000 10255 20227 30062 40157 56000 71022 80006 333 58011
AAXX 30184 48383 31957 00202 10185 20149 30013 40177 56005 71000 333 58023
AAXX 30184 48403 31957 00306 10221 20179 39957 40172 52003 71000 333 58027
AAXX 30184 48405 NIL
AAXX 30184 48420 31957 20606 10260 20195 30136 40141 57002 71000 80005 333 58011
AAXX 30184 48421 31956 00000 10215 20188 30035 40151 57007 71000 333 58007
AAXX 30184 48425 31956 00000 10238 20191 30141 40151 57003 71011 333 58010
AAXX 30184 48426 31958 00504 10257 20179 30132 40146 58008 70500 333 58008
AAXX 30184 48429 32960 30506 10254 20176 30136 40143 57001 80001 333 58006
AAXX 30184 48430 NIL
AAXX 30184 48450 31956 00000 10240 20185 30110 40144 57007 71000 333 58010
AAXX 30184 48459 31958 20000 10259 20197 30136 40139 57003 71000 80001 333 58020
AAXX 30184 48465 31958 23403 10250 20201 30135 40139 57004 71000 80005 333 58004
AAXX 30184 48550 31558 50000 10266 20243 30117 40124 57004 71011 82145 333 59004
AAXX 30184 48552 31458 70000 10260 20246 30119 40126 57005 71022 85806 333 59003
AAXX 30184 48566 NIL
AAXX 30184 48568 01457 81602 10239 20233 30121 40129 57007 60243 76162 8487/ 333 58004 60186 70266
BBXX 51204 30181 99213 71581 46/// ///// 1//// 91752 22200 00245 11303 20902 331// 41301 70013
BBXX 51202 30181 99214 71577 46/// ///// 1//// 91740 22200 00238 11004 21004 306// 41101 70019
AAXX 30184 48302 NIL
AAXX 30184 48304 31957 00000 10194 20183 39695 40164 57001 71000 333 59005
AAXX 30184 48334 31956 00000 10200 20184 39801 40170 52004 71000 333 58013
AAXX 30184 48360 32961 51005 10220 20171 39894 40158 57012 85050 333 59001
AAXX 30184 48372 31558 40000 10245 20223 30100 40158 51006 71011 82535 333 58016
AAXX 30184 48373 NIL
AAXX 30184 48386 31540 50000 10235 20212 30108 40152 57000 71011 82551 333 58008
AAXX 30184 48387 31956 00000 10191 20173 39197 40165 57002 71000 333 58012
AAXX 30184 48408 32960 20000 10205 20172 30005 40158 56002 80001 333 58020
AAXX 30184 48415 31957 00608 10250 20182 30135 40147 57004 71010 333 58010
AAXX 30184 48433 NIL
AAXX 30184 48437 NIL
AAXX 30184 48440 31958 00000 10229 20201 30092 40143 57001 71000 333 58010
AAXX 30184 48451 32960 00000 10222 20208 30137 40149 57007 333 58008
AAXX 30184 48454 NIL
AAXX 30184 48457 NIL
AAXX 30184 48463 NIL
AAXX 30184 48464 NIL
AAXX 30184 48479 31958 30000 10248 20188 30080 40132 57008 71010 80005 333 58010
AAXX 30184 48520 31958 40000 10226 20214 30119 40135 56007 71011 80005 333 58000
AAXX 30184 48554 31457 70000 10255 20248 30118 40122 57007 71022 82246 333 59005
AAXX 30184 48563 32560 50405 10262 20234 30082 40118 57008 82246 333 59004
AAXX 30184 48571 32560 60000 10244 20231 30102 40113 57015 84846 333 59011 70010
AAXX 30181 33135 11295 82101 10011 20008 39920 40100 53002 69932 75865 8872/ 333 10018
AAXX 30181 33317 31496 81802 10007 21001 39758 40099 52003 71011 885// 333 10034 88614
AAXX 30181 33345 11496 83001 10012 20004 39894 40102 58001 69982 71052 886// 333 10017 88714
AAXX 30181 33393 32960 82202 10011 21027 39697 40093 52003 8807/ 333 10036
AAXX 30181 33506 11596 82402 10006 20003 39920 40119 54000 60052 71082 889// 333 10013
AAXX 30181 33587 11538 80000 10010 20005 39843 40110 52006 60012 71062 885// 333 10026 88628
AAXX 30181 33631 11395 81503 10016 20011 39968 40114 53001 60012 71076 886// 333 10021 88707
AAXX 30181 33663 11497 80000 10025 20022 30012 40109 53007 69992 76162 8672/ 333 10033 86719
AAXX 30181 33658 11/01 92102 11007 21007 39808 40114 52007 69962 74741 333 10023
AAXX 30181 33711 11296 81804 10038 20033 39896 40106 53004 60012 71064 886// 333 10040 88704
AAXX 30181 33791 NIL
AAXX 30181 33837 11443 81901 10048 20033 30062 40114 52005 69902 71022 885// 333 10067 88712
AAXX 30181 33924 NIL
AAXX 30181 33946 11448 81802 10049 20040 39917 40138 53004 69952 76186 8672/ 333 10091 86711
AAXX 30181 34300 11206 81303 11011 21018 39938 40134 56002 60012 78687 883// 333 10002 86703
AAXX 30181 34504 11122 81703 11002 21005 39948 40130 52001 60012 75376 886// 333 10011 88703
AAXX 30181 34519 31/04 91403 11024 21027 39865 40148 57002 74544 333 11024
AAXX 30181 34601 11212 71703 10000 21003 39999 40138 52001 60012 78682 87900 333 10013 83703
AAXX 30184 48307 31950 00000 10187 20179 39793 40183 52007 71000 333 58021
AAXX 30184 48324 32560 30000 10196 20176 39935 40160 55001 81105 333 58003
AAXX 30184 48333 31940 00000 10202 20181 39862 40170 52010 71000 333 58007
AAXX 30184 48350 31958 00000 10192 20184 39870 40177 52003 71000 333 58020
AAXX 30184 48355 31958 00000 10178 20150 39956 40182 56003 71000 333 58015
AAXX 30184 48358 31958 20000 10175 20149 30008 40190 57004 71000 80001 333 58024
AAXX 30184 48384 31958 00000 10198 20172 39978 40174 56001 71000 333 58018
AAXX 30184 48401 31957 10506 10243 20188 30051 40160 57004 71000 80005 333 58009
AAXX 30184 48404 32960 20606 10195 20170 39986 40169 56006 80005 333 58019
AAXX 30184 48409 31958 10102 10210 20181 30009 40160 57004 71000 80001 333 58016
AAXX 30184 48419 31958 30402 10255 20193 30136 40144 57003 71011 80005 333 58010
AAXX 30184 48427 NIL
AAXX 30184 48435 32960 10906 10216 20165 39713 40157 58004 80001 333 58015
AAXX 30184 48453 32960 20000 10260 20198 30136 40139 57003 80005 333 58010
AAXX 30184 48458 NIL
AAXX 30184 48474 32960 40000 10231 20193 30017 40142 57002 80006 333 58007
AAXX 30184 48481 31958 20000 10235 20199 30101 40129 57009 71000 80001 333 59001
AAXX 30184 48555 NIL
AAXX 30184 48556 31557 60000 10255 20242 30110 40126 57005 71022 82505 333 58000 70008
AAXX 30184 48557 32560 60000 10250 20238 30083 40118 57009 85806 333 58004
AAXX 30184 48560 31557 80000 10258 20239 30113 40118 56010 71022 82876 333 58002 79999
AAXX 30184 48574 01460 80000 10235 20230 30086 40116 57013 60163 76162 8787/ 333 59002 60166 70155
AAXX 30184 48581 NIL
AAXX 30184 61970 16/// ///// 10287 20259 40110 60002 333 10333 58005 555 60005
AAXX 30184 61976 16/// /1006 10282 20236 40130 60002 333 10320 58010 90710 91111 555 60005
AAXX 30184 61980 12562 41805 10250 20213 40137 60002 82832 333 10294 58000 81823 83365 90710 91109 924/7 555 60005
AAXX 30184 67005 14/// /3307 10284 20235 40125 60002 700// 333 10315 58010 90710 91112 555 60005
AAXX 30181 45032 36/// /3401 10155 20108 30231 40247 54000
AAXX 30181 45035 36/// /0702 10161 20118 30204 40247 57001
AAXX 30181 45039 36/// /0102 10159 20116 30230 40245 57001
AAXX 30181 45044 36/// /0905 10160 20128 30147 40242 57001
AAXX 30181 45007 11456 70604 10167 20122 30237 40246 51005 69901 76062 8453/ 333 58027 81615 83622 85368
AAXX 30181 45007 11456 70604 10167 20122 30237 40246 51005 69901 76062 8453/ 333 58027 81615 83622 85368
AAXX 30181 45032 36/// /3401 10155 20108 30231 40247 54000
AAXX 30181 45035 36/// /0702 10161 20118 30204 40247 57001
AAXX 30181 45039 36/// /0102 10159 20116 30230 40245 57001
AAXX 30181 45044 36/// /0905 10160 20128 30147 40242 57001
AAXX 30184 78958 11570 51018 10300 20226 30129 40139 60001 70611 82202 333 10306 20232 59008 82823 83077
BBXX 46238 30181 99334 71195 46/// ///// 1//// 91750 22200 00138 11204 20803 329// 41202 70022
BBXX 46239 30181 99363 71221 46/// ///// 1//// 91751 22200 00120 11306 20903 330// 41305 70031
AAXX 30184 78958 11570 51018 10300 20226 30129 40139 60001 70611 82202 333 10306 20232 59008 82823 83077
AAXX 30184 48601 11559 70203 10260 20236 30116 40120 69901 70562 82532 333 82625 84364 87077
AAXX 30184 48615 11357 80807 10253 20229 30122 40128 60021 76166 8352/ 333 81707 83620 88469
AAXX 30184 48620 11259 70000 10244 20239 30112 40121 69941 71062 83548 333 81705 83630 87276
AAXX 30184 48647 11357 70000 10257 20241 30095 40120 69981 76162 84948 333 81708 81917 84364 87276
AAXX 30184 48650 11560 73607 10253 20226 30099 40118 60001 70522 82542 333 82630 83364 87078
AAXX 30184 48657 11358 73204 10236 20225 30105 40123 69901 72162 82538 333 81708 84366 86276
AAXX 30184 48665 12564 70405 10254 20231 30111 40121 60001 81542 333 81628 84364 86077
AAXX 30184 96413 12565 70000 10245 20242 30090 40117 6///1 83531 333 83620 86365
AAXX 30184 96421 11365 70401 10258 20250 30080 40116 60031 72162 8557/ 333 81707 84618 87365
AAXX 30184 96441 11468 70801 10247 20243 30085 40112 69921 71362 83931 333 82614 81915 86365
AAXX 30184 96449 12465 71202 10251 20245 30094 40113 60001 8257/ 333 82614 87365
AAXX 30184 96465 11458 70000 10266 20258 30081 40114 69941 76062 83878 333 82810 85363 87278
AAXX 30184 96471 12468 71204 10249 20227 30109 40112 6///1 82848 333 81815 84364 87277
AAXX 30184 96481 12462 70802 10251 20234 30091 40110 60001 82841 333 81817 84364 86080
AAXX 30184 96491 11330 80205 10257 20248 30103 40115 60061 76362 85757 333 82708 83630 88276
AAXX 30181 06206 47582 7//03 10065 20010 30079 40132 58005 723// 8//// 333 10080 81/20 83/34 87/67 91004 91112 91210
AAXX 30181 06207 45576 4//05 10054 20004 30076 40131 50001 8//// 333 10063 83/22 84/27 91007 91113 91211
AAXX 30181 06239 45580 5//05 10064 20012 30052 40114 50000 8//// 333 10073 81/33 85/69 91007 91113 91211
AAXX 30181 06252 46/// /2605 10062 20019 30097 40144 55004 222// 00084 10704 333 10073 91006 91112 91211
AAXX 30181 06260 17571 72501 10044 20021 30153 40155 50001 69912 70185 8//// 333 10080 81/21 83/24 85/27 91003 91108 91204
AAXX 30181 06270 15965 02102 10017 20004 30134 40134 50002 69912 333 10072 91002 91110 91207
AAXX 30181 06290 15567 22303 10033 20019 30106 40147 51006 60012 8//// 333 10073 82/22 91004 91110 91206
AAXX 30181 06201 47571 42505 10064 20017 30072 40125 58009 70185 8//// 333 10076 82/24 84/59 91007 91112 91210
AAXX 30181 06203 47869 42706 10067 21005 30100 40151 56008 70185 8//// 333 10074 84/57 91007 91113 91210
AAXX 30181 06204 47577 72806 10069 20026 30092 40143 56003 70385 8//// 333 10073 83/20 85/23 87/34 91007 91113 91211
AAXX 30181 06205 45982 82604 10062 20011 30053 40113 58004 8//// 333 10071 85/62 88/67 91005 91112 91210
AAXX 30181 06208 47566 73005 10063 20009 30082 40132 52009 70380 8//// 333 10074 82/24 87/31 87/37 91006 91115 91212
AAXX 30181 06211 45576 72506 10063 20014 30076 40132 56007 8//// 333 10070 81/21 87/58 87/62 91007 91112 91210
AAXX 30181 06212 47480 73005 1//// 2//// 30078 40141 58004 70385 8//// 333 1//// 81/16 84/21 87/65 91007 91113 91211
AAXX 30181 06235 17980 82601 10037 20014 30141 40141 58001 69962 72300 8//// 333 10074 88/67 91001 91111 91207
AAXX 30181 06240 17575 62704 10046 20026 30157 40152 58001 60012 70280 8//// 333 10075 84/22 86/41 91006 91111 91207
AAXX 30181 06251 15966 13402 10041 20019 30133 40134 50001 60002 8//// 333 10075 81/69 91003 91111 91208
AAXX 30181 06258 46/// /2605 333 91007 91111 91209
AAXX 30181 06269 17480 62503 10041 20026 30153 40147 50000 69912 72200 8//// 333 10071 81/18 83/22 85/26 91004 91109 91206
AAXX 30181 06280 15968 02602 10019 20006 30131 40135 51007 69922 333 10067 91003 91113 91209
AAXX 30181 06310 15868 72005 10055 20026 30154 40164 58010 60002 8//// 333 10068 85/57 87/60 87/65 91006 91110 91207
AAXX 30181 06344 17968 82302 10021 20007 30164 40157 58005 60022 70381 8//// 333 10077 85/63 88/69 91003 91110 91207
AAXX 30181 06370 17960 52103 10024 20019 30140 40166 58002 60042 70385 8//// 333 10067 85/66 91004 91110 91205
AAXX 30181 06380 17668 82204 10033 20009 30037 40179 50001 60012 70285 8//// 333 10044 87/48 88/69 91005 91107 91204
AAXX 30184 91573 06/// /0000 10231 2//// 39992 4//// 53004 69921 333 58013 69927
AAXX 30184 91577 06/// /0000 10237 20220 30063 40084 53003 69981 333 58012 69947
AAXX 30184 91579 06/// /1002 10246 20234 30072 40080 53003 60001 333 58015 60007
AAXX 30184 91582 04870 80000 10226 20223 30050 40085 53006 60052 700// 333 10284 20225 60007 90710 91103 555 60005
AAXX 30184 91583 06/// /0000 10228 20221 30070 40085 53005 69921 333 58018 60007
AAXX 30184 91587 06/// /1904 10228 20220 30037 40082 53006 60061 333 58013 60027
AAXX 30184 91590 04785 80000 10224 20207 30044 40087 53001 69902 700// 333 10263 20223 69907 90710 91103 555 60005
AAXX 30184 91592 06/// /3302 10236 20207 30002 40087 53001 60001 333 58016 60007
AAXX 30184 91596 06/// /0402 10224 20184 39976 40085 55001 69921 333 58015 69927
AAXX 30184 91574 46/// ///// 29080 39921 49927 57003
AAXX 30184 91570 NIL
AAXX 30184 91598 NIL
AAXX 30181 01033 46/// /1107 11014 21069 39963 49994 51014 333 11009 91110
AAXX 30181 01406 46/// /3602 10031 21002 30057 40076 52003 333 10053 91116
AAXX 30181 01442 11989 03401 11014 21040 39808 40070 52010 60022 70200 333 10040 91106
AAXX 30181 01135 16/// /1001 11057 21063 39845 40001 51018 69972 333 11047 4/025 91105
AAXX 30181 01192 16/// /2201 11073 21120 60002 333 11039 4/016 91105
AAXX 30181 01253 16/// /1701 11014 21021 60022 333 10004 91108
AAXX 30181 01257 11668 82001 11002 21027 39883 40046 51026 60012 70222 8657/ 333 10013 91105
AAXX 30181 01370 16/// /3203 11062 21121 38942 40141 53014 60002 333 11045 4/028 91109
AAXX 30181 01419 16/// /2201 11024 21032 60002 333 10023 91107
AAXX 30181 01455 16/// /3602 11017 21061 39748 40064 51011 60002 333 10021 91106
AAXX 30181 01481 16/// /0000 11021 21038 30020 40053 53014 60002 333 10020 91101
AAXX 30181 01156 16/// /0803 11022 21039 39979 49989 53021 69922 333 11013 91106
AAXX 30181 01273 16/// /3302 11002 21022 39844 40042 51028 60012 333 10009 91107
AAXX 30181 01037 16/// /1401 11076 21084 39997 40003 51015 60002 333 11052 91103
AAXX 30181 01046 16/// /1701 11048 21081 39999 40006 52015 6//// 333 11019 91103
AAXX 30181 01065 11650 80000 11053 21068 39828 49992 52007 60012 78582 888// 333 11052 91104
AAXX 30181 01114 16/// /3405 10002 21022 39982 49993 53018 60052 333 10017 91111
AAXX 30181 01245 11356 72902 11031 21038 39336 40052 52025 60032 78588 872// 333 11021 91107
AAXX 30181 01364 16/// /3001 11107 21129 38933 40097 50014 60002 333 11043 4/046 91110
AAXX 30181 01389 11985 10702 11128 21142 39732 40060 52014 60002 70200 80001 333 11080 91104
AAXX 30184 16564 12597 63030 10128 20085 39998 40140 53002 60002 86200 333 10134 82820 85825 555 0////
AAXX 30181 06400 11559 82003 10057 20043 30162 40173 56014 69902 76022 875// 333 10076 81620 84628 87645 91111 91208
AAXX 30181 06428 NIL
AAXX 30181 06451 12980 72103 10033 20007 30108 40176 58007 69902 8707/ 333 10062 86362 91112 91209
AAXX 30181 06456 11965 72303 10027 20007 39816 40191 58002 69922 70382 86031 333 10051 83361 86363 91110 91208
AAXX 30181 06476 15362 72202 10000 21012 39516 40197 50001 69942 333 10017 83/08 85/09 85/19 91112 91208
AAXX 30181 06479 17961 /2202 10018 20011 30096 40178 50000 60032 70084 333 10059 87/67 91108 91206
AAXX 30181 06490 17965 02402 10003 21012 39606 40191 50004 60012 70076 333 10016 91108 91204
AAXX 30181 06590 12975 22602 10015 21014 39732 40195 50007 60012 80002 333 10046 82070 91116 91209
BBXX 2ALE5 30183 99253 70160 41598 30523 10190 20128 40284 57010 70100 831/0 22253 20406 80155
AAXX 30181 06431 NIL
AAXX 30181 06432 NIL
AAXX 30181 06449 12563 72103 10036 20004 39954 40187 58002 60002 8153/ 333 10056 81622 87361 91108 91206
AAXX 30181 06450 12967 62203 10045 20007 30157 40173 58005 60002 8607/ 333 10074 82362 83363 85365 91113 91209
AAXX 30181 06458 NIL
AAXX 30181 06465 NIL
AAXX 30181 06478 12670 42204 10019 21006 39959 40185 50002 69922 82531 333 10048 82638 84070 91110 91206
AAXX 30181 06496 NIL
AAXX 30181 06407 11562 81803 10052 20029 30163 40169 58014 60002 76022 875// 333 10067 85624 85633 91112 91208
AAXX 30181 06447 NIL
AAXX 30183 61701 31960 70806 10269 20052 40135 70522 80006 333 10292 58005 84271 83072
AAXX 30183 61705 NIL
AAXX 30183 61707 NIL
AAXX 30183 61711 NIL
AAXX 30183 61712 NIL
AAXX 30183 61717 NIL
AAXX 30183 61720 NIL
AAXX 30183 61721 NIL
AAXX 30183 61722 NIL
AAXX 30183 61731 NIL
AAXX 30183 61733 NIL
AAXX 30181 10439 11470 73202 10018 21002 39931 40156 52017 69912 72581 8683/ 333 10051 20009 32103 81818 85625
AAXX 30181 37985 42596 63401 10058 20044 30270 40255 57005 86500 333 10078
AAXX 30181 37905 42997 32701 10017 20003 40268 57007 83040
AAXX 30181 37989 42696 82501 10074 20056 40260 57012 885// 333 10092
AAXX 30181 37661 42998 02601 10020 20009 39487 40265 57001 333 10065
AAXX 30181 37925 42997 80000 10078 20062 30285 57012 8807/ 333 10109 555 53002
AAXX 30181 37851 42598 62803 10079 20045 30174 40244 57011 83530 333 10091
AAXX 30181 37675 42995 02704 10116 21094 39473 40116 57012 333 10157 555 53005
AAXX 30181 37864 32597 51907 10075 20055 40242 57010 85500 333 10098 85630
AAXX 30181 37735 42997 02701 10014 21005 39810 40190 57009 333 10073
AAXX 30181 37740 42596 83601 10019 21021 39436 40241 57009 885// 333 10080
AAXX 30181 03951 17232 /2611 10111 20109 30131 40157 55003 60042 72386 88/// 333 10112 88/03
AAXX 30181 03953 11250 82508 10119 20113 30122 40158 55002 60082 75065 886// 333 10121 88706 92436
AAXX 30181 03955 11380 72507 10112 20109 39946 40141 56007 60032 70286 876// 333 10116 85708 85713
AAXX 30181 03956 17256 /2406 10106 20101 30045 40121 55014 60012 71081 88/// 333 10108 88/03
AAXX 30181 03962 11230 82510 10111 20109 30102 40126 57004 60042 75165 886// 333 10119 81703 83706 86708
AAXX 30181 03963 17257 /2611 10108 20101 30077 40105 55003 60022 71081 87/// 333 10110 87/04
AAXX 30181 03966 17246 /2607 10111 20104 30020 40112 57006 60042 78186 88/// 333 10116 81/04 83/08 85/11
AAXX 30181 03967 11365 82510 10113 20108 39978 40090 57008 60032 75865 886// 333 10118 86706 88716
AAXX 30181 03969 11270 72511 10114 20107 39985 40087 56011 60032 72065 876// 333 10120 83705 85710
AAXX 30181 03973 11257 82612 10099 20095 39838 40090 56002 60052 75086 886// 333 10108 85703 87705 90710 91119
AAXX 30181 03976 11220 82406 10109 20105 30067 40079 57006 60032 75865 886// 333 10115 86704 88708
AAXX 30181 03980 17222 /2513 10104 20103 30006 40031 57010 60102 78186 88/// 333 10109 88/03
AAXX 30184 86011 01665 80000 10260 20245 39938 40097 57015 79522 8597/ 333 60027 84835 81940 88457
AAXX 30184 86033 01870 62503 10280 20235 39991 40085 58034 60021 72161 86030 333 60027 86357
AAXX 30184 86065 02470 70504 10276 20238 39838 40071 57023 69931 84870 333 84820 87457
AAXX 30184 86068 32370 80304 10296 20245 39877 40055 57010 885// 333 88610
AAXX 30184 86086 32570 63203 10320 20160 39991 40078 57023 82270 333 82833 84457
AAXX 30184 86097 31670 53010 10304 20224 39446 40068 57027 71792 85900 333 83533 82940
AAXX 30184 86128 NIL
AAXX 30184 86134 32670 53408 10310 20205 39986 40070 57015 82270 333 82840 85458
AAXX 30184 86170 31570 71112 10312 20223 39959 40059 57012 71792 85970 333 84830 81940 87457
AAXX 30184 86185 32470 80808 10282 20235 39983 40075 57014 885// 333 88627
AAXX 30184 86192 NIL
AAXX 30184 86210 01460 81802 10300 20225 39721 40053 57021 69901 79522 889// 333 69907 88714 82940
AAXX 30184 86218 31560 62805 10320 20216 39981 40074 57014 70422 84870 333 83833 81840 86358
AAXX 30184 86221 32570 70000 10318 20233 39963 40093 57017 87570 333 85625 83357
AAXX 30184 86233 32570 72304 10316 20218 39905 40089 56006 84570 333 84620 83358
AAXX 30184 86234 32570 62805 10310 20222 39842 40019 58019 82550 333 82630 86357
AAXX 30184 86246 32470 73010 10302 20208 39788 40066 57026 86870 333 85827 82840 87357
AAXX 30184 86251 32570 62304 10330 20177 39889 40050 57009 86800 333 84633 82840
AAXX 30184 86255 32870 60000 10342 20167 30002 40067 57032 83058 333 83357 83070
AAXX 30184 86260 32470 60000 10320 20199 39898 40045 56010 86400 333 86613
AAXX 30184 86268 32570 60602 10324 20197 39910 40069 56004 86200 333 86840
AAXX 30184 86285 32670 42710 10314 20187 39795 40068 58015 84200 333 84840
AAXX 30184 86297 32570 53202 10310 20205 39920 40021 57016 83805 333 83827 84270
AAXX 30184 89532 42/70 70311 11032 21058 39838 49865 53015 81572
AAXX 30184 48569 01440 81506 10237 20216 30088 40129 57004 60123 76162 85877 333 59003 60127 70118
AAXX 30184 48405 31958 30403 10197 20160 30000 40167 58003 71000 80005 333 58018
OOXX AAUNI 30184 99798 50833 56093 07671 46/// /2315 11083 21155 38908 49789 54000 91800
AAXX 30184 85223 11557 71418 10215 20139 37489 47128 57027 69901 71562 85963 333 56000 59001 83825 82930 86070
AAXX 30184 85283 32584 70308 10192 20132 37186 47113 57020 86303 333 56100 59003 85620 81930
AAXX 30184 85293 32484 80000 10100 20084 36371 57006 8692/ 333 56009 58004 85617 81920 88457
AAXX 30184 85312 32884 71804 10304 20220 38740 57025 87020 333 56000 58000 87457
AAXX 30184 85345 31565 61604 10310 20240 39593 40045 57028 71520 86900 333 56400 59031 85825 81927
AAXX 30184 85364 32570 71510 10268 20163 38127 48258 57011 82101 333 56000 59009 82833 85070
AAXX 30184 85365 32584 41805 10304 20230 39335 40033 57019 84100 333 56400 59025 84823
AAXX 30184 85394 32584 51806 10325 20238 39625 40045 57022 83501 333 56000 59015 83623 85070
AAXX 30184 13629 11656 70000 11002 21005 39041 42706 56002 60002 71022 87500 333 10006 87640
AAXX 30181 01281 16/// ///// 1//// 2//// 39841 40022 53012 69972
AAXX 30181 01205 46/// /2605 10030 20004 30020 40066 52005 333 10048 91113
AAXX 30181 11010 01262 72807 10019 20011 39767 40153 52019 60052 76877 333 10036 69915 81706 84711 85634 91116 91212
AAXX 30181 11012 11256 82505 10009 20001 39678 40157 53019 60052 77077 886// 333 10028 20007 55300 91116
AAXX 30181 11022 11565 42806 10022 21005 39719 40110 52019 69902 70282 84100 333 10061 20018 55300 84825 91115
AAXX 30181 11035 11681 42706 10030 20001 39856 40112 52016 69902 72582 83830 333 10063 20018 81840 83656 91120
AAXX 30181 11036 32582 72809 10033 21016 39890 40116 52018 333 10060 81830 86650 91013 91118 91213
AAXX 30181 11101 12560 71801 10023 21008 39686 40225 52018 60012 875// 333 10039 20019 83719 87625
AAXX 30181 11120 01358 89901 11004 21012 39469 40194 52017 60112 77172 333 10003 69915 81708 84613 85635
AAXX 30181 11126 17/// /3212 11115 21116 37665 48451 52012 60052 7408/ 333 11082 21120 55300 91123
AAXX 30181 11130 17/// /2601 10001 21005 39585 40188 52012 60092 7408/ 333 10008 21011 55300
AAXX 30181 11146 NIL
AAXX 30181 11150 01240 82804 10013 21009 39624 40175 52016 60022 78588 333 10039 69915 81705 83614 86619 91114 91210
AAXX 30181 11155 11/00 93217 11066 21074 38280 48416 50004 60172 77374 333 11045 21077 55300 89/01 91129
AAXX 30181 11157 11315 82205 11010 21019 39373 40160 51016 60032 77387 888// 333 10020 84608 88612 91114 91208
AAXX 30181 11172 NIL
AAXX 30181 11190 12665 22705 10046 21039 39880 40115 51017 60002 82500 333 10072 21004 55300 91114
AAXX 30181 11204 16/// /2705 10019 21067 39356 40158 52018 69922 333 10031 21057 55300 91115
AAXX 30181 11212 11/81 23610 11113 21129 37742 48436 51016 60012 73674 81870 333 11074 817// 91114 444 26096
AAXX 30181 11231 11128 42602 11018 21018 39566 40153 52020 69902 74187 333 10001 81702 84707
AAXX 30181 11240 31935 29901 11036 21036 39684 40138 52018 71041 333 10004 82368
AAXX 30181 11244 16/// /3401 11014 21024 39798 40136 53021 60002 333 10023 21014 55300
AAXX 30181 11389 11550 82107 10014 20004 39803 40135 53017 60012 77172 885// 333 10037 20008 55300 91119
AAXX 30181 76040 32960 02301 10170 20081 30176 40190 52014 91750 333 10236 20061 30/// 59012 98660
AAXX 30181 76055 32980 00902 10208 21040 30147 40166 52004 91740 333 10252 20085 30/// 59022
AAXX 30181 76056 06/// /0902 10220 21061 30152 40175 51008 60002 7//// 8//// 91750 333 0//// 10236 20089 30/// 4//// 54/// 56/// 57/// 59012 60007 8//// 8//// 8//// 9//// 9//// 9//// 44
AAXX 30181 76113 32980 02101 10182 20024 39696 40168 52005 91745 333 10188 20046 30/// 58000
AAXX 30181 76122 32970 00000 10164 21034 38569 40226 57003 91750 333 10169 20000 30/// 58007
AAXX 30181 76123 06/// 02001 10194 21082 3//// 4//// 5//// 60002 7//// 8//// 91750 333 0//// 10194 20000 56/// 57/// 5//// 60007 8//// 8//// 8//// 8//// 9//// 9//// 9//// 444 ///// 555
AAXX 30181 76220 32958 00000 10064 21057 38196 40322 54000 91735 333 10064 21072 30/// 58008
AAXX 30181 76225 32960 00701 10170 21058 38663 40205 57004 91745 333 10170 20015 30/// 58012
AAXX 30181 76226 02/// ///// 1//// 2//// 3//// 4//// 5//// 6//// 7//// 8//// 9//// 333 0//// 1//// 2//// 30/// 4//// 54/// 56/// 57/// 5//// 6//// 8//// 8//// 8//// 9//// 9//// 9//// 44
AAXX 30181 76256 32980 00000 10192 20004 30173 40187 57021 91745 333 10202 20060 30/// 58009
AAXX 30181 76305 32970 10601 10228 20027 30170 40178 52009 81010 91735 333 10233 20080 30/// 56040 58001 81460
AAXX 30181 76323 32970 00601 10190 20004 38306 40291 58003 91755 333 10200 20000 30/// 59003
AAXX 30181 76342 3296 02201 10260 21061 39506 40220 52012 91750 333 10268 20100 30/// 59003
AAXX 30181 76382 32980 00701 10190 20060 38940 40223 54000 91745 333 10196 20034 30/// 59002
AAXX 30181 76390 31968 02002 10198 21087 38257 40200 52005 70544 91730 333 10210 20025 30/// 58007
AAXX 30181 76393 31930 30601 10250 21030 39590 40169 52002 70500 80001 91752 333 10272 20090 30/// 56005 59015
AAXX 30181 76402 31957 10000 10198 20134 30115 40120 52006 70544 80004 91745 333 10198 20066 30/// 56005 58009
AAXX 30181 76423 32580 30000 10172 21045 38182 40200 58003 81405 91740 333 10187 20047 30/// 56909 58008 81630 82067
AAXX 30181 76458 32970 11503 10234 20128 30158 40162 55002 80001 91737 333 10251 20101 30/// 56//3 58009 81072
AAXX 30181 76471 32980 00000 10188 20004 37714 40150 52004 91750 333 10190 20081 30/// 58007
AAXX 30181 76490 06/// /0701 10245 20054 39779 40161 58001 60002 7//// 8//// 91750 333 0//// 10247 20093 30/// 54/// 56/// 57/// 59018 60007 8//// 8//// 8//// 8//// 9//// 9//// 9//// 44
AAXX 30181 76491 32960 60000 10242 20114 39795 40194 54000 80004 91750 333 10246 20080 30/// 56009 59018 81077
AAXX 30181 76499 31860 40000 10231 20137 30144 40166 54000 70222 84030 91750 333 10232 20087 30/// 56090 59028 84357
AAXX 30181 76525 32980 53304 10132 21008 37493 40157 52003 80006 91740 333 10132 20098 30/// 56//5 58002 85080
AAXX 30181 76543 31870 20702 10256 20143 30148 40181 58005 70544 81085 91745 333 10256 20105 30/// 56075 59031
AAXX 30181 76548 31870 12502 10238 20175 30167 40177 58001 70144 81030 91745 333 10244 20162 30/// 5606/ 59029 81357
AAXX 30181 76556 32970 40203 10242 20122 39134 40166 51007 84030 91735 333 10248 20124 30/// 56070 58008 84360
AAXX 30181 76571 32975 51801 10212 20054 38185 40203 55003 80004 91748 333 10214 20052 30/// 56005 58001 85067
AAXX 30181 76577 32970 42304 10200 20159 38060 40180 58001 80003 91740 333 10205 20085 30/// 56005 58001
AAXX 30181 76578 06/// /2303 10205 20047 38056 40110 58006 60002 7//// 8//// 91750 333 0//// 10205 20085 30/// 4//// 54/// 56/// 57/// 58002 60007 8//// 8//// 8//// 9//// 9//// 9//// 44
AAXX 30181 76581 32975 40402 10237 20098 39057 40181 57014 80006 91750 333 10244 20048 30/// 56006 59026 84070
AAXX 30181 76585 32980 00901 10212 20158 39998 40158 58013 91740 333 10230 20090 30/// 59034
AAXX 30181 76586 06/// /0501 10268 20150 30001 40153 58014 60002 7//// 8//// 91750 333 0//// 10271 20101 30/// 4//// 54/// 56/// 57/// 59036 60007 8//// 8//// 8//// 9//// 9//// 9//// 44
AAXX 30181 76592 06/// /0307 10279 20035 30170 40170 58016 60002 7//// 8//// 91750 333 0//// 10310 20203 30/// 4//// 54/// 56/// 57/// 59011 60007 8//// 8//// 8//// 9//// 9//// 9//// 44
AAXX 30181 76593 32370 40504 10272 20256 30171 40173 57015 83240 91750 333 10310 20202 30/// 5611/ 59010 83820 81330 91005 91505
AAXX 30181 76612 32962 20000 10237 20145 38488 40174 58004 80001 91750 333 10247 20099 30/// 56006 59003 82072
AAXX 30181 76625 32960 00000 10236 20074 38162 40147 57007 91755 333 10239 20113 30/// 58005
AAXX 30181 76632 31660 32104 10182 20081 37647 40142 57005 70500 83400 91740 333 10187 20092 30/// 56300 59003 83641 98560
AAXX 30181 76634 31570 23203 10220 20070 37866 40167 57006 70500 82200 91450 333 10226 20092 30/// 563// 58002 82827
AAXX 30181 76641 06/// /1501 10257 20197 30149 40161 58011 60002 7//// 8//// 91750 333 0//// 10271 20170 30/// 4//// 54/// 56/// 57/// 59036 60007 8//// 8//// 8//// 8//// 9//// 9//// 9/
AAXX 30181 76644 32460 61102 10298 20207 30153 40165 57020 86200 91750 333 10302 20200 30/// 56300 59007 86820 91005 91511
AAXX 30181 76645 06/// /1402 10296 20209 30159 40172 58018 60002 7//// 8//// 91750 333 0//// 10296 20200 30/// 4//// 54/// 56/// 57/// 59009 60007 8//// 8//// 8//// 9//// 9//// 9//// 44
AAXX 30181 76648 06/// /1202 10303 20197 30139 40169 58016 60002 7//// 8//// 91750 333 0//// 10303 20202 30/// 4//// 54/// 56/// 57/// 59006 60007 8//// 8//// 8//// 8//// 9//// 9//// 9/
AAXX 30181 76654 31450 22701 10278 20215 30160 40164 57007 70544 82200 91750 333 10279 20231 30/// 56100 87814 58002 81820
AAXX 30181 76658 31556 32302 10267 20161 39654 40162 57007 70540 81234 91743 333 10277 20180 30/// 56811 58016 81822 81358 81070 94083 98904
AAXX 30181 76659 06/// /2402 10290 20155 3//// 4//// 5//// 60002 7//// 8//// 91750 333 0//// 10290 20170 30/// 4//// 54/// 56/// 57/// 5//// 60007 8//// 8//// 8//// 9//// 9//// 9//// 44
AAXX 30181 76662 32670 42601 10232 20131 38483 40174 57004 81101 91748 333 10242 20065 30/// 56/0/ 58005 81833 83070
AAXX 30181 76675 31575 12902 10180 20039 37393 40202 57005 70544 81200 91745 333 10184 20006 30/// 569// 59002 81826 98475
AAXX 30181 76680 31556 30501 10198 20072 37768 40106 57009 70500 83200 91755 333 10202 20085 30/// 56100 59001 83828
AAXX 30181 76681 31960 00502 10210 20065 37798 40176 57010 70500 91745 333 10210 20054 30/// 58003
AAXX 30181 76683 31662 40901 10210 20092 37838 40198 56015 70544 84200 91745 333 10220 20064 30/// 56100 58003 84840 94011 94181
AAXX 30181 76684 06/// /3004 10220 20025 37840 40101 58015 60002 7//// 8//// 91750 333 0//// 10225 20053 30/// 4//// 54/// 56/// 57/// 59003 60007 8//// 8//// 8//// 9//// 9//// 9//// 44
AAXX 30181 76685 31550 23601 10204 20072 37884 40168 52005 70544 82100 91750 333 10206 20080 30/// 56900 58013 82827
AAXX 30181 76687 31570 10701 10216 20128 38693 40191 50002 70300 81500 91740 333 10218 20100 30/// 563// 59018 81626
AAXX 30181 76692 31550 30601 10244 20206 30149 40168 58002 71042 832// 91445 333 10254 20174 30/// 563// 59023 81820 82724
AAXX 30181 76693 06/// /1501 10258 20207 30147 40166 58005 60002 7//// 8//// 91750 333 0//// 10259 20173 30/// 4//// 56/// 57/// 59025 60007 8//// 8//// 8//// 8//// 9//// 9//// 9//// 44
AAXX 30181 76695 32560 20603 10308 20225 30149 40154 57013 82100 91750 333 10310 20225 30/// 562// 59010 82828
AAXX 30181 76698 32560 70902 10282 20231 30165 40176 57014 87200 91750 333 10303 20202 30/// 56200 59002 87820
AAXX 30181 76726 32970 02001 10263 20167 38401 40113 52007 91755 333 10263 20142 30/// 59013
AAXX 30181 76727 06/// /1101 10244 20088 38409 40088 58009 60002 7//// 8//// 91750 333 0//// 10259 20136 30/// 4//// 54/// 56/// 57/// 58000 60007 8//// 8//// 8//// 9//// 9//// 9//// 44
AAXX 30181 76737 31480 21602 10216 20144 38783 40173 58002 70300 82200 91735 333 10217 20109 30/// 56200 59020 82817 91106 91516
AAXX 30181 76738 06/// /1702 10220 20136 38783 40136 58005 60002 7//// 8//// 333 10224 20105 30/// 56/// 57/// 59020 60007 8//// 8//// 8//// 8//// 9//// 9//// 9//// 444 ///// 555 30190
AAXX 30181 76743 31457 60901 10265 20221 30147 40155 57012 70211 861// 91750 333 10283 20210 30/// 562// 59020 86818
AAXX 30181 76750 32560 31103 10301 20230 30162 40172 57009 83100 91745 333 10321 20206 30/// 56300 58003 83820
AAXX 30181 76751 06/// /1003 10302 20232 30162 40172 58009 60002 7//// 8//// 91750 333 0//// 10303 20203 30/// 4//// 54/// 56/// 57/// 58002 60007 8//// 8//// 8//// 9//// 9//// 9//// 44
AAXX 30181 76762 31504 13601 10281 20226 38772 40146 58007 70400 81200 91730 333 10284 20160 30/// 56300 59012 81830
AAXX 30181 76772 06/// /0301 10247 20103 38441 40113 58014 60002 7//// 8//// 91750 333 0//// 10252 20086 30/// 4//// 56/// 57/// 58001 60007 8//// 8//// 8//// 9//// 9//// 9//// 444 ////
AAXX 30181 76773 31566 13601 10242 20109 38436 40165 57014 70544 81100 91746 333 10244 20084 30/// 56200 58000 81820
AAXX 30181 76775 31560 11202 10260 20111 38533 40177 57015 70300 81100 91735 333 10274 20102 30/// 56800 59002 81627
AAXX 30181 76776 06/// /1501 10262 20098 38512 40090 58021 60002 7//// 8//// 91750 333 0//// 10262 20103 30/// 4//// 56/// 57/// 59002 60007 8//// 8//// 8//// 9//// 9//// 9//// 444 ////
AAXX 30181 76805 32570 12503 10296 20223 30133 40137 57021 81200 91750 333 10320 20222 30/// 567// 59005 81830
AAXX 30181 76806 06/// /2403 10300 20221 30138 40142 58015 60002 7//// 8//// 91750 333 10304 20223 30/// 56/// 57/// 59001 60007 8//// 8//// 8//// 8//// 9//// 9//// 9//// 555 30273
AAXX 30181 76833 32970 03604 10314 20189 30131 40133 57014 91745 333 10314 20224 30/// 59011 92001
AAXX 30181 76840 32560 20000 10328 20196 30089 40145 55001 82100 91745 333 10335 20198 30/// 569// 59007 82827
AAXX 30181 76843 32965 03601 10258 20166 39501 40146 58002 91736 333 10268 20175 30/// 59001
AAXX 30181 76845 32960 00000 10210 20135 37955 40183 56015 91750 333 10220 20066 30/// 58000
AAXX 30181 76848 32770 10501 10239 20099 38391 40103 51001 81100 91750 333 10242 20137 30/// 56100 58002 81850
AAXX 30181 76902 06/// /2202 10325 20216 30001 40136 58016 60002 7//// 8//// 91750 333 0//// 10328 20229 30/// 4//// 54/// 56/// 57/// 59006 60007 8//// 8//// 8//// 8//// 9//// 9//// 9/
AAXX 30181 76160 32962 00501 10190 20024 39928 40180 52006 91730 333 10190 20075 30/// 58008
AAXX 30181 76243 32974 02703 10192 20058 39892 40193 52017 91730 333 10204 20048 30/// 58008
AAXX 30181 76311 32980 00000 10254 20073 39882 40167 56001 91755 333 10258 20059 30/// 58009
AAXX 30181 76405 32980 12401 10225 20109 30151 40173 50002 80001 91750 333 10225 20088 30/// 56005 58001 81070
AAXX 30181 76640 31458 31402 10240 20200 30169 40181 57003 70200 832// 91740 333 10256 20174 30/// 563// 59038 83817
AAXX 30181 76647 32570 61402 10287 20214 30153 40184 58011 86200 91750 333 10296 20202 30/// 56300 59007 86830
AAXX 30181 76656 32965 11601 10240 20106 38522 40178 58007 80002 91750 333 10248 20078 30/// 56005 58002 81080
AAXX 30181 76855 32980 01801 10304 20220 30070 40119 56008 91745 333 10312 20210 30/// 59016 92000
AAXX 30184 84455 31460 63506 10300 20223 39800 40152 70224 8353/ 333 5600/ 59020 83817 83360
AAXX 30184 84452 31460 61911 10304 20208 30086 40116 70122 8413/ 333 5600/ 58006 84815 82360
AAXX 30184 84673 21660 70703 10196 20113 37340 76022 83120 333 56990 59027 69901 83846 84460
AAXX 30184 84691 31356 83310 10215 20192 30118 40125 71044 886// 333 560// 58020 83708 88715
AAXX 30184 84401 31660 82105 10300 20184 30074 40117 70222 8353/ 333 5600/ 58011 83640 85360
AAXX 30184 84542 31670 73407 10235 20075 37338 7032/ 333 5699/ 59005 84840 83362
AAXX 30184 84686 31665 80106 10171 20052 36871 70222 8512/ 333 56990 59001 82843 83650 85460
AAXX 30184 84773 31658 41806 10244 20180 30100 40125 70122 88500 333 56900 59001 84640
AAXX 30184 84531 31560 71805 10283 20171 30076 40093 70122 8263/ 333 5649/ 59001 82720 85360
AAXX 30184 84377 31560 70805 10296 20238 39999 30109 70225 84230 333 56190 58003 84820 83360
AAXX 30184 84474 31560 70000 10306 20247 39770 7022/ 87700 333 56900 58000 87730
AAXX 30184 84390 31660 82411 10302 20188 30007 40106 70322 8353/ 333 5655/ 58001 83640 83357
AAXX 30184 84515 21458 83007 10256 20247 39933 40109 70262 8652/ 333 5699/ 59009 60061 86614 85457
AAXX 30184 84534 21460 7//// 10260 20212 39380 40093 7016/ 8322/ 333 5699/ 58010 60101 83815 87458
AAXX 30184 84564 31560 50000 10230 20158 38149 7012/ 82220 333 5611/ 58004 82825 83465
AAXX 30184 67341 32580 10808 10241 20182 40117 53009 81500 333 10283 94310
AAXX 30181 76040 32960 02301 10170 20081 30176 40190 52014 91750 333 10236 20061 30/// 59012 98660
AAXX 30181 76055 32980 00902 10208 21040 30147 40166 52004 91740 333 10252 20085 30/// 59022
AAXX 30181 76056 06/// /0902 10220 21061 30152 40175 51008 60002 7//// 8//// 91750 333 0//// 10236 20089 30/// 4//// 54/// 56/// 57/// 59012 60007 8//// 8//// 8//// 9//// 9//// 9//// 44
AAXX 30181 76113 32980 02101 10182 20024 39696 40168 52005 91745 333 10188 20046 30/// 58000
AAXX 30181 76122 32970 00000 10164 21034 38569 40226 57003 91750 333 10169 20000 30/// 58007
AAXX 30181 76123 06/// 02001 10194 21082 3//// 4//// 5//// 60002 7//// 8//// 91750 333 0//// 10194 20000 56/// 57/// 5//// 60007 8//// 8//// 8//// 8//// 9//// 9//// 9//// 444 ///// 555
AAXX 30181 76220 32958 00000 10064 21057 38196 40322 54000 91735 333 10064 21072 30/// 58008
AAXX 30181 76225 32960 00701 10170 21058 38663 40205 57004 91745 333 10170 20015 30/// 58012
AAXX 30181 76226 02/// ///// 1//// 2//// 3//// 4//// 5//// 6//// 7//// 8//// 9//// 333 0//// 1//// 2//// 30/// 4//// 54/// 56/// 57/// 5//// 6//// 8//// 8//// 8//// 9//// 9//// 9//// 44
AAXX 30181 76256 32980 00000 10192 20004 30173 40187 57021 91745 333 10202 20060 30/// 58009
AAXX 30181 76305 32970 10601 10228 20027 30170 40178 52009 81010 91735 333 10233 20080 30/// 56040 58001 81460
AAXX 30181 76323 32970 00601 10190 20004 38306 40291 58003 91755 333 10200 20000 30/// 59003
AAXX 30181 76342 3296 02201 10260 21061 39506 40220 52012 91750 333 10268 20100 30/// 59003
AAXX 30181 76382 32980 00701 10190 20060 38940 40223 54000 91745 333 10196 20034 30/// 59002
AAXX 30181 76390 31968 02002 10198 21087 38257 40200 52005 70544 91730 333 10210 20025 30/// 58007
AAXX 30181 76393 31930 30601 10250 21030 39590 40169 52002 70500 80001 91752 333 10272 20090 30/// 56005 59015
AAXX 30181 76402 31957 10000 10198 20134 30115 40120 52006 70544 80004 91745 333 10198 20066 30/// 56005 58009
AAXX 30181 76423 32580 30000 10172 21045 38182 40200 58003 81405 91740 333 10187 20047 30/// 56909 58008 81630 82067
AAXX 30181 76458 32970 11503 10234 20128 30158 40162 55002 80001 91737 333 10251 20101 30/// 56//3 58009 81072
AAXX 30181 76471 32980 00000 10188 20004 37714 40150 52004 91750 333 10190 20081 30/// 58007
AAXX 30181 76490 06/// /0701 10245 20054 39779 40161 58001 60002 7//// 8//// 91750 333 0//// 10247 20093 30/// 54/// 56/// 57/// 59018 60007 8//// 8//// 8//// 8//// 9//// 9//// 9//// 44
AAXX 30181 76491 32960 60000 10242 20114 39795 40194 54000 80004 91750 333 10246 20080 30/// 56009 59018 81077
AAXX 30181 76499 31860 40000 10231 20137 30144 40166 54000 70222 84030 91750 333 10232 20087 30/// 56090 59028 84357
AAXX 30181 76525 32980 53304 10132 21008 37493 40157 52003 80006 91740 333 10132 20098 30/// 56//5 58002 85080
AAXX 30181 76543 31870 20702 10256 20143 30148 40181 58005 70544 81085 91745 333 10256 20105 30/// 56075 59031
AAXX 30181 76548 31870 12502 10238 20175 30167 40177 58001 70144 81030 91745 333 10244 20162 30/// 5606/ 59029 81357
AAXX 30181 76556 32970 40203 10242 20122 39134 40166 51007 84030 91735 333 10248 20124 30/// 56070 58008 84360
AAXX 30181 76571 32975 51801 10212 20054 38185 40203 55003 80004 91748 333 10214 20052 30/// 56005 58001 85067
AAXX 30181 76577 32970 42304 10200 20159 38060 40180 58001 80003 91740 333 10205 20085 30/// 56005 58001
AAXX 30181 76578 06/// /2303 10205 20047 38056 40110 58006 60002 7//// 8//// 91750 333 0//// 10205 20085 30/// 4//// 54/// 56/// 57/// 58002 60007 8//// 8//// 8//// 9//// 9//// 9//// 44
AAXX 30181 76581 32975 40402 10237 20098 39057 40181 57014 80006 91750 333 10244 20048 30/// 56006 59026 84070
AAXX 30181 76585 32980 00901 10212 20158 39998 40158 58013 91740 333 10230 20090 30/// 59034
AAXX 30181 76586 06/// /0501 10268 20150 30001 40153 58014 60002 7//// 8//// 91750 333 0//// 10271 20101 30/// 4//// 54/// 56/// 57/// 59036 60007 8//// 8//// 8//// 9//// 9//// 9//// 44
AAXX 30181 76592 06/// /0307 10279 20035 30170 40170 58016 60002 7//// 8//// 91750 333 0//// 10310 20203 30/// 4//// 54/// 56/// 57/// 59011 60007 8//// 8//// 8//// 9//// 9//// 9//// 44
AAXX 30181 76593 32370 40504 10272 20256 30171 40173 57015 83240 91750 333 10310 20202 30/// 5611/ 59010 83820 81330 91005 91505
AAXX 30181 76612 32962 20000 10237 20145 38488 40174 58004 80001 91750 333 10247 20099 30/// 56006 59003 82072
AAXX 30181 76625 32960 00000 10236 20074 38162 40147 57007 91755 333 10239 20113 30/// 58005
AAXX 30181 76632 31660 32104 10182 20081 37647 40142 57005 70500 83400 91740 333 10187 20092 30/// 56300 59003 83641 98560
AAXX 30181 76634 31570 23203 10220 20070 37866 40167 57006 70500 82200 91450 333 10226 20092 30/// 563// 58002 82827
AAXX 30181 76641 06/// /1501 10257 20197 30149 40161 58011 60002 7//// 8//// 91750 333 0//// 10271 20170 30/// 4//// 54/// 56/// 57/// 59036 60007 8//// 8//// 8//// 8//// 9//// 9//// 9/
AAXX 30181 76644 32460 61102 10298 20207 30153 40165 57020 86200 91750 333 10302 20200 30/// 56300 59007 86820 91005 91511
AAXX 30181 76645 06/// /1402 10296 20209 30159 40172 58018 60002 7//// 8//// 91750 333 0//// 10296 20200 30/// 4//// 54/// 56/// 57/// 59009 60007 8//// 8//// 8//// 9//// 9//// 9//// 44
AAXX 30181 76648 06/// /1202 10303 20197 30139 40169 58016 60002 7//// 8//// 91750 333 0//// 10303 20202 30/// 4//// 54/// 56/// 57/// 59006 60007 8//// 8//// 8//// 8//// 9//// 9//// 9/
AAXX 30181 76654 31450 22701 10278 20215 30160 40164 57007 70544 82200 91750 333 10279 20231 30/// 56100 87814 58002 81820
AAXX 30181 76658 31556 32302 10267 20161 39654 40162 57007 70540 81234 91743 333 10277 20180 30/// 56811 58016 81822 81358 81070 94083 98904
AAXX 30181 76659 06/// /2402 10290 20155 3//// 4//// 5//// 60002 7//// 8//// 91750 333 0//// 10290 20170 30/// 4//// 54/// 56/// 57/// 5//// 60007 8//// 8//// 8//// 9//// 9//// 9//// 44
AAXX 30181 76662 32670 42601 10232 20131 38483 40174 57004 81101 91748 333 10242 20065 30/// 56/0/ 58005 81833 83070
AAXX 30181 76675 31575 12902 10180 20039 37393 40202 57005 70544 81200 91745 333 10184 20006 30/// 569// 59002 81826 98475
AAXX 30181 76680 31556 30501 10198 20072 37768 40106 57009 70500 83200 91755 333 10202 20085 30/// 56100 59001 83828
AAXX 30181 76681 31960 00502 10210 20065 37798 40176 57010 70500 91745 333 10210 20054 30/// 58003
AAXX 30181 76683 31662 40901 10210 20092 37838 40198 56015 70544 84200 91745 333 10220 20064 30/// 56100 58003 84840 94011 94181
AAXX 30181 76684 06/// /3004 10220 20025 37840 40101 58015 60002 7//// 8//// 91750 333 0//// 10225 20053 30/// 4//// 54/// 56/// 57/// 59003 60007 8//// 8//// 8//// 9//// 9//// 9//// 44
AAXX 30181 76685 31550 23601 10204 20072 37884 40168 52005 70544 82100 91750 333 10206 20080 30/// 56900 58013 82827
AAXX 30181 76687 31570 10701 10216 20128 38693 40191 50002 70300 81500 91740 333 10218 20100 30/// 563// 59018 81626
AAXX 30181 76692 31550 30601 10244 20206 30149 40168 58002 71042 832// 91445 333 10254 20174 30/// 563// 59023 81820 82724
AAXX 30181 76693 06/// /1501 10258 20207 30147 40166 58005 60002 7//// 8//// 91750 333 0//// 10259 20173 30/// 4//// 56/// 57/// 59025 60007 8//// 8//// 8//// 8//// 9//// 9//// 9//// 44
AAXX 30181 76695 32560 20603 10308 20225 30149 40154 57013 82100 91750 333 10310 20225 30/// 562// 59010 82828
AAXX 30181 76698 32560 70902 10282 20231 30165 40176 57014 87200 91750 333 10303 20202 30/// 56200 59002 87820
AAXX 30181 76726 32970 02001 10263 20167 38401 40113 52007 91755 333 10263 20142 30/// 59013
AAXX 30181 76727 06/// /1101 10244 20088 38409 40088 58009 60002 7//// 8//// 91750 333 0//// 10259 20136 30/// 4//// 54/// 56/// 57/// 58000 60007 8//// 8//// 8//// 9//// 9//// 9//// 44
AAXX 30181 76737 31480 21602 10216 20144 38783 40173 58002 70300 82200 91735 333 10217 20109 30/// 56200 59020 82817 91106 91516
AAXX 30181 76738 06/// /1702 10220 20136 38783 40136 58005 60002 7//// 8//// 333 10224 20105 30/// 56/// 57/// 59020 60007 8//// 8//// 8//// 8//// 9//// 9//// 9//// 444 ///// 555 30190
AAXX 30181 76743 31457 60901 10265 20221 30147 40155 57012 70211 861// 91750 333 10283 20210 30/// 562// 59020 86818
AAXX 30181 76750 32560 31103 10301 20230 30162 40172 57009 83100 91745 333 10321 20206 30/// 56300 58003 83820
AAXX 30181 76751 06/// /1003 10302 20232 30162 40172 58009 60002 7//// 8//// 91750 333 0//// 10303 20203 30/// 4//// 54/// 56/// 57/// 58002 60007 8//// 8//// 8//// 9//// 9//// 9//// 44
AAXX 30181 76762 31504 13601 10281 20226 38772 40146 58007 70400 81200 91730 333 10284 20160 30/// 56300 59012 81830
AAXX 30181 76772 06/// /0301 10247 20103 38441 40113 58014 60002 7//// 8//// 91750 333 0//// 10252 20086 30/// 4//// 56/// 57/// 58001 60007 8//// 8//// 8//// 9//// 9//// 9//// 444 ////
AAXX 30181 76773 31566 13601 10242 20109 38436 40165 57014 70544 81100 91746 333 10244 20084 30/// 56200 58000 81820
AAXX 30181 76775 31560 11202 10260 20111 38533 40177 57015 70300 81100 91735 333 10274 20102 30/// 56800 59002 81627
AAXX 30181 76776 06/// /1501 10262 20098 38512 40090 58021 60002 7//// 8//// 91750 333 0//// 10262 20103 30/// 4//// 56/// 57/// 59002 60007 8//// 8//// 8//// 9//// 9//// 9//// 444 ////
AAXX 30181 76805 32570 12503 10296 20223 30133 40137 57021 81200 91750 333 10320 20222 30/// 567// 59005 81830
AAXX 30181 76806 06/// /2403 10300 20221 30138 40142 58015 60002 7//// 8//// 91750 333 10304 20223 30/// 56/// 57/// 59001 60007 8//// 8//// 8//// 8//// 9//// 9//// 9//// 555 30273
AAXX 30181 76833 32970 03604 10314 20189 30131 40133 57014 91745 333 10314 20224 30/// 59011 92001
AAXX 30181 76840 32560 20000 10328 20196 30089 40145 55001 82100 91745 333 10335 20198 30/// 569// 59007 82827
AAXX 30181 76843 32965 03601 10258 20166 39501 40146 58002 91736 333 10268 20175 30/// 59001
AAXX 30181 76845 32960 00000 10210 20135 37955 40183 56015 91750 333 10220 20066 30/// 58000
AAXX 30181 76848 32770 10501 10239 20099 38391 40103 51001 81100 91750 333 10242 20137 30/// 56100 58002 81850
AAXX 30181 76902 06/// /2202 10325 20216 30001 40136 58016 60002 7//// 8//// 91750 333 0//// 10328 20229 30/// 4//// 54/// 56/// 57/// 59006 60007 8//// 8//// 8//// 8//// 9//// 9//// 9/
AAXX 30181 76160 32962 00501 10190 20024 39928 40180 52006 91730 333 10190 20075 30/// 58008
AAXX 30181 76243 32974 02703 10192 20058 39892 40193 52017 91730 333 10204 20048 30/// 58008
AAXX 30181 76311 32980 00000 10254 20073 39882 40167 56001 91755 333 10258 20059 30/// 58009
AAXX 30181 76405 32980 12401 10225 20109 30151 40173 50002 80001 91750 333 10225 20088 30/// 56005 58001 81070
AAXX 30181 76640 31458 31402 10240 20200 30169 40181 57003 70200 832// 91740 333 10256 20174 30/// 563// 59038 83817
AAXX 30181 76647 32570 61402 10287 20214 30153 40184 58011 86200 91750 333 10296 20202 30/// 56300 59007 86830
AAXX 30181 76656 32965 11601 10240 20106 38522 40178 58007 80002 91750 333 10248 20078 30/// 56005 58002 81080
AAXX 30181 76855 32980 01801 10304 20220 30070 40119 56008 91745 333 10312 20210 30/// 59016 92000
AAXX 30184 43533 12460 22907 10274 20217 30106 40109 60001 82202 333 58001 82818
AAXX 30184 43555 12462 52909 10278 20214 30113 40116 60001 82201 333 58007 82818 83078
AAXX 30184 43577 12462 52909 10278 20227 30116 40118 60001 81202 333 58007 81818 85077
AAXX 30184 43588 12462 73209 10276 20238 30113 40115 60001 82208 333 58004 82818 87276
AAXX 30184 43599 12460 73204 10277 20253 30115 40117 60001 82202 333 58005 82818 86076
AAXX 30184 43533 12460 22907 10274 20217 30106 40109 60001 82202 333 58001 82818
AAXX 30184 43555 12462 52909 10278 20214 30113 40116 60001 82201 333 58007 82818 83078
AAXX 30184 43577 12462 52909 10278 20227 30116 40118 60001 81202 333 58007 81818 85077
AAXX 30184 43588 12462 73209 10276 20238 30113 40115 60001 82208 333 58004 82818 87276
AAXX 30184 43599 12460 73204 10277 20253 30115 40117 60001 82202 333 58005 82818 86076
AAXX 30181 76040 32960 02301 10170 20081 30176 40190 52014 91750 33310236 20061 30/// 59012 98660
AAXX 30181 76055 32980 00902 10208 21040 30147 40166 52004 91740 33310252 20085 30/// 59022
AAXX 30181 76056 06/// /0902 10220 21061 30152 40175 51008 60002 7////8//// 91750 333 0//// 10236 20089 30/// 4//// 54/// 56///57/// 59012 60007 8//// 8//// 8//// 9//// 9//// 9//// 44
AAXX 30181 76113 32980 02101 10182 20024 39696 40168 52005 91745 33310188 20046 30/// 58000
AAXX 30181 76122 32970 00000 10164 21034 38569 40226 57003 91750 33310169 20000 30/// 58007
AAXX 30181 76123 06/// 02001 10194 21082 3//// 4//// 5//// 60002 7////8//// 91750 333 0//// 10194 20000 56/// 57/// 5//// 600078//// 8//// 8//// 8//// 9//// 9//// 9//// 444 ///// 555
AAXX 30181 76220 32958 00000 10064 21057 38196 40322 54000 91735 33310064 21072 30/// 58008
AAXX 30181 76225 32960 00701 10170 21058 38663 40205 57004 91745 33310170 20015 30/// 58012
AAXX 30181 76226 02/// ///// 1//// 2//// 3//// 4//// 5//// 6//// 7////8//// 9//// 333 0//// 1//// 2//// 30/// 4//// 54/// 56///57/// 5//// 6//// 8//// 8//// 8//// 9//// 9//// 9//// 44
AAXX 30181 76256 32980 00000 10192 20004 30173 40187 57021 91745 33310202 20060 30/// 58009
AAXX 30181 76305 32970 10601 10228 20027 30170 40178 52009 81010 91735333 10233 20080 30/// 56040 58001 81460
AAXX 30181 76323 32970 00601 10190 20004 38306 40291 58003 91755 33310200 20000 30/// 59003
AAXX 30181 76342 3296 02201 10260 21061 39506 40220 52012 91750 333 10268 20100 30/// 59003
AAXX 30181 76382 32980 00701 10190 20060 38940 40223 54000 91745 33310196 20034 30/// 59002
AAXX 30181 76390 31968 02002 10198 21087 38257 40200 52005 70544 91730333 10210 20025 30/// 58007
AAXX 30181 76393 31930 30601 10250 21030 39590 40169 52002 70500 8000191752 333 10272 20090 30/// 56005 59015
AAXX 30181 76402 31957 10000 10198 20134 30115 40120 52006 70544 8000491745 333 10198 20066 30/// 56005 58009
AAXX 30181 76423 32580 30000 10172 21045 38182 40200 58003 81405 91740333 10187 20047 30/// 56909 58008 81630 82067
AAXX 30181 76458 32970 11503 10234 20128 30158 40162 55002 80001 91737333 10251 20101 30/// 56//3 58009 81072
AAXX 30181 76471 32980 00000 10188 20004 37714 40150 52004 91750 33310190 20081 30/// 58007
AAXX 30181 76490 06/// /0701 10245 20054 39779 40161 58001 60002 7////8//// 91750 333 0//// 10247 20093 30/// 54/// 56/// 57///59018 60007 8//// 8//// 8//// 8//// 9//// 9//// 9//// 44
AAXX 30181 76491 32960 60000 10242 20114 39795 40194 54000 80004 91750333 10246 20080 30/// 56009 59018 81077
AAXX 30181 76499 31860 40000 10231 20137 30144 40166 54000 70222 8403091750 333 10232 20087 30/// 56090 59028 84357
AAXX 30181 76525 32980 53304 10132 21008 37493 40157 52003 80006 91740333 10132 20098 30/// 56//5 58002 85080
AAXX 30181 76543 31870 20702 10256 20143 30148 40181 58005 70544 8108591745 333 10256 20105 30/// 56075 59031
AAXX 30181 76548 31870 12502 10238 20175 30167 40177 58001 70144 8103091745 333 10244 20162 30/// 5606/ 59029 81357
AAXX 30181 76556 32970 40203 10242 20122 39134 40166 51007 84030 91735333 10248 20124 30/// 56070 58008 84360
AAXX 30181 76571 32975 51801 10212 20054 38185 40203 55003 80004 91748333 10214 20052 30/// 56005 58001 85067
AAXX 30181 76577 32970 42304 10200 20159 38060 40180 58001 80003 91740333 10205 20085 30/// 56005 58001
AAXX 30181 76578 06/// /2303 10205 20047 38056 40110 58006 60002 7////8//// 91750 333 0//// 10205 20085 30/// 4//// 54/// 56///57/// 58002 60007 8//// 8//// 8//// 9//// 9//// 9//// 44
AAXX 30181 76581 32975 40402 10237 20098 39057 40181 57014 80006 91750333 10244 20048 30/// 56006 59026 84070
AAXX 30181 76585 32980 00901 10212 20158 39998 40158 58013 91740 33310230 20090 30/// 59034
AAXX 30181 76586 06/// /0501 10268 20150 30001 40153 58014 60002 7////8//// 91750 333 0//// 10271 20101 30/// 4//// 54/// 56///57/// 59036 60007 8//// 8//// 8//// 9//// 9//// 9//// 44
AAXX 30181 76592 06/// /0307 10279 20035 30170 40170 58016 60002 7////8//// 91750 333 0//// 10310 20203 30/// 4//// 54/// 56///57/// 59011 60007 8//// 8//// 8//// 9//// 9//// 9//// 44
AAXX 30181 76593 32370 40504 10272 20256 30171 40173 57015 83240 91750333 10310 20202 30/// 5611/ 59010 83820 81330 91005 91505
AAXX 30181 76612 32962 20000 10237 20145 38488 40174 58004 80001 91750333 10247 20099 30/// 56006 59003 82072
AAXX 30181 76625 32960 00000 10236 20074 38162 40147 57007 91755 33310239 20113 30/// 58005
AAXX 30181 76632 31660 32104 10182 20081 37647 40142 57005 70500 8340091740 333 10187 20092 30/// 56300 59003 83641 98560
AAXX 30181 76634 31570 23203 10220 20070 37866 40167 57006 70500 8220091450 333 10226 20092 30/// 563// 58002 82827
AAXX 30181 76641 06/// /1501 10257 20197 30149 40161 58011 60002 7////8//// 91750 333 0//// 10271 20170 30/// 4//// 54/// 56///57/// 59036 60007 8//// 8//// 8//// 8//// 9//// 9//// 9/
AAXX 30181 76644 32460 61102 10298 20207 30153 40165 57020 86200 91750333 10302 20200 30/// 56300 59007 86820 91005 91511
AAXX 30181 76645 06/// /1402 10296 20209 30159 40172 58018 60002 7////8//// 91750 333 0//// 10296 20200 30/// 4//// 54/// 56///57/// 59009 60007 8//// 8//// 8//// 9//// 9//// 9//// 44
AAXX 30181 76648 06/// /1202 10303 20197 30139 40169 58016 60002 7////8//// 91750 333 0//// 10303 20202 30/// 4//// 54/// 56///57/// 59006 60007 8//// 8//// 8//// 8//// 9//// 9//// 9/
AAXX 30181 76654 31450 22701 10278 20215 30160 40164 57007 70544 8220091750 333 10279 20231 30/// 56100 87814 58002 81820
AAXX 30181 76658 31556 32302 10267 20161 39654 40162 57007 70540 8123491743 333 10277 20180 30/// 56811 58016 81822 81358 8107094083 98904
AAXX 30181 76659 06/// /2402 10290 20155 3//// 4//// 5//// 60002 7////8//// 91750 333 0//// 10290 20170 30/// 4//// 54/// 56///57/// 5//// 60007 8//// 8//// 8//// 9//// 9//// 9//// 44
AAXX 30181 76662 32670 42601 10232 20131 38483 40174 57004 81101 91748333 10242 20065 30/// 56/0/ 58005 81833 83070
AAXX 30181 76675 31575 12902 10180 20039 37393 40202 57005 70544 8120091745 333 10184 20006 30/// 569// 59002 81826 98475
AAXX 30181 76680 31556 30501 10198 20072 37768 40106 57009 70500 8320091755 333 10202 20085 30/// 56100 59001 83828
AAXX 30181 76681 31960 00502 10210 20065 37798 40176 57010 70500 91745333 10210 20054 30/// 58003
AAXX 30181 76683 31662 40901 10210 20092 37838 40198 56015 70544 8420091745 333 10220 20064 30/// 56100 58003 84840 94011 94181
AAXX 30181 76684 06/// /3004 10220 20025 37840 40101 58015 60002 7////8//// 91750 333 0//// 10225 20053 30/// 4//// 54/// 56///57/// 59003 60007 8//// 8//// 8//// 9//// 9//// 9//// 44
AAXX 30181 76685 31550 23601 10204 20072 37884 40168 52005 70544 8210091750 333 10206 20080 30/// 56900 58013 82827
AAXX 30181 76687 31570 10701 10216 20128 38693 40191 50002 70300 8150091740 333 10218 20100 30/// 563// 59018 81626
AAXX 30181 76692 31550 30601 10244 20206 30149 40168 58002 71042 832//91445 333 10254 20174 30/// 563// 59023 81820 82724
AAXX 30181 76693 06/// /1501 10258 20207 30147 40166 58005 60002 7////8//// 91750 333 0//// 10259 20173 30/// 4//// 56/// 57///59025 60007 8//// 8//// 8//// 8//// 9//// 9//// 9//// 44
AAXX 30181 76695 32560 20603 10308 20225 30149 40154 57013 82100 91750333 10310 20225 30/// 562// 59010 82828
AAXX 30181 76698 32560 70902 10282 20231 30165 40176 57014 87200 91750333 10303 20202 30/// 56200 59002 87820
AAXX 30181 76726 32970 02001 10263 20167 38401 40113 52007 91755 33310263 20142 30/// 59013
AAXX 30181 76727 06/// /1101 10244 20088 38409 40088 58009 60002 7////8//// 91750 333 0//// 10259 20136 30/// 4//// 54/// 56///57/// 58000 60007 8//// 8//// 8//// 9//// 9//// 9//// 44
AAXX 30181 76737 31480 21602 10216 20144 38783 40173 58002 70300 8220091735 333 10217 20109 30/// 56200 59020 82817 91106 91516
AAXX 30181 76738 06/// /1702 10220 20136 38783 40136 58005 60002 7////8//// 333 10224 20105 30/// 56/// 57/// 59020 60007 8////8//// 8//// 8//// 9//// 9//// 9//// 444 ///// 555 30190
AAXX 30181 76743 31457 60901 10265 20221 30147 40155 57012 70211 861//91750 333 10283 20210 30/// 562// 59020 86818
AAXX 30181 76750 32560 31103 10301 20230 30162 40172 57009 83100 91745333 10321 20206 30/// 56300 58003 83820
AAXX 30181 76751 06/// /1003 10302 20232 30162 40172 58009 60002 7////8//// 91750 333 0//// 10303 20203 30/// 4//// 54/// 56///57/// 58002 60007 8//// 8//// 8//// 9//// 9//// 9//// 44
AAXX 30181 76762 31504 13601 10281 20226 38772 40146 58007 70400 8120091730 333 10284 20160 30/// 56300 59012 81830
AAXX 30181 76772 06/// /0301 10247 20103 38441 40113 58014 60002 7////8//// 91750 333 0//// 10252 20086 30/// 4//// 56/// 57///58001 60007 8//// 8//// 8//// 9//// 9//// 9//// 444 ////
AAXX 30181 76773 31566 13601 10242 20109 38436 40165 57014 70544 8110091746 333 10244 20084 30/// 56200 58000 81820
AAXX 30181 76775 31560 11202 10260 20111 38533 40177 57015 70300 8110091735 333 10274 20102 30/// 56800 59002 81627
AAXX 30181 76776 06/// /1501 10262 20098 38512 40090 58021 60002 7////8//// 91750 333 0//// 10262 20103 30/// 4//// 56/// 57///59002 60007 8//// 8//// 8//// 9//// 9//// 9//// 444 ////
AAXX 30181 76805 32570 12503 10296 20223 30133 40137 57021 81200 91750333 10320 20222 30/// 567// 59005 81830
AAXX 30181 76806 06/// /2403 10300 20221 30138 40142 58015 60002 7////8//// 91750 333 10304 20223 30/// 56/// 57/// 59001 600078//// 8//// 8//// 8//// 9//// 9//// 9//// 555 30273
AAXX 30181 76833 32970 03604 10314 20189 30131 40133 57014 91745 33310314 20224 30/// 59011 92001
AAXX 30181 76840 32560 20000 10328 20196 30089 40145 55001 82100 91745333 10335 20198 30/// 569// 59007 82827
AAXX 30181 76843 32965 03601 10258 20166 39501 40146 58002 91736 33310268 20175 30/// 59001
AAXX 30181 76845 32960 00000 10210 20135 37955 40183 56015 91750 33310220 20066 30/// 58000
AAXX 30181 76848 32770 10501 10239 20099 38391 40103 51001 81100 91750333 10242 20137 30/// 56100 58002 81850
AAXX 30181 76902 06/// /2202 10325 20216 30001 40136 58016 60002 7////8//// 91750 333 0//// 10328 20229 30/// 4//// 54/// 56///57/// 59006 60007 8//// 8//// 8//// 8//// 9//// 9//// 9/
AAXX 30181 76160 32962 00501 10190 20024 39928 40180 52006 91730 33310190 20075 30/// 58008
AAXX 30181 76243 32974 02703 10192 20058 39892 40193 52017 91730 33310204 20048 30/// 58008
AAXX 30181 76311 32980 00000 10254 20073 39882 40167 56001 91755 33310258 20059 30/// 58009
AAXX 30181 76405 32980 12401 10225 20109 30151 40173 50002 80001 91750333 10225 20088 30/// 56005 58001 81070
AAXX 30181 76640 31458 31402 10240 20200 30169 40181 57003 70200 832//91740 333 10256 20174 30/// 563// 59038 83817
AAXX 30181 76647 32570 61402 10287 20214 30153 40184 58011 86200 91750333 10296 20202 30/// 56300 59007 86830
AAXX 30181 76656 32965 11601 10240 20106 38522 40178 58007 80002 91750333 10248 20078 30/// 56005 58002 81080
AAXX 30181 76855 32980 01801 10304 20220 30070 40119 56008 91745 33310312 20210 30/// 59016 92000
AAXX 3018/ 89872 46/// ///// 10019 39769 4//// 5////
AAXX 3018/ 89866 46/// ///// 10029 39721 4//// 5////
AAXX 3018/ 89828 46/// ///// 11199 36555 4//// 5////
AAXX 3018/ 89879 46/// ///// 10043 39737 4//// 5////
AAXX 3018/ 89869 46/// ///// 11016 39750 4//// 5////
AAXX 30184 89667 46/// /0805 10010 29036 39819 4//// 5////
BBXX UFTA 30181 99844 71224 11/93 92710 11269 21299 40039 53001 60012 73973 333 92382
AAXX 30184 68399 36/// /0506 10248 20186 30015 40123 53007 333 10331 20247 91033 555 91012
AAXX 30184 68383 36/// /0000 10259 20160 39888 48559 52015 333 10321 20259 91000 555 91013
AAXX 30184 68379 36/// /0505 10244 20189 39808 48550 52007 333 10320 20243 91010 555 91013
AAXX 30184 91930 36/// ///// 10281 20230
AAXX 30184 91943 36/// /0612 10283 20221 30141 40143 51011 333 10284 59002
AAXX 30181 89061 379// 03101 10031 20010 39629 49636 57007 72144 333 91002 91104
AAXX 30181 48820 32598 81401 10156 20118 30225 40233 50007 888// 333 58020 82895 88697
AAXX 30184 68024 42960 30000 10254 20201 48497 53019 82082 333 10281
AAXX 30184 68029 41560 71002 10212 20204 48508 52016 71796 85970 333 10310
AAXX 30184 68030 41560 80000 10211 20205 48501 53013 71399 82973 333 10282
AAXX 30184 68032 42660 41104 10280 20211 48508 52023 82280 333 10311
AAXX 30184 68038 42560 41408 10260 20197 48506 52023 83380 333 10308
AAXX 30184 68054 42460 61108 10214 20179 48537 53018 85470 333 10259
AAXX 30184 68070 42960 20703 10232 20183 48521 53016 82080 333 10262
AAXX 30184 68148 42560 50000 10225 20186 48517 52015 83880 333 10258
AAXX 30184 68226 42660 31111 10258 20172 48495 53013 82983 333 10342
AAXX 30184 68234 41560 72308 10216 20188 48517 52034 79522 86980 333 10301
AAXX 30184 68240 42560 60604 10219 20171 48506 52011 83580 333 10246
AAXX 30184 68320 41560 70511 10205 20183 48509 52025 79599 85983 333 10349
AAXX 30184 68325 42660 61410 10208 20179 48507 52016 83970 333 10248
AAXX 30184 68328 42660 40914 10290 20158 48491 52021 82980 333 10342
AAXX 30181 48823 32697 83401 10161 20119 30223 40226 51001 885// 333 58021 88696
AAXX 30184 03301 16231 /2317 10105 20105 30024 40097 56016 60062 91750 333 10106 83/04 87/16
AAXX 30184 03305 17322 /2420 10106 20093 39837 40095 57020 60092 723// 91750 333 10111 81/08 87/12 90710 91129
AAXX 30184 03313 16583 /2514 10123 20104 39995 40087 57022 60042 91750 333 10123 85/20 85/50 91024
AAXX 30184 03316 17362 /1609 10074 20069 30073 40084 57033 60092 723// 91750 333 10076 87/06
AAXX 30184 03318 16/// /1913 10079 20075 60072 91750 333 10079
AAXX 30184 03321 16557 /1506 10076 20074 30080 40092 56032 60042 91750 333 10076 553// 20000 87/25
AAXX 30184 03330 17132 /2009 10049 20048 39742 40105 56032 60072 761// 91750 333 10049 88/02
AAXX 30184 03344 17260 /2007 10048 20042 39767 40086 58040 60032 761// 91750 333 10048 84/03 85/32 85/50
AAXX 30184 03346 16/// /1705 10044 20041 60032 91750 333 10044
AAXX 30184 03348 17445 /1811 10069 20066 39985 40092 56039 60052 761// 91750 333 10069 55300 20000 88/11
AAXX 30184 03355 17356 /1608 10047 20046 30085 40096 57037 60032 710// 91750 333 10066 55300 20000 81/06 84/16 87/22
AAXX 30184 03373 16517 /1709 10045 20039 30040 40110 58033 60032 91750 333 10066 87/26
AAXX 30184 03379 16248 /1708 10045 20044 30042 40120 57032 60032 91750 333 10065 82/03 87/21
AAXX 30184 03382 17224 /1806 10045 20045 30097 40106 58026 60022 751// 91750 333 10055 55300 20000 86/05 83/43
AAXX 30184 03385 46658 /1708 10044 20044 30106 40116 57027 91750 333 10055 81/38 87/43
AAXX 30184 03391 11440 81807 10047 20040 30114 40122 57029 60032 75965 885// 91750 333 10064 83712 88632
AAXX 30184 03392 16561 /1809 10047 20046 30121 40124 57026 60022 91750 333 10059 81/24 85/36 86/50
AAXX 30184 03405 16057 /2523 10103 20103 39995 40110 56017 60062 91750 333 10103 553// 20000 88/01 90710 91129
AAXX 30184 03409 16/// /2509 10097 20093 60022 91750 333 10099 55300 2////
AAXX 30184 03410 16239 /2518 10102 20102 39669 40097 57022 60052 91750 333 10102 553// 20000 87/05 90710 91132 91032
AAXX 30184 03469 17661 /1908 10048 20048 30122 40126 57029 60022 761// 91750 333 10064 553// 20000 86/36 85/44
AAXX 30184 03488 17560 /1907 10044 20036 30107 40133 58023 60022 762// 91750 333 10055 87/29
AAXX 30184 03503 17262 /2512 10112 20109 30042 40118 56020 60102 761// 91750 333 10114 85/04 85/19 90710 91125 91022
AAXX 30184 03507 17159 /2410 10095 20095 39755 40124 57020 60122 762// 91750 333 10096 88/02
AAXX 30184 03520 16221 /0701 10063 20061 39994 40116 56032 60032 91750 333 10072 553// 20000 81/03 84/29
AAXX 30184 03522 17448 /0501 10077 20077 30029 40122 56031 60032 723// 91750 333 10077 85/12 85/40
AAXX 30184 03529 17256 /2112 10083 20083 30078 40121 56034 60062 710// 91750 333 10083 86/03 87/16
AAXX 30184 03544 17257 /1807 10059 20056 39986 40117 56038 60042 723// 91750 333 10059 553// 20000 88/05
AAXX 30184 03560 17435 /1808 10053 20050 30021 40126 57037 60032 762// 91750 333 10062 553// 20000 87/12
AAXX 30184 03604 16265 /2723 10109 20106 30082 40136 55014 60052 91750 333 10112 88/04 90710 91133
AAXX 30184 03605 16256 /2620 10107 20103 30126 40134 58018 60042 91750 333 10109 88/04
AAXX 30184 03609 16/// /2523 10102 20102 30089 40141 58017 60042 91750 333 10107 90710 91129
AAXX 30184 03628 17113 /2514 10103 20100 30062 40133 56022 60032 722// 91750 333 10103 55300 20000 88/02
AAXX 30184 03647 16/01 /2109 10068 20068 39868 40124 56031 60062 91750 333 10068 553// 20000
AAXX 30184 03658 16268 /1811 10071 20065 30065 40136 56034 60042 91750 333 10072 87/04
AAXX 30184 03660 17/04 /2205 10057 20057 39889 40139 56031 60032 734// 91750 333 10057
AAXX 30184 03672 16250 /1806 10067 20060 30097 40138 58034 60032 91750 333 10073 83/05 86/14
AAXX 30184 03684 17250 /1905 10049 20044 30032 40140 58029 60022 761// 91750 333 10063 81/04 86/27
AAXX 30184 03693 16665 /1911 10057 20049 30145 40148 58027 60022 91750 333 10074 87/42
AAXX 30184 03707 17157 /2618 10110 20110 30144 40151 58015 60082 723// 91750 333 10113 88/02 90710 91127
AAXX 30184 03710 16122 /2613 10095 20095 39730 40147 58015 60062 91750 333 10095 553// 20000 87/02 90710 91127 91023
AAXX 30184 03743 16058 /2305 10085 20085 39981 40142 57025 60052 91750 333 10085 88/01
AAXX 30184 03749 16142 /1906 10081 20080 30033 40144 56027 60042 91750 333 10081 87/02 87/08
AAXX 30184 03761 17274 /1712 10073 20066 39996 40141 58032 60032 761// 91750 333 10073 55300 20000 84/04 84/13
AAXX 30184 03768 16258 /1911 10070 20065 30059 40139 58034 60042 91750 333 10072 84/04 86/18
AAXX 30184 03769 17257 /1805 10061 20059 30063 40146 58031 6///2 761// 91750 333 10069 55300 20000 86/03 86/08
AAXX 30184 03781 17257 /1710 10053 20051 39935 40144 58032 60032 762// 91750 333 10062 553// 20000 86/03 84/25
AAXX 30184 03797 17557 /2105 10049 20042 30100 40161 57017 60032 762// 91750 333 10069 55300 20000 87/26 85/43
AAXX 30184 03823 17150 /2718 10100 20100 39927 40169 58010 60152 723// 91750 333 10106 553// 20000 88/02 90710 91129
AAXX 30184 03839 16/// ///// 10120 20117 60042 91750 333 10120 553// 20000
AAXX 30184 03857 17260 /2719 10108 20108 30091 40155 58016 60032 723// 91750 333 10109 81/03 87/36
AAXX 30184 03862 17269 /2507 10104 20104 30136 40148 57023 60022 723// 91750 333 10104 55300 20000 82/05 83/15 87/56
AAXX 30184 03866 16/// /2613 10103 20097 30125 40149 57026 60072 91750 333 10103
AAXX 30184 03872 17162 /1709 10086 20085 30143 40148 58028 60052 723// 91750 333 10086 553// 20000 88/02
AAXX 30184 03876 16/// /1809 10082 20080 30152 40154 58028 60032 91750 333 10082
AAXX 30184 03895 41020 82819 10111 20106 40190 56010 75865 887// 333 10111 82700 85701 87702 90710 91127
AAXX 30184 03896 16/// ///// 10115 60102 333 10115
BBXX NWS0029 30184 99415 70707 43/// /1612 10086 20043 40175 5//// 7//// 8//// 222// 04067 2//// 3//// 4//// 5//// 6//// 8//// ICE /////
BBXX KAOU 30184 99002 10840 43/// /0097 10280 20239 40113 5//// 7//// 8//// 222// 04286 2//// 3//// 4//// 5//// 6//// 8//// ICE /////
BBXX NWS0003 30184 99539 71665 43/// /3500 11045 21085 40103 5//// 7//// 8//// 222// 0//// 2//// 3//// 4//// 5//// 6//// 8//// ICE /////
BBXX V7MO2 30184 99262 70914 41697 21906 10230 20169 40193 56004 70100 822// 22200 00230 2//01 3//// 4//01 5//// 6//// 80190 ICE /////
BBXX NWS0020 30184 99259 70757 43/// /0413 10221 20200 40191 5//// 7//// 8//// 222// 04246 2//// 3//// 4//// 5//// 6//// 8//// ICE /////
BBXX C6XC2 30184 99290 11269 41498 80216 10110 20050 40260 52010 70322 8827/ 22282 00220 2//// 3//// 4//// 5//// 6//// 80080 ICE /////
BBXX H3WD 30184 99177 71430 41498 60623 10240 2023/ 40190 51020 75055 8621/ 22263 00230 20404 305// 4//// 5//// 6//// 80230 ICE /////
BBXX WXJ63 30183 99611 71464 41/97 83204 11062 21103 49906 5//// 702// 8//// 222// 00044 2//// 3//// 4//// 5//// 6//// 8//// ICE /////
BBXX C6VG7 30184 99204 70869 415// 41215 10260 2//// 40170 5/010 7//11 84/6/ 22200 0//// 20600 3//// 40600 50600 6//// 8//// ICE /////
AAXX 30184 03008 16/// /1617 10046 21002 39962 40032 58029 60012 91750 333 10053 90710 91126
AAXX 30184 03010 46/// /1432 10052 20041 49991 58047 333 90710 91139
AAXX 30184 03014 46/// /1619 10010 21038 40037 58027 91750 333 8////
AAXX 30184 03031 17457 /1006 10011 20005 39672 40001 57042 60092 762// 91750 333 10023 553// 20000 84/17 84/26
AAXX 30184 03034 17463 /1707 10069 20061 39960 49973 56047 60102 761// 91750 333 10074 88/19
AAXX 30184 03037 17556 /2009 10083 20078 39964 49986 56041 60102 710// 91750 333 10083 86/21 85/50
AAXX 30184 03039 46/// /2129 10041 20022 91750 333 10041 90710 91142
AAXX 30184 03041 46/// /2326 10032 20032 91750 333 10033 90710 91149 91045
AAXX 30184 03044 17629 /3104 10033 20023 39890 49989 57050 60032 763// 91750 333 10046 553// 20000 87/33
AAXX 30184 03047 17557 /1912 10029 20013 39721 40025 56038 60112 761// 91750 333 10029 553// 20000 83/23 87/29
AAXX 30184 03062 17666 /1109 10033 20019 30001 40005 57049 60072 762// 91750 333 10038 553// 20000 86/34 86/43
AAXX 30184 03065 46/// /2427 10018 20016 91750 333 10018 90710 91151 91042
AAXX 30184 03068 11657 81405 10028 20015 30005 40014 57048 60022 76362 8753/ 91750 333 10042 83633 87650
AAXX 30184 03080 17467 /0404 10012 20007 39865 40038 57039 60032 761// 91750 333 10013 82/17 87/34
AAXX 30184 03088 17159 /1915 10022 20022 39886 40052 57036 60042 762// 91750 333 10045 553// 20000 88/02
AAXX 30184 03094 17664 /1616 10023 20006 30027 40032 58038 69942 761// 91750 333 10057 84/39 87/50
AAXX 30184 03105 17234 /2517 10101 20101 30010 40027 56021 60152 751// 91750 333 10102 88/03
AAXX 30184 03132 17235 /2314 10103 20103 30032 40045 56032 60152 782// 91750 333 10103 86/05 86/13 85/21
AAXX 30184 03144 17116 /0401 10010 20002 30002 40046 56040 60072 751// 91750 333 10039 553// 20000 88/02
AAXX 30184 03148 46/// /1609 10000 20000 91750 333 10006
AAXX 30184 03153 17/01 /2011 10076 20076 39909 40046 57033 60152 751// 91750 333 10076 553// 20000 90710 91127
AAXX 30184 03155 16566 /1821 10050 20038 39735 40032 56039 60052 91750 333 10050 84/23 87/50 90710 91132
AAXX 30184 03158 17448 /1102 10010 20010 39919 40058 56045 60092 761// 91750 333 10040 553// 20000 87/16
AAXX 30184 03210 16015 /1614 10064 20064 39914 40065 58027 60142 91750 333 10064 88/01
AAXX 30184 03212 17479 /0607 10057 20043 39966 40066 56035 60042 781// 91750 333 10068 88/19
AAXX 30184 03214 17056 /0304 10072 20069 30054 40072 58038 60092 761// 91750 333 10072 88/01
AAXX 30184 03220 16463 ///// 10058 20046 30021 40056 56044 60062 91750 333 10058 87/14
AAXX 30184 03225 16664 /2409 10043 20031 39766 40074 56035 60042 91750 333 10043 553// 20000 83/38 87/50
AAXX 30184 03226 17357 /2002 10042 20035 39798 40075 57037 60092 757// 91750 333 10043 88/06
AAXX 30184 03227 46/// /2225 11001 2//// 91750 333 11001 90710 91131
AAXX 30184 03230 16006 /1702 10009 20007 39809 40070 56044 60052 91750 333 10036 86/01 84/05
AAXX 30184 03238 17565 /1607 10029 20024 39891 40066 56044 60072 762// 91750 333 10045 88/23
AAXX 30184 03261 16234 /1509 10042 20042 30052 40092 57036 60062 91750 333 10062 84/03 84/17
AAXX 30184 03265 17227 /1412 10043 20040 30062 40093 57035 60052 751// 91750 333 10059 86/03 86/23
AAXX 30184 03266 16241 /1609 10045 20041 30075 40092 58037 60052 91750 333 10060 82/04 87/21
AAXX 30184 03275 17557 /1713 10028 20016 39894 40089 58030 60042 762// 91750 333 10049 87/27 86/34
AAXX 30184 03281 16/// /1815 10022 20022 60052 91750 333 10039
AAXX 30184 03903 16357 /2609 10113 20109 30013 40070 56006 60062 91750 333 10118 553// 20000 87/09
AAXX 30184 03904 16470 /2416 10108 20098 39996 40055 57009 60052 91750 333 10113 87/10 85/21 90710 91125
AAXX 30184 03907 17474 /2318 10103 20098 30035 40042 56010 60092 723// 91750 333 10103 55300 20000 87/10
AAXX 30184 03911 16271 /2617 10098 20097 39782 40051 56014 60122 91750 333 10101 88/05 90710 91129 91027
AAXX 30184 03915 16483 /2513 10111 20111 39969 40046 56014 60082 91750 333 10112 87/16
AAXX 30184 03916 16258 /2907 10104 20101 39850 40036 56016 60102 91750 333 10104 553// 20000 86/05 85/14
AAXX 30184 03923 17366 /2713 10111 20103 39868 40060 56011 60062 723// 91750 333 10111 87/08 83/16
AAXX 30184 70026 NIL
AAXX 30184 70133 NIL
AAXX 30184 70174 NIL
AAXX 30184 70200 NIL
AAXX 30184 70219 NIL
AAXX 30184 70231 NIL
AAXX 30184 70261 NIL
AAXX 30184 70267 NIL
AAXX 30184 70271 NIL
AAXX 30184 70273 NIL
AAXX 30184 70308 NIL
AAXX 30184 70316 NIL
AAXX 30184 70326 NIL
AAXX 30184 70340 NIL
AAXX 30184 70350 NIL
AAXX 30184 70361 NIL
AAXX 30184 70381 NIL
AAXX 30184 70398 NIL
AAXX 30184 70414 NIL
BBXX 44011 30181 99411 70666 46/// /2602 10076 20015 40206 57011 91750 22200 00093 10803 20401 3//// 40803 70017 333 91202 555 11018 22019 31656 40504 61749 262018 265019 244023 242023 249025 237028
BBXX 41046 30181 99238 70683 46/// /1405 10249 20214 40201 56015 91750 22200 00254 11304 20502 300// 41303 70019 333 91206 555 11057 22060 31731 41308 61749 137055 127064 128064 129059 129058 130058 81307 91724
BBXX 42363 30181 99282 70892 46/// /2009 10228 20111 40197 58006 91800 333 91209
BBXX 42364 30181 99291 70881 46/// /2207 10217 20133 40193 58010 91800
BBXX 41041 30181 99142 70460 46/// /0709 10260 20204 40154 56017 91750 22200 00262 10907 20704 3//// 40905 70034 333 91211 555 11098 22105 31700 40713 61749 065092 066085 063089 064100 062106 073098 80612 91700
AAXX 30184 78526 NIL
AAXX 30184 78543 NIL
AAXX 30184 78255 42559 30405 10278 20184 30039 40188 57020 83200 333 10280 20190 83820
AAXX 30184 78317 NIL
AAXX 30184 78318 NIL
AAXX 30184 78325 NIL
AAXX 30184 78333 NIL
AAXX 30184 78338 NIL
AAXX 30184 78348 NIL
AAXX 30184 78349 NIL
AAXX 30184 78353 NIL
AAXX 30184 78360 NIL
AAXX 30184 78367 NIL
AAXX 30184 78369 NIL
AAXX 30184 91165 NIL
AAXX 30184 91182 NIL
AAXX 30184 91190 NIL
AAXX 30184 91212 NIL
AAXX 30184 91217 NIL
AAXX 30184 91285 NIL
AAXX 30184 91317 NIL
AAXX 30184 91334 32474 60607 10269 20232 30091 40094 55007 82101 333 56199 555 93018
AAXX 30184 91348 11474 50805 10277 20238 30051 40103 55000 60011 70281 83101 333 562/9 70013 555 93018
AAXX 30184 91356 NIL
AAXX 30184 91366 NIL
AAXX 30184 91369 NIL
AAXX 30184 91371 NIL
AAXX 30184 91376 11462 80909 10259 20241 30086 40090 53003 60191 72286 8687/ 333 5629/ 70495 555 93018
AAXX 30184 91408 11473 60807 10258 20238 30046 40084 57019 60051 70282 82201 333 569/9 70531 555 93018
AAXX 30184 91413 11469 60812 10270 20232 30069 40095 58010 69951 70282 83171 333 56299 70005 555 93018
AAXX 30184 91425 NIL
AAXX 30184 91434 NIL
AAXX 30184 91765 NIL
AAXX 30184 91222 NIL
AAXX 30184 91245 NIL
AAXX 30184 91323 NIL
AAXX 30184 91339 NIL
AAXX 30184 91343 NIL
AAXX 30184 91353 NIL
AAXX 30184 91442 NIL
BBXX C6KD6 30184 99485 70073 41/97 92527 10130 20121 40235 57025 70311 8972/ 22214 02118 21009 80125
BBXX DGOS 30183 99387 70324 41297 82018 10186 20174 40315 55005 70222 8577/ 22264 21203 320// 41404 80178
BBXX PHAM 30183 99495 70011 41297 82808 10114 20107 40171 57019 76165 887// 22200 20201 80110 90967
BBXX VRFX8 30184 99506 70187 41/95 /2422 10140 20120 40150 54000 74544 8//// 22224 0//// 20404 324// 40805 80130
AAXX 30181 15015 01593 81500 11013 21013 39509 42724 53002 69962 74242 885// 333 10008 21013 3/001 43007 60007 91001 91102 92821
AAXX 30181 15020 01596 71500 10002 20002 39909 40111 52009 69912 71022 87500 333 10029 21005 31005 60007 91001 91101
AAXX 30181 15090 01596 80701 10010 20009 30020 40114 52008 69922 71022 885// 333 10040 20006 31005 55300 10058 20003 3//// 60007 91001 91102
AAXX 30181 15108 01/91 92704 11092 21092 37972 48408 53002 69932 74574 333 11075 21092 3//// 48018 69937 92803 92910
AAXX 30181 15120 01596 53401 11008 21008 39623 40132 52002 69952 71022 82570 333 10005 21011 3/002 43004 55300 10073 2//// 3//// 60007 91001 91102 92872
AAXX 30181 15150 01496 81800 10006 20006 39894 40112 52008 60002 71022 886// 333 10051 21023 31007 60007 91001 91102
AAXX 30181 15170 02597 81702 11014 21028 39320 42722 53007 60002 885// 333 10009 21025 3/002 43002 60007 91002 91103 92870
AAXX 30181 15200 01495 71201 11006 21006 39979 40128 54001 60002 71042 87600 333 10010 21006 31003 60007 91002 91103
AAXX 30181 15230 02597 82102 10003 21012 39837 40138 52005 69922 885// 333 10008 21007 31001 55300 10029 20003 3//// 60007 91003 91103
AAXX 30181 15260 01597 83301 11004 21007 39588 40137 52010 69932 77172 8657/ 333 10016 21010 3/005 41998 69907 91002 91102
AAXX 30181 15280 01/93 82502 11098 21107 37370 47895 53001 60002 74142 885// 333 11085 21110 3//// 49035 60007 92818
AAXX 30181 15292 01997 00801 11018 21018 39828 40132 52002 69942 70272 333 10006 21018 3/001 43002 60007 91001 91101 92822
AAXX 30181 15310 01494 81902 10005 20004 30034 40122 52008 60002 71022 886// 333 10025 20005 31004 55300 10019 20001 30000 60007 91005 91106
AAXX 30181 15335 01496 52501 10014 20005 30115 40122 52007 60002 71022 85600 333 10049 20014 31007 60007 91002 91105
AAXX 30181 15346 01596 82400 10019 20006 39820 40115 52008 60002 71022 885// 333 10029 20006 31007 60007 91001 91103
AAXX 30181 15350 01595 82203 10008 20004 39997 40120 52006 60002 71022 885// 333 10025 20008 31005 60007 91004 91106
AAXX 30181 15360 02497 52304 10025 20015 30104 40118 52006 60002 85600 222// 06038 20200 333 10051 20022 3//// 60007 91005 91105 92417
AAXX 30181 15410 02997 03201 10003 21023 30019 40117 53006 60002 333 10051 20003 31006 60007 91002 91102
AAXX 30181 15420 02997 40000 11017 21020 30003 40119 53004 60002 84030 333 10028 21017 34006 55300 0//// 20000 3//// 60007 91001 91101
AAXX 30181 15450 02997 30502 10007 20002 39874 40115 52005 60002 81041 333 10043 21033 34005 55300 10164 20004 3//// 60007 91002 91102
AAXX 30181 15460 01995 02501 11006 21011 30097 40122 52005 60002 71011 333 10040 21010 34006 60007 91001 91102
AAXX 30181 15470 02997 32401 11001 21001 39989 40119 53005 60002 83040 333 10040 21018 31007 60007 91002 91102
AAXX 30181 15480 02997 02400 10015 20014 30109 40127 52007 60002 222// 06065 2//// 333 10042 20015 31007 60007 92417
BBXX VK4041 30180 99092 51257 41598 70908 10253 20213 40132 52003 70381 838/2 22262 02252 20302 30999 40608 5//04 80226
BBXX MIBR 30183 99130 30785 41597 82125 10280 20237 40066 52020 71822 87/// 22254 00293 2//// 3//// 4//// 5//// 80250
BBXX MGRH9 30184 99266 31532 41/97 51324 10230 20156 40147 54000 7//11 85/// 22200 00242 2//// 3//// 4//// 5//// 80185
BBXX PCCL 30183 99393 31556 41197 22310 10150 40213 54000 70222 821// 22263 04186 20501 321// 40806
BBXX VQNW6 30184 99007 30861 41997 03311 10282 20240 40131 51012 702// 80000 22233 00288 2//// 3//// 4//// 5//// 80253
BBXX PCIM 30184 99034 11054 41/98 72919 10255 20238 40100 58010 70222 8587/ 22213 00269 20503 30000 80243
BBXX PFBF 30184 99137 51737 41398 22413 10280 20277 40085 53015 70100 8114/ 22213 02278 20206 314// 40506 5//// 80278
BBXX 51000 30181 99235 71541 46/// /1006 10222 40203 53014 91750 22200 00227 11305 20502 331// 41304 70024 333 91208 555 11065 22068 31727 40910 61749 093060 094061 093069 093069 093070 097069
BBXX 51003 30181 99193 71606 46/// /0605 10238 40181 53014 91750 22200 00249 11305 20401 3//// 41305 70026 333 91206 555 11054 22056 31713 40607 61749 059051 055050 062051 060054 069054 070053
BBXX 44008 30181 99405 70692 46/// /1407 10096 20057 40186 58020 91750 22200 00115 10702 20602 318// 40701 70011 333 91207 555 11068 22071 31652 41408 61749 140064 143064 141061 143058 146061 144061
BBXX 46089 30181 99459 71258 46/// /3209 10079 20045 40118 53047 91750 22200 00094 11109 20705 328// 41108 70046 333 91212 555 11091 22096 31650 42813 61749 322088 312097 292093 280090 288090 286093
BBXX 46053 30181 99342 71198 46/// /0202 10139 40188 53020 91750 22200 00137 11103 20401 328// 41103 70013 333 91203 555 11024 22027 31650 40604 61749 016022 015024 037022 035022 040027 054030
BBXX 46042 30181 99368 71224 46/// /3405 10123 40238 51020 91750 22200 00123 11906 20501 330// 41906 70030 333 91206 555 11052 22055 31719 43306 61749 342048 351043 347053 357050 004046 007043
BBXX 46083 30181 99582 71380 46/// /2906 11004 21070 49952 53025 91750 22200 00062 10906 20403 300// 40905 70030 333 91209 555 11060 22063 31715 42815 61749 290054 286067 285103 284117 270089 266092 82913 91715
BBXX 46001 30181 99563 71480 46/// /2815 11030 40000 51012 91750 22200 00042 10909 20706 300// 40908 70047 333 91219 555 11158 22166 31727 42820 61749 275146 280154 271153 274154 270147 271159
AAXX 30184 13623 12960 82704 10052 21006 30105 40111 57003 60002 8807/ 333 10100 88360
AAXX 30184 63980 32480 52806 10276 20246 40132 60002 82202 333 10307 58007 82818 84075 943// 91123
BBXX FLAO 3018/ 99764 70847 46/// ///// 11368 40081 57016
BBXX 4XFV 30183 99395 11769 43298 22928 00/// 10080 20040 40210 54000 7//// 81/// 22224 0//// 20505 329// 4//// 5//// 6//// 80060 ICE /////
BBXX A8ME3 30180 99119 11119 41497 70113 10260 20233 40140 54000 70211 8/8// 22213 04265 20604 302// 41006 5////
BBXX A8EH3 30183 99463 11519 41/98 80940 10015 40120 57050 70322 88/// 22254 04020 29904 399// 40904
BBXX C6SI6 30184 99406 11444 46/// /3128 10034 21018 40096 56003 7//// 8//// 22213 0//// 2////
BBXX BATEU07 30184 99100 10853 46/// /1617 10269 40130 58008 22252
BBXX C6XC2 30184 99290 11269 41498 80216 10110 20050 40260 52010 70322 8827/ 22282 00220 2//// 3//// 4//// 5//// 6//// 80080 ICE /////
BBXX V7DI8 30183 99199 11214 43/95 /0628 10230 2020/ 40200 58010 7//// 8//// 22200 00270 2//// 3//// 4//// 5//// 6//// 80210 ICE /////
BBXX 46070 30181 99551 11753 46/// /2906 11030 21090 40131 56008 91750 22200 00032 10603 20502 3//// 40603 70017 333 91210 555 11061 22064 31718 42912 61749 288059 305051 300081 292084 294064 297064 82911 91718
BBXX ONFE 30184 99059 10874 434// 43605 10260 2022/ 40150 54000 7//// 8/862 22264 00280 2//// 3//// 4//// 5//// 6//// 80230 ICE 0/0//
BBXX DBUT 30181 99105 50355 41698 61109 10300 20231 40191 57015 70311 83468 22245 20903 3//// 4//// 5//// 80250
BBXX WCX7445 30184 99545 50650 43/// /3122 10110 2//// 49791 5//// 7//// 8//// 22233 00085 2//// 3//// 4//// 5//// 6//// ICE /////
BBXX A8OK7 30184 99171 50378 41498 50310 10275 20228 40141 55007 70311 8/168 22283 20602 304// 4//01 5//// 80241
BBXX ONAI 30184 99271 50440 41997 31413 10270 2016/ 40140 54000 703// 83100 22214 00255 2//// 3//// 4//// 5//// 6//// 80200 ICE /////
BBXX TBWUK30 30184 99026 70050 41398 72311 10265 20258 40096 54000 70265 8/720 22282 00280 20202 320// 40302 5//// 80260
BBXX WDE8288 30184 99139 10577 41298 30223 10240 2020/ 40150 54000 70200 834// 22274 0//// 20404 336// 40605 5//// 6//// 80210 ICE /////
BBXX A8CK2 30184 99329 30304 41497 40612 10250 20220 40120 52010 70200 84/4/ 22264 21002 3//// 4//// 5//// 80230
BBXX 2ALE5 30183 99253 70160 41598 30523 10190 20128 40284 57010 70100 831/0 22253 20406 80155
BBXX V7OX3 30181 99320 50311 41/// /0408 10230 20215 40110 52/// 7//// 8//// 22223 20507 3//// 4//// 5//// 80220
BBXX PCSV 30183 99319 30135 41598 22015 10190 20157 40185 53/// 70111 82100 22273 04193 20603 319// 40803 80169
BBXX DBLK 30181 99488 30014 41196 82813 10060 20057 49996 52008 75152 886// 22212 04053 20605 328// 41007
BBXX A8GH5 30183 99164 70212 41896 50920 10225 20175 40190 56025 70200 80008 22254 20405 301// 40306 80192
BBXX BATFR19 30184 99067 30055 46/// /1812 10235 20192 40136 53010 22200 00257
BBXX UFTA 30181 99844 71224 11/93 92710 11269 21299 40039 53001 60012 73973 333 92382
BBXX KIYI 30184 99494 71271 43498 52938 10060 2000/ 40045 52100 7//// 852// 22234 0//// 20205 329// 40907 5//// 6//// 80035 ICE /////
BBXX WDD6126 30184 99292 70802 41998 12302 10220 2014/ 40200 57023 70200 80005 22244 00224 20201 3//// 4//// 5//// 6//// 80170 ICE /////
BBXX J8PE4 30183 99246 70750 414// 52609 10270 2020/ 40200 54000 70311 85188 22234 00290 20402 326// 40201 5//// 6//// 80220 ICE /////
BBXX WDC6644 30184 99382 71249 41396 82515 10122 2010/ 40200 52010 72844 884// 22273 00128 20101 325// 41205 5//// 6//// 80111 ICE /////
BBXX WDC6736 30184 99254 70799 41998 00309 10250 2014/ 40195 50010 70200 80000 22215 00270 20301 3//// 4//// 5//// 6//// 80180 ICE /////
BBXX 46239 30181 99363 71221 46/// ///// 1//// 91751 22200 00120 11306 20903 330// 41305 70031
BBXX 46238 30181 99334 71195 46/// ///// 1//// 91750 22200 00138 11204 20803 329// 41202 70022
BBXX DCPC2 30184 99230 71419 41598 30820 10230 20170 40220 54000 70211 8247/ 22264 00211 2//// 3//// 4//// 5////
BBXX 44099 30181 99369 70757 46/// ///// 1//// 91752 22200 00101 10401 20401 70006
BBXX 46225 30181 99329 71174 46/// ///// 1//// 91744 22200 00149 11402 20801 324// 41401 70010
BBXX 46213 30181 99403 71247 46/// ///// 1//// 91754 22200 00110 11407 20904 329// 41406 70036
BBXX 46215 30181 99352 71209 46/// ///// 1//// 91738 22200 00138 11305 20703 327// 41303 70024
BBXX 46214 30181 99379 71235 46/// ///// 1//// 91750 22200 00120 11306 21003 330// 41305 70032
BBXX 46219 30181 99332 71199 46/// ///// 1//// 91758 22200 00131 11206 20805 330// 41203 70030
BBXX 46217 30181 99342 71194 46/// ///// 1//// 91742 22200 00144 11302 20802 327// 41301 70011
BBXX 46236 30181 99368 71219 46/// ///// 1//// 91750 22200 00122 11205 21002 329// 41204 70023
BBXX 46240 30181 99366 71219 46/// ///// 1//// 91742 22200 00121 11303 21001 335// 41302 70013
BBXX 46247 30181 99378 71228 46/// ///// 1//// 91751 22200 00114 11805 21003 327// 41804 70024
BBXX 46243 30181 99462 71241 46/// ///// 1//// 91759 22200 00084 11207 20805 326// 41205 70037
BBXX 46232 30181 99325 71174 46/// ///// 1//// 91738 22200 00146 11203 20802 328// 41202 70015
BBXX 44100 30181 99363 70756 46/// ///// 1//// 91752 22200 00123 11301 21001 307// 41301 70005
BBXX 41113 30181 99284 70805 46/// ///// 1//// 91751 22200 00219 11501 20701 307// 41501 70004
BBXX 41112 30181 99307 70813 46/// ///// 1//// 91751 22200 00172 11501 309// 41501 70004
BBXX 42099 30181 99273 70842 46/// ///// 1//// 91757 22200 00244 10602 20602 70012
BBXX 41110 30181 99341 70777 46/// ///// 1//// 91751 22200 00133 11301 20501 70006
BBXX 44097 30181 99410 70711 46/// ///// 1//// 91802 22200 00109 10802 20802 70010
BBXX 44172 30181 99445 70634 46/// ///// 1//// 91801 22200 00055 11005 21004 321// 41102 70023
BBXX 46077 30181 99579 71543 46/// /2813 11133 21166 49983 56004 91750 22200 00040 10704 20704 70022 333 91216 555 11136 22142 31739 42817 61749 277128 272133 269135 271124 278122 257121 82814 91730
BBXX 46035 30181 99571 71778 46/// /1207 1//// 40131 56016 91750 22200 10602 20602 300// 41002 70011 333 91209 555 11073 22078 31732 41110 61749 116073 111077 116070 123064 122060 121061 81109 91732
BBXX 46061 30181 99602 71468 46/// /3204 11068 49912 52004 91750 22200 00040 11102 20401 300// 41102 70012 333 91206 555 11042 22043 31707 43306 61749 322039 309038 314034 319038 316041 292038
BBXX 51101 30181 99243 71621 46/// /1003 10230 20161 40202 53009 91750 22200 00236 11204 20401 329// 41204 70021 333 91204 555 11032 22033 31735 40905 61749 100032 089033 073025 068027 061027 063030
BBXX CGUM 30184 99447 70636 46/// /2809 10009 21099 40181 51009 7//// 8//// 22200 0//// 2////
BBXX 41101 30184 99146 70562 46/// /0721 10265 20223 40150 57016 22200 00269 10907 70035 555 1/028
BBXX 46041 30181 99474 71247 46/// /3007 10071 40085 53044 91750 22200 00086 11110 20603 3//// 41109 70049 333 91209 555 11073 22076 31728 42917 61749 302073 301104 280111 282098 290105 278092
BBXX 46026 30181 99378 71228 46/// /2202 10112 40234 51013 91750 22200 00113 11905 20301 329// 41905 70024 333 91202 555 11018 22018 31707 43303 61749 228016 317016 326017 313016 320020 334016
BBXX 44007 30181 99435 70701 46/// /0602 11002 21080 40191 56015 91750 22200 00078 11001 3//// 41001 70005 333 91203 555 11021 22022 31736 40504 61749 063023 055024 070022 070018 069018 069016
BBXX 46072 30181 99517 71722 46/// /3606 11015 21077 40137 53003 91750 22200 00042 10903 20501 3//// 40902 70013 333 91208 555 11063 22065 31701 40309 61749 001059 010058 019056 016052 019065 005062 80308 91701
BBXX 46082 30181 99597 71434 46/// ///// 11026 49933 52017 91750 22200 00057 10905 70024
BBXX VCRG 30184 99469 70617 46/// /2627 11033 21053 40127 51014 7//// 8//// 22242 00061 2////
BBXX 42039 30181 99288 70860 46/// /2705 10217 40187 58011 91750 22200 00230 10702 20401 300// 40702 70010 333 91206 555 11053 22056 31717 42508 61749 266052 271057 265056 259061 265055 262056 82507 91718
BBXX 41040 30181 99145 70530 46/// /0610 10267 20211 40158 56018 91750 22200 00270 11407 20605 3//// 41406 70036 333 91212 555 11105 22111 31741 40712 61749 065098 068100 063097 070090 070098 067100 80711 91741
BBXX PCEO 30183 99301 70403 41498 22402 10220 20175 40317 56011 7//// 81207 22254 04217 2//// 318// 40602 5//// 80190
BBXX PHQX 30183 99210 70540 41598 40712 10272 20197 40215 56035 70211 84162 22254 20704 301// 40805 5//// 80220
BBXX 51205 30181 99210 71564 46/// ///// 1//// 91748 22200 00236 11004 21004 333// 41102 70021
BBXX 46114 30181 99364 71222 46/// ///// 1//// 91734 22200 00122 11307 21003 330// 41306 70034
BBXX 41047 30181 99275 70715 46/// /0804 10230 40209 58024 91750 22200 00254 11003 20401 305// 41003 70013 333 91205 555 11044 22045 31700 40806 61749 079044 069044 076047 077048 078049 078052 80806 91700
BBXX 42055 30181 99222 70940 46/// /1206 10252 20215 40167 58005 91750 22200 00249 10501 20501 70007 333 91207 555 11059 22064 31652 41208 61749 121055 123058 119062 124062 122061 122065 81207 91653
BBXX 41036 30181 99342 70770 46/// ///// 10157 20053 40194 58022 91750 22200 00174 10501 70007
BBXX 41115 30181 99184 70673 46/// ///// 1//// 91735 22200 11303 21002 301// 41303 70015
BBXX 42002 30181 99258 70937 46/// /1906 10245 20203 40180 58004 91750 22200 00244 10501 20501 70006 333 91207 555 11058 22062 31656 41908 61749 189058 189058 188057 189055 189057 188061
BBXX 41114 30181 99276 70802 46/// ///// 1//// 91746 22200 00233 11402 20301 307// 41401 70009
BBXX 44066 30181 99396 70726 46/// /2307 10125 20059 40169 56022 91750 22200 00134 10502 20502 3//// 40901 70009 333 91208 555 11072 22076 31724 42209 61749 225069 220070 220074 218070 211071 209070
BBXX 42003 30181 99260 70856 46/// /2404 1//// 91750 22200 10501 20301 311// 40501 70005 333 91205 555 11045 22047 31659 42205 61749 240042 238043 231037 228040 222042 219041 82205 91659
BBXX 41043 30181 99211 70650 46/// /1209 10255 20222 40203 56021 91750 22200 00258 11105 20704 300// 41103 70025 333 91210 555 11094 22100 31701 41312 61749 123088 113089 116091 117094 118094 121097 81311 91700
BBXX FVNM 30184 99098 70801 46/// /0314 10274 20239 40119 58015 22200 00274
BBXX 44098 30181 99428 70702 46/// ///// 1//// 91737 22200 00082 11001 21001 70005
BBXX 42057 30181 99168 70815 46/// /0708 10274 20220 40160 58014 91750 22200 00275 10503 20503 3//// 40801 70015 333 91212 555 11084 22089 31719 40712 61749 071082 075060 068079 066085 064085 081085 80711 91719
BBXX 41009 30181 99285 70802 46/// /3401 10207 20148 40203 58020 91750 22200 00230 11401 300// 41401 70006 333 91202 555 11014 22015
BBXX 41010 30181 99289 70785 46/// /1102 10216 40198 58023 91750 22200 00237 11402 300// 41402 70008 333 91203 555 11022 22022
BBXX CGDG 30184 99447 70636 46/// /2308 10007 21017 40178 51008 7//// 8//// 22200 0//// 2////
BBXX VAAP 30184 99446 70635 46/// /2614 10006 21091 40172 51009 7//// 8//// 22200 0//// 2////
BBXX CGDT 30184 99468 70712 46/// /1908 11124 21155 40208 58018 7//// 8//// 22200 0//// 2////
BBXX CGBN 30184 99447 70636 46/// /1702 10027 21072 40178 51008 7//// 8//// 22200 0//// 2////
BBXX CGDX 30184 99468 70712 46/// /1904 11121 21158 40209 58017 7//// 8//// 22200 0//// 2////
BBXX CGCC 30184 99463 70725 46/// /0504 11132 21190 40204 57024 7//// 8//// 22200 0//// 2////
BBXX DFGX2 30183 99536 71534 41/97 63121 10015 21030 40062 55002 78671 865// 22264 00040 20704 81002
BBXX C6T2064 30183 99294 70574 41598 21415 10240 2018/ 40260 56010 70200 82100 22264 20403 330// 40604 80200
BBXX WQVY 30183 99354 70547 43597 72708 10230 2016/ 40255 5//// 7//// 832/6 22223 0//// 2//// 3//// 4//// 5//// 6//// 80185 ICE /////
BBXX WDE9193 30183 99192 70868 41797 20613 10280 2022/ 40157 57009 70200 81262 22273 0//// 20301 308// 40703 5//// 6//// 80240 ICE /////
BBXX VOKF 30184 99490 70669 46/// /2208 11102 21140 40181 51019 7//// 8//// 22200 0//// 2////
BBXX CGJK 30184 99484 71234 46/// /2328 10072 20038 40040 51033 7//// 8//// 22200 0//// 2////
BBXX CGBR 30184 99507 71275 46/// /0903 10027 20026 40018 51100 7//// 8//// 22200 0//// 2////
BBXX CG2958 30184 99532 71291 46/// /2718 10031 21002 49967 53074 7//// 8//// 22281 0//// 2////
BBXX VOPP 30184 99456 70735 46/// /0108 11132 21154 4//// 5//// 7//// 8//// 22200 0//// 2////
BBXX VRYO3 30184 99456 70735 46/// /0113 11136 21167 40177 58023 7//// 8//// 22200 0//// 2////
BBXX VOKJ 30184 99460 70732 46/// /0211 11142 21191 40194 58033 7//// 8//// 22252 0//// 2////
BBXX VCLM 30184 99468 70712 46/// /2007 11131 21156 40201 58017 7//// 8//// 22200 0//// 2////
BBXX VCWL 30184 99468 70712 46/// /2003 11132 21161 40207 58019 7//// 8//// 22200 0//// 2////
BBXX CGDR 30184 99492 71239 46/// /1506 10078 20045 40009 51023 7//// 8//// 22200 00119 2////
BBXX VCBW 30184 99461 70731 46/// /0208 11136 21192 40272 58008 7//// 8//// 22252 00022 2////
BBXX VOFG 30184 99456 70614 46/// /2918 11035 21090 40160 51023 7//// 8//// 22200 0//// 2////
BBXX VOLG 30184 99449 70617 46/// /2619 10008 21073 40151 51023 7//// 8//// 22253 0//// 2////
BBXX CGSB 30184 99483 70709 46/// /1503 11180 21233 40248 53020 7//// 8//// 22262 00019 2////
BBXX VXKF 30184 99462 70602 46/// /2616 11053 21103 40140 51023 7//// 8//// 22200 0//// 2////
BBXX CGJV 30184 99457 70627 46/// /3207 11040 21114 40172 51018 7//// 8//// 22200 0//// 2////
BBXX CZ9742 30184 99506 70969 46/// /1705 11087 21108 4//// 5//// 7//// 8//// 22200 0//// 2////
BBXX CGHL 30184 99476 70527 46/// /3016 11008 21061 40048 51027 7//// 8//// 22200 0//// 2////
BBXX VCSZ 30184 99455 70735 46/// /0110 11130 21152 40178 58021 7//// 8//// 22200 0//// 2////
BBXX CGTF 30184 99476 70527 46/// /1615 11010 21061 40048 51027 7//// 8//// 22200 0//// 2////
BBXX CGBY 30184 99487 71235 46/// /2215 10073 20030 40035 51030 7//// 8//// 22200 0//// 2////
BBXX 3FZK3 30184 99489 71237 46/// /2610 10071 20036 40011 51025 7//// 8//// 22200 0//// 2////
BBXX 46211 30181 99469 71242 46/// ///// 1//// 91736 22200 00092 11209 21006 328// 41206 70043
BBXX 44020 30181 99414 70702 46/// /1706 10076 20044 40177 56020 91750 22200 00067 10301 20301 70004 333 91207 555 11065 22069 31746 41707 61749 185061 267054 268058 269058 270056 264060
BBXX 46237 30181 99378 71226 46/// ///// 1//// 91740 22200 00110 11305 21002 326// 41304 70023
BBXX 46212 30181 99408 71243 46/// ///// 1//// 91742 22200 00105 11307 20904 329// 41305 70034
BBXX 9VVN 30184 99518 71312 41311 82927 10060 2106/ 40050 52040 7//// 8//// 22274 00080 2//// 3//// 4//// 5//// 6//// 80015
BBXX V7MO2 30184 99262 70914 41697 21906 10230 20169 40193 56004 70100 822// 22200 00230 2//01 3//// 4//01 5//// 6//// 80190 ICE /////
BBXX WKAP 30183 99462 70524 41197 82537 10020 2107/ 40090 53020 70222 8842/ 22241 00020 20715 326// 41018 5//// 6//// 81010 ICE /////
BBXX HZRX 30183 99235 70919 41297 21016 /// 10225 20225 40151 53002 70300 82100 22213 10160 20101 31010 40200 5//// 6//// 80220 ///// /////
BBXX 46248 30181 99461 71247 46/// ///// 1//// 91734 22200 00096 11109 21006 329// 41106 70044
BBXX 46244 30181 99409 71244 46/// ///// 1//// 91735 22200 00102 11708 21005 329// 41706 70040
BBXX 46249 30181 99338 71197 46/// ///// 1//// 91740 22200 00149 11303 21002 326// 41302 70015
BBXX VOXS 30184 99467 70480 41697 72437 10035 2102/ 40091 51003 71022 87500 22200 04019 20809 324// 41010 80015
BBXX 44014 30181 99366 70748 46/// /2107 1//// 40180 58026 91750 22200 00134 11202 20401 312// 41201 70009 333 91209 555 11073 22073 31729 42109 61749 212073 211075 209072 207072 207074 209074
BBXX 46059 30181 99380 71300 46/// /3209 10136 40251 53036 91750 22200 00141 11407 20804 3//// 41406 70037 333 91212 555 11100 22106 31705 43112 61749 319095 316094 310092 312096 309096 308096
BBXX 46006 30181 99408 71375 46/// /3306 10099 40260 53033 91750 22200 00119 11209 20502 3//// 41209 70047 333 91207 555 11058 22060 31700 43310 61749 327056 321063 321064 325071 330075 320080
BBXX 41013 30181 99334 70777 46/// /2305 10168 20067 40196 58022 91750 22200 00213 11301 20401 314// 41301 70007 333 91207 555 11050 22051 31729 42307 61749 227048 218051 221045 223051 229054 224052
BBXX 46075 30181 99539 71608 46/// /3007 11023 21099 40080 54000 91750 22200 00039 10704 20703 300// 40802 70019 333 91209 555 11078 22081 31650 43211 61749 301075 311072 312067 311071 322081 318090 83110 91654
BBXX 46005 30181 99461 71310 46/// ///11 10076 40156 53057 91750 22200 00096 11110 20805 3//// 41108 70048 333 91213 555 11114 22120
BBXX 44065 30181 99404 70737 46/// /2104 10086 20035 40166 58014 91750 22200 00104 10501 20301 318// 40501 70006 333 91205 555 11044 22045 31653 42105 61749 206042 205040 202036 207040 207041 210044 82105 91653
BBXX 44027 30181 99443 70673 46/// /2702 11016 21115 40195 57008 91750 22200 00076 10603 20401 3//// 40603 70014 333 91203 555 11021 22022 31700 43005 61749 271022 291020 290022 302028 300030 309032
BBXX 46025 30181 99337 71191 46/// /3601 10108 20106 40188 51020 91750 22200 00144 10803 20401 328// 40803 70014 333 91201 555 11006 22006 31702 42803 61749 359006 008006 336006 325011 288014 263008
BBXX 46028 30181 99357 71219 46/// /3111 10124 40219 53021 91750 22200 00131 11306 20604 331// 41305 70030 333 91213 555 11117 22124 31723 43114 61749 312108 311109 312107 311109 311100 310103
BBXX 46054 30181 99342 71204 46/// /3212 10122 40191 53018 91750 22200 00133 333 91214 555 11124 22132
BBXX 46088 30181 99483 71232 46/// /2413 10073 40039 91750 22200 00077 10402 20402 70009 333 91215 555 11134 22143 31733 42417 61749 237125 239135 241121 243123 230109 234091
AAXX 30181 26554 32962 71902 10012 21017 39884 40048 52008 8703/ 333 10020
AAXX 30181 26666 31958 01803 11004 21019 39852 40070 52007 71011 333 10024
AAXX 30181 26850 31356 82003 11002 21020 39796 40072 52006 71022 885// 333 10018 88707
AAXX 30181 26863 31948 21802 11012 21025 39845 40086 51001 71011 80002 333 10024
AAXX 30181 26941 32660 71702 10003 21011 39827 40067 54000 87500 333 10016 87642
AAXX 30181 26951 31940 71702 11006 21015 39877 40079 52003 71022 87050 333 10015
AAXX 30181 33008 32660 72003 10022 21013 39878 40057 54000 87500 333 10027 87640
AAXX 30181 33019 31659 71201 10003 21011 39900 40077 58002 71022 875// 333 10022 87643
AAXX 30181 33036 31958 21801 11001 21013 39861 40095 53006 71011 82030 333 10021
AAXX 30181 33041 31450 70000 10011 20006 39940 40097 52004 71022 87500 333 10025 87617
BBXX 46013 30181 99382 71233 46/// /2203 10115 40232 53015 91750 22200 00112 11406 20401 3//// 41405 70028 333 91203 555 11029 22032 31736 42304 61749 224026 222030 214020 207023 174025 167029
BBXX 46029 30181 99461 71245 46/// /2809 10093 20038 40103 53037 91750 22200 00092 11109 20704 327// 41108 70044 333 91212 555 11100 22106 31742 42812 61749 281093 280088 285079 287082 284084 283095
BBXX 46080 30181 99580 71500 46/// /2711 11087 21144 49964 52013 91750 22200 00047 10807 20705 3//// 40805 70035 333 91214 555 11116 22121 31651 42815 61749 277113 288112 286114 282112 276107 276117 82814 91651
BBXX 46086 30181 99325 71180 46/// /1501 10114 40191 53017 91750 22200 00148 11403 326// 41403 70016 333 91203 555 11013 22014 31731 41403 61749 149014 160016 160015 140010 107014 106017
BBXX 46027 30181 99419 71244 46/// /2108 10106 40183 51032 91750 22200 00096 11307 20703 329// 41306 70033 333 91209 555 11084 22091 31736 42110 61749 211077 207077 210077 208073 209068 209067
BBXX 46069 30181 99337 71202 46/// /3211 10127 40192 51018 91750 22200 00134 10706 20704 330// 40804 70028 333 91214 555 11122 22130 31703 43215 61749 322114 326112 323111 323115 321117 322114
BBXX 46047 30181 99324 71195 46/// /3310 10127 40196 52022 91750 22200 00138 11206 20804 331// 41204 70029 333 91211 555 11104 22110 31701 43312 61749 333097 334100 332096 328097 331104 337098
BBXX 46087 30181 99485 71247 46/// /2813 10084 20045 40045 53029 91750 22200 00081 11109 20804 324// 41108 70045 333 91217 555 11143 22153 31720 42818 61749 279128 288134 281142 279123 278129 278139
BBXX 46012 30181 99374 71229 46/// /0000 10116 40237 51015 91750 22200 00121 11706 20401 330// 41706 70030 333 91202 555 11003 22003 31650 42904 61749 060003 064002 329004 279010 303019 295025
BBXX 46050 30181 99442 71246 46/// /3005 10089 40115 53027 91750 22200 00097 11607 20501 326// 41607 70037 333 91206 555 11052 22054 31717 42911 61749 303047 305051 301065 279065 263044 260046
BBXX 46002 30181 99426 71305 46/// ///// 10099 40203 51057 91750 22200 00118 11009 70044
BBXX 46084 30181 99566 71361 46/// ///// 10013 21044 49980 53028 91750 22200 00070 11007 70034
BBXX 44009 30181 99385 70747 46/// /2006 10096 40177 58025 91750 22200 00102 10502 20501 300// 40701 70008 333 91206 555 11058 22061 31725 42007 61749 198055 202056 202058 203056 208056 212054
BBXX 41004 30181 99325 70791 46/// /2203 10167 20067 40203 58024 91750 22200 00202 11301 20401 3//// 41301 70005 333 91205 555 11032 22033 31749 42205 61749 221030 227030 228029 223037 227035 217027
BBXX 44005 30181 99432 70691 46/// /0000 10024 21057 40188 56014 91750 22200 00080 11001 20401 3//// 41001 70007 333 91201 555 11005 22005 31705 43202 61749 256004 334001 008002 285005 291009 239004
BBXX 42036 30181 99285 70845 46/// /1706 10207 20174 40189 58012 91750 22200 00212 10603 20603 70014 333 91208 555 11064 22067 31711 41709 61749 165059 168071 165071 169074 170073 170077
BBXX 42059 30181 99151 70675 46/// /0910 10275 20215 40149 58022 91750 22200 00277 10804 20604 3//// 40802 70022 333 91212 555 11109 22116 31721 40912 61749 093101 096100 098097 092101 093099 096103 81011 91656
BBXX 42019 30181 99279 70954 46/// /2405 10233 20199 40164 50000 91750 22200 10602 20401 322// 40601 70009 333 91207 555 11058 22061 31651 42808 61749 245056 281061 280058 282062 281059 279063
BBXX 42040 30181 99292 70882 46/// /2207 10216 40182 58010 91750 22200 00222 10601 20601 70007 333 91208 555 11071 22075 31707 42209 61749 217072 218071 224072 222070 215071 216070
BBXX 42056 30181 99198 70849 46/// /0907 10264 20225 40173 58016 91750 22200 00271 10801 20401 309// 40801 70007 333 91207 555 11069 22072 31702 40908 61749 086064 084060 087064 089062 092064 086064 80907 91702
BBXX 42012 30181 99301 70876 46/// /2005 10204 20160 40180 58011 91750 22200 00199 10601 20401 311// 40601 70006 333 91206 555 11053 22059 31742 42006 61749 200049 198048 196051 196046 195045 193047
BBXX 42058 30181 99149 70749 46/// /0809 10272 20227 40131 58018 91750 22200 00271 10704 20704 70020 333 91211 555 11096 22103 31703 40812 61749 078090 080093 081096 080090 082095 080093 80810 91703
BBXX 42060 30181 99163 70635 46/// /0711 10272 20204 40170 58021 91750 22200 00272 10704 20704 300// 40902 70022 333 91213 555 11115 22122 31719 40713 61749 072107 070102 075107 072110 070105 072101 80712 91720
BBXX 41044 30181 99217 70587 46/// /0809 10253 20192 40215 91750 22200 00262 333 91210 555 11094 22099 31718 41011 61749 083087 084089 081087 084089 089090 088087 80810 91734
BBXX 42001 30181 99259 70897 46/// /2102 10233 20159 40197 58006 91750 22200 00237 10301 20301 70005 333 91203 555 11022 22022 31652 42004 61749 206021 210023 201024 211025 205029 203036
BBXX 42035 30181 99292 70944 46/// /2001 10163 20162 40173 50000 91750 22200 00142 10601 20401 321// 40601 70007 333 91201 555 11009 22011 31705 41702 61749 199009 211011 196011 182011 176016 197012
BBXX 41049 30181 99275 70630 46/// /1604 10237 20193 40234 56020 91750 22200 00233 11003 20401 300// 41003 70017 333 91205 555 11047 22052 31719 41707 61749 162043 164048 162052 162052 162051 156052 81606 91720
BBXX 41048 30181 99320 70696 46/// /1401 10210 20099 40215 56020 91750 22200 00226 10903 20401 3//// 40903 70013 333 91201 555 11009 22009 31727 41302 61749 142009 130010 132016 151013 157010 125010 81202 91727
BBXX 42065 30181 99149 70750 46/// /0708 10269 20220 91750 22200 10703 20703 3//// 40801 70016 333 91209 555 11081 22087 31702 40610 61749 067075 065072 069074 069076 068080 070075 80709 91707
BBXX 42020 30181 99270 70967 46/// /2105 10195 20176 40168 50000 91750 22200 00200 10501 20501 315// 40501 70006 333 91206 555 11056 22059 31745 42106 61749 212053 214048 210041 204045 210040 214038
BBXX WDC6698 30184 99213 71579 43/// /1706 1//// 2//// 40170 5//// 7//// 8//// 222// 04239 2//// 3//// 4//// 5//// 6//// 8//// ICE /////
BBXX NWS0022 30184 99416 70714 43/// /2014 10111 20060 40165 5//// 7//// 8//// 222// 04092 2//// 3//// 4//// 5//// 6//// 8//// ICE /////
BBXX CG2350 30184 99433 70798 46/// /3304 10006 20005 40102 58008 7//// 8//// 22200 0//// 2////
BBXX CG2960 30184 99429 70824 46/// /1505 10032 20016 40076 58021 7//// 8//// 22200 0//// 2////
BBXX CGDS 30184 99431 70792 46/// /2103 10071 20034 4//// 5//// 7//// 8//// 22241 00057 2////
BBXX HZGN 30183 99019 11056 41697 60512 10250 20236 40110 54000 70322 8440/ 22234 02240 20301 302// 40301 5//// 80240
BBXX BATFR53 30184 99185 51358 46/// /1115 10255 20202 40172 51004 22222 00267
BBXX BATFR56 30184 99022 11018 46/// /0208 10269 20267 40115 58005 22233 00294
BBXX MCUV3 30183 99465 70102 41497 82830 10135 20106 40282 54000 70222 83589 22253 2//10 327// 4//10 5//// 80120
BBXX DBND 30181 99536 10086 46/// /3005 10060 20032/40109 52016 22260 0006/
BBXX DBBI 30181 99535 10100 46/// /2905 10050 20050 40090 52018 22260 00056
BBXX DBEA 30181 99540 10084 46/// /3209 10062 20027 40104 52022 22270 00055
BBXX DBJM 30181 99542 10079 46/// /3109 10064 20016 40107 52016 22260 00075
BBXX DBBA 30181 99541 10121 46/// /3108 10045 20027 40054 52025 22220 00054
BBXX DBKR 30181 99541 10121 46/// /3206 10045 20045 40055 52025 22200 00056
BBXX DBFH 30181 99535 10086 46/// /3005 10057 20029 40113 52014 22270 00059
BBXX DBBC 30181 99535 10100 46/// /2905 10050 20028 40093 52019 22210 00059
BBXX WAHV 30184 99350 10239 41698 62505 10130 2011/ 40120 57004 7//65 8684/ 22274 00172 2//// 3//// 4//// 5//// 6//// 80120 ICE /////
BBXX DK7210 30181 99540 10066 46/// /3305 10074 20015 30097 222// 20906 70032
BBXX WBP3210 30184 99624 50898 43/// /3012 10026 2//// 49750 5//// 7//// 8//// 22262 00028 2//// 3//// 4//// 5//// 6//// ICE /////
BBXX H3WD 30184 99177 71430 41498 60623 10240 2023/ 40190 51020 75055 8621/ 22263 00230 20404 305// 4//// 5//// 6//// 80230 ICE /////
BBXX TFBKF 30184 99635 70202 46/// ///// 22200 10606 70029
BBXX TFDRN 30184 99658 70212 46/// ///// 22200 10501 70007
BBXX TFGRS 30184 99663 70182 46/// ///// 22200 10503 70013
BBXX TFGRV 30184 99638 70225 46/// ///// 22200 10708 70039
BBXX TFGSK 30184 99641 70229 46/// ///// 22200 10604 70022
BBXX TFHFN 30184 99642 70152 46/// ///// 22200 10604 70018
BBXX TFKGR 30184 99657 70136 46/// ///// 22200 10606 70030
BBXX TFSTD 30184 99664 70234 46/// ///// 22200 10603 70015
BBXX PCKU 30183 99044 31177 41/98 21804 10271 20232 40112 58018 7//00 8//// 22253 04293 20201 30000 80243
BBXX UCJL 30181 99614 10040 41698 52805 10041 40063 52010 70222 855// 22243 00080 20301 33400 40804
BBXX DDYZ2 30184 99366 10000 41999 02310 10160 20098 40305 56005 7//// 80000 22224 00160 2//// 80125
BBXX DCDO2 30183 99004 11358 41698 62310 10285 20251 40070 54000 70322 86464 22234 00300 2//// 3//// 4//// 5//// 80260
AAXX 30184 78767 11965 70604 10260 20214 30140 40142 57020 69951 70552 87030 333 10262 20202 30/// 56000 58000 87362
AAXX 30184 47101 31404 91102 11076 21082 30211 40313 56003 74744
AAXX 30184 47105 369// /2705 11007 21117 30243 40276 55008
AAXX 30184 47108 31940 02701 11046 21083 30191 40302 57005 70500
AAXX 30184 47115 41570 73403 10011 21019 39997 40277 57013 72688 87800 333 92041
AAXX 30184 47133 31940 00001 11061 21086 30216 40306 57008 71000
AAXX 30184 47138 32960 02303 10004 21033 30281 40284 55006 333 92032
AAXX 30184 47159 32962 03409 10036 21043 30189 40276 56007 333 92023
AAXX 30184 47165 32968 01102 11030 21064 30246 40295 55012 333 92021
AAXX 30184 47168 32964 02902 11004 21103 30195 40277 57012 333 92021
AAXX 30184 47184 32670 43405 10047 21017 30261 40287 57016 84500 333 92033
AAXX 30184 16622 11258 79902 10042 20017 30120 40131 58005 60002 71022 85670 333 10050 82706 85630 86358 90730 91105 555 10000 40020 30000 10038 2//// 30040 4//// 5//// 40000 47619 44205 50000 50032 70000 77Y// 7/Y//
AAXX 30184 16641 11460 80000 10088 20071 30083 40089 57006 60022 76162 8572/ 333 10122 82712 83817 85630 90730 91110 555 10000 40056 40000 47595 44225 50000 50080 60000 60015 60400 70000 77R// 7R///
AAXX 30184 16682 11560 61007 10100 20088 30065 40083 57011 60072 75065 84148 333 10114 84820 86358 86268 90730 91111 555 10000 40074 30000 10100 20105 30106 40106 50113 60165 40000 47579 44200 50000 50094 60000 60068 60800 70000 77D// 7RD//
AAXX 30184 16716 11560 81306 10126 20063 30087 40106 56007 69902 76062 8582/ 333 10134 83820 84635 88459 555 10000 40084 40000 47590 44150 50000 50096 60000 65555 60040 70000 77R// 7R///
AAXX 30184 16734 11460 70504 10094 20090 30024 40087 58002 60112 71796 85970 333 10136 82915 83820 87360 90730 91108 555 10000 40090 40000 47540 44130 50000 50094 60000 60110 60300 70000 77TV/ 7TRV/
AAXX 30184 16743 NIL
AAXX 30184 16749 11458 70906 10110 20094 30107 40122 52001 60072 76162 85760 333 10150 82712 84620 85358 90730 91113 555 10000 40104 40000 47610 44190 50000 50102 60000 60071 60430 70000 77R// 7R///
AAXX 30184 16754 11560 21906 10102 20077 30066 40114 54000 69912 70160 82200 333 10148 90730 91110 555 10000 40098 40000 47580 44195 50000 50090 60000 60001 60010 70000 77/// 7R///
AAXX 30184 78905 11476 71010 10268 20209 30152 40175 69991 70282 87860 333 10290 20250 58002 70009 84817 86635 90946
AAXX 30181 38353 115// 80000 11032 21056 39510 40459 52005 60020 70272 885// 333 10009
AAXX 30181 38613 419// 83101 11020 21051 40425 52009 60030 70273 8802/ 333 10020
AAXX 30181 38616 115// 80000 11026 21042 39354 40419 51004 60030 77177 8872/ 333 10004
AAXX 30181 38345 11998 20902 11138 21190 38943 48599 54000 60060 70171 82030 333 11049
AAXX 30181 36911 116// 80000 11042 21051 39436 40455 52010 60030 77172 887// 333 11014
AAXX 30181 36974 329// 80902 11115 21143 38061 48640 54000 77072 883// 333 11115
AAXX 30181 36982 429// 00000 11190 21223 36552 47215 52015 333 11080
AAXX 30181 14240 11520 81601 10012 20007 39970 40129 52020 69912 71022 886// 333 10020
AAXX 30181 14258 11656 82801 11004 21004 39931 40124 52012 69902 71072 886// 333 10005 88733
AAXX 30181 14445 11670 60604 10064 20029 39931 40087 58003 60022 7016/ 85520 333 10099 85696 81499 92311
BBXX LAHV 30181 99589 10057 43/// /0502 10031 21010 40078 222// 04082 1////
BBXX LDGJ 30181 99603 10053 43/// /1701 10011 21015 40081 5//// 222/0 04065 1//// 3//// 4//// 5////
BBXX LF4H 30184 99596 10022 46/98 11201 10045 21048 40075 57010 8//// 22200 06077 10805 70026 333 91115
BBXX LMEL 30181 99603 10053 43/// /1601 10002 21011 40076 5//// 222/0 04071 1//// 3//// 4//// 5////
AAXX 30184 91925 02475 30909 10274 20224 30078 40138 51013 60001 83200 333 56200 60007 83816 90710 91121 555 60005 10921 59003
AAXX 30184 91929 04577 80117 10272 20234 30122 40125 51017 60012 700// 333 10273 20255 69907 90710 91120 555 69905
AAXX 30184 91938 01565 70709 10263 20230 30128 40130 50011 60042 721// 878// 333 10275 20248 60017 83820 86640 90710 91123 555 69965 10823 58002
AAXX 30184 91943 36/// /0612 10283 20221 30141 40143 51011 333 10284 59002
AAXX 30184 91944 06/// /0714 10274 20214 30156 40159 51012 69962 333 10274 20247 69967 90710 91128 555 60005
AAXX 30184 91948 01580 40305 10259 20213 30083 40185 50001 60021 70286 83201 333 56109 60027 83820 90710 91113 555 60005 11015 59012
AAXX 30184 91954 06/// /3014 10247 20231 30126 40129 51018 60011 333 69927 555 58013
AAXX 30184 91958 02480 70209 10265 20230 30138 40140 51011 60001 878// 333 56899 60007 85818 86650 90710 91128 555 60005 10329 58004
AAXX 30184 91945 NIL
BBXX 3FZK3 30184 99489 71237 46/// /2610 10071 20036 40011 51025 7//// 8//// 22200 0//// 2////
BBXX 46002 30181 99426 71305 46/// ///// 10099 40203 51057 91750 22200 00118 11009 70044
BBXX 46012 30181 99374 71229 46/// /0000 10116 40237 51015 91750 22200 00121 11706 20401 330// 41706 70030 333 91202 555 11003 22003 31650 42904 61749 060003 064002 329004 279010 303019 295025
BBXX 46026 30181 99378 71228 46/// /2202 10112 40234 51013 91750 22200 00113 11905 20301 329// 41905 70024 333 91202 555 11018 22018 31707 43303 61749 228016 317016 326017 313016 320020 334016
BBXX 46028 30181 99357 71219 46/// /3111 10124 40219 53021 91750 22200 00131 11306 20604 331// 41305 70030 333 91213 555 11117 22124 31723 43114 61749 312108 311109 312107 311109 311100 310103
BBXX 46042 30181 99368 71224 46/// /3405 10123 40238 51020 91750 22200 00123 11906 20501 330// 41906 70030 333 91206 555 11052 22055 31719 43306 61749 342048 351043 347053 357050 004046 007043
BBXX CG2958 30184 99532 71291 46/// /2718 10031 21002 49967 53074 7//// 8//// 22281 0//// 2////
BBXX CGBR 30184 99507 71275 46/// /0903 10027 20026 40018 51100 7//// 8//// 22200 0//// 2////
BBXX CGBY 30184 99487 71235 46/// /2215 10073 20030 40035 51030 7//// 8//// 22200 0//// 2////
BBXX CGDR 30184 99492 71239 46/// /1506 10078 20045 40009 51023 7//// 8//// 22200 00119 2////
BBXX CGJK 30184 99484 71234 46/// /2328 10072 20038 40040 51033 7//// 8//// 22200 0//// 2////
BBXX DGDD 30181 99324 71401 41298 72106 10185 20170 40255 52015 70222 877// 22224 04190 20501 329// 40506 5//// 80175
AAXX 30184 78767 11965 70604 10260 20214 30140 40142 57020 69951 70552 87030 333 10262 20202 30/// 56000 58000 87362
AAXX 30184 78905 11476 71010 10268 20209 30152 40175 69991 70282 87860 333 10290 20250 58002 70009 84817 86635 90946
AAXX 30184 47090 32965 02703 11015 21113 30251 40274 57007 333 92022
AAXX 30184 47095 31920 00000 11117 21131 30112 40316 53001 71000
AAXX 30184 47097 329// /0702 11100 21117 30206 40310 55004
AAXX 30184 47098 329// /3602 11085 21099 30160 40304 55003
AAXX 30184 47099 329// /0001 11107 21116 30267 40306 57006
AAXX 30184 47100 31950 02302 11144 21163 39341 40333 52002 71000
AAXX 30184 47102 32662 72906 11003 21067 30113 40297 55014 87500
AAXX 30184 47104 32968 01406 11014 21139 30174 40275 55009
AAXX 30184 47106 329// /2305 11011 21099 30222 40273 55010
AAXX 30184 47112 31940 01103 11033 21076 30211 40299 57010 70500 333 92011
AAXX 30184 47114 31925 00702 11081 21104 30117 40312 55001 71000
AAXX 30184 47119 31915 00000 11075 21081 30258 40303 57009 71000
AAXX 30184 47121 329// /2702 11088 21100 30004 40318 53002
AAXX 30184 47127 329// /0902 11088 21107 30162 40314 55004
AAXX 30184 47129 32965 03601 11068 21084 30267 40305 57011
AAXX 30184 47130 32960 02504 11035 21061 30211 40276 55010 333 92032
AAXX 30184 47131 31930 00000 11063 21081 30230 40305 57009 71000
AAXX 30184 47135 329// /3403 11068 21096 39990 40307 55005
AAXX 30184 47136 31950 01402 11067 21082 30120 40303 55003 71000
AAXX 30184 47137 329// /2004 11037 21107 30176 40300 55006
AAXX 30184 47140 32962 03403 11048 21066 30268 40298 57014 333 92011
AAXX 30184 47143 31956 03201 11017 21076 30219 40301 55005 70500
AAXX 30184 47145 31930 01602 11082 21095 30269 40297 57009 71000
AAXX 30184 47146 31958 00001 11061 21077 30228 40298 57017 71000
AAXX 30184 47150 32970 00204 11045 21084 30276 40296 57014
AAXX 30184 47152 32960 02504 11007 21038 30239 40283 55005
AAXX 30184 47154 329// /0001 11070 21100 30238 40302 55005
AAXX 30184 47155 31957 01106 10013 21074 30234 40281 57008 70500
AAXX 30184 47156 32965 03603 11038 21070 30205 40299 57014
AAXX 30184 47157 32958 00001 11084 21109 30003 40291 57008
AAXX 30184 47162 32965 00703 11003 21038 30235 40277 57010 333 92022
AAXX 30184 47169 32670 43610 10034 21025 30197 40293 55013 84500 333 92034
AAXX 30184 47170 32970 02003 11026 21069 30244 40290 57012 333 92021
AAXX 30184 47171 329// /0000 11059 21083 30240 40298 57015
AAXX 30184 47172 329// /0701 11051 21075 30222 40292 57014
AAXX 30184 47173 329// /0001 11096 21112 30181 40300 57017
AAXX 30184 47174 32965 03201 11062 21097 30079 40293 57013
AAXX 30184 47175 32970 03413 11033 21048 39691 40289 57018 333 92024
AAXX 30184 47185 32665 30211 10045 21015 30188 40281 56014 83500 333 92034
AAXX 30184 47188 32670 20903 10024 21017 30253 40275 57012 81500 333 92022
AAXX 30184 47189 32670 23604 10057 20016 30203 40264 57014 81500 333 92032
AAXX 30184 47192 31958 00701 11068 21099 30248 40288 57010 71000
AAXX 30184 78767 11965 70604 10260 20214 30140 40142 57020 69951 70552 87030 333 10262 20202 30/// 56000 58000 87362
AAXX 30184 78905 11476 71010 10268 20209 30152 40175 69991 70282 87860 333 10290 20250 58002 70009 84817 86635 90946
AAXX 30184 60715 11558 72823 10119 20068 30181 40188 53008 69982 76062 8428/ 333 10149 59012 84823 85359 91036 91141
AAXX 30184 60723 11565 62810 10128 20073 30024 40214 54000 60022 70362 83280 333 10133 83823 84360
AAXX 30184 60725 11560 62808 10120 2//// 30051 40231 53006 60042 70282 86800 333 10131 84820 83630
AAXX 30184 60735 12562 53106 10129 20058 30125 40207 53012 60002 85800 333 10150 85823
AAXX 30184 60745 12560 23309 10113 20018 39869 40244 53011 60002 82200 333 10148 82826
AAXX 30184 60748 12660 32410 10104 20040 39809 40233 53012 60002 83500 333 10137 83640
AAXX 30184 60750 12560 43009 10127 20023 30192 40218 53016 60002 84800 333 10169 82820 83633
AAXX 30184 60760 12560 33414 10127 21005 30147 40253 53014 60002 83200 333 10174 83830
AAXX 30184 60765 12558 42916 10126 20024 30210 40213 58010 60002 84500 333 10171 84630 92446 925//
AAXX 30184 60767 12558 62908 10125 20003 30088 40233 52017 60002 86800 333 10168 83820 84630
AAXX 30184 60769 12460 53323 10149 20054 30212 40216 53014 60002 84802 333 10168 82816 83626
AAXX 30184 17600 11562 71016 10155 20062 30116 40126 57010 60002 71322 8498/ 333 10183 20093 81825 83935
AAXX 30184 17601 11970 40715 10147 20095 30105 40136 55004 60002 71300 84060 91750 333 10178 84358 90710 91125
AAXX 30184 17607 NIL
AAXX 30184 17609 12562 20306 10122 20081 30142 40146 56004 60002 81830 333 10172 20102 81830
AAXX 30181 26509 12497 62302 10042 20014 30008 40017 52012 60062 86800 333 10042 86820 91004 91110
AAXX 30181 26518 11120 82303 10007 20007 40024 52010 69902 71082 886// 333 10017 88702 91004 91108 555 53011
AAXX 30181 26524 32397 82003 10017 20009 39890 40023 52010 886// 333 10028 88707 91005 91108 555 53011
AAXX 30181 26531 12463 82103 10021 20002 40023 52008 69902 886// 333 10029 88714 91006 91107 555 53012
AAXX 30181 26629 31558 81703 10005 21003 39942 40039 52009 71022 885// 333 10027 88623 91004 91107 555 53012
AAXX 30181 26633 32764 71903 10018 21013 39904 40035 51006 87500 333 10023 87656 91006 91107 555 53009
AAXX 30181 26730 32661 81903 10002 21012 39853 40046 52006 885// 333 10016 91005 91106 555 53009
AAXX 30181 26645 32497 61803 10000 21021 39787 40049 52006 86500 333 10014 86615
AAXX 30181 26659 32460 62002 11004 21016 39851 40068 52006 86500 333 10027 86619
AAXX 30181 26763 31956 61903 11003 21012 39847 40077 52004 71022 86010 333 10020
AAXX 30181 26825 31556 71903 10008 21009 39858 40041 53006 71011 875// 333 10016 87630
AAXX 30181 26832 32660 71602 10007 21016 39863 40057 52006 875// 333 10018 87642
AAXX 30181 26887 11395 81801 10011 20006 39886 40093 54000 69902 71022 886// 333 10017 88707
AAXX 30181 26961 31950 32201 11015 21023 39891 40087 52004 71011 83030 333 10018
AAXX 30181 33027 31596 71701 10002 21004 39924 40094 53006 71022 86530 333 10022
AAXX 30184 41859 31930 00000 10141 20120 30129 40168 70500 333 58008 70000
AAXX 30184 41883 31930 00000 10150 20130 30146 40167 70500 333 58012 70000
AAXX 30184 41891 31935 00902 10173 20130 30123 40163 70500 333 58006 70000
AAXX 30184 41907 32910 00000 10140 20130 30156 40171 333 58014 70000
AAXX 30184 41923 31930 00000 10172 20150 30147 40157 70500 333 58011 70000
AAXX 30184 41936 31925 00000 10170 20160 40160 70500 333 58016 70000
AAXX 30184 41943 32940 00000 10206 20190 30146 40154 333 58006 70000
AAXX 30184 41950 31940 00000 10180 20170 30155 40158 70500 333 58010 70000
AAXX 30184 41978 31950 00000 10222 20150 30142 40149 70500 333 58006 70000
AAXX 30184 41992 31930 00000 10210 20170 30130 40133 70500 333 59005 79999
AAXX 30181 01447 16/// /0000 11118 21130 39388 40094 51009 69942 333 11018 91100
AAXX 30181 26038 01484 62202 10009 20005 39916 49957 52023 60052 72686 85930 333 10031 20008 60027 85917 91108 555 1/001 20008 3/000 50028 52000
AAXX 30181 26045 NIL
AAXX 30181 26058 NIL
AAXX 30181 26115 NIL
AAXX 30181 26135 01284 72402 10016 20010 39894 49968 52020 60052 70262 87600 333 10022 20012 69957 87707 555 1/001 20012 3/001 50023 52001
AAXX 30181 26141 01284 82306 10014 20008 39814 49962 51020 60012 72586 875// 333 10018 20009 69937 87605 91110 555 1/001 20009 3/001 50019 52001
AAXX 30181 26231 01684 12104 10014 20003 39963 49978 53020 60102 70186 81500 333 10034 20013 60007 81640 91109 555 1/001 20013 3/001 50031
AAXX 30181 26242 01484 82104 10027 21010 39894 49980 52013 69902 70262 875// 333 10034 20024 60007 87617 91008 91112 555 1/001 20024 3/000 50030 52001
AAXX 30181 26247 NIL
AAXX 30184 93004 16/// /0112 10181 20181 40048 52006 6///1
AAXX 30184 93023 16/// /2704 10193 20190 40063 52010 60431
AAXX 30184 93069 16/// /0604 10186 20181 40064 52005 60001
AAXX 30184 93110 17497 /0113 10202 20194 40056 52012 60061
AAXX 30184 93186 17396 /0107 10196 20195 40075 52003 60161
AAXX 30184 93196 16/// /3522 10191 20189 40106 54000 60011
AAXX 30184 93245 16498 /0504 10183 20174 40071 57003 60111
AAXX 30184 93292 17896 /1701 10178 20175 40091 52003 60051
AAXX 30184 93309 17495 /1515 10158 20156 40048 54000 60351
AAXX 30184 93334 16/// /0000 10148 20141 39140 54000 60061
AAXX 30184 93339 16/// /0609 10146 20138 39145 57001 60061
AAXX 30184 93373 17297 /2406 10170 20167 40083 52003 60061
AAXX 30184 93404 17697 /1306 10155 20140 40084 52003 60081
AAXX 30184 93420 17598 /2314 10147 20120 40092 54000 60101
AAXX 30184 93439 17395 /1824 10123 20109 40130 52005 60071
AAXX 30184 93498 16/// /2216 10150 20150 40095 52002 60111
AAXX 30184 93515 17/98 /1509 10156 20105 40084 52002 60001
AAXX 30184 93527 16/// /1419 10145 20138 40087 52004 60051
AAXX 30184 93546 17698 /1501 10153 20146 40096 52003 69941
AAXX 30184 93597 16/// /1821 10120 20112 40121 57003 69941
AAXX 30184 93615 17/98 /2003 10132 20098 40104 52003 60001
AAXX 30184 93678 16698 /2810 10105 20099 40164 52001 60001
AAXX 30184 93709 16/// /1210 10172 20095 40102 52003 6///1
AAXX 30184 93773 17698 /3401 10098 20094 40171 52009 60001
AAXX 30184 93781 17597 /0203 10121 20105 40168 52005 60001
AAXX 30184 93800 NIL
AAXX 30184 93805 NIL
AAXX 30184 93831 17798 /0401 10084 20063 40169 52010 60001
AAXX 30184 93845 17598 /0105 10051 20049 40173 52002 60001
AAXX 30184 93891 17/97 /0000 10055 20051 40172 52006 60001
AAXX 30184 93909 16/// /2711 10117 20089 40164 52004 60001
AAXX 30184 93929 16/// /2408 10095 20054 40125 52013 60001
AAXX 30184 93947 16/// /2813 10085 20056 40082 52019 69921
AAXX 30184 93987 16/// ///// 10154 20150 40149 52007 6///1
AAXX 30184 93994 NIL
AAXX 30181 06414 36/// /2003 10052 20022 30136 40169 58011 60002 333 10069 91109 91207
AAXX 30181 06459 36/// /2203 10032 20024 39991 40188 58003 60002 333 10057 91113 91209
AAXX 30181 06494 16/// /2503 11009 21011 39370 40189 50005 60042 333 11003 4/001 91107 91205
AAXX 30181 37575 42998 00502 10025 21021 39680 40282 54000 333 10084
AAXX 30181 37675 42995 02704 10116 21094 39473 40116 57012 333 10157 555 53005
AAXX 30181 37735 42997 02701 10014 21005 39810 40190 57009 333 10073
AAXX 30181 37749 42598 83602 10050 20000 30172 40291 58001 885// 333 10119 555 53005
AAXX 30181 37756 42597 82706 10018 20002 39382 40304 56002 887// 333 10065
AAXX 30181 37864 32597 51908 10075 20055 40242 57010 85500 333 10098 85630
AAXX 30181 37985 42596 63401 10058 20044 30270 40255 57005 86500 333 10078
AAXX 30184 08001 12570 60000 10114 20063 30271 40354 56002 60002 85501 333 914/7
AAXX 30184 08015 12762 31103 10083 20038 39930 40344 57004 60002 82072 333 10104
AAXX 30184 08023 11570 72914 10116 20069 30261 40333 53001 69902 70262 85870 333 10121
AAXX 30184 08027 12470 82612 10090 20044 30012 40329 56001 69942 888// 333 10094
AAXX 30184 08045 02975 52905 10086 20050 30052 40370 53006 60002 80006 333 10113 60007
AAXX 30184 08141 12965 32703 10035 21005 39467 40356 55001 60002 80001 333 10076
AAXX 30184 08160 12989 32716 10096 20010 30006 40321 56004 60002 83540 333 10122
AAXX 30184 08181 02980 13311 10127 20007 30234 40240 53003 60002 80001 333 10166 60007
AAXX 30184 08221 05/74 /2104 10054 21029 39634 40340 53002 60002 333 10110 60007
AAXX 30184 08231 12970 13104 10068 21013 39207 48597 53011 60002 80001 333 10109
AAXX 30184 08261 12982 02704 10070 20011 39865 40361 53002 60002 333 10112
AAXX 30184 08284 02982 13502 10123 21009 30206 40282 53002 60002 80001 333 10187 60007
AAXX 30184 08306 12580 22703 10119 20053 30262 40268 53001 60002 81101 333 10143
AAXX 30184 08314 02570 12808 10103 20065 30148 40253 53002 60002 81100 333 10144 60007
AAXX 30184 08430 12970 02904 10130 21006 30218 40294 53006 60002 333 10180
AAXX 30184 08482 12982 02710 10148 21030 30300 40309 53002 60002 333 10180
AAXX 30181 15502 12968 00000 10014 21003 30080 40120 56003 60002 333 10090 20006 555 589//
AAXX 30181 15525 11958 00000 10002 21009 39850 40122 51002 60002 71011 333 10037 21034 555 592//
AAXX 30181 15528 11/05 90000 11006 21006 39894 40089 54000 60002 74742 333 10050 21018 555 500//
AAXX 30181 15535 12964 61803 10012 21017 30068 40116 52004 60002 80006 333 10060 20001 555 581//
AAXX 30181 15549 12970 02002 11004 21025 39705 40132 53004 60002 333 10038 21016 555 584//
AAXX 30181 15552 11958 63202 10014 21003 30075 40125 53005 60002 71022 83035 222// 2//00 314// 4//00 333 10058 20012 555 589// 92012 92416
AAXX 30181 15614 11657 60000 11040 21052 39409 40140 57002 60002 71022 86800 333 10002 21042 44005 555 590//
AAXX 30181 15615 11988 22708 11124 21149 37007 47930 54000 60002 70210 81041 333 11092 21125 555 581//
AAXX 30181 15626 11650 30000 11028 21038 39929 40125 54000 60002 71011 83500 333 10025 21028 42003 555 593//
AAXX 30181 15627 11982 72914 11076 21106 37525 47947 53009 60002 70222 87010 333 11063 21082 48018 555 579//
AAXX 30181 15640 12964 00000 10014 21027 39813 40133 53002 60002 333 10061 20008 555 574//
AAXX 30181 15655 12570 82702 10056 20016 30085 40118 57001 60002 885// 222// 00081 309// 40601 333 10080 20034 555 575// 92024 92428
AAXX 30181 15712 11450 80000 11017 21022 39877 40136 57003 60002 71022 8462/ 333 11010 21031 555 596//
AAXX 30181 15730 11915 80000 10004 21007 39726 40127 54000 60002 71042 85077 333 10006 21029 42002 555 592//
AAXX 30184 60106 32965 02004 10100 20056 40335 53007 333 10177
AAXX 30184 60318 32960 12403 10112 20073 40323 53005 81200 333 10177
AAXX 30181 14241 11110 80901 10008 20001 39996 40130 52024 69912 71062 886// 333 10013
AAXX 30181 14284 11940 81201 10024 20012 30012 40123 52011 60002 71022 8801/ 333 10049
AAXX 30181 14307 32982 13603 10046 20011 30045 40123 53014 80003 333 10087
AAXX 30181 14317 NIL
AAXX 30181 14431 12565 40503 10049 20037 30008 40103 53003 60042 82770 333 10082 82723 84457
AAXX 30181 14444 11980 63502 10059 20033 30064 40093 57002 60042 70126 84032 333 10101
AAXX 30181 14474 11558 80804 10054 20040 39899 40091 56010 60022 76162 8552/ 333 10082
AAXX 30181 14008 12599 33223 11134 21166 37359 47894 58002 60002 83030 333 11086 49105 91130 92818 95100
AAXX 30181 14015 11440 80000 10011 20005 39770 40139 52019 69912 71072 8557/ 333 10015 4/001 84710 85635
AAXX 30181 14023 12999 22703 10002 21011 39836 40139 53022 60002 82070 333 10027
AAXX 30181 14024 46/// ///// 1//// 2//// 3//// 4//// 5////
AAXX 30181 14026 12997 51401 11003 21010 39806 40135 52022 60002 85070 333 10032
AAXX 30181 14031 11995 41701 11004 21007 39899 40134 52020 60002 710// 84030 333 10034
AAXX 30181 14105 12999 31202 10018 20011 30128 40133 52020 69902 83031 333 10085
AAXX 30181 14106 11998 00000 10016 20009 30057 40127 52021 69922 70261 333 10086 95000
AAXX 30181 14121 11993 02701 10003 21001 39859 40132 52022 69952 74474 333 10013 93100
AAXX 30181 14122 11940 51601 11006 21010 39935 40138 52022 69912 710// 80008 333 10020 93100
AAXX 30184 60710 11560 82730 10138 20076 30134 40214 56002 60032 70282 8428/ 333 10143 84820 86360
AAXX 30184 60714 11458 63127 10137 20085 30192 40198 50005 60062 72186 86800 333 10146 84816 83630
AAXX 30184 60720 NIL
AAXX 30184 60728 NIL
AAXX 30184 60729 NIL
AAXX 30184 60731 07650 52821 10121 20070 30187 40194 53009 69942 76100 333 10144 20103 59011 60007 81/35 85/41 91032 91136
AAXX 30184 60732 NIL
AAXX 30184 60734 11558 73210 10078 20076 39690 40221 53007 69952 70362 8588/ 333 10102 83823 83630
AAXX 30184 60738 11006 8//// 10026 20026 38970 48525 53013 60012 70262 887// 333 10038 88700
AAXX 30184 60739 NIL
AAXX 30184 60740 12462 52820 10137 20058 30200 40202 53012 60002 85880 333 10149 83816
AAXX 30184 60742 NIL
AAXX 30184 60764 12562 22708 10110 20009 30188 40240 53012 60002 82200 333 10174 82830
AAXX 30184 60770 12660 63312 10138 20044 30088 40228 53011 60002 86500 333 10165 86640
AAXX 30184 60772 NIL
AAXX 30184 60775 12565 23010 10105 20025 39881 40241 53002 60002 83200 333 10142 83823
AAXX 30184 60780 12960 03112 10119 20021 39944 40256 58013 60002 333 10152
AAXX 30184 16614 12560 70000 10008 21030 39333 40127 57008 60002 84550 333 10023 41998 84625 86358 90730 91105 555 10000 41075
AAXX 30184 16627 12560 80000 10060 20046 30125 40129 58001 60002 888// 333 10068 82820 88630 90730 91107 555 10000 40026 30000 10054 20052 30052 40054 50066 6//// 40000 47627 44245 50000 50054
AAXX 30184 16667 12560 42404 10086 20045 30126 40131 55004 60002 82150 333 10136 82820 84360 90730 91110 555 10000 40060 30000 20090 30098 40000 47621 44180 50000 50068
AAXX 30184 16675 NIL
AAXX 30184 16710 36/// /9902 10062 20044 39342 40115 57003 333 10090 90730 91106 555 10000 40029
AAXX 30184 16723 11560 83208 10104 20092 30110 40126 55001 69932 76062 8357/ 333 10152 83620 88356 90730 91110 555 10000 40078 40000 47615 44220 50000 50098 60000 60003 60115 70000 77R// 7R///
AAXX 30184 16738 NIL
AAXX 30184 16746 12560 50000 10104 20084 39930 40113 54000 69972 83250 333 10136 83825 85358 90730 91106 555 10000 40094 40000 47476 44180 50000 50094 60000 60007 60130
AAXX 30184 16643 11457 80000 10100 20092 30090 40095 57006 60032 76362 8572/ 333 10108 82710 85620 88457 90730 91104 555 10000 40092 40000 47597 44200 50000 50096 60000 60026 60250 70000 77RY/ 7RY//
AAXX 30184 16648 11456 80000 10046 20031 30035 40127 56008 60002 71022 8662/ 333 10056 81710 86635 88458 90730 91104 555 10000 40002 30000 10054 2//// 30056 40048 5//// 6//// 40000 47556 44200 50000 50040 70000 77Y// 7/Y//
AAXX 30184 16650 12460 71805 10108 20075 30102 40106 57005 60002 86670 333 10108 81715 86625 87358 90730 91112 555 10000 40056 30000 10082 20080 30080 40082 50096 60122 40000 47608 44230 50000 50092
AAXX 30184 16684 12560 50000 10100 20056 30076 40105 58004 60002 84551 333 10126 84625 84358 90730 91105 555 10000 40082 40000 47588 44210 50000 50080
AAXX 30184 16732 11565 31105 10102 20073 30106 40118 56005 69942 70161 81230 333 10136 81820 83359 90730 91108 555 10000 40092 40000 47604 44150 50000 50088 60000 60004 60130 70000 77/// 7R///
AAXX 30184 04005 21489 81401 10006 21057 49824 57058 71582 888// 333 10007 21014 69918 555 3/202
AAXX 30184 04018 21456 81330 10022 21006 49755 58064 78173 8633/ 333 10024 20001 69928 555 3//30 82818 84928 86644
AAXX 30184 04030 22484 80815 10010 21023 49771 57053 8557/ 333 10014 21019 69928 555 3//21 82715 84625 88450
AAXX 30184 04048 NIL
AAXX 30184 04063 21464 81507 11036 21054 49854 57056 78582 8691/ 333 11014 21039 69918 555 3//07
AAXX 30184 04077 NIL
AAXX 30184 04082 21880 83411 10005 20005 49841 57056 77377 887// 333 10025 20005 60088 555 3//26 88250
AAXX 30184 04097 21450 81824 10013 20005 49890 57040 76976 8572/ 333 10026 21014 60088 555 3/424
AAXX 30183 04013 21270 80724 10000 21006 49790 57065 77072 82620 333 10000 21010 69928 555 3//24
AAXX 30183 04064 21450 80505 10008 21014 49833 57054 76877 8252/ 333 10008 21022 60088 555 3//09
AAXX 30181 26247 01377 82104 10022 20000 39914 49993 51014 69902 70222 875// 333 10034 20020 60007 87610 91112 555 1/001 20020 3/000 50031
AAXX 30181 26115 01481 53203 10015 21005 39966 49974 52024 69932 70222 85600 333 10039 20014 60007 85717 91008 91110 555 1/000 20014 3/100 50039
AAXX 30181 15310 01494 81902 10005 20004 30034 40122 52008 60002 71054 886// 333 10025 20005 31004 55300 10019 20001 30000 60007 91005 91106
AAXX 30181 13160 31696 81202 10025 20023 30017 40128 53008 71022 885// 333 10040
AAXX 30181 13262 11697 80000 10017 20007 39970 40122 53008 60032 70262 885// 333 10036
AAXX 30181 13272 11650 81801 10032 20014 39996 40118 52007 69902 72162 8451/ 333 10049 84640 88458
AAXX 30181 13285 31696 70000 11007 21019 30017 40123 51002 71010 87500 333 10027
AAXX 30181 13289 11/92 93004 11024 21027 38894 48396 53004 69932 77174 333 11012 4/003 93197
AAXX 30181 13376 31696 80901 10031 20004 39851 40118 53002 60032 76162 885// 333 10055
AAXX 30181 13388 31996 60301 10012 21008 39870 40123 57003 71022 82036 333 10041
AAXX 30181 13462 32660 80000 10039 20003 30064 40104 57005 8552/ 333 10059 85640 88458
AAXX 30181 13473 NIL
AAXX 30181 13489 31494 81001 11035 21040 39605 40145 57005 71022 886// 333 11034
AAXX 30184 783388 11578 50716 10280 20221 30150 40159 60031 70182 85801 333 01209 10300 20231 58007 84822 90920
AAXX 30184 78958 11570 51018 10300 20226 30129 40139 60001 70611 82202 333 10306 20232 59008 82823 83077
AAXX 30184 06030 02675 72102 10010 21011 30049 40065 52015 69902 81571 333 10059 20009 6///7 81635 86360
AAXX 30184 06060 02575 32502 10008 21001 30009 40075 52017 69942 83570 333 10054 20008 6///7 83629
AAXX 30184 06070 05972 12704 10008 21018 30040 40070 52023 6///2 333 10052 20008 6///7 81/63
AAXX 30184 06120 36975 12905 10014 20010 30046 40072 52024 333 10049 20009 81/69
AAXX 30184 06180 02575 23611 10037 20016 30040 40046 52028 6///2 82500 333 10050 21002 6///7 82620
AAXX 30184 06193 07567 73208 10043 20028 30024 40035 52020 69942 70085 333 10047 20018 55300 20000 6///7 81/30 83/35 87/62
AAXX 30184 84720 31960 23007 10330 20221 39481 40147 70200 80030 333 56090 59002 82366
AAXX 30184 84735 31560 49905 10162 20035 36434 70222 84100 333 56900 59013 84830
AAXX 30184 84501 31758 61808 10227 20170 30090 40116 70521 8253/ 333 56000 59002 82640 86363
AAXX 30184 84688 31463 60106 10151 20071 36671 70222 866// 333 568// 58010 83617 83650
AAXX 30184 84370 31560 63308 10280 20209 30065 40106 70122 865// 333 569/0 59005 86630
AAXX 30184 84782 31665 52210 10254 20161 39607 40102 70310 8551/ 333 5651/ 58000 81650 84469
AAXX 30184 84628 34760 81808 10249 20191 30108 40124 70242 885// 333 564// 58011 88656
AAXX 30184 84425 31460 83406 10298 20226 39934 401043 70222 8523/ 333 5689/ 58004 85815 87360
AAXX 30184 84658 21362 73007 10300 20261 39843 40076 71620 8712/ 333 5679/ 59015 60081 84808 83460
AAXX 30184 84444 31560 83212 10168 20123 37535 70222 8443/ 333 569// 59003 84630 84362
AAXX 30184 84472 31560 82006 10216 20115 37397 70302 88500 333 56900 59005 83725 85637
AAXX 30184 84752 32660 82511 10176 20113 37518 70342 8853/ 333 5699/ 59006 83640 85357
AAXX 30184 71150 NIL
AAXX 30184 71151 NIL
AAXX 30184 71152 16/// /2724 11003 21034 30060 40073 53022 60001 333 11003 21052 70028
AAXX 30184 71153 NIL
AAXX 30184 71154 16/// /2307 10017 21001 60001 333 10019 20004 70000
AAXX 30184 71155 NIL
AAXX 30184 71156 NIL
AAXX 30184 71157 46/// ///// 11025 21063 6///1 333 11013 21083 7////
AAXX 30184 71158 NIL
AAXX 30184 71159 NIL
AAXX 30184 71160 NIL
AAXX 30184 71161 16/// /0408 11106 21127 39989 40143 57013 60001 333 11105 21157 70000 555 10010
AAXX 30184 71162 NIL
AAXX 30184 71163 46/// /0904 11163 21177 39661 40009 50011 6///1 333 11160 21223 7////
AAXX 30184 71164 NIL
AAXX 30184 71165 NIL
AAXX 30184 71166 NIL
AAXX 30184 71167 15966 02202 11075 21117 38841 49940 57006 60001 333 11063 21130 70000
AAXX 30184 71168 16/// /3114 10027 20016 39490 40071 51016 60001 333 10028 21005 70065
AAXX 30184 71170 NIL
AAXX 30184 71171 16/// /2101 10054 20028 39993 40089 58013 60001 333 10058 21007 70000
AAXX 30184 71172 16/// ///// 11048 21058 39873 40093 58014 60001 333 11048 21085 70021 555 10030
AAXX 30184 71175 NIL
AAXX 30184 71176 460// /2729 11164 39386 40085 56007 6///1 333 11160 21187 7////
AAXX 30184 71177 460// ///// 11193 39021 40043 53022 6///1 333 11122 21194 7////
AAXX 30184 71178 16/// /2635 11016 21071 39975 40007 53033 60001 333 11005 21028 70000
AAXX 30184 71179 460// ///// 11123 39163 49991 53042 6///1 333 11070 21124 7////
AAXX 30184 71180 16/// /2920 11007 21013 30056 40096 53026 60001 333 11004 21058 70007
AAXX 30184 71181 17564 62726 11019 21073 30022 40058 53027 69951 74544 333 11005 21034 70010
AAXX 30184 71183 16/// /0310 30140 58023 60001 333 70000
AAXX 30184 71184 46/// /0311 11121 21150 6///1 333 11121 21215 7////
AAXX 30184 71186 NIL
AAXX 30184 71187 15766 83010 10076 20017 39979 40026 51029 60001 333 10081 20023 70000
AAXX 30184 71189 NIL
AAXX 30184 71190 NIL
AAXX 30184 71191 NIL
AAXX 30184 71192 15966 61705 11030 21030 39278 49933 53014 60001 333 11024 21082 70013
AAXX 30184 71193 16/// /1006 11152 21177 39755 40136 58024 60001 333 11152 21254 70000
AAXX 30184 71196 17/// /0903 11139 21158 39953 40161 58020 69931 7//4/ 333 11139 21237 70003 555 10010
AAXX 30184 71197 16361 82635 11008 21026 30038 40088 53030 60001 333 11007 21056 70010
AAXX 30184 71198 46/// /0308 11130 21184 6///1 333 11130 21183 7////
AAXX 30184 71199 46/// /0000 11291 21321 39156 40024 53005 6///1 333 11235 21317 7////
AAXX 30184 71001 17956 02501 11354 21392 38968 49989 53003 60001 704// 333 11295 21361 70000
AAXX 30184 71002 17640 63210 11164 21199 39603 40161 53028 60001 704// 333 11107 21164 70003
AAXX 30184 71003 15566 80801 11184 21215 39819 40221 57004 60001 333 11183 21244 70000
AAXX 30184 71005 NIL
AAXX 30184 71006 NIL
AAXX 30184 71007 NIL
AAXX 30184 71008 NIL
AAXX 30184 71009 NIL
AAXX 30184 71010 NIL
AAXX 30184 71011 NIL
AAXX 30184 71012 NIL
AAXX 30184 71013 NIL
AAXX 30184 71014 NIL
AAXX 30184 71015 NIL
AAXX 30184 71016 NIL
AAXX 30184 71017 NIL
AAXX 30184 71018 NIL
AAXX 30184 71019 NIL
AAXX 30184 71020 NIL
AAXX 30184 71021 NIL
AAXX 30184 71022 17966 03111 10010 21028 39936 49980 53065 60011 7004/ 333 10015 20002 70013
AAXX 30184 71023 NIL
AAXX 30184 71024 16/// /2401 11179 21193 60001 333 11177 21223 70008 555 10010
AAXX 30184 71026 NIL
AAXX 30184 71027 17/// /0504 11031 21078 30115 40125 53021 69991 7//4/ 333 11031 21070 70009 555 10020
AAXX 30184 71028 17/// /1705 10000 21006 38916 49935 51015 60021 7//4/ 333 10000 21035 70040 555 10050
AAXX 30184 71029 NIL
AAXX 30184 71030 16/64 /2905 11020 21140 30095 40187 56004 60001 333 11018 21083 70000
AAXX 30184 71032 46/// /2301 10003 20000 39198 40022 53023 6///1 333 10013 21002 7//// 555 10020
AAXX 30184 71033 46/// /3105 11085 21097 39365 49994 50005 6///1 333 11046 21085 7//// 555 10040
AAXX 30184 71035 NIL
AAXX 30184 71036 15466 82411 11035 21051 39688 40067 58013 60001 333 11034 21129 70000
AAXX 30184 71039 46/// /0000 11337 6///1 333 11237 21339 7////
AAXX 30184 71040 46/// /0503 11191 21250 30014 40225 58007 6///1 333 11191 21244 7////
AAXX 30184 71041 15466 62918 11050 21091 30015 40160 53022 60001 333 11037 21067 70000
AAXX 30184 71042 17/// /1906 10069 20030 30032 40036 53026 69971 7//4/ 333 10070 20023 70063
AAXX 30184 71044 16/// /0402 11247 21279 39707 40038 53010 60001 333 11247 21288 70000
AAXX 30184 71046 460// /2309 11293 30035 40053 53007 6///1 333 11253 21301 7////
AAXX 30184 71047 NIL
AAXX 30184 71048 NIL
AAXX 30184 71049 NIL
AAXX 30184 71060 NIL
AAXX 30184 71063 NIL
AAXX 30184 71816 11674 83112 11080 21129 30037 40099 52045 69901 78522 885// 333 11022 21081 47089 70038 90962
AAXX 30184 71817 11574 83322 11038 21106 39973 49986 52071 69961 771// 885// 333 42012 70014 90999
AAXX 30184 71818 11574 83123 11052 21085 39996 40014 53060 69961 73672 885// 333 10002 21055 44026 70092 90923
AAXX 30184 71822 12974 00603 11211 21250 39709 40215 57016 60001 333 11209 21346 70000
AAXX 30184 71825 11574 70110 11159 21196 39483 40178 51012 69921 77177 87500 333 11129 21168 48128 70089 90983
AAXX 30184 71827 12274 61508 11215 21249 39960 40221 57005 60001 81601 333 11215 21301 70000
AAXX 30184 71828 16464 83408 11159 21209 39513 40175 53013 60001 333 11156 21183 70020
AAXX 30184 71831 11548 71108 11136 21168 39843 40136 58021 69901 77172 86511 333 11136 21234 48042 79999 90926
AAXX 30184 71832 NIL
AAXX 30184 71834 11574 80604 11115 21139 39669 40110 58005 69901 77171 885// 333 11115 21176 48027 70020 90937
AAXX 30184 71841 NIL
AAXX 30184 71842 11269 80000 11080 21084 39619 40098 58014 69901 77175 885// 333 11079 21108 47008 79999 90983
AAXX 30184 71844 NIL
AAXX 30184 71845 11369 80000 11123 21128 39623 40111 58004 69901 77177 87701 333 11122 21143 44021 79999 90973
AAXX 30184 71850 11266 81603 11094 21098 39591 40102 58005 69901 77177 886// 333 11094 21125 48014 79999 90973
AAXX 30184 71852 16964 01607 11077 21102 39795 40095 58004 60001 333 11076 21128 70000
AAXX 30184 71854 11458 82203 11097 21128 39620 40104 56007 69901 77177 885// 333 11094 21124 48017 79999 90993
AAXX 30184 71858 NIL
AAXX 30184 71861 16/// /2104 11035 21039 39331 40060 58013 60001 333 11031 21093 70122 555 10130
AAXX 30184 71862 11258 82006 11014 21020 39371 40074 58014 69901 71077 886// 333 11012 21065 47009 70020 90963
AAXX 30184 71863 46964 31308 11044 21068 39346 40046 58022 6///1 333 11014 21100 7////
AAXX 30184 71300 NIL
AAXX 30184 71301 17/// ///// 11151 21186 39726 40143 58027 69961 7//4/ 333 11151 21274 70010 555 10010
AAXX 30184 71302 16/// /1806 11006 21014 39108 49913 53013 60001 333 11003 21081 70066 555 10050
AAXX 30184 71303 NIL
AAXX 30184 71305 15966 00704 11205 21224 39711 40008 58003 60001 333 11124 21225 70011
AAXX 30184 71306 17758 82017 11150 21168 30145 40179 58010 60001 710// 333 11146 21299 70000
AAXX 30184 71307 NIL
AAXX 30184 71308 16/// /3011 11043 21094 30084 40170 53024 60001 333 11035 21063 70000 555 10010
AAXX 30184 71309 NIL
AAXX 30184 71310 16/// /2509 11073 21109 30130 40168 53025 60001 333 11073 21096 70000
AAXX 30184 71311 NIL
AAXX 30184 71312 NIL
AAXX 30184 71314 16/// /1007 11062 21072 39747 40105 58013 60001 333 11060 21080 70009
AAXX 30184 71315 NIL
AAXX 30184 71316 16/// /0403 11075 21106 39276 49958 58025 60001 333 11031 21129 70009
AAXX 30184 71317 NIL
AAXX 30184 71318 16/// /1510 11015 21047 38989 49929 58031 60001 333 11015 21118 70017
AAXX 30184 71319 16/// /2302 11084 21129 39282 40169 55000 60001 333 11080 21220 70000
AAXX 30184 71320 NIL
AAXX 30184 71321 NIL
AAXX 30184 71322 NIL
AAXX 30184 71323 NIL
AAXX 30184 71331 16/// /2103 11047 21069 60001 333 11047 21134 70000 555 10010
AAXX 30184 71332 NIL
AAXX 30184 71334 46/// /1807 11082 21101 39655 49985 58008 6///1 333 11082 21153 7////
AAXX 30184 71335 46964 0//// 11152 51027 6///1 333 11125 21159 7////
AAXX 30184 71336 46/// ///32 11008 21066 39986 40008 53022 6///1 333 10008 21025 7////
AAXX 30184 71337 46/// /3113 11032 21042 39771 40009 53060 6///1 333 11017 21061 7////
AAXX 30184 71338 46964 32102 11319 21362 30069 40077 56013 6///1 333 11266 21337 7////
AAXX 30184 71339 16564 63322 11037 21103 39975 49990 52069 60001 333 11003 21038 70000
AAXX 30184 71340 NIL
AAXX 30184 71341 NIL
AAXX 30184 71342 NIL
AAXX 30184 71343 NIL
AAXX 30184 71344 NIL
AAXX 30184 71345 NIL
AAXX 30184 71346 NIL
AAXX 30184 71347 NIL
AAXX 30184 71348 NIL
AAXX 30184 71349 NIL
AAXX 30184 71450 16/// /1406 11026 21033 39295 40014 58027 60001 333 11026 21119 70041
AAXX 30184 71451 16/// /2402 11015 21029 39563 49987 50001 60001 333 11005 21116 70012
AAXX 30184 71452 46/// /1706 11017 21026 39348 40061 58016 6///1 333 11011 21052 7//// 555 10010
AAXX 30184 71453 NIL
AAXX 30184 71454 16/// /1103 11100 21124 39316 40009 58018 60001 333 11038 21113 70010
AAXX 30184 71455 46/// /1912 11001 21017 39202 49994 58030 6///1 333 10000 21080 7////
AAXX 30184 71456 NIL
AAXX 30184 71457 16/// /2113 10035 21020 39050 49924 56019 60001 333 10035 21048 70000
AAXX 30184 71458 16/// /1508 11034 21076 39163 49931 58039 60001 333 11033 21146 70015 555 10020
AAXX 30184 71459 16/// /1616 10009 21028 39145 49945 58038 60001 333 10009 21056 70030
AAXX 30184 71460 16/// /0712 11076 21082 39861 40108 56014 60001 333 11074 21122 70000
AAXX 30184 71461 NIL
AAXX 30184 71462 NIL
AAXX 30184 71463 NIL
AAXX 30184 71464 NIL
AAXX 30184 71465 NIL
AAXX 30184 71466 NIL
AAXX 30184 71468 NIL
AAXX 30184 71470 NIL
AAXX 30184 71471 17540 80304 11070 21081 39155 49946 56001 60001 771// 333 11045 21106 70000
AAXX 30184 71473 17/// /2323 10057 20011 30004 40034 51028 69941 7//4/ 333 10069 20044 70024
AAXX 30184 71475 NIL
AAXX 30184 71476 NIL
AAXX 30184 71477 16/// /3118 10025 21009 60001 333 10025 21002 7////
AAXX 30184 71478 NIL
AAXX 30184 71479 NIL
AAXX 30184 71480 NIL
AAXX 30184 71481 NIL
AAXX 30184 71482 NIL
AAXX 30184 71483 NIL
AAXX 30184 71484 NIL
AAXX 30184 71485 17/// /3030 10041 20024 39989 40009 53092 60051 7//4/ 333 10064 20034 70112
AAXX 30184 71486 17/// /1902 11022 21029 38741 49927 57001 69981 7//4/ 333 11004 21052 70008
AAXX 30184 71487 NIL
AAXX 30184 71489 NIL
AAXX 30184 71490 NIL
AAXX 30184 71491 NIL
AAXX 30184 71492 NIL
AAXX 30184 71493 16/// /2508 11025 21097 30132 40171 53012 60001 333 11024 21076 70000
AAXX 30184 71494 17/// /1001 11073 21158 39642 40184 57016 69931 7//4/ 333 11067 21247 70003
AAXX 30184 71495 NIL
AAXX 30184 71496 16/// /1403 11042 21047 39392 40005 58029 60001 333 11042 21135 70007
AAXX 30184 71497 46/// /0704 11248 21277 39741 40017 51008 6///1 333 11211 21248 7////
AAXX 30184 71498 NIL
AAXX 30184 71499 15466 83006 11081 21095 39366 49993 51005 60001 333 11043 21081 70000
AAXX 30184 71397 12574 42712 11020 21093 30155 40190 53005 60001 81501 333 11020 21043 79999
AAXX 30184 71400 16/64 /2905 11006 21048 60001 333 11004 21061 70000
AAXX 30184 71403 46/// /2517 10016 21079 30143 40163 53006 6///1 333 10017 21031 7////
AAXX 30184 71411 NIL
AAXX 30184 71412 16/// /2611 11069 21097 30148 40158 53024 60001 333 11069 21090 70000
AAXX 30184 71421 NIL
AAXX 30184 71430 16/// /0610 11037 21040 30018 40116 58014 60001 333 11030 21071 70037
AAXX 30184 71431 17/// /0601 11046 21052 30013 40111 58009 69931 7//4/ 333 11046 21082 70041 555 10040
AAXX 30184 71432 16/// /0503 10040 20023 30000 40097 58013 60001 333 10042 21010 70000
AAXX 30184 71433 NIL
AAXX 30184 71435 NIL
AAXX 30184 71441 46/// /3104 11072 21087 39782 40096 50006 6///1 333 11062 21107 7////
AAXX 30184 71443 16/// /2310 11034 21042 39635 40052 58004 60001 333 11034 21133 70000
AAXX 30184 71444 16/// /2303 11074 21079 39307 40074 58007 60001 333 11074 21152 70000
AAXX 30184 71447 NIL
AAXX 30184 71467 16/// /1005 11301 21330 30006 40127 53010 60001 333 11287 21322 70000 555 10010
AAXX 30184 71472 NIL
AAXX 30184 71474 16964 01610 11006 21040 38730 49946 50000 60001 333 11003 21028 70000
AAXX 30184 71510 16/// /1505 11016 21025 39266 49972 58040 60001 333 11016 21143 70006
AAXX 30184 71538 11456 81507 10032 20025 39832 40061 55029 60011 76122 888// 333 10042 20006 70022 90931
AAXX 30184 71600 176// 32722 10043 21039 30173 40179 53010 69951 7//44 333 10046 20029 70080
AAXX 30184 71601 NIL
AAXX 30184 71744 NIL
AAXX 30184 71750 NIL
AAXX 30184 71751 NIL
AAXX 30184 71752 NIL
AAXX 30184 71753 16/// /2510 10001 21091 30131 40160 53013 60001 333 10001 21041 70000
AAXX 30184 71754 17/// /1013 11066 21079 39326 49997 58033 69951 7//4/ 333 11060 21158 70008 555 10010
AAXX 30184 71755 43/// /2102 11108 21130 39746 40098 58010 6///1 333 11108 21146 7////
AAXX 30184 71756 16/// /1803 10002 21029 38902 49981 51018 60001 333 10021 21023 70071 555 10070
AAXX 30184 71758 NIL
AAXX 30184 71760 NIL
AAXX 30184 71761 NIL
AAXX 30184 71762 NIL
AAXX 30184 71763 NIL
AAXX 30184 71765 17/// /2016 10045 20019 39711 49981 51019 60021 7//4/ 333 10047 20015 70058
AAXX 30184 71766 16/// /3503 10072 20012 39931 40001 53035 60001 333 10073 20020 70039
AAXX 30184 71767 16/// /1405 10003 21002 39817 40079 58014 60001 333 10003 21047 70016 555 10010
AAXX 30184 71768 46/// /3004 10044 20013 39477 40017 51015 6///1 333 10046 20006 7////
AAXX 30184 71769 16/// /2106 10076 20014 39981 49997 51032 60001 333 10081 20053 70032
AAXX 30184 71770 NIL
AAXX 30184 71771 NIL
AAXX 30184 71772 16/// /1702 10086 20026 30006 40012 53036 60001 333 10087 20054 70042
AAXX 30184 71773 16/// /2003 11145 21162 39089 49952 53008 60001 333 11113 21183 70000
AAXX 30184 71774 46/// ///// 10026 6///1 333 10064 20023 7////
AAXX 30184 71775 46/// /1905 10066 20024 30032 40038 52025 6///1 333 10071 7////
AAXX 30184 71776 46/// /2505 10030 20018 39379 40014 51015 6///1 333 10030 20009 7////
AAXX 30184 71777 17/// ///// 10002 20001 39742 49992 52025 69971 7//4/ 333 10002 7////
AAXX 30184 71778 46/// /2425 6///1 333 7////
AAXX 30184 71779 16/// /1403 11030 21031 39274 49928 53014 60001 333 11021 21087 70020 555 10070
AAXX 30184 71780 17/// /2728 10063 20027 30025 40052 53021 69961 7//4/ 333 10089 20048 70040
AAXX 30184 71781 46/// /2221 10074 20012 39970 49994 51039 6///1 333 10089 20052 7////
AAXX 30184 71782 46/// /1709 10012 20002 38666 49970 55008 6///1 333 10013 21015 7////
AAXX 30184 71783 NIL
AAXX 30184 71784 16/// /3601 10058 20022 39823 40025 53027 60001 333 10062 20037 70057
AAXX 30184 71785 17/// /2105 10079 20037 30027 40043 51024 60031 7//4/ 333 10095 20050 70068
AAXX 30184 71786 46/// /2709 11042 21050 38163 49973 53002 6///1 333 11042 21057 7////
AAXX 30184 71787 16/// /2613 11073 21137 39667 40169 53014 60001 333 11072 21133 70000
AAXX 30184 71788 NIL
AAXX 30184 71789 NIL
AAXX 30184 71791 NIL
AAXX 30184 71792 NIL
AAXX 30184 71793 NIL
AAXX 30184 71794 NIL
AAXX 30184 71795 NIL
AAXX 30184 71796 NIL
AAXX 30184 71797 NIL
AAXX 30184 71043 11566 70000 11251 21300 39944 40041 53011 69921 77177 87500 333 11227 21263 48033 70020 90983
AAXX 30184 71045 16/// /0604 11212 21232 39110 49991 53010 60001 333 11146 21237 70000
AAXX 30184 71050 NIL
AAXX 30184 71051 NIL
AAXX 30184 71052 NIL
AAXX 30184 71066 12261 80000 11166 21199 39572 40002 55002 60001 886// 333 11166 21245 70010
AAXX 30184 71068 11516 80408 11058 21070 39260 49949 58012 60011 77122 886// 333 11056 21108 47006 70012 90931 93101
AAXX 30184 71069 17561 31208 11062 21098 39248 49946 58015 60001 745// 333 11014 21090 70005
AAXX 30184 71076 16/// /2501 11122 21134 39609 40006 50004 60001 333 11106 21126 70000
AAXX 30184 71077 16/// /2203 11068 21091 39471 40010 55000 60001 333 11008 21070 70012 555 10010
AAXX 30184 71079 11424 81709 11076 21083 39753 40036 58012 69941 77177 885// 333 11176 21145 48008 70004 90983 93101
AAXX 30184 71081 46964 02507 11225 21262 30047 40059 58019 6///1 333 11219 21259 7////
AAXX 30184 71082 NIL
AAXX 30184 71083 11658 81707 11144 21162 39999 40042 58005 69921 77177 885// 333 11141 21174 4808 70006 90983
AAXX 30184 71090 46964 02506 11318 21362 30043 40080 56013 6///1 333 11281 21344 7////
AAXX 30184 71091 460// /0907 11263 39870 40087 56017 6///1 333 7////
AAXX 30184 71092 46014 02908 11291 39397 40089 56005 6///1 333 11262 21300 7////
AAXX 30184 71093 460// ///// 11264 39541 40054 58015 6///1 333 11229 21267 7////
AAXX 30184 71094 46064 /3011 11209 39089 40002 56007 6///1 333 11195 21233 7////
AAXX 30184 71095 46964 01904 11341 21386 30005 40090 56013 6///1 333 11302 21346 7////
AAXX 30184 71101 160// /2617 30002 53054 60001 333 70255
AAXX 30184 71104 12574 71510 11010 21056 38838 49930 53013 60001 85501 333 11004 21068 70004
AAXX 30184 71108 11580 62013 10069 20024 39973 40045 53032 69941 70381 83260 333 10078 20039 70049 90951
AAXX 30184 71109 NIL
AAXX 30184 71114 160// /3010 10077 20012 39980 40027 51028 60081 333 10083 20025 70155
AAXX 30184 71120 12774 80805 11083 21116 39323 49982 57020 60001 85571 333 11059 21160 70020
AAXX 30184 71122 17/// /2302 11022 21044 38373 49951 55005 69981 7//4/ 333 21036 7////
AAXX 30184 71123 11874 71407 11050 21086 39095 49930 56016 60001 71422 87070 333 11039 21143 70000
AAXX 30184 71125 12674 80403 11096 21115 39408 49996 56019 60001 8357/ 333 70006
AAXX 30184 71129 11472 71310 11009 21035 39127 49948 58044 69901 77122 87500 333 11009 21060 42997 70036 90910
AAXX 30184 71131 16/// /1807 11012 21045 38744 49990 58021 60001 333 11010 21060 70003
AAXX 30184 71135 16/// /1816 11004 21028 38956 40034 58023 60001 333 11003 21054 70010
AAXX 30184 71137 16/// /1815 10012 21032 39071 40008 58027 60001 333 10014 21063 70000
AAXX 30184 71140 11269 82206 11078 21080 39583 40093 5/006 69901 70277 88600 333 11076 21128 48006 70044 90953
AAXX 30184 71145 12274 81704 11079 21090 39785 40083 58010 60001 885// 333 11079 21127 70004
AAXX 30184 71148 NIL
AAXX 30184 71185 17430 83214 11024 30020 40044 53055 60001 745// 333 11007 21048 70060
AAXX 30184 71188 12674 43208 11045 21096 30103 40147 52033 60001 82571 333 11039 21121 79999
AAXX 30184 71200 17/// /2223 10063 20032 60021 7//4/ 333 10084 20059 70038
AAXX 30184 71207 17/// /1510 10054 20023 39940 40004 53023 60071 7//4/ 333 10063 20001 70202
AAXX 30184 71260 13/// ///// 11041 21047 39842 40081 58013 69921 333 11040 21073 44002 70017
AAXX 30184 71108 11580 72013 10069 20024 39973 40045 53032 69941 70381 83260 333 10078 20039 70049 90951
AAXX 30184 71893 12580 41807 10072 20015 39964 49995 52043 60001 82571 333 10072 20036 70128
AAXX 30184 71894 17/// /2833 10067 20038 30036 40045 51064 69961 7//4/ 333 10083 20044 70136
AAXX 30184 71896 17540 81806 11006 21017 39097 49917 52013 60011 7714/ 333 11005 21084 70053
AAXX 30184 71897 12469 82745 10048 20019 3//// 4//// 52018 60041 86809 333 10056 20030 70126
AAXX 30184 71898 160// ///// 10016 53064 60131 333 10018 20002 70165
AAXX 30184 71899 11432 73432 10017 20010 3//// 4//// 52048 69921 7871X 87200 333 10040 20002 70062 90914
AAXX 30184 71902 11574 13020 11124 21221 30103 40112 53027 69941 73687 81500 333 11077 21124 48053 70158 90939
AAXX 30184 71905 NIL
AAXX 30184 71906 11566 83012 11165 21212 30145 40197 53004 69901 77177 885// 333 11125 21167 44015 79999 90983
AAXX 30184 71907 16759 32116 11173 21211 30145 40179 58012 69951 333 11173 21324 70005
AAXX 30184 71909 16564 63211 11246 21287 30085 40130 58007 60001 333 11235 21276 70000
AAXX 30184 71910 47437 82713 11164 21192 30052 40116 56014 6///1 745// 333 11158 21215 7////
AAXX 30184 71911 46927 00212 11330 30014 40073 50000 6///1 333 11291 21332 7////
AAXX 30184 71912 11366 81806 11085 21092 39869 40055 58014 69901 77177 886// 333 11084 21155 47021 70002 90983
AAXX 30184 71915 NIL
AAXX 30184 71917 11959 01202 11414 21448 30098 40113 58016 69901 77677 333 11403 21424 44014 79999 90983
AAXX 30184 71922 12574 12405 11063 21088 39542 40007 58003 60001 81501 333 11015 21092 70010
AAXX 30184 71924 11874 23409 11375 21418 30026 40121 56008 69901 77670 82010 333 11286 21380 48038 79999 90931
AAXX 30184 71925 11466 20306 11375 21416 30092 40136 56004 69901 77677 82500 333 11365 21404 42021 79999 90983
AAXX 30184 71926 11574 83404 11161 21205 30009 40034 58001 69901 77177 885// 333 11152 21166 48043 70006 90983
AAXX 30184 71928 16/// /2401 11080 21123 38769 49927 58004 60001 333 11054 21139 70000
AAXX 30184 71665 16/// /3021 11130 21198 30097 40107 53027 60001 333 11063 21130 70075
AAXX 30184 71666 16/// /2610 11056 21138 30125 40171 53016 60001 333 11054 21115 70000 555 10010
AAXX 30184 71667 NIL
AAXX 30184 71668 16/// /3007 11056 21150 30143 40188 53004 60001 333 11054 21113 70000
AAXX 30184 71669 NIL
AAXX 30184 71670 16/// ///// 11060 21145 60001 333 11060 21114 70006
AAXX 30184 71671 NIL
AAXX 30184 71672 16/// /0605 11079 21093 39853 40123 58012 60001 333 11078 21116 70023 555 10030
AAXX 30184 71673 NIL
AAXX 30184 71674 NIL
AAXX 30184 71675 17566 81605 11117 21133 39817 40103 58010 60051 77144 333 11117 21158 70181
AAXX 30184 71679 16/// /0303 11057 21063 38902 49904 53020 60001 333 11035 21061 70000 555 10030
AAXX 30184 71680 NIL
AAXX 30184 71681 46/// /0202 11006 21012 6///1 333 10038 21009 7////
AAXX 30184 71682 NIL
AAXX 30184 71683 NIL
AAXX 30184 71684 17566 80908 11149 21179 39836 40153 58027 60001 771// 333 11149 21272 70000
AAXX 30184 71685 15466 81408 10028 20019 39463 49995 52008 69951 333 10028 20007 70033
AAXX 30184 71686 469// /0604 11167 21186 39006 49973 53010 6///1 333 11140 21182
AAXX 30184 71687 17/// /1903 10013 20000 39211 49983 52018 69961 7//4/ 333 10015 21008 70069 555 10070
AAXX 30184 71688 17/// /0000 11003 21009 38955 49976 51017 60021 7//4/ 333 10007 21018 70140 555 10120
AAXX 30184 71689 15466 80503 11055 21073 39539 49992 50003 60001 333 11002 21060 70003
AAXX 30184 71690 NIL
AAXX 30184 71691 15966 03107 11092 21148 30159 40187 53014 60001 333 11092 21158 70000
AAXX 30184 71692 NIL
AAXX 30184 71694 16/// /0904 11066 21077 39753 40123 58012 60001 333 11066 21106 70011 555 10010
AAXX 30184 71695 16/// /1606 11068 21083 39687 40025 58007 60001 333 11068 21125 70000
AAXX 30184 71696 16/// /1610 11125 21141 39995 40032 58014 60001 333 11125 21200 70000
AAXX 30184 71697 17156 80806 11034 21034 39939 40113 58010 60001 710// 333 11034 21071 70006
AAXX 30184 71699 16/// /2705 11029 21134 30183 40191 56002 60001 333 11028 21084 70000
AAXX 30184 71930 13874 61303 11067 21126 39005 49935 56013 60003 82071 333 11067 21097 43015 70000
AAXX 30184 71931 16/// /2824 11016 21064 39970 49982 53036 60001 333 10030 21049 70000
AAXX 30184 71934 12974 50000 11247 21273 39751 40017 53001 60001 81071 333 11164 21247 70008
AAXX 30184 71935 12774 70000 11214 21252 39790 40004 53006 60001 85501 333 11163 21240 70006
AAXX 30184 71936 11532 80803 11166 21192 39749 40014 52004 69981 77177 885// 333 11157 21168 48028 70016 90983 93104
AAXX 30184 71937 NIL
AAXX 30184 71938 11856 80612 11306 21337 30078 40109 50000 69901 77177 8807/ 333 11290 21342 44025 79999 90983
AAXX 30184 71940 11780 70403 11052 21064 39132 49936 58002 69921 70172 83570 333 11045 21115 41997 70002 90962
AAXX 30184 71943 11432 80107 11081 21107 39116 49950 56001 60011 77122 885// 333 11044 21084 46002 70010 90962 93101
AAXX 30184 71944 160// ///// 11069 51015 60001 333 11058 21103 70005
AAXX 30184 71945 11124 82103 11205 21249 39510 49992 56002 60001 885// 333 11150 21226 70002
AAXX 30184 71946 NIL
AAXX 30184 71948 47006 /0732 11290 39955 40073 50003 6///1 745// 333 11275 21293 7////
AAXX 30184 71949 46/// /0201 11267 21296 39097 49995 52005 6///1 333 11172 21279 7////
AAXX 30184 71951 NIL
AAXX 30184 71957 46759 83102 11255 21324 39953 40044 51013 6///1 333 11201 21255 7////
AAXX 30184 71964 12686 00000 11169 21189 39092 49961 53009 60001 81630 333 11114 21191 70000
AAXX 30184 71966 16/// /0000 11364 21405 39544 40031 53004 60001 333 11281 21364 70000
AAXX 30184 71968 470// /2815 11289 39977 40044 53011 6///1 741// 333 11220 21300 7////
AAXX 30184 71102 NIL
AAXX 30184 71105 NIL
AAXX 30184 71107 NIL
AAXX 30184 71110 NIL
AAXX 30184 71111 469// ///// 6///1
AAXX 30184 71112 16/// ///// 60001 333 70046
AAXX 30184 71113 17/// /2805 10080 20024 30012 40035 51029 69941 7//4/ 333 10081 20032 70082
AAXX 30184 71115 16/// /0804 10001 20000 39426 40002 53014 60001 333 10025 21006 70018
AAXX 30184 71116 16/// /1306 10010 21037 38908 49993 58016 60001 333 10022 21041 70009
AAXX 30184 71118 16/// /1313 11030 21044 39111 49932 58037 60001 333 11030 21137 70033
AAXX 30184 71121 16864 61005 11039 21122 39107 49923 56023 60001 333 11027 21104 70005
AAXX 30184 71127 16/// /1305 11045 21096 39015 49919 56022 60001 333 11033 21086 70000
AAXX 30184 71130 15966 01607 11113 21125 39573 40037 58006 60001 333 11066 21142 70000
AAXX 30184 71132 15466 83005 11105 21122 39687 40002 50009 60001 333 11076 21118 70005
AAXX 30184 71133 46/// /1504 11098 21128 39282 49990 58024 6///1 333 11038 21147 7////
AAXX 30184 71139 16/// /1912 11011 21067 38532 49974 58020 60001 333 11010 21052 70038
AAXX 30184 71141 NIL
AAXX 30184 71142 15866 81727 10005 21031 39025 49984 58030 60001 333 10005 21070 70008
AAXX 30184 71143 NIL
AAXX 30184 71144 NIL
AAXX 30184 71147 16/// /2102 11060 21082 60001 333 11060 21101 70000
AAXX 30184 71149 16/// /1503 11058 21067 60001 333 11058 21136 70000
AAXX 30184 71129 11472 71310 11009 21035 39127 49948 58044 69901 77162 87500 333 11009 21060 42997 70036 90910
AAXX 30184 71864 NIL
AAXX 30184 71865 16/// /1802 11034 21042 39358 40040 58013 60001 333 11034 21096 70000
AAXX 30184 71866 46964 01404 11041 21060 39396 40012 58028 6///1 333 11041 21133 7////
AAXX 30184 71867 11574 71808 11069 21074 39690 40029 58008 69901 70272 87500 333 11069 21127 47025 79999 90941
AAXX 30184 71868 NIL
AAXX 30184 71869 12974 70000 11125 21129 39500 40030 58013 60001 84071 333 11047 21165 70004
AAXX 30184 71871 15666 81209 11064 21088 39162 49968 58031 60001 333 11064 21148 70000
AAXX 30184 71877 12983 22517 10041 21063 38682 49925 56006 60001 82070 333 10042 21025 70000
AAXX 30184 71878 12874 23305 11029 21058 38864 49933 55009 60001 82070 333 11027 21115 70000
AAXX 30184 71879 16764 61607 11024 21085 39129 49924 56020 60001 333 11009 21089 70000
AAXX 30184 71880 11280 72003 11001 21007 38900 49990 51002 60011 71672 86570 333 10021 21007 43002 70026 90936 93101
AAXX 30184 71882 160// /1603 10025 20016 39463 49995 52007 69951 333 10026 20006 70055
AAXX 30184 71883 46/// /0000 11007 21009 39155 49963 53005 6///1 333 11001 21018 7////
AAXX 30184 71887 12786 11403 10037 21016 39562 49975 50013 60001 81170 333 10059 20011 79999
AAXX 30184 71889 NIL
AAXX 30184 71891 16964 02018 10045 20026 39713 49983 51019 60021 333 10048 20017 70065
AAXX 30184 71892 12574 32013 10077 20021 30025 40030 51025 60001 83800 333 10077 20038 70044
AAXX 30184 71550 NIL
AAXX 30184 71551 NIL
AAXX 30184 71552 46/// /0000 11044 21093 6///1 333 11044 21109 7////
AAXX 30184 71553 NIL
AAXX 30184 71554 NIL
AAXX 30184 71555 16/// /2411 10017 21035 38413 49949 53006 60001 333 10029 21014 70000
AAXX 30184 71556 16/// /1505 11053 21055 39427 40033 58024 60001 333 11032 21120 70013
AAXX 30184 71557 46/// /1202 10043 21008 6///1 333 10054 21011 7////
AAXX 30184 71558 46/// ///// 11035 21072 39962 49999 53066 6///1 333 11010 21051 7////
AAXX 30184 71559 46/// /2007 11012 21020 39368 40071 58014 6///1 333 11011 21062 7////
AAXX 30184 71560 17/// /1901 11055 21095 39790 40099 50005 60011 7//4/ 333 11053 21085 70011
AAXX 30184 71563 NIL
AAXX 30184 71564 NIL
AAXX 30184 71565 NIL
AAXX 30184 71566 NIL
AAXX 30184 71567 NIL
AAXX 30184 71568 17/// /2920 10057 20034 39982 49994 53059 60021 7//4/ 333 10061 20021 70160
AAXX 30184 71569 16/// /1405 11039 21049 39331 40032 58020 60001 333 11011 21095 70013 555 10010
AAXX 30184 71570 16/// /1905 11088 21118 39789 40108 58001 60001 333 11087 21135 70000
AAXX 30184 71571 NIL
AAXX 30184 71572 NIL
AAXX 30184 71573 16/// /1704 10050 20019 39798 40079 58017 60001 333 10050 21005 70027
AAXX 30184 71574 12574 12708 11081 21166 30095 40171 53013 60001 81500 333 11074 21145 70000
AAXX 30184 71575 NIL
AAXX 30184 71576 16/// /1801 11342 21380 30001 40091 56013 60001 333 11302 21345 70000
AAXX 30184 71577 46/// /1905 11083 21103 6///1 333 11077 21103 7////
AAXX 30184 71578 NIL
AAXX 30184 71579 NIL
AAXX 30184 71580 11574 13608 11358 21425 30054 40092 54000 69901 72277 81500 333 11293 21366 48030 79999 90983
AAXX 30184 71581 NIL
AAXX 30184 71582 17466 83011 10034 20007 39946 49998 53093 60071 7614/ 333 10054 20022 70171
AAXX 30184 71583 NIL
AAXX 30184 71584 15966 03610 11063 21103 30081 40130 53032 60001 333 11034 21070 70000
AAXX 30184 71585 NIL
AAXX 30184 71586 16/// /2304 11064 21091 39539 40003 58003 60001 333 11017 21089 70011 555 10020
AAXX 30184 71587 NIL
AAXX 30184 71588 16/// /3106 11030 21040 60001 333 11016 21064 70000
AAXX 30184 71589 16/// /2615 11028 21075 39884 40017 53032 60001 333 11026 21051 70000
AAXX 30184 71590 16/// /3607 11107 21157 39996 40194 53008 60001 333 11103 21142 70000
AAXX 30184 71592 NIL
AAXX 30184 71593 NIL
AAXX 30184 71596 NIL
AAXX 30184 71598 16/64 /2716 11067 21103 30154 40160 53023 60001 333 11065 21123 70000
AAXX 30184 71599 16/// /3101 10007 21098 39991 40197 53008 60001 333 10009 21077 70000 555 10020
AAXX 30184 71604 16/// /2915 11082 21085 60001 333 11082 21108 70000
AAXX 30184 71605 16/// /2002 10056 20052 39869 40017 53026 60001 333 10058 20035 70093
AAXX 30184 71611 16/// /0101 11080 21134 60001 333 11080 21189 70000
AAXX 30184 71612 16/// /0405 11128 21167 30094 40189 56022 60001 333 11126 21162 70000
AAXX 30184 71614 NIL
AAXX 30184 71616 16/// /0203 11108 21166 30080 40207 56023 60001 333 11104 21255 70000
AAXX 30184 71617 16/// /0702 11195 21240 30061 40245 58008 60001 333 11190 21233 70005
AAXX 30184 71618 15466 61806 11125 21141 30000 40038 58014 60001 333 11124 21199 70000
AAXX 30184 71619 16/// /2911 11071 21138 30095 40155 53024 60001 333 11071 21128 70000
AAXX 30184 71622 NIL
AAXX 30184 71632 46/// /2108 11058 21067 39547 49986 50001 6///1 333 11057 21151 7//// 555 10030
AAXX 30184 71634 16/// /2904 11083 21159 30017 40176 53015 60001 333 11083 21138 70000
AAXX 30184 71638 16/// /1306 10080 20023 39908 40012 53027 60001 333 10080 20042 70014
AAXX 30184 71639 11104 80904 11028 21047 39863 40108 58013 60001 74722 886// 333 11027 21064 70024
AAXX 30184 71642 11461 80904 11110 21123 39543 40102 58015 60011 77177 885// 333 11110 21140 48024 70020 90993
AAXX 30184 71051 NIL
AAXX 30184 71055 NIL
AAXX 30184 71057 NIL
AAXX 30184 71059 460// ///// 11319 30025 40121 53002 6///1 333 11315 21364 7////
AAXX 30184 71061 16/// /0103 11052 21091 39143 49923 56020 60001 333 11052 21124 70000
AAXX 30184 71062 46/// /3003 11065 21108 38844 49909 56005 6///1 333 11046 21093 7////
AAXX 30184 71064 460// /0107 11380 39907 40140 55002 6///1 333 11370 21399 7////
AAXX 30184 71065 NIL
AAXX 30184 71067 NIL
AAXX 30184 71070 NIL
AAXX 30184 71073 NIL
AAXX 30184 71074 NIL
AAXX 30184 71075 16/// /2905 11098 21110 39377 49985 51011 60001 333 11075 21137 70000 555 10020
AAXX 30184 71078 NIL
AAXX 30184 71084 460// ///// 11359 30058 40109 55000 6///1 333 11352 21361 7////
AAXX 30184 71085 15866 82212 10041 21019 38607 49959 56003 60001 333 10041 21011 70000
AAXX 30184 71087 NIL
AAXX 30184 71088 460// /1607 11220 57019 6///1 333 11209 21245 7////
AAXX 30184 71089 NIL
AAXX 30184 71096 460// ///// 11233 39301 40055 56013 6///1 333 11230 21255 7////
AAXX 30184 71097 47964 00507 11210 39595 40086 56010 6///1 741// 333 11206 21240 7////
AAXX 30184 71098 43/// /1802 11089 21112 39726 40092 58014 6///1 333 11089 21122 7////
AAXX 30184 71099 43/// /1908 11166 21214 30084 40105 58008 6///1 333 11166 21227 7////
AAXX 30184 71700 15966 03005 11049 21149 30164 40190 52004 60001 333 11048 21110 70000
AAXX 30184 71701 12974 12806 11048 21152 30127 40191 52005 60001 81070 333 11048 21115 70000
AAXX 30184 71702 16/// /2811 11056 21126 30151 40167 53021 60001 333 11056 21102 70000 555 10010
AAXX 30184 71703 11974 02603 11104 21147 39885 40194 53006 69901 70271 333 11100 21150 48007 79999 90933
AAXX 30184 71704 17759 81608 10025 20016 39851 40072 58022 60001 761// 333 10038 20004 70020
AAXX 30184 71710 NIL
AAXX 30184 71712 16/// /0711 11126 21157 30108 40174 56021 60001 333 11126 21203 70000
AAXX 30184 71713 NIL
AAXX 30184 71716 NIL
AAXX 30184 71717 NIL
AAXX 30184 71720 16/// /1306 10063 20011 39853 40004 52030 60001 333 10066 20030 70041
AAXX 30184 71721 NIL
AAXX 30184 71723 16/// /0307 11134 21187 30192 40202 56023 60001 333 11133 21206 70000
AAXX 30184 71724 NIL
AAXX 30184 71732 16/// /1205 11101 21120 60001 333 11101 21188 70000
AAXX 30184 71733 16/// /0708 11116 21129 39676 40124 56015 60001 333 11115 21174 70000
AAXX 30184 71734 16/// /0907 11172 21206 39751 40163 58027 60001 333 11172 21268 70000
AAXX 30184 71736 NIL
AAXX 30184 71737 NIL
AAXX 30184 71741 16/// /0604 10038 21013 39559 49973 51014 60001 333 10058 20013 70000
AAXX 30184 71742 NIL
AAXX 30184 71743 NIL
AAXX 30184 71744 NIL
AAXX 30184 71745 NIL
AAXX 30184 71746 NIL
AAXX 30184 71747 NIL
AAXX 30184 71748 NIL
AAXX 30181 33088 32997 02102 10006 21002 39893 40087 58001 333 10040
AAXX 30181 33177 32597 81801 10014 21014 39843 40083 53001 885// 333 10043
AAXX 30181 33261 11/92 91701 10010 20010 39922 40107 53001 69912 75154 333 10018 96047
AAXX 30181 33275 11195 81703 10000 21005 39888 40115 54000 60032 71074 886// 333 10008 88703
AAXX 30181 33301 32597 71703 10001 21007 39805 40091 54000 84530 333 10041
AAXX 30181 33325 11596 80000 10012 20004 39833 40104 52006 69932 72162 8651/ 333 10026 86625
AAXX 30181 33377 11/92 91801 10016 20016 39911 40107 54000 60032 75165 333 10022 96047
AAXX 30181 33415 32997 31804 11007 21022 39696 40102 52003 83030 333 10026
AAXX 30181 33429 12497 71802 10004 21001 39677 40106 52007 69972 87500 333 10017 87611
AAXX 30181 33466 11441 80000 10010 20005 39914 40104 53003 69962 71062 885// 333 10027 85715
AAXX 30181 33526 11622 50000 11022 21028 39755 40104 52002 69902 71022 82530 333 10050
AAXX 30181 33562 11211 80000 10002 21001 39741 40108 52006 69962 71082 886// 333 10009 88703
AAXX 30181 33614 11437 81603 10026 20021 30005 40111 58003 69912 76165 8872/ 333 10031 88711
AAXX 30181 33761 11396 82202 10029 20027 39882 40107 52006 60022 75165 886// 333 10043
AAXX 30181 33902 11596 81601 10044 20037 30050 40117 52005 60042 71082 885// 333 10052
AAXX 30181 33983 11396 80000 10034 20027 30082 40144 53012 69952 71082 886// 333 10045 88708
AAXX 30181 34415 11496 80000 11008 21018 30047 40146 53002 69942 77172 8772/ 333 10007
AAXX 30181 34523 NIL
AAXX 30181 34712 31/92 90803 11017 21017 30066 40154 54000 74944 333 11016 93405
AAXX 30184 71500 NIL
AAXX 30184 71501 NIL
AAXX 30184 71502 NIL
AAXX 30184 71503 NIL
AAXX 30184 71504 NIL
AAXX 30184 71505 46/// /0000 11296 21336 39224 49974 53010 6///1 333 11157 21301 7////
AAXX 30184 71506 NIL
AAXX 30184 71507 NIL
AAXX 30184 71508 16/// ///// 11010 21010 39970 40109 58012 60001 333 11002 21032 70035
AAXX 30184 71509 NIL
AAXX 30184 71511 NIL
AAXX 30184 71512 16/// /3104 11052 21077 30127 40141 53034 60001 333 11045 21077 70000
AAXX 30184 71513 15966 03513 11055 21100 30092 40108 53044 60001 333 11018 21055 70003
AAXX 30184 71514 NIL
AAXX 30184 71515 NIL
AAXX 30184 71516 16/// /1512 10000 21012 60001 333 10005 21055 70006
AAXX 30184 71517 NIL
AAXX 30184 71518 NIL
AAXX 30184 71519 NIL
AAXX 30184 71520 NIL
AAXX 30184 71521 NIL
AAXX 30184 71522 NIL
AAXX 30184 71523 NIL
AAXX 30184 71524 17/// /0307 11145 21194 30172 40201 57027 60011 7//4/ 333 11145 21253 70010
AAXX 30184 71525 NIL
AAXX 30184 71526 NIL
AAXX 30184 71527 17366 81606 11089 21100 39583 40099 58011 60001 771// 333 11085 21098 70000
AAXX 30184 71528 NIL
AAXX 30184 71529 46/// /0809 11182 21208 39793 40025 50005 6///1 333 11162 21188 7////
AAXX 30184 71532 17366 81206 11069 21073 39762 40114 58011 60001 771// 333 11067 21103 70000
AAXX 30184 71534 16008 81204 11053 21054 39830 40106 58014 60001 333 11053 21068 70015
AAXX 30184 71535 NIL
AAXX 30184 71536 NIL
AAXX 30184 71537 NIL
AAXX 30184 71539 NIL
AAXX 30184 71540 NIL
AAXX 30184 71541 NIL
AAXX 30184 71542 16/// /0000 11160 21176 60001 333 11126 21194 70000
AAXX 30184 71543 NIL
AAXX 30184 71544 NIL
AAXX 30184 71545 17/// ///// 11041 21100 69961 7//4/ 333 11035 21127 70006
AAXX 30184 71546 NIL
AAXX 30184 71547 NIL
AAXX 30184 71548 NIL
AAXX 30184 71549 NIL
AAXX 30184 783388 11578 50716 10280 20221 30150 40159 60031 70182 85801 333 01209 10300 20231 58007 84822 90920
AAXX 30184 71854 11458 82203 11097 21128 39620 40104 56007 69901 77177 885// 333 11094 21124 48017 70002 90993
AAXX 30184 71401 17/// /1807 10007 20001 39346 40026 53017 60011 7//4/ 333 10013 21002 70091
AAXX 30184 71402 NIL
AAXX 30184 71404 NIL
AAXX 30184 71405 NIL
AAXX 30184 71406 NIL
AAXX 30184 71407 NIL
AAXX 30184 71408 NIL
AAXX 30184 71409 NIL
AAXX 30184 71410 15366 81912 11066 21081 39770 40052 58015 60001 333 11064 21082 70000
AAXX 30184 71413 NIL
AAXX 30184 71414 NIL
AAXX 30184 71415 16/// /3018 11042 21087 30162 40165 53019 60001 333 11039 21072 70000
AAXX 30184 71417 NIL
AAXX 30184 71418 NIL
AAXX 30184 71419 46/// /3119 11022 21063 30150 40160 53026 6///1 333 11002 21038 7////
AAXX 30184 71423 NIL
AAXX 30184 71424 46/// /2207 6///1 333 7////
AAXX 30184 71425 16/// /2817 11068 21111 30118 40155 53027 60001 333 11066 21111 70023
AAXX 30184 71426 NIL
AAXX 30184 71427 NIL
AAXX 30184 71428 16/// /2215 11095 21129 30174 40180 53022 60001 333 11083 21104 70000
AAXX 30184 71429 16/// /2703 11030 21074 30117 40137 53033 60001 333 11026 21120 70000
AAXX 30184 71434 NIL
AAXX 30184 71436 15262 80705 11081 21086 39886 40127 5/012 60001 333 70000
AAXX 30184 71437 46/// /3305 10007 21006 30003 40098 58010 6///1 333 10031 21015 7////
AAXX 30184 71438 NIL
AAXX 30184 71439 NIL
AAXX 30184 71440 NIL
AAXX 30184 71442 NIL
AAXX 30184 71445 NIL
AAXX 30184 71446 NIL
AAXX 30184 71448 NIL
AAXX 30184 71449 16/// /1304 11072 21089 39681 40092 58007 60001 333 11072 21134 70000
AAXX 30184 71726 17/// /0801 11155 21201 39624 40200 57019 60031 7//4/ 333 11152 21362 70033
AAXX 30184 71727 12982 00000 11187 21230 30024 40233 58007 60001 333 11178 21231 70000
AAXX 30184 71728 12986 01403 11216 21268 39997 40223 57009 60001 333 11211 21290 70000
AAXX 30184 71730 11474 80910 11116 21125 39683 40122 58016 69901 77177 885// 333 11115 21177 48013 70002 90983
AAXX 30184 71731 11448 81115 11119 21147 39659 40125 58010 69921 77177 885// 333 11117 21163 48016 70004 90983
AAXX 30184 71735 NIL
AAXX 30184 71738 11669 80203 11062 21085 39734 40093 58011 69941 77177 885// 333 11062 21114 47029 70062 90973 93101
AAXX 30184 71739 41432 81007 11150 21191 39756 40137 58024 6//// 77122 885// 333 11149 21249 4//// 7//// 90931
AAXX 30184 71749 16464 83102 11034 21054 39843 40091 58002 60001 333 11034 21053 70000
AAXX 30184 71799 11483 42114 10061 20036 30020 40044 53034 69961 78081 83870 333 10095 20055 70088 90917
AAXX 30184 71800 16/// /2731 11021 21040 30041 40074 53022 60001 333 10030 21024 70011
AAXX 30184 71801 11674 72729 11020 21070 39868 40041 53029 69901 72682 87500 333 10002 21025 41001 70004 90927
AAXX 30184 71803 11474 72617 11028 21068 39834 40021 53039 69901 72682 86570 333 11025 21062 41003 70002 90936
AAXX 30184 71807 NIL
AAXX 30184 71808 12674 83316 11040 21091 39983 40030 53066 60001 8251/ 333 11015 21044 70040
AAXX 30184 71809 11474 82807 11010 21049 30022 40049 53055 69921 70388 885// 333 11004 21057 42001 70028 90923
AAXX 30184 71810 16/// /3505 11055 21094 30065 40133 52031 60001 333 11046 21079 70028
AAXX 30184 71811 NIL
AAXX 30184 71813 16/// /3412 11055 21098 30089 40103 53043 60001 333 11020 21055 70006
AAXX 30184 71814 16/// /3414 11036 21082 30065 40075 53054 60001 333 11013 21048 70006
AAXX 30184 71815 11469 83212 11003 21042 30042 40073 53060 60011 78583 885// 333 11002 21057 46005 70052 90983 93101
AAXX 30184 71603 12874 62706 10000 21076 30149 40203 53002 60001 85071 333 10009 21016 70000
AAXX 30184 71607 16/// /2604 11024 21153 30161 40194 56003 60001 333 11023 21123 70000 555 10010
AAXX 30184 71609 12974 12908 11043 21148 30052 40190 53005 60001 80001 333 11039 21108 70000
AAXX 30184 71610 15766 80503 11078 21180 39878 40185 56024 60001 333 11078 21201 70000
AAXX 30184 71621 11364 80308 11082 21098 30022 40131 57012 69961 70275 887// 333 11080 21095 47002 70021 90939
AAXX 30184 71623 NIL
AAXX 30184 71624 11132 80604 11012 21017 39892 40106 57012 69901 71075 886// 333 11006 21040 43002 70026 90953
AAXX 30184 71625 17533 81102 11129 21157 39996 40165 58020 60001 745// 333 11129 21239 70000
AAXX 30184 71627 11674 80312 11136 21187 30137 40184 57023 69901 77172 885// 333 11136 21174 47004 79999 90921
AAXX 30184 71628 11560 80610 11139 21173 30018 40166 58017 69941 77177 88500 333 11139 21214 4-3013 70004 909/7
AAXX 30184 71630 NIL
AAXX 30184 71631 17/// /1604 10001 21004 39582 40084 58013 60041 7//4/ 333 10001 21056 70045
AAXX 30184 71633 NIL
AAXX 30184 71705 12974 02612 11059 21143 30085 40175 53015 60001 333 11052 21112 70000
AAXX 30184 71706 11574 32809 11069 21125 30114 40176 53022 69901 70281 83500 333 11066 21095 42001 79999 90922
AAXX 30184 71707 11574 62720 11053 21112 30070 40148 53022 69921 70288 86500 333 11035 21068 45997 70002 90933
AAXX 30184 71709 11580 72819 11028 21059 30122 40136 53031 69901 70288 87500 333 11027 21088 46001 70024 90949
AAXX 30184 71711 NIL
AAXX 30184 71714 16/// /2603 11138 21202 30124 40221 58019 60001 333 11136 21273 70000
AAXX 30184 71715 16/// /2004 11121 21154 30014 40203 53004 60001 333 11116 21164 70000
AAXX 30184 71718 12583 62510 11119 21149 30131 40199 53012 60001 86500 333 11119 21142 70028
AAXX 30184 71719 16/// /2613 11047 21101 30146 40152 53024 60001 333 11046 21116 70000
AAXX 30184 71950 17356 83503 11040 21041 39294 49917 53024 60001 771// 333 11030 21047 70005
AAXX 30184 71952 16/// /0000 11046 21051 39067 49907 53016 60001 333 11034 21101 70017 555 10020
AAXX 30184 71954 46/// /1903 11080 21087 39644 40024 58006 6///1 333 11080 21156 7////
AAXX 30184 71956 NIL
AAXX 30184 71959 NIL
AAXX 30184 71960 460// /1012 11231 39916 40053 53010 6///1 333 11222 21272 7////
AAXX 30184 71962 16/// /1004 11077 21093 39667 40097 58004 60001 333 11076 21087 70000
AAXX 30184 71963 NIL
AAXX 30184 71967 16/// /0208 11121 21163 30093 40204 56023 60001 333 11119 21231 70000
AAXX 30184 71970 NIL
AAXX 30184 71971 NIL
AAXX 30184 71972 460// ///// 11168 39625 40102 55000 6///1 333 11168 21195 7////
AAXX 30184 71973 46/// /3008 11020 21040 39872 40061 53057 6///1 333 11014 21070 7////
AAXX 30184 71974 NIL
AAXX 30184 71975 460// /2820 11229 39302 40051 56014 6///1 333 11216 21238 7////
AAXX 30184 71976 NIL
AAXX 30184 71977 NIL
AAXX 30184 71978 NIL
AAXX 30184 71979 NIL
AAXX 30184 71980 46/// /0000 11359 21401 6///1 333 11287 21360 7////
AAXX 30184 71981 NIL
AAXX 30184 71982 NIL
AAXX 30184 71983 NIL
AAXX 30184 71984 NIL
AAXX 30184 71985 NIL
AAXX 30184 71986 NIL
AAXX 30184 71987 16/// /2715 11067 21098 30152 40162 53028 60001 333 11067 21089 70000
AAXX 30184 71988 NIL
AAXX 30184 71989 NIL
AAXX 30184 71990 NIL
AAXX 30184 71999 46/// ///// 10032 6///1 333 10047 20008 7////
AAXX 30184 71350 16/// /2708 11066 21126 30101 40168 53023 60001 333 11062 21099 70000 555 10010
AAXX 30184 71351 NIL
AAXX 30184 71352 17/// /1205 11005 21007 39634 40091 58013 60011 7//4/ 333 11005 21052 70036
AAXX 30184 71353 NIL
AAXX 30184 71354 NIL
AAXX 30184 71355 16/// /2801 11335 21370 39979 40068 58022 60001 333 11304 21384 70000
AAXX 30184 71356 NIL
AAXX 30184 71357 NIL
AAXX 30184 71358 17/// /2505 11312 21345 30042 40079 56012 60011 7//4/ 333 11282 21347 70070
AAXX 30184 71359 NIL
AAXX 30184 71360 NIL
AAXX 30184 71361 NIL
AAXX 30184 71362 NIL
AAXX 30184 71363 NIL
AAXX 30184 71364 NIL
AAXX 30184 71365 NIL
AAXX 30184 71368 17/04 /1007 10004 20001 39702 40092 58013 60001 730// 333 10004 21038 70013
AAXX 30184 71369 17566 81209 11059 21099 39248 49947 58016 60001 771// 333 11014 21081 70010
AAXX 30184 71370 46/// /0302 11133 21193 30052 40195 56021 6///1 333 11133 21246 7////
AAXX 30184 71371 16566 80212 11130 30150 40186 56022 60001 333 11130 21186 70000
AAXX 30184 71372 16/// /0404 11121 21154 60001 333 11120 21182 70000
AAXX 30184 71373 NIL
AAXX 30184 71374 NIL
AAXX 30184 71375 NIL
AAXX 30184 71376 NIL
AAXX 30184 71377 16/// /0509 11139 21180 30129 40180 57022 60001 333 11138 21195 70000
AAXX 30184 71378 16/// /3405 11191 21248 39995 40218 58020 60001 333 11191 21327 70000
AAXX 30184 71379 16/// /0904 11211 21272 30032 40214 56011 60001 333 11209 21314 70000
AAXX 30184 71380 NIL
AAXX 30184 71381 NIL
AAXX 30184 71382 NIL
AAXX 30184 71383 NIL
AAXX 30184 71384 16/// /2405 11124 21173 30196 40204 58014 60001 333 11123 21200 70000
AAXX 30184 71385 NIL
AAXX 30184 71386 NIL
AAXX 30184 71387 NIL
AAXX 30184 71388 46/// /0902 11194 21247 30031 40230 58007 6///1 333 11194 21248 7////
AAXX 30184 71389 46/// /1803 11122 21194 6///1 333 11101 21269 7////
AAXX 30184 71390 46/// /3306 11068 6///1 333 11053 21092 7////
AAXX 30184 71391 16/// ///// 11130 21160 60001 333 11129 21230 70000
AAXX 30184 71392 16/// /1904 11136 21174 60001 333 11133 21201 70000
AAXX 30184 71393 NIL
AAXX 30184 71395 12574 22709 10002 21105 39991 40173 53009 60001 81501 333 10003 21058 70000
AAXX 30184 71398 15966 00706 11210 21229 30169 40181 58021 60001 333 11210 21297 70000
AAXX 30184 71399 NIL
AAXX 30184 71201 17/// ///// 10079 20023 69921 7//4/ 333 10080 20053 70052
AAXX 30184 71202 16/// ///// 11022 21044 60001 333 11022 21101 7////
AAXX 30184 71203 15966 11703 10024 20014 39498 40012 51014 69931 333 10027 21002 70023
AAXX 30184 71209 46/// /1908 10081 6///1 333 10092 20045 7////
AAXX 30184 71211 46/// /2023 10074 20021 30002 40014 53021 6///1 333 10078 20034 7////
AAXX 30184 71212 16/// /0000 11060 21135 39341 40175 57005 60001 333 11059 21275 70000
AAXX 30184 71213 46/// /1007 11149 21174 39833 40149 58027 6///1 333 11148 21275 7////
AAXX 30184 71214 NIL
AAXX 30184 71215 46/// /2006 10043 20023 39683 40023 51022 6///1 333 10046 20019 7////
AAXX 30184 71216 17/// /1403 10019 20013 39392 40001 53011 60021 7//4/ 333 10033 20002 70053
AAXX 30184 71217 NIL
AAXX 30184 71218 16/// /1002 10001 21002 39570 49993 53012 60001 333 10030 21008 70041
AAXX 30184 71219 46/// /3224 10018 21041 39972 49978 53066 6///1 333 10020 20000 7////
AAXX 30184 71220 46/// /3126 10023 21037 6///1 333 10024 20004 7////
AAXX 30184 71221 NIL
AAXX 30184 71222 16/// /0603 11193 21212 39006 49993 53010 60001 333 11155 21210 70000
AAXX 30184 71223 NIL
AAXX 30184 71224 NIL
AAXX 30184 71225 NIL
AAXX 30184 71226 NIL
AAXX 30184 71227 NIL
AAXX 30184 71228 NIL
AAXX 30184 71229 NIL
AAXX 30184 71230 16/// /3602 11057 21085 39037 49923 50000 60001 333 11047 21094 70000
AAXX 30184 71231 16/// /2015 10054 21017 60001 333 10055 21028 70000
AAXX 30184 71232 16/// /2403 10004 21041 38465 49932 50005 60001 333 10020 21013 70000
AAXX 30184 71233 NIL
AAXX 30184 71234 16/// /2210 10047 21013 38784 49946 53005 60001 333 10049 21024 70000
AAXX 30184 71235 16/// /2613 10026 21060 60001 333 10029 21023 70000
AAXX 30184 71236 46/// /2814 10039 21046 6///1 333 10039 21017 7////
AAXX 30184 71237 46/// /0302 10036 21024 39108 49911 56019 6///1 333 10037 21064 7////
AAXX 30184 71238 16/// /1408 11044 21087 60001 333 11043 21145 70000
AAXX 30184 71239 16/// /2204 11060 21080 39622 40092 58006 60001 333 11060 21099 70044 555 10060
AAXX 30184 71240 17/// ///// 11012 21033 39107 49947 58037 69991 7//4/ 333 11011 21118 70037
AAXX 30184 71241 NIL
AAXX 30184 71242 16/// /2103 11044 21064 60001 333 11029 21095 70000
AAXX 30184 71243 NIL
AAXX 30184 71244 16/// /2316 10066 21001 38761 49959 58009 60001 333 10068 21009 70000
AAXX 30184 71245 NIL
AAXX 30184 71246 NIL
AAXX 30184 71247 15966 32119 10067 21017 39106 49944 58027 60001 333 10067 21034 70000
AAXX 30184 71248 16/// /2513 10043 21097 38634 49911 55005 60001 333 10043 21069 70000
AAXX 30184 71249 NIL
AAXX 30184 71250 16/// /2618 11019 21067 39902 40038 53025 60001 333 10008 21021 70000
AAXX 30184 71251 16/// /1804 10044 21021 39040 49947 56017 60001 333 10044 21022 70000
AAXX 30184 71252 NIL
AAXX 30184 71253 46/// /0601 11200 21212 6///1 333 11135 21225 7//// 555 10070
AAXX 30184 71254 16/// /1408 11037 21049 60001 333 11036 21134 70000
AAXX 30184 71255 16/// /2401 11072 21106 60001 333 11017 21078 70000
AAXX 30184 71256 46/// /1303 11065 21105 39000 49932 58014 6///1 333 11065 21102 7////
AAXX 30184 71257 NIL
AAXX 30184 71258 NIL
AAXX 30184 71259 NIL
AAXX 30184 71261 16/// /1506 10032 20005 39811 40071 58015 60001 333 10033 21022 70004
AAXX 30184 71263 NIL
AAXX 30184 71264 16/// /2608 10014 21092 30145 40177 53005 60001 333 10015 21040 70000
AAXX 30184 71265 17128 80615 11009 21013 30011 40106 58011 60001 710// 333 10002 21029 70025
AAXX 30184 71266 NIL
AAXX 30184 71267 15966 02218 10080 21005 38888 49957 58009 60001 333 10081 21010 70000
AAXX 30184 71268 NIL
AAXX 30184 71269 NIL
AAXX 30184 71270 NIL
AAXX 30184 71271 16/// ///// 11064 21107 60001 333 11031 21099 70000
AAXX 30184 71272 15466 81808 11081 21092 39629 49984 58008 60001 333 11081 21138 70000
AAXX 30184 71273 16/// /0804 11085 21113 39321 49980 56020 60001 333 11019 21170 70009
AAXX 30184 71274 NIL
AAXX 30184 71275 NIL
AAXX 30184 71276 NIL
AAXX 30184 71277 NIL
AAXX 30184 71278 NIL
AAXX 30184 71279 16/// /3406 11076 21140 30091 40158 53023 60001 333 11067 21105 70000
AAXX 30184 71281 NIL
AAXX 30184 71282 46/// /1107 11072 21072 39842 40118 58013 6///1 333 11072 21096 7////
AAXX 30184 71283 NIL
AAXX 30184 71284 16/// ///// 11045 21088 60001 333 11041 21103 70000
AAXX 30184 71285 NIL
AAXX 30184 71286 NIL
AAXX 30184 71287 NIL
AAXX 30184 71288 NIL
AAXX 30184 71289 NIL
AAXX 30184 71290 17524 83604 11060 21070 39110 49939 51016 60001 771// 333 11053 21101 70000
AAXX 30184 71291 16/// /3506 11057 21071 39803 40099 50001 60001 333 11054 21082 70012 555 10030
AAXX 30184 71292 16136 82012 11042 39448 40059 58007 60001 333 11032 21073 70000
AAXX 30184 71294 NIL
AAXX 30184 71295 NIL
AAXX 30184 71296 NIL
AAXX 30184 71297 16/// /1202 10010 20008 60001 333 10016 21018 70017
AAXX 30184 71298 17/// /1506 10043 20034 39824 40053 58033 69951 7//4/ 333 10048 20011 70005
AAXX 30184 71299 NIL
AAXX 30184 71123 11874 71407 11050 21086 39065 49930 56016 60001 71422 87070 333 11039 21143 70000
AAXX 30184 71395 12574 22709 10002 21105 39991 40173 53009 60001 81501 333 10003 21059 70000
AAXX 30184 71812 46564 80903 11143 21162 30026 40040 58005 6///1 333 11142 21193 7////
AAXX 30184 71819 17528 83420 11034 21070 39965 40006 53065 60001 771// 333 11009 21048 70021
AAXX 30184 71820 16/// /0409 11093 21109 30016 40134 56012 60001 333 11092 21115 70000 555 10010
AAXX 30184 71823 16564 80302 11200 21240 39820 40224 57003 60001 333 11197 21273 70000
AAXX 30184 71824 46/// /0201 11217 21255 6///1 333 11217 21350 7////
AAXX 30184 71826 16/// /0000 11277 21320 30055 40101 56008 60001 333 11261 21283 70000
AAXX 30184 71829 16/// /2808 11099 21163 30011 40178 52018 60001 333 11099 21151 70003
AAXX 30184 71833 46/// /1203 11005 21005 6///1 333 11003 21046 7////
AAXX 30184 71835 16/// /1502 11121 21132 39614 40106 58004 60001 333 11121 21143 70000
AAXX 30184 71837 NIL
AAXX 30184 71839 NIL
AAXX 30184 71840 46/// /1403 11059 21062 6///1 333 11059 21112 7////
AAXX 30184 71846 16/// /1602 11165 21190 39798 40128 58009 60001 333 11164 21243 70000
AAXX 30184 71847 NIL
AAXX 30184 71848 NIL
AAXX 30184 71849 16/// /1607 11075 21101 39795 40100 58003 60001 333 11075 21130 70000
AAXX 30184 71900 46/// /29// 11102 21126 30067 40080 53036 6///1 333 11042 21103 7////
AAXX 30184 71903 NIL
AAXX 30184 71904 NIL
AAXX 30184 71914 17/// /3103 10050 20018 39821 40040 53029 69941 7//4/ 333 10067 20042 70037
AAXX 30184 71916 NIL
AAXX 30184 71918 460// ///// 11264 6///1 333 7////
AAXX 30184 71920 NIL
AAXX 30184 71921 NIL
AAXX 30184 71923 NIL
AAXX 30184 71927 17/// /2104 10067 20019 39976 40033 53024 60011 7//4/ 333 10069 20034 70121
AAXX 30184 71941 15866 10804 11166 21199 39740 40182 58019 60001 333 11166 21301 70000
AAXX 30184 71947 15966 01407 11189 21226 39827 40197 56023 60001 333 11189 21337 70000
AAXX 30184 71851 16/// /1802 11060 21062 39752 40092 58006 60001 333 11060 21101 70000
AAXX 30184 71857 NIL
AAXX 30184 71860 11783 22720 10025 21068 38561 49935 53005 60001 71511 81571 333 10029 21048 70000
AAXX 30184 71876 15766 81012 11057 21062 39330 40000 58033 60001 333 11051 21137 70000
AAXX 30184 71885 NIL
AAXX 30184 71886 NIL
AAXX 30184 71888 NIL
AAXX 30184 71890 16/// /0606 11095 21165 30155 40183 53014 60001 333 11094 21162 70000
AAXX 30184 71895 NIL
AAXX 30184 71701 12974 12806 11048 21152 30127 40191 52005 60001 81070 333 11048 21115 70000
AAXX 30184 06011 47458 71317 10045 20023 39898 49966 76165 333 55300 20000 81/13 83/16 85/21 87/26 91027 91128
AAXX 30181 33924 11597 81801 10061 20045 30115 40127 52002 60032 70262 885// 333 10080
AAXX 30181 33791 11/02 91903 10034 20034 39965 40117 51002 60042 74742 333 10034
AAXX 30181 13168 32697 71102 10018 20013 30017 40126 53009 87500 333 10046
AAXX 30181 13174 31696 81103 10020 20003 30021 40124 52008 71022 885// 333 10037
AAXX 30181 13269 11595 80000 10020 20015 39903 40121 52012 60042 76166 8802/ 333 10049
AAXX 30181 13274 31896 81402 10031 20012 39957 40121 50006 71022 8802/ 333 10046
AAXX 30181 13278 11696 81401 10029 21008 39893 40122 56001 69972 76062 885// 333 10055
AAXX 30181 13378 11/93 92001 11042 21048 38166 48388 56003 69932 77174 333 11035 4/009 93197
AAXX 30181 13397 32698 51203 11012 21025 39579 40131 54000 80006 333 10040
AAXX 30181 13457 11670 80000 10056 20046 30089 40096 56005 69982 76022 8352/ 333 10081 83640 88459
AAXX 30181 13481 NIL
AAXX 30184 17022 12960 42501 10060 20025 39982 40151 53002 60002 82038 333 10081 82360 84270 91106 92427
AAXX 30184 17031 12970 51306 10033 20012 30154 40161 57004 60002 82031 333 10133 82360 85070
AAXX 30184 17038 11656 32004 10075 20046 30127 40179 52002 60002 71000 82130 333 10104 82835 83360 92426
AAXX 30184 17050 12670 70201 10059 20047 30063 40127 53002 60002 85520 333 10064 85635 87460 91108
AAXX 30184 17060 12660 61504 10082 20028 30100 40141 56002 60002 83130 333 10083 83835 85360
AAXX 30184 17096 12970 02304 11171 21171 38260 48543 55000 60002 333 11026
AAXX 30184 17124 11657 60807 11018 21042 39239 40191 52002 60002 71011 83530 333 10006 83635 85360
AAXX 30184 17128 12670 73002 11016 21034 39069 40211 53003 60002 84550 333 10001 84640 86360
AAXX 30184 17170 NIL
AAXX 30184 17195 11960 40000 11032 21049 38953 48459 55001 60002 71011 80001 333 10054 84070
AAXX 30184 17199 12670 60000 10022 21022 39114 40245 56002 60002 83550 333 10054 83635 86360
AAXX 30184 17219 11556 49902 10060 20043 39980 40126 54000 60002 71011 82130 333 10130 82830 84360
AAXX 30184 17240 11560 71604 10029 21002 39004 40178 53004 69982 76022 85550 333 10049 85630 87360 91112
AAXX 30184 17244 11629 63003 11013 21031 38967 48452 57002 60002 71022 84550 333 10029 84635 86359
AAXX 30184 17280 12960 02504 11002 21025 39432 40257 50006 60002 333 10087
AAXX 30184 17350 12960 50408 10101 20008 30088 40167 53006 60002 85040 333 10170 85360
AAXX 30184 64500 32460 52008 10274 20240 30099 40112 83230 333 10290 58001 83811 85360 94916 95836
AAXX 30184 64501 32360 82004 10260 20239 3//// 4//// 885// 333 10280 5//// 83608 88626
AAXX 30184 64550 32458 8//// 10250 20231 30/// 40/// 885// 333 10280 5//// 84611 88616
AAXX 30184 64551 32460 70000 10260 20238 30088 40117 8353/ 333 10276 59003 83610 87360
AAXX 30184 64570 32460 80000 10250 20236 39620 40127 8457// 333 10266 58006 84611 88360
AAXX 30184 08055 NIL
AAXX 30184 08075 12675 32305 10030 21006 39286 48604 54000 60002 81571 333 10058
AAXX 30184 08084 02670 52605 10085 20012 39888 40331 57007 60002 82550 333 10105 60007
AAXX 30184 08171 12885 12608 10089 20033 30038 40282 53001 60002 81040 333 10144
AAXX 30184 08184 02670 30000 10089 20011 30078 40236 53005 60002 81540 333 10151 60007
AAXX 30184 08202 02970 10000 10040 21025 39404 42928 55002 60002 80001 333 10106 60007
AAXX 30184 08235 NIL
AAXX 30184 08238 12670 43309 10128 20028 30200 40261 55003 60002 81450 333 10155
AAXX 30184 08280 12980 02811 10068 21043 39481 40323 52006 60002 333 10106
AAXX 30184 08330 12980 02104 10089 21024 30106 40343 57001 60002 333 10140
AAXX 30184 08348 12965 02102 10075 20026 39588 40343 53002 60002 333 10118
AAXX 30184 08360 02980 02401 10108 20011 30254 40292 53010 60002 333 10170 60007
AAXX 30184 08373 02570 12905 10091 20045 30258 40280 58003 60002 81100 333 10151 60007
AAXX 30184 08410 02980 10701 10092 20023 30219 40333 53004 60002 80001 333 10159 60007
AAXX 30184 08419 02980 00000 10073 21014 39642 40329 53007 60002 333 10136 60007
AAXX 30184 08451 02980 03606 10104 20030 30293 40327 55000 60002 333 10170 60007
AAXX 30184 08487 02481 12509 10131 20092 30274 40300 55001 60002 81600 333 10160 60007
AAXX 30184 17042 12970 00903 10050 20041 30143 40184 52004 60002 333 10104 92428
AAXX 30184 17074 12965 02201 11036 21048 39228 40208 52007 60002 333 10020 91105
AAXX 30184 17086 12665 63102 10034 21041 39451 40193 52005 60002 84530 333 10058 84635 86360
AAXX 30184 17088 12970 01304 10036 21142 38802 48498 52009 60002 333 10072
AAXX 30184 17140 12665 60402 10013 21086 38677 48462 50000 60002 86200 333 10045 86840
AAXX 30184 17155 11650 30301 10006 21009 39024 40180 53002 60002 71011 83500 333 10058 83640 91109
AAXX 30184 17203 12970 00000 11033 21078 38929 48564 51009 60002 333 10053
AAXX 30184 17237 11660 82701 10073 20062 39632 40143 56003 60022 76062 8552/ 333 10109 85633 88459 91103
AAXX 30184 17250 12975 00405 11008 21045 38780 48465 57004 60002 333 10087
AAXX 30184 17270 12670 51103 10066 21016 39567 40230 51001 60002 83250 333 10110 83840 85360
AAXX 30184 17295 11558 73510 10086 20070 30130 40137 57005 60572 78098 85970 333 10118 81920 84825 87358
AAXX 30184 17320 12670 50204 10129 20013 30148 40153 53003 60002 83250 333 10157 83840 85360 92448
AAXX 30184 17375 11556 70105 10092 20091 30152 40154 51004 60222 78088 84270 333 10125 84830 87358 91111 92436
AAXX 30184 17500 NIL
AAXX 30184 17501 12560 50806 10131 20064 30121 40140 57003 60002 85100 333 10163 85830 92427
AAXX 30184 17505 12560 50806 10119 20051 30039 40153 58004 60002 85100 333 10156 85830
AAXX 30184 17507 NIL
AAXX 30184 17510 12560 51304 10131 20062 30122 40132 57005 60002 84230 333 10156 84830 92437
AAXX 30184 17515 12560 40504 10104 20042 39990 40167 57004 60002 84100 333 10163 84830
AAXX 30184 17521 12560 20905 10087 20045 30007 40145 57003 60002 82100 333 10164 82825
AAXX 30184 17530 12560 40404 10090 20051 30103 40161 55002 60002 84100 333 10168 84830
AAXX 30184 17535 12560 40204 10110 20059 30103 40139 55004 60002 84100 333 10162 84830
AAXX 30184 17540 NIL
AAXX 30184 17547 NIL
AAXX 30184 17550 12560 40706 10110 20060 30004 40151 55001 60002 84100 333 10148 84830 92427
AAXX 30184 17572 12560 5//// 10140 20072 30134 40159 57005 60002 84230 333 10157 84830 92437
AAXX 30184 65001 31935 70000 10280 20137 3//// 4//// 70522 80008 333 10345 5//// 87280
AAXX 30184 65046 31957 70308 10251 20096 39959 40135 70522 80008 333 10313 58005 86280
AAXX 30184 65208 31940 70902 10310 20169 39848 40100 70522 80008 333 10341 59012 87280
AAXX 30184 65215 32365 70000 10299 3//// 4//// 80008 333 10346 87280
AAXX 30184 65252 32960 72304 10300 20243 39966 40099 80008 333 10334 58002 87280
AAXX 30184 17026 12970 21503 10089 20020 30115 40154 56004 60002 80002 333 10108 82070 91106 92428
AAXX 30184 17034 12670 61201 10080 20047 30135 40182 53002 60002 82130 333 10105 82835 86360 92428
AAXX 30184 17070 12965 02902 10034 21013 39281 40179 53005 60002 333 10061 91112
AAXX 30184 17084 12970 03302 11031 21053 39269 40215 52003 60002 333 10030
AAXX 30184 17090 12965 81003 10020 21058 38720 48488 51001 60002 80007 333 10057 88270
AAXX 30184 17098 11914 00000 11210 21210 38230 48557 58004 60002 71000 333 11109
AAXX 30184 17150 11640 50000 10018 20011 30011 40139 56003 60002 71011 83130 333 10080 83835 84360
AAXX 30184 17160 12670 33501 11016 21063 39001 48457 55001 60002 83500 333 10063 83640 91104
AAXX 30184 17184 12970 33101 10039 20024 30024 40139 55001 60002 83030 333 10095 83360 91103
AAXX 30184 17189 11640 61302 11002 21012 38988 48444 55001 60002 71022 84550 333 10026 84635 86360
AAXX 30184 17210 12970 30201 10046 21026 39193 40253 52008 60002 80001 333 10115 83070
AAXX 30184 17234 12670 60902 10098 20051 30064 40133 54000 60002 83250 333 10119 83840 86360 91106
AAXX 30184 17260 12660 60505 10060 21004 39382 40220 50000 60002 83550 333 10089 83640 86360
AAXX 30184 17290 11570 70905 10104 20085 30099 40131 51001 60092 78082 84270 333 10158 84830 87358 91114 92428
AAXX 30184 17370 12965 03005 10154 21006 30152 40156 56006 60002 333 10169 92437
AAXX 30184 65306 32960 50000 10255 20059 39787 40121 80002 333 10334 59003 85076
AAXX 30184 65319 32958 50000 10291 20053 39606 40119 80002 333 10350 58003 85076
AAXX 30184 65330 31930 53602 10295 20088 39667 40105 70522 80002 333 10346 59001 85076
AAXX 30184 65335 32958 50404 10315 20112 39875 40098 80002 333 10362 59025 85076
AAXX 30184 65344 32458 62006 10285 20250 30089 40100 81502 333 10310 59005 81612 85076
AAXX 30181 13173 31695 81102 10021 20004 30021 40123 52005 71022 885// 333 10035
AAXX 30181 13180 32697 80202 10003 20000 30012 40125 51008 885// 333 10033
AAXX 30181 13266 11996 80701 10018 20008 30020 40123 51009 69972 71062 8801/ 333 10037
AAXX 30181 13369 32598 81101 10003 21019 38892 48374 53002 885// 333 10035 4/009
AAXX 30181 13383 32997 83501 10032 21009 39909 40115 53005 8807/ 333 10056
AAXX 30181 13384 11596 81401 10027 20006 39970 40124 53007 69972 76162 887// 333 10055
AAXX 30181 13389 32698 71001 10000 21040 39832 40120 56001 82536 333 10035
AAXX 30181 13477 NIL
AAXX 30184 40250 32960 62004 10120 21013 39370 40165 52003 86070 333 10174 83358 84360
AAXX 30184 40260 32960 01610 10116 21023 39390 40181 57010 333 10140
AAXX 30184 40265 32960 40000 10090 21019 39388 40198 52014 84030 333 10120 84360
AAXX 30184 40296 11660 70000 10144 20124 40165 54001 60042 76062 8782/ 333 10184 82830 85630 84460
AAXX 30184 40310 12560 40000 10100 20078 38961 48505 54001 69942 84200 333 10190 84830
AAXX 30181 15501 12970 00000 10015 20001 30073 40118 54000 60002 333 10063 21007 555 591//
AAXX 30181 15505 12970 21102 10002 21018 39733 40114 57006 60002 80005 333 10042 21042 42001 555 579//
AAXX 30181 15511 12968 00000 10018 21013 30087 40127 57001 60002 333 10071 20016 555 580//
AAXX 30181 15514 12968 21803 10026 21010 30072 40108 57001 60002 80002 333 10050 20012 555 577//
AAXX 30181 15530 11959 70000 11001 21010 39884 40128 58005 60002 71022 83046 333 10056 21030 42001 555 594//
AAXX 30181 15533 12970 80000 10010 21007 30057 40090 54000 60002 80007 333 10040 21010 555 589//
AAXX 30181 15550 11940 00000 10018 21004 30092 40112 53002 60002 71011 333 10040 20018 555 585//
AAXX 30181 15561 12970 02502 10002 21019 30114 40122 52002 60002 222// 00078 2//00 333 10060 21006 555 586// 92013 92418
AAXX 30181 15562 12965 02302 10050 20015 30049 40122 57002 60002 222// 2//00 333 10053 20027 555 578// 92012 92417
AAXX 30181 15600 11988 42314 11063 21094 38209 48421 54000 60002 70222 84051 333 11063 21065 47006 555 578//
AAXX 30181 15601 11/05 90000 11050 21056 39494 40139 53003 69902 74544 333 11046 21080 555 595//
AAXX 30181 15605 12968 50000 11052 21055 39262 40137 54000 60002 81041 333 10024 21054 44004 555 597//
AAXX 30181 15613 11989 22310 11092 21108 37614 47945 58001 60002 70122 82040 333 11088 21096 48045 555 591//
AAXX 30181 15628 11956 20000 11044 21064 39867 40135 53004 60002 71011 82030 333 10021 21056 42006 555 586//
AAXX 30181 15642 12680 50000 10038 20028 39945 40115 57005 60002 83502 333 10072 20026 555 593//
AAXX 30181 15661 12570 81802 10056 20016 30083 40119 57004 60002 885// 222// 20000 333 10076 20022 555 575// 92012 92418
AAXX 30181 15726 11472 72101 11025 21047 38170 48436 54000 60002 70222 86506 333 10033 21035 44031 555 585//
AAXX 30184 17024 3//// /1711 10038 20005 30074 40154 56001 60002 333 10108
AAXX 30184 17056 12970 41707 10085 20084 30126 40130 57004 60002 84030 333 10087 84360 91113 92428
AAXX 30184 17067 12670 62002 10050 20001 30124 40147 53004 60002 86200 333 10088 86840 91105 92408
AAXX 30184 17092 12960 01311 10031 21103 38878 48499 52003 60002 333 10095
AAXX 30184 17112 12970 20501 10071 20043 30122 40124 56003 60002 82030 333 10098 82360 91106 92408
AAXX 30184 17115 12660 50000 10007 21003 30083 40136 55000 60002 83230 333 10079 83835 85360
AAXX 30184 17116 12660 60602 10041 21007 30022 40147 57002 60002 83250 333 10087 83835 86360 91107
AAXX 30184 17188 12660 50802 10051 20014 39074 40147 55002 60002 83530 333 10076 83637 85360 91106
AAXX 30184 17202 12960 02604 11028 21036 39201 40274 52008 60002 333 10077
AAXX 30184 17248 12970 01001 11008 21034 38953 48451 55003 60002 333 10076
AAXX 30184 17292 11660 70000 10045 20044 39377 40140 57006 60052 78082 85270 333 10093 85835 87359 91111
AAXX 30184 17300 11460 72808 10087 20065 30081 40153 52005 60062 78088 87900 333 10102 81915 86830
AAXX 30184 17310 12670 60701 10133 20037 30143 40150 50001 60002 83250 333 10167 83835 86360 91110 92428
AAXX 30184 17330 12970 03003 10108 20006 30145 40163 53001 60002 333 10168
AAXX 30181 01092 46/// /0806 11021 21061 333 11016 91111
AAXX 30181 01199 11572 80106 11076 21091 39505 49980 53008 60002 70232 885// 333 11068 91109
AAXX 30181 01262 46/// /3513 10036 21056 333 10039 91121
AAXX 30181 01329 11685 12802 10005 21036 30017 40079 51009 60002 70210 81105 333 10029 91107
AAXX 30181 01337 16/// /0801 11023 21033 30020 40088 51015 60002 333 10000 91103
AAXX 30181 01393 16/// /3102 11055 21075 39221 40037 51020 6//// 333 11031 91106
AAXX 30181 01436 11685 23203 10028 21019 60002 70210 81101 333 10055 91109
AAXX 30181 01046 11889 81701 11048 21081 39999 40006 52015 60002 70222 8801/ 333 11019 91103
AAXX 30181 01144 41770 83005 11002 21008 77072 8472/ 333 10017 91114
AAXX 30181 01471 11989 02401 11053 21082 60002 70100 333 10007 91111
AAXX 30184 71129 11472 71310 11009 21035 39127 49948 58044 69901 77162 87500 333 11009 21060 42997 70036 90910
AAXX 30184 71603 12874 62706 10000 21076 30149 40203 53002 60001 85071 333 10009 21016 70000
AAXX 30184 71607 16/// /2604 11024 21153 30161 40194 56003 60001 333 11023 21123 70000 555 10010
AAXX 30184 71609 12974 12908 11043 21148 30052 40190 53005 60001 80001 333 11039 21108 70000
AAXX 30184 71610 15766 80503 11078 21180 39878 40185 56024 60001 333 11078 21201 70000
AAXX 30184 71621 11364 80308 11082 21098 30022 40131 57012 69961 70275 887// 333 11080 21095 47002 70021 90939
AAXX 30184 71623 NIL
AAXX 30184 71624 11132 80604 11012 21017 39892 40106 57012 69901 71075 886// 333 11006 21040 43002 70026 90953
AAXX 30184 71625 17533 81102 11129 21157 39996 40165 58020 60001 745// 333 11129 21239 70000
AAXX 30184 71627 11674 80312 11136 21187 30137 40184 57023 69901 77172 885// 333 11136 21174 47004 79999 90921
AAXX 30184 71628 11560 80610 11139 21173 30018 40166 58017 69941 77177 88500 333 11139 21214 4-3013 70004 909/7
AAXX 30184 71630 NIL
AAXX 30184 71631 17/// /1604 10001 21004 39582 40084 58013 60041 7//4/ 333 10001 21056 70045
AAXX 30184 71633 NIL
AAXX 30184 71705 12974 02612 11059 21143 30085 40175 53015 60001 333 11052 21112 70000
AAXX 30184 71706 11574 32809 11069 21125 30114 40176 53022 69901 70281 83500 333 11066 21095 42001 79999 90922
AAXX 30184 71707 11574 62720 11053 21112 30070 40148 53022 69921 70288 86500 333 11035 21068 45997 70002 90933
AAXX 30184 71709 11580 72819 11028 21059 30122 40136 53031 69901 70288 87500 333 11027 21088 46001 70024 90949
AAXX 30184 71711 NIL
AAXX 30184 71714 16/// /2603 11138 21202 30124 40221 58019 60001 333 11136 21273 70000
AAXX 30184 71715 16/// /2004 11121 21154 30014 40203 53004 60001 333 11116 21164 70000
AAXX 30184 71718 12583 62510 11119 21149 30131 40199 53012 60001 86500 333 11119 21142 70028
AAXX 30184 71719 16/// /2613 11047 21101 30146 40152 53024 60001 333 11046 21116 70000
AAXX 30184 71816 11674 83112 11080 21129 30037 40099 52045 69901 78522 885// 333 11022 21081 47089 70038 90962
AAXX 30184 71817 11574 83322 11038 21106 39973 49986 52071 69961 771// 885// 333 42012 70014 90999
AAXX 30184 71818 11574 83123 11052 21085 39996 40014 53060 69961 73672 885// 333 10002 21055 44026 70092 90923
AAXX 30184 71822 12974 00603 11211 21250 39709 40215 57016 60001 333 11209 21346 70000
AAXX 30184 71825 11574 70110 11159 21196 39483 40178 51012 69921 77177 87500 333 11129 21168 48128 70089 90983
AAXX 30184 71827 12274 61508 11215 21249 39960 40221 57005 60001 81601 333 11215 21301 70000
AAXX 30184 71828 16464 83408 11159 21209 39513 40175 53013 60001 333 11156 21183 70020
AAXX 30184 71831 11548 71108 11136 21168 39843 40136 58021 69901 77172 86511 333 11136 21234 48042 79999 90926
AAXX 30184 71832 NIL
AAXX 30184 71834 11574 80604 11115 21139 39669 40110 58005 69901 77171 885// 333 11115 21176 48027 70020 90937
AAXX 30184 71841 NIL
AAXX 30184 71842 11269 80000 11080 21084 39619 40098 58014 69901 77175 885// 333 11079 21108 47008 79999 90983
AAXX 30184 71844 NIL
AAXX 30184 71845 11369 80000 11123 21128 39623 40111 58004 69901 77177 87701 333 11122 21143 44021 79999 90973
AAXX 30184 71850 11266 81603 11094 21098 39591 40102 58005 69901 77177 886// 333 11094 21125 48014 79999 90973
AAXX 30184 71852 16964 01607 11077 21102 39795 40095 58004 60001 333 11076 21128 70000
AAXX 30184 71854 11458 82203 11097 21128 39620 40104 56007 69901 77177 885// 333 11094 21124 48017 79999 90993
AAXX 30184 71858 NIL
AAXX 30184 71861 16/// /2104 11035 21039 39331 40060 58013 60001 333 11031 21093 70122 555 10130
AAXX 30184 71862 11258 82006 11014 21020 39371 40074 58014 69901 71077 886// 333 11012 21065 47009 70020 90963
AAXX 30184 71863 46964 31308 11044 21068 39346 40046 58022 6///1 333 11014 21100 7////
AAXX 30184 71043 11566 70000 11251 21300 39944 40041 53011 69921 77177 87500 333 11227 21263 48033 70020 90983
AAXX 30184 71045 16/// /0604 11212 21232 39110 49991 53010 60001 333 11146 21237 70000
AAXX 30184 71050 NIL
AAXX 30184 71051 NIL
AAXX 30184 71052 NIL
AAXX 30184 71066 12261 80000 11166 21199 39572 40002 55002 60001 886// 333 11166 21245 70010
AAXX 30184 71068 11516 80408 11058 21070 39260 49949 58012 60011 77122 886// 333 11056 21108 47006 70012 90931 93101
AAXX 30184 71069 17561 31208 11062 21098 39248 49946 58015 60001 745// 333 11014 21090 70005
AAXX 30184 71076 16/// /2501 11122 21134 39609 40006 50004 60001 333 11106 21126 70000
AAXX 30184 71077 16/// /2203 11068 21091 39471 40010 55000 60001 333 11008 21070 70012 555 10010
AAXX 30184 71079 11424 81709 11076 21083 39753 40036 58012 69941 77177 885// 333 11176 21145 48008 70004 90983 93101
AAXX 30184 71081 46964 02507 11225 21262 30047 40059 58019 6///1 333 11219 21259 7////
AAXX 30184 71082 NIL
AAXX 30184 71083 11658 81707 11144 21162 39999 40042 58005 69921 77177 885// 333 11141 21174 4808 70006 90983
AAXX 30184 71090 46964 02506 11318 21362 30043 40080 56013 6///1 333 11281 21344 7////
AAXX 30184 71091 460// /0907 11263 39870 40087 56017 6///1 333 7////
AAXX 30184 71092 46014 02908 11291 39397 40089 56005 6///1 333 11262 21300 7////
AAXX 30184 71093 460// ///// 11264 39541 40054 58015 6///1 333 11229 21267 7////
AAXX 30184 71094 46064 /3011 11209 39089 40002 56007 6///1 333 11195 21233 7////
AAXX 30184 71095 46964 01904 11341 21386 30005 40090 56013 6///1 333 11302 21346 7////
AAXX 30184 71101 160// /2617 30002 53054 60001 333 70255
AAXX 30184 71104 12574 71510 11010 21056 38838 49930 53013 60001 85501 333 11004 21068 70004
AAXX 30184 71108 11580 62013 10069 20024 39973 40045 53032 69941 70381 83260 333 10078 20039 70049 90951
AAXX 30184 71109 NIL
AAXX 30181 01015 46/// /1802 11026 21071 333 11016 91107
AAXX 30181 01180 11670 52503 11052 21087 39938 49996 51020 60002 78582 85300 333 11024 91104
AAXX 30181 01228 46/// /0405 10041 21067 30046 40053 51025 333 10049 91115
AAXX 30181 01340 16/// /2701 11067 21082 39191 40087 52008 69942 333 11033 91107
AAXX 30181 01425 16/// /2901 11004 21021 39996 40077 52010 60002 333 10045 91103
AAXX 30181 01450 16/// /3008 11069 21105 38899 40070 50004 60002 333 11039 91112
AAXX 30184 71854 11458 82203 11097 21128 39620 40104 56007 69901 77177 885// 333 11094 21124 48017 70002 90993
AAXX 30184 71108 11580 72013 10069 20024 39973 40045 53032 69941 70381 83260 333 10078 20039 70049 90951
AAXX 30184 71397 12574 42712 11020 21093 30155 40190 53005 60001 81501 333 11020 21043 79999
AAXX 30184 71400 16/64 /2905 11006 21048 60001 333 11004 21061 70000
AAXX 30184 71403 46/// /2517 10016 21079 30143 40163 53006 6///1 333 10017 21031 7////
AAXX 30184 71411 NIL
AAXX 30184 71412 16/// /2611 11069 21097 30148 40158 53024 60001 333 11069 21090 70000
AAXX 30184 71421 NIL
AAXX 30184 71430 16/// /0610 11037 21040 30018 40116 58014 60001 333 11030 21071 70037
AAXX 30184 71431 17/// /0601 11046 21052 30013 40111 58009 69931 7//4/ 333 11046 21082 70041 555 10040
AAXX 30184 71432 16/// /0503 10040 20023 30000 40097 58013 60001 333 10042 21010 70000
AAXX 30184 71433 NIL
AAXX 30184 71435 NIL
AAXX 30184 71441 46/// /3104 11072 21087 39782 40096 50006 6///1 333 11062 21107 7////
AAXX 30184 71443 16/// /2310 11034 21042 39635 40052 58004 60001 333 11034 21133 70000
AAXX 30184 71444 16/// /2303 11074 21079 39307 40074 58007 60001 333 11074 21152 70000
AAXX 30184 71447 NIL
AAXX 30184 71467 16/// /1005 11301 21330 30006 40127 53010 60001 333 11287 21322 70000 555 10010
AAXX 30184 71472 NIL
AAXX 30184 71474 16964 01610 11006 21040 38730 49946 50000 60001 333 11003 21028 70000
AAXX 30184 71510 16/// /1505 11016 21025 39266 49972 58040 60001 333 11016 21143 70006
AAXX 30184 71538 11456 81507 10032 20025 39832 40061 55029 60011 76122 888// 333 10042 20006 70022 90931
AAXX 30184 71600 176// 32722 10043 21039 30173 40179 53010 69951 7//44 333 10046 20029 70080
AAXX 30184 71601 NIL
AAXX 30184 71930 13874 61303 11067 21126 39005 49935 56013 60003 82071 333 11067 21097 43015 70000
AAXX 30184 71931 16/// /2824 11016 21064 39970 49982 53036 60001 333 10030 21049 70000
AAXX 30184 71934 12974 50000 11247 21273 39751 40017 53001 60001 81071 333 11164 21247 70008
AAXX 30184 71935 12774 70000 11214 21252 39790 40004 53006 60001 85501 333 11163 21240 70006
AAXX 30184 71936 11532 80803 11166 21192 39749 40014 52004 69981 77177 885// 333 11157 21168 48028 70016 90983 93104
AAXX 30184 71937 NIL
AAXX 30184 71938 11856 80612 11306 21337 30078 40109 50000 69901 77177 8807/ 333 11290 21342 44025 79999 90983
AAXX 30184 71940 11780 70403 11052 21064 39132 49936 58002 69921 70172 83570 333 11045 21115 41997 70002 90962
AAXX 30184 71943 11432 80107 11081 21107 39116 49950 56001 60011 77122 885// 333 11044 21084 46002 70010 90962 93101
AAXX 30184 71944 160// ///// 11069 51015 60001 333 11058 21103 70005
AAXX 30184 71945 11124 82103 11205 21249 39510 49992 56002 60001 885// 333 11150 21226 70002
AAXX 30184 71946 NIL
AAXX 30184 71948 47006 /0732 11290 39955 40073 50003 6///1 745// 333 11275 21293 7////
AAXX 30184 71949 46/// /0201 11267 21296 39097 49995 52005 6///1 333 11172 21279 7////
AAXX 30184 71951 NIL
AAXX 30184 71957 46759 83102 11255 21324 39953 40044 51013 6///1 333 11201 21255 7////
AAXX 30184 71964 12686 00000 11169 21189 39092 49961 53009 60001 81630 333 11114 21191 70000
AAXX 30184 71966 16/// /0000 11364 21405 39544 40031 53004 60001 333 11281 21364 70000
AAXX 30184 71968 470// /2815 11289 39977 40044 53011 6///1 741// 333 11220 21300 7////
AAXX 30184 71893 12580 41807 10072 20015 39964 49995 52043 60001 82571 333 10072 20036 70128
AAXX 30184 71894 17/// /2833 10067 20038 30036 40045 51064 69961 7//4/ 333 10083 20044 70136
AAXX 30184 71896 17540 81806 11006 21017 39097 49917 52013 60011 7714/ 333 11005 21084 70053
AAXX 30184 71897 12469 82745 10048 20019 3//// 4//// 52018 60041 86809 333 10056 20030 70126
AAXX 30184 71898 160// ///// 10016 53064 60131 333 10018 20002 70165
AAXX 30184 71899 11432 73432 10017 20010 3//// 4//// 52048 69921 7871X 87200 333 10040 20002 70062 90914
AAXX 30184 71902 11574 13020 11124 21221 30103 40112 53027 69941 73687 81500 333 11077 21124 48053 70158 90939
AAXX 30184 71905 NIL
AAXX 30184 71906 11566 83012 11165 21212 30145 40197 53004 69901 77177 885// 333 11125 21167 44015 79999 90983
AAXX 30184 71907 16759 32116 11173 21211 30145 40179 58012 69951 333 11173 21324 70005
AAXX 30184 71909 16564 63211 11246 21287 30085 40130 58007 60001 333 11235 21276 70000
AAXX 30184 71910 47437 82713 11164 21192 30052 40116 56014 6///1 745// 333 11158 21215 7////
AAXX 30184 71911 46927 00212 11330 30014 40073 50000 6///1 333 11291 21332 7////
AAXX 30184 71912 11366 81806 11085 21092 39869 40055 58014 69901 77177 886// 333 11084 21155 47021 70002 90983
AAXX 30184 71915 NIL
AAXX 30184 71917 11959 01202 11414 21448 30098 40113 58016 69901 77677 333 11403 21424 44014 79999 90983
AAXX 30184 71922 12574 12405 11063 21088 39542 40007 58003 60001 81501 333 11015 21092 70010
AAXX 30184 71924 11874 23409 11375 21418 30026 40121 56008 69901 77670 82010 333 11286 21380 48038 79999 90931
AAXX 30184 71925 11466 20306 11375 21416 30092 40136 56004 69901 77677 82500 333 11365 21404 42021 79999 90983
AAXX 30184 71926 11574 83404 11161 21205 30009 40034 58001 69901 77177 885// 333 11152 21166 48043 70006 90983
AAXX 30184 71928 16/// /2401 11080 21123 38769 49927 58004 60001 333 11054 21139 70000
AAXX 30184 71864 NIL
AAXX 30184 71865 16/// /1802 11034 21042 39358 40040 58013 60001 333 11034 21096 70000
AAXX 30184 71866 46964 01404 11041 21060 39396 40012 58028 6///1 333 11041 21133 7////
AAXX 30184 71867 11574 71808 11069 21074 39690 40029 58008 69901 70272 87500 333 11069 21127 47025 79999 90941
AAXX 30184 71868 NIL
AAXX 30184 71869 12974 70000 11125 21129 39500 40030 58013 60001 84071 333 11047 21165 70004
AAXX 30184 71871 15666 81209 11064 21088 39162 49968 58031 60001 333 11064 21148 70000
AAXX 30184 71877 12983 22517 10041 21063 38682 49925 56006 60001 82070 333 10042 21025 70000
AAXX 30184 71878 12874 23305 11029 21058 38864 49933 55009 60001 82070 333 11027 21115 70000
AAXX 30184 71879 16764 61607 11024 21085 39129 49924 56020 60001 333 11009 21089 70000
AAXX 30184 71880 11280 72003 11001 21007 38900 49990 51002 60011 71672 86570 333 10021 21007 43002 70026 90936 93101
AAXX 30184 71882 160// /1603 10025 20016 39463 49995 52007 69951 333 10026 20006 70055
AAXX 30184 71883 46/// /0000 11007 21009 39155 49963 53005 6///1 333 11001 21018 7////
AAXX 30184 71887 12786 11403 10037 21016 39562 49975 50013 60001 81170 333 10059 20011 79999
AAXX 30184 71889 NIL
AAXX 30184 71891 16964 02018 10045 20026 39713 49983 51019 60021 333 10048 20017 70065
AAXX 30184 71892 12574 32013 10077 20021 30025 40030 51025 60001 83800 333 10077 20038 70044
AAXX 30184 71114 160// /3010 10077 20012 39980 40027 51028 60081 333 10083 20025 70155
AAXX 30184 71120 12774 80805 11083 21116 39323 49982 57020 60001 85571 333 11059 21160 70020
AAXX 30184 71122 17/// /2302 11022 21044 38373 49951 55005 69981 7//4/ 333 21036 7////
AAXX 30184 71123 11874 71407 11050 21086 39095 49930 56016 60001 71422 87070 333 11039 21143 70000
AAXX 30184 71125 12674 80403 11096 21115 39408 49996 56019 60001 8357/ 333 70006
AAXX 30184 71129 11472 71310 11009 21035 39127 49948 58044 69901 77122 87500 333 11009 21060 42997 70036 90910
AAXX 30184 71131 16/// /1807 11012 21045 38744 49990 58021 60001 333 11010 21060 70003
AAXX 30184 71135 16/// /1816 11004 21028 38956 40034 58023 60001 333 11003 21054 70010
AAXX 30184 71137 16/// /1815 10012 21032 39071 40008 58027 60001 333 10014 21063 70000
AAXX 30184 71140 11269 82206 11078 21080 39583 40093 5/006 69901 70277 88600 333 11076 21128 48006 70044 90953
AAXX 30184 71145 12274 81704 11079 21090 39785 40083 58010 60001 885// 333 11079 21127 70004
AAXX 30184 71148 NIL
AAXX 30184 71185 17430 83214 11024 30020 40044 53055 60001 745// 333 11007 21048 70060
AAXX 30184 71188 12674 43208 11045 21096 30103 40147 52033 60001 82571 333 11039 21121 79999
AAXX 30184 71200 17/// /2223 10063 20032 60021 7//4/ 333 10084 20059 70038
AAXX 30184 71207 17/// /1510 10054 20023 39940 40004 53023 60071 7//4/ 333 10063 20001 70202
AAXX 30184 71260 13/// ///// 11041 21047 39842 40081 58013 69921 333 11040 21073 44002 70017
AAXX 30184 71726 17/// /0801 11155 21201 39624 40200 57019 60031 7//4/ 333 11152 21362 70033
AAXX 30184 71727 12982 00000 11187 21230 30024 40233 58007 60001 333 11178 21231 70000
AAXX 30184 71728 12986 01403 11216 21268 39997 40223 57009 60001 333 11211 21290 70000
AAXX 30184 71730 11474 80910 11116 21125 39683 40122 58016 69901 77177 885// 333 11115 21177 48013 70002 90983
AAXX 30184 71731 11448 81115 11119 21147 39659 40125 58010 69921 77177 885// 333 11117 21163 48016 70004 90983
AAXX 30184 71735 NIL
AAXX 30184 71738 11669 80203 11062 21085 39734 40093 58011 69941 77177 885// 333 11062 21114 47029 70062 90973 93101
AAXX 30184 71739 41432 81007 11150 21191 39756 40137 58024 6//// 77122 885// 333 11149 21249 4//// 7//// 90931
AAXX 30184 71749 16464 83102 11034 21054 39843 40091 58002 60001 333 11034 21053 70000
AAXX 30184 71799 11483 42114 10061 20036 30020 40044 53034 69961 78081 83870 333 10095 20055 70088 90917
AAXX 30184 71800 16/// /2731 11021 21040 30041 40074 53022 60001 333 10030 21024 70011
AAXX 30184 71801 11674 72729 11020 21070 39868 40041 53029 69901 72682 87500 333 10002 21025 41001 70004 90927
AAXX 30184 71803 11474 72617 11028 21068 39834 40021 53039 69901 72682 86570 333 11025 21062 41003 70002 90936
AAXX 30184 71807 NIL
AAXX 30184 71808 12674 83316 11040 21091 39983 40030 53066 60001 8251/ 333 11015 21044 70040
AAXX 30184 71809 11474 82807 11010 21049 30022 40049 53055 69921 70388 885// 333 11004 21057 42001 70028 90923
AAXX 30184 71810 16/// /3505 11055 21094 30065 40133 52031 60001 333 11046 21079 70028
AAXX 30184 71811 NIL
AAXX 30184 71813 16/// /3412 11055 21098 30089 40103 53043 60001 333 11020 21055 70006
AAXX 30184 71814 16/// /3414 11036 21082 30065 40075 53054 60001 333 11013 21048 70006
AAXX 30184 71815 11469 83212 11003 21042 30042 40073 53060 60011 78583 885// 333 11002 21057 46005 70052 90983 93101
AAXX 30184 71816 11674 83112 11080 21129 30037 40099 52045 69901 78522 885// 333 11022 21081 47089 70038 90962
AAXX 30184 71817 11574 83322 11038 21106 39973 49986 52071 69961 771// 885// 333 42012 70014 90999
AAXX 30184 71818 11574 83123 11052 21085 39996 40014 53060 69961 73672 885// 333 10002 21055 44026 70092 90923
AAXX 30184 71822 12974 00603 11211 21250 39709 40215 57016 60001 333 11209 21346 70000
AAXX 30184 71825 11574 70110 11159 21196 39483 40178 51012 69921 77177 87500 333 11129 21168 48128 70089 90983
AAXX 30184 71827 12274 61508 11215 21249 39960 40221 57005 60001 81601 333 11215 21301 70000
AAXX 30184 71828 16464 83408 11159 21209 39513 40175 53013 60001 333 11156 21183 70020
AAXX 30184 71831 11548 71108 11136 21168 39843 40136 58021 69901 77172 86511 333 11136 21234 48042 79999 90926
AAXX 30184 71832 NIL
AAXX 30184 71834 11574 80604 11115 21139 39669 40110 58005 69901 77171 885// 333 11115 21176 48027 70020 90937
AAXX 30184 71841 NIL
AAXX 30184 71842 11269 80000 11080 21084 39619 40098 58014 69901 77175 885// 333 11079 21108 47008 79999 90983
AAXX 30184 71844 NIL
AAXX 30184 71845 11369 80000 11123 21128 39623 40111 58004 69901 77177 87701 333 11122 21143 44021 79999 90973
AAXX 30184 71850 11266 81603 11094 21098 39591 40102 58005 69901 77177 886// 333 11094 21125 48014 79999 90973
AAXX 30184 71852 16964 01607 11077 21102 39795 40095 58004 60001 333 11076 21128 70000
AAXX 30184 71854 11458 82203 11097 21128 39620 40104 56007 69901 77177 885// 333 11094 21124 48017 79999 90993
AAXX 30184 71858 NIL
AAXX 30184 71861 16/// /2104 11035 21039 39331 40060 58013 60001 333 11031 21093 70122 555 10130
AAXX 30184 71862 11258 82006 11014 21020 39371 40074 58014 69901 71077 886// 333 11012 21065 47009 70020 90963
AAXX 30184 71863 46964 31308 11044 21068 39346 40046 58022 6///1 333 11014 21100 7////
AAXX 30181 26106 32997 51805 10020 21005 40010 52011 85030 333 10034 91111
AAXX 30181 26313 12/// 32703 10019 21014 49995 52020 60072 839// 333 10033
AAXX 30181 26346 12597 82004 10011 21007 40008 52010 69932 885// 333 10021 88621 91112
AAXX 30181 26406 32597 62504 10044 20008 40008 52013 86500 333 10054 86630
AAXX 30181 26416 33/// /2102 10004 21004 40013 52012 333 10023
AAXX 30181 26424 12597 52203 10013 20001 40013 52011 69902 82530 333 10027
AAXX 30181 26544 32697 72002 10015 21013 40035 52007 87500 333 10026
AAXX 30184 71930 13874 61303 11067 21126 39005 49935 56013 60003 82071 333 11067 21097 43015 70000
AAXX 30184 71931 16/// /2824 11016 21064 39970 49982 53036 60001 333 10030 21049 70000
AAXX 30184 71934 12974 50000 11247 21273 39751 40017 53001 60001 81071 333 11164 21247 70008
AAXX 30184 71935 12774 70000 11214 21252 39790 40004 53006 60001 85501 333 11163 21240 70006
AAXX 30184 71936 11532 80803 11166 21192 39749 40014 52004 69981 77177 885// 333 11157 21168 48028 70016 90983 93104
AAXX 30184 71937 NIL
AAXX 30184 71938 11856 80612 11306 21337 30078 40109 50000 69901 77177 8807/ 333 11290 21342 44025 79999 90983
AAXX 30184 71940 11780 70403 11052 21064 39132 49936 58002 69921 70172 83570 333 11045 21115 41997 70002 90962
AAXX 30184 71943 11432 80107 11081 21107 39116 49950 56001 60011 77122 885// 333 11044 21084 46002 70010 90962 93101
AAXX 30184 71944 160// ///// 11069 51015 60001 333 11058 21103 70005
AAXX 30184 71945 11124 82103 11205 21249 39510 49992 56002 60001 885// 333 11150 21226 70002
AAXX 30184 71946 NIL
AAXX 30184 71948 47006 /0732 11290 39955 40073 50003 6///1 745// 333 11275 21293 7////
AAXX 30184 71949 46/// /0201 11267 21296 39097 49995 52005 6///1 333 11172 21279 7////
AAXX 30184 71951 NIL
AAXX 30184 71957 46759 83102 11255 21324 39953 40044 51013 6///1 333 11201 21255 7////
AAXX 30184 71964 12686 00000 11169 21189 39092 49961 53009 60001 81630 333 11114 21191 70000
AAXX 30184 71966 16/// /0000 11364 21405 39544 40031 53004 60001 333 11281 21364 70000
AAXX 30184 71968 470// /2815 11289 39977 40044 53011 6///1 741// 333 11220 21300 7////
AAXX 30181 01265 16/// /2301 11076 21086 39457 40057 52024 69932 333 11042 91105
AAXX 30181 01375 16/// /3112 11071 21104 6//// 333 11059 91118
AAXX 30181 01440 46/// /2904 11104 21113 38769 40099 52004 333 11052 91108
AAXX 30181 01469 16/// /3401 11053 21067 39882 40059 51018 60002 333 11019 91103
AAXX 30181 01277 16/// /0000 11047 21053 60012 333 11014 91102
AAXX 30181 01476 16/// /3102 10020 21045 30047 40054 51011 6//// 333 10049 91104
AAXX 30184 71043 11566 70000 11251 21300 39944 40041 53011 69921 77177 87500 333 11227 21263 48033 70020 90983
AAXX 30184 71045 16/// /0604 11212 21232 39110 49991 53010 60001 333 11146 21237 70000
AAXX 30184 71050 NIL
AAXX 30184 71051 NIL
AAXX 30184 71052 NIL
AAXX 30184 71066 12261 80000 11166 21199 39572 40002 55002 60001 886// 333 11166 21245 70010
AAXX 30184 71068 11516 80408 11058 21070 39260 49949 58012 60011 77122 886// 333 11056 21108 47006 70012 90931 93101
AAXX 30184 71069 17561 31208 11062 21098 39248 49946 58015 60001 745// 333 11014 21090 70005
AAXX 30184 71076 16/// /2501 11122 21134 39609 40006 50004 60001 333 11106 21126 70000
AAXX 30184 71077 16/// /2203 11068 21091 39471 40010 55000 60001 333 11008 21070 70012 555 10010
AAXX 30184 71079 11424 81709 11076 21083 39753 40036 58012 69941 77177 885// 333 11176 21145 48008 70004 90983 93101
AAXX 30184 71081 46964 02507 11225 21262 30047 40059 58019 6///1 333 11219 21259 7////
AAXX 30184 71082 NIL
AAXX 30184 71083 11658 81707 11144 21162 39999 40042 58005 69921 77177 885// 333 11141 21174 4808 70006 90983
AAXX 30184 71090 46964 02506 11318 21362 30043 40080 56013 6///1 333 11281 21344 7////
AAXX 30184 71091 460// /0907 11263 39870 40087 56017 6///1 333 7////
AAXX 30184 71092 46014 02908 11291 39397 40089 56005 6///1 333 11262 21300 7////
AAXX 30184 71093 460// ///// 11264 39541 40054 58015 6///1 333 11229 21267 7////
AAXX 30184 71094 46064 /3011 11209 39089 40002 56007 6///1 333 11195 21233 7////
AAXX 30184 71095 46964 01904 11341 21386 30005 40090 56013 6///1 333 11302 21346 7////
AAXX 30184 71101 160// /2617 30002 53054 60001 333 70255
AAXX 30184 71104 12574 71510 11010 21056 38838 49930 53013 60001 85501 333 11004 21068 70004
AAXX 30184 71108 11580 62013 10069 20024 39973 40045 53032 69941 70381 83260 333 10078 20039 70049 90951
AAXX 30184 71109 NIL
AAXX 30183 91551 31598 50000 10231 20220 40081 53004 70211 81101 333 569/9 81820 84080
AAXX 30183 91553 NIL
AAXX 30183 91554 31598 70000 10230 20223 40081 53001 70222 8312/ 333 5699/ 83820 87362
AAXX 30183 91555 31598 30000 10230 20230 40081 53005 70211 81101 333 569/9 81825 83080
AAXX 30183 91557 31598 19902 10210 20202 40075 53005 70112 81101 333 569/9 81826
AAXX 30183 91565 31598 10000 10240 20225 40073 53003 70111 81200 333 569// 81825
AAXX 30183 91568 31598 10000 10224 20218 40085 53006 70111 81101 333 569/9 81826
AAXX 30184 71123 11874 71407 11050 21086 39065 49930 56016 60001 71422 87070 333 11039 21143 70000
AAXX 30184 71864 NIL
AAXX 30184 71865 16/// /1802 11034 21042 39358 40040 58013 60001 333 11034 21096 70000
AAXX 30184 71866 46964 01404 11041 21060 39396 40012 58028 6///1 333 11041 21133 7////
AAXX 30184 71867 11574 71808 11069 21074 39690 40029 58008 69901 70272 87500 333 11069 21127 47025 79999 90941
AAXX 30184 71868 NIL
AAXX 30184 71869 12974 70000 11125 21129 39500 40030 58013 60001 84071 333 11047 21165 70004
AAXX 30184 71871 15666 81209 11064 21088 39162 49968 58031 60001 333 11064 21148 70000
AAXX 30184 71877 12983 22517 10041 21063 38682 49925 56006 60001 82070 333 10042 21025 70000
AAXX 30184 71878 12874 23305 11029 21058 38864 49933 55009 60001 82070 333 11027 21115 70000
AAXX 30184 71879 16764 61607 11024 21085 39129 49924 56020 60001 333 11009 21089 70000
AAXX 30184 71880 11280 72003 11001 21007 38900 49990 51002 60011 71672 86570 333 10021 21007 43002 70026 90936 93101
AAXX 30184 71882 160// /1603 10025 20016 39463 49995 52007 69951 333 10026 20006 70055
AAXX 30184 71883 46/// /0000 11007 21009 39155 49963 53005 6///1 333 11001 21018 7////
AAXX 30184 71887 12786 11403 10037 21016 39562 49975 50013 60001 81170 333 10059 20011 79999
AAXX 30184 71889 NIL
AAXX 30184 71891 16964 02018 10045 20026 39713 49983 51019 60021 333 10048 20017 70065
AAXX 30184 71892 12574 32013 10077 20021 30025 40030 51025 60001 83800 333 10077 20038 70044
AAXX 30184 71893 12580 41807 10072 20015 39964 49995 52043 60001 82571 333 10072 20036 70128
AAXX 30184 71894 17/// /2833 10067 20038 30036 40045 51064 69961 7//4/ 333 10083 20044 70136
AAXX 30184 71896 17540 81806 11006 21017 39097 49917 52013 60011 7714/ 333 11005 21084 70053
AAXX 30184 71897 12469 82745 10048 20019 3//// 4//// 52018 60041 86809 333 10056 20030 70126
AAXX 30184 71898 160// ///// 10016 53064 60131 333 10018 20002 70165
AAXX 30184 71899 11432 73432 10017 20010 3//// 4//// 52048 69921 7871X 87200 333 10040 20002 70062 90914
AAXX 30184 71902 11574 13020 11124 21221 30103 40112 53027 69941 73687 81500 333 11077 21124 48053 70158 90939
AAXX 30184 71905 NIL
AAXX 30184 71906 11566 83012 11165 21212 30145 40197 53004 69901 77177 885// 333 11125 21167 44015 79999 90983
AAXX 30184 71907 16759 32116 11173 21211 30145 40179 58012 69951 333 11173 21324 70005
AAXX 30184 71909 16564 63211 11246 21287 30085 40130 58007 60001 333 11235 21276 70000
AAXX 30184 71910 47437 82713 11164 21192 30052 40116 56014 6///1 745// 333 11158 21215 7////
AAXX 30184 71911 46927 00212 11330 30014 40073 50000 6///1 333 11291 21332 7////
AAXX 30184 71912 11366 81806 11085 21092 39869 40055 58014 69901 77177 886// 333 11084 21155 47021 70002 90983
AAXX 30184 71915 NIL
AAXX 30184 71917 11959 01202 11414 21448 30098 40113 58016 69901 77677 333 11403 21424 44014 79999 90983
AAXX 30184 71922 12574 12405 11063 21088 39542 40007 58003 60001 81501 333 11015 21092 70010
AAXX 30184 71924 11874 23409 11375 21418 30026 40121 56008 69901 77670 82010 333 11286 21380 48038 79999 90931
AAXX 30184 71925 11466 20306 11375 21416 30092 40136 56004 69901 77677 82500 333 11365 21404 42021 79999 90983
AAXX 30184 71926 11574 83404 11161 21205 30009 40034 58001 69901 77177 885// 333 11152 21166 48043 70006 90983
AAXX 30184 71928 16/// /2401 11080 21123 38769 49927 58004 60001 333 11054 21139 70000
AAXX 30183 91551 31598 50000 10231 20220 40081 53004 70211 81101 333 569/9 81820 84080
AAXX 30183 91553 NIL
AAXX 30183 91554 31598 70000 10230 20223 40081 53001 70222 8312/ 333 5699/ 83820 87362
AAXX 30183 91555 31598 30000 10230 20230 40081 53005 70211 81101 333 569/9 81825 83080
AAXX 30183 91557 31598 19902 10210 20202 40075 53005 70112 81101 333 569/9 81826
AAXX 30183 91565 31598 10000 10240 20225 40073 53003 70111 81200 333 569// 81825
AAXX 30183 91568 31598 10000 10224 20218 40085 53006 70111 81101 333 569/9 81826
AAXX 30184 71603 12874 62706 10000 21076 30149 40203 53002 60001 85071 333 10009 21016 70000
AAXX 30184 71607 16/// /2604 11024 21153 30161 40194 56003 60001 333 11023 21123 70000 555 10010
AAXX 30184 71609 12974 12908 11043 21148 30052 40190 53005 60001 80001 333 11039 21108 70000
AAXX 30184 71610 15766 80503 11078 21180 39878 40185 56024 60001 333 11078 21201 70000
AAXX 30184 71621 11364 80308 11082 21098 30022 40131 57012 69961 70275 887// 333 11080 21095 47002 70021 90939
AAXX 30184 71623 NIL
AAXX 30184 71624 11132 80604 11012 21017 39892 40106 57012 69901 71075 886// 333 11006 21040 43002 70026 90953
AAXX 30184 71625 17533 81102 11129 21157 39996 40165 58020 60001 745// 333 11129 21239 70000
AAXX 30184 71627 11674 80312 11136 21187 30137 40184 57023 69901 77172 885// 333 11136 21174 47004 79999 90921
AAXX 30184 71628 11560 80610 11139 21173 30018 40166 58017 69941 77177 88500 333 11139 21214 4-3013 70004 909/7
AAXX 30184 71630 NIL
AAXX 30184 71631 17/// /1604 10001 21004 39582 40084 58013 60041 7//4/ 333 10001 21056 70045
AAXX 30184 71633 NIL
AAXX 30184 71705 12974 02612 11059 21143 30085 40175 53015 60001 333 11052 21112 70000
AAXX 30184 71706 11574 32809 11069 21125 30114 40176 53022 69901 70281 83500 333 11066 21095 42001 79999 90922
AAXX 30184 71707 11574 62720 11053 21112 30070 40148 53022 69921 70288 86500 333 11035 21068 45997 70002 90933
AAXX 30184 71709 11580 72819 11028 21059 30122 40136 53031 69901 70288 87500 333 11027 21088 46001 70024 90949
AAXX 30184 71711 NIL
AAXX 30184 71714 16/// /2603 11138 21202 30124 40221 58019 60001 333 11136 21273 70000
AAXX 30184 71715 16/// /2004 11121 21154 30014 40203 53004 60001 333 11116 21164 70000
AAXX 30184 71718 12583 62510 11119 21149 30131 40199 53012 60001 86500 333 11119 21142 70028
AAXX 30184 71719 16/// /2613 11047 21101 30146 40152 53024 60001 333 11046 21116 70000
AAXX 30184 78982 01470 71115 10283 20236 30125 40130 57021 60001 71522 81238 333 58002 60007 83815 83458 87280
AAXX 30184 60020 NIL
AAXX 30184 60030 02570 63615 10182 20110 30240 40296 55000 60002 868// 333 10205 60007 92428
AAXX 30184 60040 02675 30312 10182 20103 30279 40304 50002 60002 83800 333 10207 60007 92428
AAXX 30184 60338 12582 12504 10134 20099 30246 40313 51004 60002 81500 333 10170 92428
AAXX 30181 02019 07/// /2602 11107 21126 39360 49994 52015 69922 72275 333 11071 21118 69905 90710 91103
AAXX 30181 02081 07/58 /0103 11069 21083 39567 49975 52014 69992 77177 333 11064 21072 69905 90710 91108
AAXX 30181 02095 07418 /3604 11054 21064 39727 49932 52010 60022 77177 333 11052 21057 69925 88/19 90710 91107
AAXX 30181 02101 45582 /3301 11123 21139 39429 40001 51015 8//// 333 11089 21150 86/24
AAXX 30181 02119 07883 /3202 11212 21231 39586 49987 52014 69902 78580 333 11085 21215 69905 90710 91103
AAXX 30181 02124 05/99 /2901 11107 21143 39442 49977 52014 60002 333 11065 21107 60005 90710 91104
AAXX 30181 02126 05/99 /3103 11118 21131 39632 49978 52016 60002 333 11088 21127 60005 90710 91105
AAXX 30181 02151 17981 03206 11074 21087 39612 49952 51013 60012 70077 333 11065 21075 60005 91008 90710 91109 90710 91207
AAXX 30181 02186 07464 53307 11051 21064 39890 49915 51011 69952 77744 333 11046 21055 69905 81/15 85/59 91010 90710 91110 90710 91207
AAXX 30181 02197 07/12 /0104 11037 21038 39875 49894 52009 60022 77177 333 11035 21041 69985 90710 91106
AAXX 30181 02207 07459 /3103 11038 21042 39323 40027 53030 60032 77187 333 11024 21041 69915 87/11 90710 91108
AAXX 30181 02219 07/64 /3301 11056 21063 39322 49995 51014 69902 78587 333 11047 21080 69905 90710 91104
AAXX 30181 02226 45984 /2907 11031 21058 39546 40004 51026 8//// 333 11018 21052
AAXX 30181 02243 07/60 /2601 11142 21152 39711 49987 51016 60002 70010 333 11081 21150 60005 90710 91104
AAXX 30181 02269 05/99 /3103 11059 21079 69912 333 11041 21070 60005 90710 91105
AAXX 30181 02287 05974 /3109 11056 21071 39932 49942 53016 60002 333 11039 21062 60005 85/58 90710 91112
AAXX 30181 02297 07499 /3210 11052 21067 39880 49925 51014 69922 70071 333 11043 21055 60005 81/19 88/58 90710 91113
AAXX 30181 02308 07/99 /2501 11055 21086 39153 40023 53024 69912 70087 333 11033 21059 60005 90710 91103
AAXX 30181 02327 07/83 /2903 11033 21061 39570 40009 52019 69922 70070 333 11013 21075 69915 90710 91105
AAXX 30181 02355 NIL
AAXX 30181 02366 45/84 /3303 11062 21081 39978 49984 5//// 8//// 333 1//// 2////
AAXX 30181 02407 05/76 /3001 11066 21071 39650 40025 51020 60002 333 11022 21071 60005 90710 91102
AAXX 30181 02418 45984 /2702 11023 21041 39902 40036 51015 8//// 333 11001 21025
AAXX 30181 02435 45984 /2605 11034 21062 39822 40012 52020 8//// 333 10003 21039
AAXX 30181 02440 05/74 /2601 11075 21085 60002 333 11007 21076 60005 90710 91102
AAXX 30181 02452 05/99 /3004 11031 21037 60002 333 11019 21034 60005 90710 91107
AAXX 30181 02456 05/99 /2701 11041 21052 39955 49998 52019 60002 333 11010 21043 60005 90710 91103
AAXX 30181 02469 05/99 /2703 11025 21042 60002 333 10007 21041 60005 90710 91104
AAXX 30181 02498 05599 /3009 11003 21036 39974 49991 51019 60002 333 10023 21005 60005 84/20 90710 91111
AAXX 30181 02518 469// /3405 10038 20004 333 10052 20031 82/62 90710 91106
AAXX 30181 02520 35984 72704 10002 21023 39983 40051 52016 60002 333 10030 21013 60005 87/63 91004 90710 91104 90710 91204
AAXX 30181 02550 47908 /2401 11034 21034 39766 40046 51021 731// 8//// 333 10015 21039
AAXX 30181 02562 35984 02603 11021 21035 39917 40034 51021 60002 333 10006 21038 60005 91004 90710 91104 90710 91204
AAXX 30181 02563 05/99 /2904 11007 21029 39996 40018 52021 60002 333 10023 21008 60005 90710 91108
AAXX 30181 02565 07/66 /2501 11025 21032 39916 40037 51023 69902 70010 333 10034 21030 60005 90710 91104
AAXX 30181 02589 05599 /3406 10011 21025 39982 40003 53022 69912 333 10036 20006 60005 87/26 90710 91113
AAXX 30181 02590 45584 /3406 10020 21037 39954 40016 52022 8//// 333 10038 20016 88/30
AAXX 30181 02618 05/64 /2902 11018 21018 39888 40054 53026 69932 333 10039 21019 60005 90710 91103
AAXX 30181 02664 17983 03503 10002 21010 39963 40035 52021 69902 70085 333 10029 21016 60005 91005 90710 91106 90710 91204
AAXX 30181 02679 05499 /3405 10019 21008 39975 40019 51022 69912 333 10035 20016 60005 81/17 84/65 90710 91107
AAXX 30181 48845 32497 80000 10167 20162 30208 40215 58001 888// 333 58025 85894 88697
AAXX 30184 17026 12970 21503 10089 20020 30115 40154 56004 60002 80002 333 10108 82070 91106 92428
AAXX 30184 17034 12670 61201 10080 20047 30135 40182 53002 60002 82130 333 10105 82835 86360 92428
AAXX 30184 17070 12965 02902 10034 21013 39281 40179 53005 60002 333 10061 91112
AAXX 30184 17084 12970 03302 11031 21053 39269 40215 52003 60002 333 10030
AAXX 30184 17090 12965 81003 10020 21058 38720 48488 51001 60002 80007 333 10057 88270
AAXX 30184 17098 11914 00000 11210 21210 38230 48557 58004 60002 71000 333 11109
AAXX 30184 17150 11640 50000 10018 20011 30011 40139 56003 60002 71011 83130 333 10080 83835 84360
AAXX 30184 17160 12670 33501 11016 21063 39001 48457 55001 60002 83500 333 10063 83640 91104
AAXX 30184 17184 12970 33101 10039 20024 30024 40139 55001 60002 83030 333 10095 83360 91103
AAXX 30184 17189 11640 61302 11002 21012 38988 48444 55001 60002 71022 84550 333 10026 84635 86360
AAXX 30184 17210 12970 30201 10046 21026 39193 40253 52008 60002 80001 333 10115 83070
AAXX 30184 17234 12670 60902 10098 20051 30064 40133 54000 60002 83250 333 10119 83840 86360 91106
AAXX 30184 17260 12660 60505 10060 21004 39382 40220 50000 60002 83550 333 10089 83640 86360
AAXX 30184 17290 11570 70905 10104 20085 30099 40131 51001 60092 78082 84270 333 10158 84830 87358 91114 9242 8
AAXX 30184 17370 12965 03005 10154 21006 30152 40156 56006 60002 333 10169 92437
AAXX 30181 48840 32498 80501 10172 20136 30214 40220 53001 888// 333 58028 82894 88696
AAXX 30184 17024 3//// /1711 10038 20005 30074 40154 56001 60002 333 10108
AAXX 30184 17056 12970 41707 10085 20084 30126 40130 57004 60002 84030 333 10087 84360 91113 92428
AAXX 30184 17067 12670 62002 10050 20001 30124 40147 53004 60002 86200 333 10088 86840 91105 92408
AAXX 30184 17092 12960 01311 10031 21103 38878 48499 52003 60002 333 10095
AAXX 30184 17112 12970 20501 10071 20043 30122 40124 56003 60002 82030 333 10098 82360 91106 92408
AAXX 30184 17115 12660 50000 10007 21003 30083 40136 55000 60002 83230 333 10079 83835 85360
AAXX 30184 17116 12660 60602 10041 21007 30022 40147 57002 60002 83250 333 10087 83835 86360 91107
AAXX 30184 17188 12660 50802 10051 20014 39074 40147 55002 60002 83530 333 10076 83637 85360 91106
AAXX 30184 17202 12960 02604 11028 21036 39201 40274 52008 60002 333 10077
AAXX 30184 17248 12970 01001 11008 21034 38953 48451 55003 60002 333 10076
AAXX 30184 17292 11660 70000 10045 20044 39377 40140 57006 60052 78082 85270 333 10093 85835 87359 91111
AAXX 30184 17300 11460 72808 10087 20065 30081 40153 52005 60062 78088 87900 333 10102 81915 86830
AAXX 30184 17310 12670 60701 10133 20037 30143 40150 50001 60002 83250 333 10167 83835 86360 91110 92428
AAXX 30184 17330 12970 03003 10108 20006 30145 40163 53001 60002 333 10168
AAXX 30184 17022 12960 42501 10060 20025 39982 40151 53002 60002 82038 333 10081 82360 84270 91106 92427
AAXX 30184 17031 12970 51306 10033 20012 30154 40161 57004 60002 82031 333 10133 82360 85070
AAXX 30184 17038 11656 32004 10075 20046 30127 40179 52002 60002 71000 82130 333 10104 82835 83360 92426
AAXX 30184 17050 12670 70201 10059 20047 30063 40127 53002 60002 85520 333 10064 85635 87460 91108
AAXX 30184 17060 12660 61504 10082 20028 30100 40141 56002 60002 83130 333 10083 83835 85360
AAXX 30184 17096 12970 02304 11171 21171 38260 48543 55000 60002 333 11026
AAXX 30184 17124 11657 60807 11018 21042 39239 40191 52002 60002 71011 83530 333 10006 83635 85360
AAXX 30184 17128 12670 73002 11016 21034 39069 40211 53003 60002 84550 333 10001 84640 86360
AAXX 30184 17170 NIL
AAXX 30184 17195 11960 40000 11032 21049 38953 48459 55001 60002 71011 80001 333 10054 84070
AAXX 30184 17199 12670 60000 10022 21022 39114 40245 56002 60002 83550 333 10054 83635 86360
AAXX 30184 17219 11556 49902 10060 20043 39980 40126 54000 60002 71011 82130 333 10130 82830 84360
AAXX 30184 17240 11560 71604 10029 21002 39004 40178 53004 69982 76022 85550 333 10049 85630 87360 91112
AAXX 30184 17244 11629 63003 11013 21031 38967 48452 57002 60002 71022 84550 333 10029 84635 86359
AAXX 30184 17280 12960 02504 11002 21025 39432 40257 50006 60002 333 10087
AAXX 30184 17350 12960 50408 10101 20008 30088 40167 53006 60002 85040 333 10170 85360
AAXX 20184 78397 12580 21314 10316 20236 30134 40150 60001 82200 333 02200 10324 20224 59003 82822
AAXX 30181 01400 41599 52106 10056 20015 40095 57010 70322 8550/ 22200 06078 10706 70029 333 91110
AAXX 30181 01300 41697 21402 10035 21031 40073 57006 70110 82/// 22200 02052 11006 70032 333 91108
AAXX 20184 78397 12580 21314 10316 20236 30134 40150 60001 82200 333 02200 10324 20224 59003 82822
AAXX 30184 65338 31905 50402 10295 20185 39912 40096 70622 80002 333 10350 59013 85076
AAXX 30181 12105 12460 72002 10018 20011 39998 40041 52015 69902 875// 333 10043 20015 87614 93000
AAXX 30181 12195 11545 82003 10006 21009 39806 40036 52007 60002 71022 885// 333 10020 21003 93000
AAXX 30181 12235 11360 73003 10016 20016 39829 40041 52024 69962 72165 876// 333 10018 20010 87706 93096
AAXX 30181 12270 11415 82303 10004 20003 39845 40029 52010 60012 76876 8552/ 333 10018 20004 93001
AAXX 30181 12280 11335 81803 10006 20005 39870 40029 51007 69952 76876 8772/ 333 10022 20005 93095
AAXX 30181 12300 11770 52602 10020 20017 39967 40058 51015 60042 70176 85500 333 10033 20009 93093
AAXX 30181 12400 11360 72704 10018 20012 39836 40074 52025 60022 70282 876// 333 10021 20007 91109 93002
AAXX 30181 12435 11550 82706 10010 20000 39879 40053 52016 60032 76882 875// 333 10033 20004 93002
AAXX 30181 12495 12560 71903 10011 21007 39771 40067 52009 60002 875// 333 10018 21004 93000
AAXX 30181 12530 11556 72603 10011 20008 39868 40070 52021 60012 78382 879// 333 10037 20011 93001
AAXX 30181 12570 11750 72103 10006 20005 39744 40067 52007 69942 71082 875// 333 10021 21013 93093
AAXX 30181 12580 12670 71905 10021 21003 39817 40079 52009 60002 875// 333 10030 21003 91110 93000
AAXX 30184 85043 31450 63610 10300 20237 39920 40081 57035 71522 85904 333 56800 59016 84817 81920 86070
AAXX 30184 85032 32465 63612 10310 20231 39935 40096 57035 84930 333 56880 59005 83817 81920 86358
AAXX 30184 85104 32465 43210 10300 20232 39924 40083 57029 84201 333 56706 59008 84817
AAXX 30184 85109 32565 53212 10310 20244 39925 40084 57025 85200 333 56700 59005 85820
AAXX 30184 85114 12465 53406 10295 20249 39929 40092 57025 60021 83204 333 56706 59005 83817 85070
AAXX 30184 85123 11458 73610 10297 20238 39913 40077 57031 69941 71582 86933 333 56771 59007 85817 81923 86070
AAXX 30184 85116 32465 63208 10325 20228 39908 40085 57029 84204 333 56706 59004 84817 86070
AAXX 30184 85139 31458 63515 10324 20246 39851 40041 57033 71522 85904 333 56706 59005 84817 81923 86070
AAXX 30184 85153 31458 73214 10290 20236 39898 40080 57022 71522 86908 333 56706 59010 85817 81923 872703
AAXX 30184 85154 11458 73408 10273 20253 39905 40082 57028 60021 71582 85906 333 56706 59005 83817 82920 87270
AAXX 30184 68392 36/// /0204 10188 20153 30181 4//// 52032 333 10251 20188 91007 555
AAXX 30184 68299 16/// /0409 10147 20116 38929 48516 52005 69922 333 10191 20146 91013 555 20002 91018
AAXX 30184 78384 12460 20711 10281 20227 40172 60001 82100 333 10292 20243 58005 70000 82818 90908
AAXX 30184 78383 12560 10607 10300 20218 40178 60001 81100 333 10304 20237 58008 70000 81820
AAXX 30184 78384 12460 20711 10281 20227 40172 60001 82100 333 10292 20243 58005 70000 82818 90908
AAXX 30184 78383 12560 10607 10300 20218 40178 60001 81100 333 10304 20237 58008 70000 81820
AAXX 30184 65352 31950 70000 10298 20041 3//// 4//// 70522 80002 333 10340 5//// 87076
AAXX 30184 65361 32960 70000 10282 20064 3//// 4//// 80002 333 10350 5//// 87076
AAXX 30184 65376 31945 70000 10295 20107 39647 40103 70522 80002 333 10330 59007 87076
AAXX 30184 65387 32956 62006 10284 20244 30074 40092 80002 333 10345 58001 86073
AAXX 30181 12120 12470 52902 10034 20018 30025 40032 52018 69962 85200 333 10037 20021 93000
AAXX 30181 12250 11240 82802 10011 20010 39947 40037 52019 60012 76166 8772/ 333 10025 20011 87704 93001
AAXX 30181 12295 11559 71802 10010 21008 39856 40042 53003 60002 71022 875// 333 10017 21012 93000
AAXX 30181 12330 11360 83005 10024 20017 39951 40060 52028 60062 70276 876// 333 10034 20007 87708 93003
AAXX 30181 12375 11465 82202 10025 20007 39911 40043 52010 69902 70262 875// 333 10031 20004 83613 91108 93097
AAXX 30181 12424 11465 82906 10024 20014 39920 40074 52027 60032 72386 875// 333 10056 20013 83610 91011 91111 93003
BBXX OXHY2 30183 99373 10083 41398 12611 10151 20084 40225 56019 70200 81070 22224 00168 20307 311// 40407 5//// 80114
BBXX A8IO2 30184 99200 70424 41598 40913 10280 20224 40185 70211 8/11/ 22254 04260 2//// 3//// 4//// 5//// 80240
AAXX 30181 33088 32997 02102 10006 21002 39893 40087 58001 333 10040
AAXX 30181 33177 32597 81801 10014 21014 39843 40083 53001 885// 333 10043
AAXX 30181 33261 11/92 91701 10010 20010 39922 40107 53001 69912 75154 333 10018 96047
AAXX 30181 33275 11195 81703 10000 21005 39888 40115 54000 60032 71074 886// 333 10008 88703
AAXX 30181 33301 32597 71703 10001 21007 39805 40091 54000 84530 333 10041
AAXX 30181 33325 11596 80000 10012 20004 39833 40104 52006 69932 72162 8651/ 333 10026 86625
AAXX 30181 33377 11/92 91801 10016 20016 39911 40107 54000 60032 75165 333 10022 96047
AAXX 30181 33415 32997 31804 11007 21022 39696 40102 52003 83030 333 10026
AAXX 30181 33429 12497 71802 10004 21001 39677 40106 52007 69972 87500 333 10017 87611
AAXX 30181 33466 11441 80000 10010 20005 39914 40104 53003 69962 71062 885// 333 10027 85715
AAXX 30181 33526 11622 50000 11022 21028 39755 40104 52002 69902 71022 82530 333 10050
AAXX 30181 33562 11211 80000 10002 21001 39741 40108 52006 69962 71082 886// 333 10009 88703
AAXX 30181 33614 11437 81603 10026 20021 30005 40111 58003 69912 76165 8872/ 333 10031 88711
AAXX 30181 33761 11396 82202 10029 20027 39882 40107 52006 60022 75165 886// 333 10043
AAXX 30181 33902 11596 81601 10044 20037 30050 40117 52005 60042 71082 885// 333 10052
AAXX 30181 33983 11396 80000 10034 20027 30082 40144 53012 69952 71082 886// 333 10045 88708
AAXX 30181 34415 11496 80000 11008 21018 30047 40146 53002 69942 77172 8772/ 333 10007
AAXX 30181 34523 NIL
AAXX 30181 34712 31/92 90803 11017 21017 30066 40154 54000 74944 333 11016 93405
AAXX 30181 02464 45984 /2803 11006 21040 39986 40004 52020 8//// 333 10007 21008
AAXX 30181 02500 05/99 /3503 10032 21041 30007 40050 52010 60002 333 10032 20016 60005 90710 91106
AAXX 30181 02513 05/81 /0000 11007 21023 30051 40056 52016 60002 333 10034 21008 60005 90710 91101
AAXX 30181 02615 05465 /3305 10047 20033 30040 40044 51026 60002 333 10050 20032 60005 87/16 87/47 90710 91107
AAXX 30181 02635 07/64 /0101 10034 20023 69902 70086 333 10046 20010 60005 90710 91105
AAXX 30184 64500 32460 52008 10274 20240 30099 40112 83230 333 10290 58001 83811 85360 94916 95836
AAXX 30184 64501 32360 82004 10260 20239 3//// 4//// 885// 333 10280 5//// 83608 88626
AAXX 30181 12160 11318 82101 10020 20016 39973 40026 51013 60022 75162 886// 333 10028 20013 93091
AAXX 30181 12205 11463 72203 10033 20030 30039 40047 51011 60042 72582 873// 333 10044 20018 93092
AAXX 30181 12465 11240 82204 10012 20008 39812 40048 51009 60022 76882 877// 333 10022 20005 87706 93001
AAXX 30181 12566 11558 42402 11012 21019 39775 40076 53008 69952 71011 84500 333 10040 21020 93095
AAXX 30184 61832 31950 42308 10288 20174 39085 40111 70500 84032 333 10310 59002 84361 82075
AAXX 30184 61802 32970 50408 10285 20088 3//// 4//// 84032 333 10312 5//// 84361 84361 82075
AAXX 30181 06447 36/// /2202 10041 20003 30049 40176 58006 60002 333 10068 91111 91206
AAXX 30181 06431 36/// /2203 10052 20020 30158 40170 58008 60002 333 10068 91109 91207
AAXX 30181 06432 35/64 /0000 10042 20017 30104 40182 58009 333 10063 83/59 88/60 91109 91203
AAXX 30181 06458 359// /2203 10036 20005 30026 40183 58003 333 10063 85/62 88/64 91111 91207
AAXX 30181 06465 17967 /2202 10031 20005 30109 40177 58002 60052 70065 333 10056 83/65 85/73 91107 91204
AAXX 30181 06496 17464 /2503 11001 21008 39493 40185 50003 60032 70087 333 10007 81/13 85/28 87/32 91109 91206
AAXX 30181 06428 35964 /2103 10048 20015 30126 40175 58011 333 10072 83/59 87/61 91110 91205
AAXX 30181 14024 11998 40103 11027 21041 39012 48406 52017 69902 70171 80008 333 11002 48015 93197 92805 95000
AAXX 30184 71633 11556 71408 10017 20008 39809 40082 58012 69901 71052 87500 333 10018 21047 43015 70043 90947
AAXX 30184 71633 11556 71408 10017 20008 39809 40082 58012 69901 71052 87500 333 10018 21047 43015 70043 90947
AAXX 30181 91925 02475 30909 10274 20224 30078 40138 51013 60001 83200 333 56200 60007 83816 90710 91121 555 60005 10921 59003
AAXX 30181 91938 01565 70709 10263 20230 30128 40130 50011 60042 721// 878// 333 10275 20248 60017 83820 86640 90710 91123 555 69965 10823 58002
AAXX 30181 91943 36/// /0612 10283 20221 30141 40143 51011 333 10284 59002
AAXX 30181 91954 06/// /3014 10247 20231 30126 40129 51018 60011 333 69927 555 58013
AAXX 30181 91958 02480 70209 10265 20230 30138 40140 51011 60001 878// 333 56899 60007 85818 86650 90710 91128 555 60005 10329 58004
AAXX 30181 91929 04577 80117 10272 20234 30122 40125 51017 60012 700// 333 10273 20255 69907 90710 91120 555 69905
AAXX 30181 91944 06/// /0714 10274 20214 30156 40159 51012 69962 333 10274 20247 69967 90710 91128 555 60005
AAXX 30181 91948 01580 40305 10259 20213 30083 40185 50001 60021 70286 83201 333 56109 60027 83820 90710 91113 555 60005 11015 59012
AAXX 30181 91945 16/// /0310 10274 20232 30147 40152 51009 69981
AAXX 30184 94299 46/// /1322 10269 20228 30054 40064
AAXX 30184 94300 46/// /2114 10229 20161 30079 40089
AAXX 30184 94302 46/// /2205 10204 20152 30086 40092
AAXX 30184 94312 46/// /2708 10250 20219 30052 40061
AAXX 30184 94313 NIL
AAXX 30184 94317 46/// /0000 10263 20147 39463 40031
AAXX 30184 94319 46/// /3303 10269 20195 39727 40049
AAXX 30184 94324 NIL
AAXX 30184 94326 46/// /2705 10211 21023 39465 40065
AAXX 30184 94327 46/// /1205 10270 20072 39702 40066
AAXX 30184 94332 46/// /0000 10219 20180 39681 40057
AAXX 30184 94333 NIL
AAXX 30184 94341 46/// /1106 10208 20149 39846 40075
AAXX 30184 94346 46/// /0508 10220 20152 39869 40083
AAXX 30184 94363 46/// /1302 10194 20184 39903 40117
AAXX 30184 94366 NIL
AAXX 30184 94367 46/// /1411 10251 20195 30062 40103
AAXX 30184 94374 46/// /1407 10217 20178 30108 40124
AAXX 30184 94388 46/// /1520 10236 20192 30115 40120
AAXX 30184 94393 46/// /1320 10250 30075 40087 55004
AAXX 30184 94394 46/// /1324 10241 30098 40106 53001
AAXX 30184 94403 46/// /2008 10203 20179 30031 40072
AAXX 30184 94429 46/// /2112 10230 20163 39591 40042
AAXX 30184 94430 46/// /2304 10278 20047 39457 40023
AAXX 30184 94449 46/// /3307 10276 20103 39514 40028
AAXX 30184 94451 NIL
AAXX 30184 94461 46/// /0707 10288 21010 39394 40045
AAXX 30184 94462 46/// /1406 10222 20018 39522 40062
AAXX 30184 94477 NIL
AAXX 30184 94488 NIL
AAXX 30184 41024 42960 00000 10260 20220 30132 40152 333 10300 59006 55087
AAXX 30184 41030 42960 00000 10262 20200 39878 40149 333 10334 59003 55///
AAXX 30184 41036 42960 09903 10186 20130 38602 48553 333 10280 59003 55095 555 04410 50149
AAXX 30184 41055 42960 01010 10177 20010 38404 48551 333 10260 59005 55095 555 04410 50168
AAXX 30184 41061 42960 01208 10150 20060 39498 40215 333 10230 58000 55100
AAXX 30184 41084 42960 00000 10186 20010 38900 48551 333 10272 59006 55097 555 04410 50175
AAXX 30184 41112 42960 00000 10143 20120 37983 48548 333 10250 59005 55095 555 04410 50177
AAXX 30184 41114 42960 00000 10146 20120 38017 48549 333 10269 59002 55095 555 04410 50181
AAXX 30184 41128 42960 00000 10155 21010 38870 48570 333 10250 59003 55083 555 04410 50216
AAXX 30184 41136 42960 00607 10170 20020 39384 40209 333 10250 58004 55098
AAXX 30184 41140 42960 01407 10273 20220 30154 40163 333 10304 59001 55///
AAXX 30184 94500 NIL
AAXX 30184 94510 46/// /1405 10202 20159 39764 40103
AAXX 30184 94515 46/// /0508 10189 20156 39783 40125
AAXX 30184 94552 46/// /0910 10163 20121 39686 40146
AAXX 30184 94578 46/// /2106 10172 20146 30143 40154
AAXX 30184 94584 46/// /1426 10217 20146 30023 40132
AAXX 30184 94601 46/// /1416 10188 20178 30066 40083
AAXX 30184 94610 46/// /0304 10209 20192 30031 40054
AAXX 30184 94637 46/// /1112 10245 20124 39613 40027
AAXX 30184 94638 46/// /1301 10208 20182 30033 40064
AAXX 30184 94642 NIL
AAXX 30184 94643 NIL
AAXX 30184 94647 46/// /0412 10275 21042 39933 40051
AAXX 30184 94651 46/// /0610 10198 20026 39998 40073
AAXX 30184 94653 46/// /0609 10204 21001 30073 40091
AAXX 30184 94659 46/// /1108 10229 21046 39918 40109
AAXX 30184 94672 46/// /0000 10183 20128 30120 40130
AAXX 30184 94691 46/// /0208 10241 20050 39804 40124
AAXX 30184 94693 46/// /0505 10187 20101 30076 40137
AAXX 30184 94700 NIL
AAXX 30184 94703 46/// /1011 10219 20107 30010 40133
AAXX 30184 94710 46/// /0810 10202 20097 39900 40148
AAXX 30184 94729 46/// /1307 10099 20082 39337 40176
AAXX 30184 94750 46/// /3004 10140 20132 30078 40201
AAXX 30184 94767 46/// /2406 10173 20140 30192 40198
AAXX 30184 94776 46/// /0000 10159 20140 30180 40190
AAXX 30184 94791 NIL
AAXX 30184 94802 46/// /2606 10182 20179 39988 40069
AAXX 30184 94804 46/// /0813 10192 20164 30077 40114
AAXX 30184 94807 NIL
AAXX 30184 94821 46/// /0000 10127 20114 30062 40144
AAXX 30184 94842 46/// /0411 10164 20148 30054 40152
AAXX 30184 94847 NIL
AAXX 30184 94850 46/// /0809 10148 20144 30113 40159
AAXX 30184 94865 46/// /1605 10145 20139 30135 40159
AAXX 30184 94866 46/// /3607 10155 20132 30022 40161
AAXX 30184 94875 46/// /0906 10167 20112 30038 40172
AAXX 30184 89564 45/// /0714 11010 21047 39873 49893 53026
AAXX 30184 89570 46/// /0911 11059 21101 39267 53005
AAXX 30184 89571 45/// /0207 11005 21039 39906 49935 52006
AAXX 30184 89573 NIL
AAXX 30184 89610 NIL
AAXX 30184 89611 45/// /0609 11022 21047 39858 49910 51005
AAXX 30184 89614 NIL
AAXX 30184 89615 462// 82805 11068 21077 39007 51005
AAXX 30184 89807 NIL
AAXX 30184 89809 46/// /0809 11063 21077 39455 53005
BBXX FHZI 30174 99650 31439 46/// /1611 11009 21022 39816 49827 57006 22211 05018 86014
BBXX FHZI 30164 99650 31439 46/// /1612 11001 21011 39817 49828 57007 22200 05018 86005
AAXX 30184 94893 NIL
AAXX 30184 94907 46/// /3005 10133 20129 30157 40167
AAXX 30184 94910 46/// /0707 10158 20112 39935 40181
AAXX 30184 94926 46/// /3601 10085 20081 39538 40199
AAXX 30184 94935 46/// /3605 10136 20123 30168 40195
AAXX 30184 94954 46/// /0615 10159 20141 30069 40180
AAXX 30184 94956 46/// /0105 10111 20100 30152 40178
AAXX 30184 94975 46/// /3308 10146 20116 30144 40177
AAXX 30184 94983 NIL
AAXX 30184 94995 46/// /1410 10197 20134 30138 40146
AAXX 30184 94996 46/// /2905 10195 20185 39947 40074
AAXX 30184 94997 NIL
AAXX 30184 94998 46/// /3026 10074 20067 39956 49966
AAXX 30184 95111 46/// /3004 10290 20254 30030 40066
AAXX 30184 95205 46/// /2609 10285 20242 30058 40065
AAXX 30184 95322 NIL
AAXX 30184 95448 46/// /2307 10283 20075 39471 40016
AAXX 30184 95458 46/// /0508 10263 20029 39837 40091
AAXX 30184 95480 46/// /1708 10236 21021 30051 40109
AAXX 30184 95481 46/// /0608 10258 20083 30057 40101
AAXX 30184 95482 46/// /0706 10291 20082 30032 40086
AAXX 30184 95485 46/// /0809 10225 2//// 39913 40113
AAXX 30184 95492 46/// /1007 10246 20115 39961 40112
AAXX 30184 95527 46/// /0708 10180 20125 39901 40150
AAXX 30184 95634 46/// /1506 10221 20135 39655 40046
AAXX 30184 95637 46/// /1904 10190 20172 39719 40044
AAXX 30184 95646 46/// /2908 10280 21040 39877 40060
AAXX 30184 95666 NIL
AAXX 30184 95719 46/// /1110 10146 20106 39844 40170
AAXX 30184 95762 46/// /1608 10121 20089 39715 40165
AAXX 30184 95826 NIL
AAXX 30184 95839 46/// /0910 10156 20114 39989 40146
AAXX 30184 95864 NIL
AAXX 30184 95909 NIL
AAXX 30184 95954 NIL
AAXX 30184 95966 46/// /3404 10096 20088 39996 40196
AAXX 30184 96995 46/// /2005 10240 20230 39803 40097
AAXX 30184 96996 454// 11507 10272 20244 30112 40116 57010
AAXX 30184 94102 46/// /2809 10290 20266 30062 40071
AAXX 30184 94103 NIL
AAXX 30184 94120 46/// /2404 10263 20256 30031 40071
AAXX 30184 94122 46/// /3009 10287 20255 30060 40068
AAXX 30184 94131 46/// /3102 10248 20236 39918 40068
AAXX 30184 94132 NIL
AAXX 30184 94147 NIL
AAXX 30184 94150 46/// /2804 10264 20254 30007 40066
AAXX 30184 94151 46/// /3207 10282 20236 30047 4////
AAXX 30184 94170 46/// /0000 10252 20243 30040 40062
AAXX 30184 94200 NIL
AAXX 30184 94203 46/// /2610 10293 20240 30057 40067
AAXX 30184 94206 46/// /3208 10239 2//// 39955 40083
AAXX 30184 94207 46/// /2613 10279 30059 40067 57012
AAXX 30184 94211 NIL
AAXX 30184 94212 46/// /2703 10255 20177 39586 40048
AAXX 30184 94216 46/// /0000 10266 20256 30013 40063
AAXX 30184 94236 NIL
AAXX 30184 94238 46/// /0701 10241 20110 39640 40053
AAXX 30184 94248 NIL
AAXX 30184 94255 46/// /0502 10251 20199 39800 40056
AAXX 30184 94268 46/// /0000 10251 20247 30052 40064
AAXX 30184 94287 46/// /1709 10241 20220 30069 40078
AAXX 30184 94290 NIL
AAXX 30184 94294 46/// /1407 10244 20201 30090 40100
AAXX 30184 94296 NIL
AAXX 30184 94298 46/// /1321 10259 30071 40077 56005
AAXX 30184 95641 NIL
AAXX 30184 40356 41659 71806 10100 20080 39210 48510 60012 76000 85520 333 10160 59015 85630 86460 555 04410 50199
AAXX 30184 40357 42960 01413 10121 20050 39563 40217 333 10167 59021 55///
AAXX 30184 40360 41559 71208 10100 20080 39590 40184 76000 87570 333 10132 59016 55013 87630 87360
AAXX 30184 40361 42960 70406 10144 21030 39424 40202 87020 333 10172 59011 55/// 87460
AAXX 30184 40362 42960 41112 10145 21090 39689 40218 84040 333 10181 59032 55/// 84360
AAXX 30184 40373 42660 21506 10128 20030 39807 40236 82500 333 10190 59007 55/// 82635
AAXX 30184 40375 42560 60202 10140 20010 39298 40181 81300 333 10160 59002 55/// 81930 86640
AAXX 30184 40377 42960 01610 10128 20020 39745 40238 333 10177 59011 55///
AAXX 30184 40394 42660 22206 10144 20020 39065 48541 82400 333 10210 59008 55075 82645 555 04410 50191
AAXX 30184 40400 42660 41002 10228 20150 30133 40161 84500 333 10275 59002 55055 84640
AAXX 30184 40401 42960 00304 10215 20050 39470 40169 333 10260 59011 55///
AAXX 30184 40405 42960 01203 10150 20060 39460 40209 333 10230 59010 55///
AAXX 30184 40416 42960 03006 10145 20110 30203 40223 333 10220 58010 55///
AAXX 30184 40417 42960 03006 10133 20070 30225 40240 333 10208 58012 55///
AAXX 30184 40420 42960 03203 10126 20030 30024 40236 333 10213 58002 55///
AAXX 30184 40430 42960 02903 10216 20060 39447 40164 333 10282 59007 55066
AAXX 30184 40435 NIL
AAXX 30184 40437 42960 01303 10115 20020 39529 40247 333 10190 58002 55093
AAXX 30184 40439 42960 10000 10234 20160 30143 40153 80001 333 10286 59004 55065 81070
AAXX 30184 88963 11330 82315 10026 21007 39624 49653 57016 60021 76874 887// 333 56799 88708 90062 90088 90315 90666 90976 92405 93100 94073 95013 96028
AAXX 30184 88968 11240 83624 10012 20004 39789 49804 57028 69921 77075 887// 333 56199 86706 88710 90010 90090 90208 90295 90915 92425 92731 92801 93000 93100 94075 95085 96010
AAXX 30184 89034 11456 83603 11038 21053 39478 49792 53001 69901 77172 8357/ 333 56829 83610 88360 92840 96010 97508
AAXX 30184 89053 11220 82728 10020 20013 39665 49678 53011 69911 76662 8572/ 333 56669 85704 88530 90004 90093 90268 90284 90941 92434 94070 94471 95090 96010 97536 98520
AAXX 30184 89055 11002 81806 11007 21008 39433 49670 57013 60111 77474 8372/ 333 56469 83701 88520 90055 90097 90243 90276 92730 92800 95190 96046
AAXX 30184 89066 NIL
AAXX 30184 85832 12780 19904 10253 20094 40135 57019 60001 81100 333 56000 81850
AAXX 30184 85836 12960 02409 10246 20103 40192 57021 60001
AAXX 30184 85864 12680 33507 10198 20149 40128 57007 60001 83200 333 56800 83833
AAXX 30184 85874 12980 23127 10210 20106 39493 40088 57010 60001 80001 333 56006 82070
AAXX 30184 85886 12670 52834 10272 20221 40057 55010 60001 81231 333 56666 81840 84070
AAXX 30184 85892 12670 33115 10252 20067 40054 57011 60001 83141 333 56666 83840
AAXX 30184 85934 11580 42734 10169 20071 49889 52012 69921 70182 83530 333 56660 83620
AAXX 30184 89054 11250 82918 10020 20009 49674 52010 69991 71077 887// 333 56699 88703 96063
AAXX 30184 89056 11225 83021 10011 20005 49668 52008 69963 76862 885// 333 56699 88605
AAXX 30184 89057 11860 82719 10018 20006 49669 52017 60033 70277 8802/ 333 56079 88457
AAXX 30184 89058 11558 82917 10024 20009 39648 49668 52009 69951 71076 885//
AAXX 30184 89059 11325 82506 10002 21011 49651 57009 60043 77172 885// 333 76099 82606
AAXX 30184 89251 31258 83023 10018 20004 49657 52006 71022 8672/
AAXX 30183 NIL
AAXX 30184 85406 12982 02110 10253 20140 40115 57013 60001
AAXX 30184 85418 12970 42214 10235 20125 40121 57010 60001 80001 333 56000 84080
AAXX 30184 85432 12870 52519 10230 20032 37748 48404 58009 60001 81101 333 56606 81858 84072
AAXX 30184 85442 12575 21811 10223 20128 40113 57014 60001 82500 333 56400 82630
AAXX 30184 85467 NIL
AAXX 30184 85469 41465 51108 10226 20177 40210 52002 72522 85201 333 56200 82815 84820
AAXX 30184 85488 11460 82909 10194 20134 40139 58004 60001 70252 885// 333 56699 82615 88622
AAXX 30184 85574 12960 02218 10292 20095 39553 40074 57005 60001
AAXX 30184 85577 12960 02408 10296 20093 39505 40081 56005 60001
AAXX 30184 85585 12498 41813 10201 20132 30152 40188 58002 60001 84500 333 56400 84617
AAXX 30184 85586 11457 62809 10180 20111 40151 60001 70522 86500 333 56600 86615
AAXX 30184 85629 NIL
AAXX 30184 85672 12970 02107 10298 20136 40096 57014 60001 333
AAXX 30184 85682 12960 02412 10241 20116 40106 58012 60001
AAXX 30184 85743 11956 02510 10262 20075 40125 56014 60001 70400
AAXX 30184 85766 12960 01710 10273 20078 40137 57013 60001
AAXX 30184 85782 12970 01812 10242 20105 40157 57015 60001
AAXX 30184 85799 12960 21412 10199 20129 40171 57006 60001 80001 333 56004 82070
AAXX 30184 85830 NIL
AAXX 30184 94299 46/// /1322 10269 20228 30054 40064
AAXX 30184 94300 46/// /2114 10229 20161 30079 40089
AAXX 30184 94302 46/// /2205 10204 20152 30086 40092
AAXX 30184 94312 46/// /2708 10250 20219 30052 40061
AAXX 30184 94313 NIL
AAXX 30184 94317 46/// /0000 10263 20147 39463 40031
AAXX 30184 94319 46/// /3303 10269 20195 39727 40049
AAXX 30184 94324 NIL
AAXX 30184 94326 46/// /2705 10211 21023 39465 40065
AAXX 30184 94327 46/// /1205 10270 20072 39702 40066
AAXX 30184 94332 46/// /0000 10219 20180 39681 40057
AAXX 30184 94333 NIL
AAXX 30184 94341 46/// /1106 10208 20149 39846 40075
AAXX 30184 94346 46/// /0508 10220 20152 39869 40083
AAXX 30184 94363 46/// /1302 10194 20184 39903 40117
AAXX 30184 94366 NIL
AAXX 30184 94367 46/// /1411 10251 20195 30062 40103
AAXX 30184 94374 46/// /1407 10217 20178 30108 40124
AAXX 30184 94388 46/// /1520 10236 20192 30115 40120
AAXX 30184 94393 46/// /1320 10250 30075 40087 55004
AAXX 30184 94394 46/// /1324 10241 30098 40106 53001
AAXX 30184 94403 46/// /2008 10203 20179 30031 40072
AAXX 30184 94429 46/// /2112 10230 20163 39591 40042
AAXX 30184 94430 46/// /2304 10278 20047 39457 40023
AAXX 30184 94449 46/// /3307 10276 20103 39514 40028
AAXX 30184 94451 NIL
AAXX 30184 94461 46/// /0707 10288 21010 39394 40045
AAXX 30184 94462 46/// /1406 10222 20018 39522 40062
AAXX 30184 94477 NIL
AAXX 30184 94488 NIL
BBXX VNSZ 30164 99399 31456 46/// /0724 10169 20155 30158 40184 52009 22236 04176 85160
BBXX 9HA2479 30164 99275 31597 46/// /1729 10214 20164 30084 40113 57024 22214 04233 85181
BBXX VNSZ 30174 99403 31459 46/// /0822 10167 20152 30158 40184 52003 22236 04175 85158
BBXX 9HA2479 30174 99273 31600 46/// /1730 10214 20166 30082 40111 57016 22214 04232 85183
BBXX C6FS9 30174 99388 31426 46/// /0906 10168 20148 30120 40157 57009 22223 04176 85156
BBXX VNAH 30174 99383 31416 46/// /0804 10178 20139 30124 40148 57018 22200 04198 85154
BBXX C6FS9 30164 99387 31424 46/// /1011 10174 20153 30122 40159 57012 22223 04181 85161
BBXX VROB 30164 99274 31532 46/// /1905 10208 20141 30132 40157 57014 22200 04248 85166
BBXX VNAH 30164 99383 31416 46/// /0705 10183 20138 30128 40152 57019 22200 04199 85155
BBXX VROB 30174 99274 31532 46/// /1904 10204 20138 30130 40155 57010 22200 04248 85163
BBXX 3ECI3 30184 99399 31738 41294 81342 10170 20135 40077 58010 76362 8972/ 22231 00180 20618 315// 40618 80150
BBXX VNSZ 30184 99408 31461 46/// /0819 10168 20140 30163 40189 52001 22236 04179 85151
BBXX ZCBU6 30184 99392 31597 41398 81618 10150 20113 40190 52008 70211 887// 22234 00176 20402 314// 40504 5//// 80130
BBXX VRAE2 30184 99247 31655 41598 52011 10235 20188 40086 54000 70011 84530 22274 04260 20101 322// 40403 80205
BBXX 2ALD3 30183 99247 31539 41/98 /1427 10240 20211 40111 53/// 70322 8//// 22243 04270 20604 80220
AAXX 30184 41241 NIL
AAXX 30184 41242 36/// /0000 10159 20106 30197 40221 333 0E020 10257 58009
AAXX 30184 41244 36/// /3205 10164 20097 39858 48389 333 0E017 10225 59005
AAXX 30184 41246 NIL
AAXX 30184 41251 32960 32202 10085 20043 38055 48197 80001 333 10131 58007 83075
AAXX 30184 41252 NIL
AAXX 30184 41253 36/// /3602 10195 20142 39833 40218 333 0E021 10244 58009
AAXX 30184 41254 36/// /3404 10084 20041 38013 48018 333 0E008 10127 58033
AAXX 30184 41255 36/// /2101 10201 20060 39661 40217 333 0E020 10257 58010
AAXX 30184 41256 32560 41602 10197 20122 30198 40208 82530 333 10251 58011 82625
AAXX 30184 41257 NIL
AAXX 30184 41258 36/// /0104 10232 20135 30196 40201 333 0E/// 10247 58013
AAXX 30184 41259 36/// /2912 10022 21206 37123 40294 333 0E/// 10072 58001
AAXX 30184 41262 NIL
AAXX 30184 41263 36/// /9902 10192 20044 39514 40207 333 0E019 10241 58008
AAXX 30184 41264 NIL
AAXX 30184 41265 36/// /1504 10206 20142 39656 40210 333 0E022 10253 58008
AAXX 30184 41267 35/// /3319 10234 20153 30179 40195 333 0E023 10248 58001
AAXX 30184 41268 36/// /0011 10231 20147 30179 48406 333 0E024 10261 58003
AAXX 30184 41270 36/70 /0009 10224 20138 30140 40152 333 0E022 10266 58002
AAXX 30184 41275 NIL
AAXX 30184 41287 36/// /1001 10211 20172 30150 40218 333 0E018 10265 59001
AAXX 30184 41288 NIL
AAXX 30184 41290 NIL
AAXX 30184 41295 36/// /2908 10160 20074 30010 40193 333 0E018 10239 59005
AAXX 30184 41304 NIL
AAXX 30184 41312 36/// /3315 10245 20015 30149 40188 333 0E/// 10282 59007
AAXX 30184 41314 NIL
AAXX 30184 41315 NIL
AAXX 30184 41316 NIL
AAXX 30184 94893 NIL
AAXX 30184 94907 46/// /3005 10133 20129 30157 40167
AAXX 30184 94910 46/// /0707 10158 20112 39935 40181
AAXX 30184 94926 46/// /3601 10085 20081 39538 40199
AAXX 30184 94935 46/// /3605 10136 20123 30168 40195
AAXX 30184 94954 46/// /0615 10159 20141 30069 40180
AAXX 30184 94956 46/// /0105 10111 20100 30152 40178
AAXX 30184 94975 46/// /3308 10146 20116 30144 40177
AAXX 30184 94983 NIL
AAXX 30184 94995 46/// /1410 10197 20134 30138 40146
AAXX 30184 94996 46/// /2905 10195 20185 39947 40074
AAXX 30184 94997 NIL
AAXX 30184 94998 46/// /3026 10074 20067 39956 49966
AAXX 30184 95111 46/// /3004 10290 20254 30030 40066
AAXX 30184 95205 46/// /2609 10285 20242 30058 40065
AAXX 30184 95322 NIL
AAXX 30184 95448 46/// /2307 10283 20075 39471 40016
AAXX 30184 95458 46/// /0508 10263 20029 39837 40091
AAXX 30184 95480 46/// /1708 10236 21021 30051 40109
AAXX 30184 95481 46/// /0608 10258 20083 30057 40101
AAXX 30184 95482 46/// /0706 10291 20082 30032 40086
AAXX 30184 95485 46/// /0809 10225 2//// 39913 40113
AAXX 30184 95492 46/// /1007 10246 20115 39961 40112
AAXX 30184 95527 46/// /0708 10180 20125 39901 40150
AAXX 30184 95634 46/// /1506 10221 20135 39655 40046
AAXX 30184 95637 46/// /1904 10190 20172 39719 40044
AAXX 30184 95646 46/// /2908 10280 21040 39877 40060
AAXX 30184 95666 NIL
AAXX 30184 95719 46/// /1110 10146 20106 39844 40170
AAXX 30184 95762 46/// /1608 10121 20089 39715 40165
AAXX 30184 95826 NIL
AAXX 30184 95839 46/// /0910 10156 20114 39989 40146
AAXX 30184 95864 NIL
AAXX 30184 95909 NIL
AAXX 30184 95954 NIL
AAXX 30184 95966 46/// /3404 10096 20088 39996 40196
AAXX 30184 96995 46/// /2005 10240 20230 39803 40097
AAXX 30184 96996 454// 11507 10272 20244 30112 40116 57010
AAXX 30184 40550 35/66 /3302 10087 21052 40243 51005 333 55300 00000 10144 20000 30000 41102 51245 60000 55407 40000 90069 90400 91003 91107 91203 91301
AAXX 30184 40551 36/// /3302 10104 21075 333 90401 91003 91107 91205 91303
AAXX 30184 40552 35/69 /0205 10114 21061 40242 50003 333 55300 90069 90401 91005 91107 91205 91305
AAXX 30184 40553 35/64 /3602 10118 21060 40241 50004 333 55300 90069 90401 91001 91107 91205 91303
AAXX 30184 40568 36/// /3505 10127 20046 333 90401 91005 91111 91209 91307
AAXX 30184 40569 NIL
AAXX 30184 40570 35/70 /1405 10107 21080 40249 51013 333 55300 90069 90401 91007 91109 91207 91305
AAXX 30184 40571 NIL
AAXX 30184 40572 NIL
AAXX 30184 40573 36/// /1503 10105 21075 333 90400 91003 91107 91205 91303
AAXX 30184 40580 36/// /2201 10101 20003 333 553// 00000 10176 20000 30000 41090 51263 60000 55407 40000 90401 91001 91105 91201 91301
AAXX 30184 40581 36/// /0501 10149 21008 333 90401 91001 91105 91201 91301
AAXX 30184 40582 32960 41804 10101 21076 40242 50003 80004 333 55300 00000 10167 20000 30000 41111 51276 60000 55407 40000 84070 90400 91005 91107 91205 91301
AAXX 30184 40583 NIL
AAXX 30184 40585 36/// /2906 10158 21011 222// 1//// 3//// 4//// 70/// 333 90400 91007 91111 91209 91307
AAXX 30184 40586 36/// /2204 10114 21057 333 90400 91005 91107 91205 91301
AAXX 30184 40587 36/// /2303 10098 21048 333 553// 00000 10146 20000 30000 41092 51236 60000 55407 40000 90400 91003 91107 91203 91301
AAXX 30184 40588 35/64 /3005 10114 20049 40239 51004 333 55300 90069 90401 91005 91105 91205 91301
AAXX 30184 40589 NIL
AAXX 30184 40590 36/// /1606 10121 21062 333 90401 91005 91111 91207 91305
AAXX 30184 40591 NIL
AAXX 30184 40592 37/58 /2402 10084 20015 40247 52005 71010 333 55300 00000 10169 20000 30000 41100 51270 60000 55407 40000 90069 90401 91001 91107 91203 91301
AAXX 30184 40593 36/// /2603 10130 20035 333 90400 91003 91109 91209 91303
AAXX 30184 40594 36/// /3003 10126 20042 333 90400 91003 91111 91207 91303
AAXX 30184 40596 46/// /3503 10162 20074 333 90401 91003 91113 91209 91305
AAXX 30184 89564 45/// /0714 11010 21047 39873 49893 53026
AAXX 30184 89570 46/// /0911 11059 21101 39267 53005
AAXX 30184 89571 45/// /0207 11005 21039 39906 49935 52006
AAXX 30184 89573 NIL
AAXX 30184 89610 NIL
AAXX 30184 89611 45/// /0609 11022 21047 39858 49910 51005
AAXX 30184 89614 NIL
AAXX 30184 89615 462// 82805 11068 21077 39007 51005
AAXX 30184 89807 NIL
AAXX 30184 89809 46/// /0809 11063 21077 39455 53005
AAXX 30184 94500 NIL
AAXX 30184 94510 46/// /1405 10202 20159 39764 40103
AAXX 30184 94515 46/// /0508 10189 20156 39783 40125
AAXX 30184 94552 46/// /0910 10163 20121 39686 40146
AAXX 30184 94578 46/// /2106 10172 20146 30143 40154
AAXX 30184 94584 46/// /1426 10217 20146 30023 40132
AAXX 30184 94601 46/// /1416 10188 20178 30066 40083
AAXX 30184 94610 46/// /0304 10209 20192 30031 40054
AAXX 30184 94637 46/// /1112 10245 20124 39613 40027
AAXX 30184 94638 46/// /1301 10208 20182 30033 40064
AAXX 30184 94642 NIL
AAXX 30184 94643 NIL
AAXX 30184 94647 46/// /0412 10275 21042 39933 40051
AAXX 30184 94651 46/// /0610 10198 20026 39998 40073
AAXX 30184 94653 46/// /0609 10204 21001 30073 40091
AAXX 30184 94659 46/// /1108 10229 21046 39918 40109
AAXX 30184 94672 46/// /0000 10183 20128 30120 40130
AAXX 30184 94691 46/// /0208 10241 20050 39804 40124
AAXX 30184 94693 46/// /0505 10187 20101 30076 40137
AAXX 30184 94700 NIL
AAXX 30184 94703 46/// /1011 10219 20107 30010 40133
AAXX 30184 94710 46/// /0810 10202 20097 39900 40148
AAXX 30184 94729 46/// /1307 10099 20082 39337 40176
AAXX 30184 94750 46/// /3004 10140 20132 30078 40201
AAXX 30184 94767 46/// /2406 10173 20140 30192 40198
AAXX 30184 94776 46/// /0000 10159 20140 30180 40190
AAXX 30184 94791 NIL
AAXX 30184 94802 46/// /2606 10182 20179 39988 40069
AAXX 30184 94804 46/// /0813 10192 20164 30077 40114
AAXX 30184 94807 NIL
AAXX 30184 94821 46/// /0000 10127 20114 30062 40144
AAXX 30184 94842 46/// /0411 10164 20148 30054 40152
AAXX 30184 94847 NIL
AAXX 30184 94850 46/// /0809 10148 20144 30113 40159
AAXX 30184 94865 46/// /1605 10145 20139 30135 40159
AAXX 30184 94866 46/// /3607 10155 20132 30022 40161
AAXX 30184 94875 46/// /0906 10167 20112 30038 40172
AAXX 30184 94102 46/// /2809 10290 20266 30062 40071
AAXX 30184 94103 NIL
AAXX 30184 94120 46/// /2404 10263 20256 30031 40071
AAXX 30184 94122 46/// /3009 10287 20255 30060 40068
AAXX 30184 94131 46/// /3102 10248 20236 39918 40068
AAXX 30184 94132 NIL
AAXX 30184 94147 NIL
AAXX 30184 94150 46/// /2804 10264 20254 30007 40066
AAXX 30184 94151 46/// /3207 10282 20236 30047 4////
AAXX 30184 94170 46/// /0000 10252 20243 30040 40062
AAXX 30184 94200 NIL
AAXX 30184 94203 46/// /2610 10293 20240 30057 40067
AAXX 30184 94206 46/// /3208 10239 2//// 39955 40083
AAXX 30184 94207 46/// /2613 10279 30059 40067 57012
AAXX 30184 94211 NIL
AAXX 30184 94212 46/// /2703 10255 20177 39586 40048
AAXX 30184 94216 46/// /0000 10266 20256 30013 40063
AAXX 30184 94236 NIL
AAXX 30184 94238 46/// /0701 10241 20110 39640 40053
AAXX 30184 94248 NIL
AAXX 30184 94255 46/// /0502 10251 20199 39800 40056
AAXX 30184 94268 46/// /0000 10251 20247 30052 40064
AAXX 30184 94287 46/// /1709 10241 20220 30069 40078
AAXX 30184 94290 NIL
AAXX 30184 94294 46/// /1407 10244 20201 30090 40100
AAXX 30184 94296 NIL
AAXX 30184 94298 46/// /1321 10259 30071 40077 56005
AAXX 30184 95641 NIL
AAXX 30183 91502 NIL
AAXX 30183 91507 NIL
AAXX 30183 91520 01470 82702 10247 20244 40079 55007 60011 75085 8597/ 333 56999 60017 81815 81916 85629 88460
AAXX 30183 91541 NIL
AAXX 30181 38141 32998 01001 11038 21079 30195 40362 57002 333 11013
AAXX 30181 38149 42998 01001 11052 21106 30304 40385 53001 333 10017
AAXX 30181 38178 425// 80904 11024 21135 30125 40426 52006 885// 333 11013
AAXX 30181 38262 329// 00000 11072 21125 30282 40369 52001 333 10012
AAXX 30181 38264 42998 01004 11035 21053 30287 40385 57007 333 10002
AAXX 30181 38396 42997 01103 11043 21066 30266 40398 58002 333 10029
AAXX 30181 38403 429// 00000 11033 21122 30274 40402 53008 333 10019
AAXX 30181 38413 429// 00000 11026 21085 30105 40411 52004 333 11006
AAXX 30181 38457 11992 20301 11050 21057 39804 40428 52002 60012 74441 82040 333 10012
AAXX 30181 38462 129// 30000 11084 21116 38897 48609 52007 6003/ 83050 333 11018
AAXX 30181 38565 329// 00000 11042 21061 39791 40409 58005 333 10014
AAXX 30181 38579 11/// 90000 11050 21053 39975 40421 52003 60092 74342 89/// 333 10004
AAXX 30181 38583 12997 20202 11023 21023 30085 40425 52001 60012 80001 333 10023
AAXX 30181 38611 11696 70703 11005 21017 39820 40417 52010 60032 71071 84570 333 10024 83346
AAXX 30181 38618 119// 30000 11007 21014 39683 40402 52001 69960 70272 82078 333 10014
AAXX 30181 38683 12997 00203 11025 21054 30104 40396 58004 69900 333 10024
AAXX 30181 38696 129// 01402 11059 21070 39507 40420 52004 60042 333 10020
AAXX 30181 38812 NIL
AAXX 30181 38927 NIL
BBXX VNSZ 30164 99399 31456 46/// /0724 10169 20155 30158 40184 52009 22236 04176 85160
BBXX 9HA2479 30164 99275 31597 46/// /1729 10214 20164 30084 40113 57024 22214 04233 85181
BBXX VNSZ 30174 99403 31459 46/// /0822 10167 20152 30158 40184 52003 22236 04175 85158
BBXX 9HA2479 30174 99273 31600 46/// /1730 10214 20166 30082 40111 57016 22214 04232 85183
BBXX C6FS9 30174 99388 31426 46/// /0906 10168 20148 30120 40157 57009 22223 04176 85156
BBXX VNAH 30174 99383 31416 46/// /0804 10178 20139 30124 40148 57018 22200 04198 85154
BBXX C6FS9 30164 99387 31424 46/// /1011 10174 20153 30122 40159 57012 22223 04181 85161
BBXX VROB 30164 99274 31532 46/// /1905 10208 20141 30132 40157 57014 22200 04248 85166
BBXX VNAH 30164 99383 31416 46/// /0705 10183 20138 30128 40152 57019 22200 04199 85155
BBXX VROB 30174 99274 31532 46/// /1904 10204 20138 30130 40155 57010 22200 04248 85163
BBXX 3ECI3 30184 99399 31738 41294 81342 10170 20135 40077 58010 76362 8972/ 22231 00180 20618 315// 40618 80150
BBXX VNSZ 30184 99408 31461 46/// /0819 10168 20140 30163 40189 52001 22236 04179 85151
BBXX ZCBU6 30184 99392 31597 41398 81618 10150 20113 40190 52008 70211 887// 22234 00176 20402 314// 40504 5//// 80130
BBXX VRAE2 30184 99247 31655 41598 52011 10235 20188 40086 54000 70011 84530 22274 04260 20101 322// 40403 80205
BBXX 2ALD3 30183 99247 31539 41/98 /1427 10240 20211 40111 53/// 70322 8//// 22243 04270 20604 80220
AAXX 30184 91375 NIL
AAXX 30184 91519 NIL
AAXX 30184 91531 NIL
AAXX 30184 91532 45/// /0604 10257 20230 30082 40090 52004
AAXX 30184 91559 NIL
AAXX 30184 91611 NIL
AAXX 30184 91642 NIL
AAXX 30184 91679 NIL
AAXX 30184 91689 NIL
AAXX 30184 91756 NIL
AAXX 30184 91844 NIL
AAXX 30184 92036 NIL
AAXX 30184 93713 NIL
AAXX 30184 94310 46/// /2817 10270 20214 30050 40061 57008
AAXX 30184 95283 46/// /1308 10265 20225 30058 40065
AAXX 30184 95288 46/// /1432 10256 30039 40054 56008
AAXX 30184 95675 46/// /0504
AAXX 30184 95872 46/// /3308
AAXX 30184 95961 35/// /3609 10146 30131 40173 57011
AAXX 30184 13625 11960 80000 10030 20000 39899 40135 54005 69902 75052 8802/ 333 10064 88460
AAXX 30181 37395 32997 00910 10110 21012 30037 40176 57010 333 10148
AAXX 30181 37409 32598 60909 11007 21031 38798 48517 52002 85540 333 10016 95090
AAXX 30181 37432 16/// ///00 11037 21052 3//// 48/// 5//// 60002 333 10048
AAXX 30181 37514 32996 00000 11033 21081 39059 40257 53013 333 10094
AAXX 30181 37545 329// 00000 10000 21008 39727 40257 52012 333 10080
AAXX 30181 37621 329// 00000 11010 21035 39601 40265 54000 333 10070
AAXX 30181 37484 NIL
AAXX 30181 34523 32497 81703 10000 21018 30073 40151 57004 886// 333 10000 88713
BBXX ZQAY4 30184 99131 31524 41497 32714 10280 20237 40067 56006 71311 83200 22243 00317 20802 327// 40803 5//// 80250
BBXX DQVI 30183 99364 10181 41698 82108 10160 20118 40115 51005 71322 8/9// 22224 00185 20502 80135
AAXX 30184 78947 11578 41114 10293 20223 30155 40158 60001 7050084200 333 02200 10297 20245 59005 70001 84824
BBXX 41038 30181 99341 70777 46/// /2205 10152 40188 58024 91800 22200 00133 333 91205
AAXX 30181 26045 01484 82204 10028 20017 39947 49949 52019 69942 70222 875// 333 10032 20026 60007 87615 91008 91109 555 1/002 20026 3/002 50033
AAXX 30184 48353 31957 00000 10195 20179 39876 40172 57003 71000 333 58018
AAXX 30184 48500 31940 20000 10246 20209 30124 40131 57012 71000 80005 333 58004
AAXX 30184 48565 32560 60904 10269 20232 30106 40116 57007 82246 333 58003
AAXX 30181 26058 27484 72204 10026 20012 39947 49955 51017 70050 87/// 333 10035 20020 60007 87/11 91008 91112 555 1/001 20020 3/001 50032 52002
AAXX 30181 50468 NIL
AAXX 30181 50953 NIL
AAXX 30181 51076 NIL
AAXX 30181 51243 NIL
AAXX 30181 51288 32980 02002 11128 21197 38412 52027 333 00354 11017
AAXX 30181 51463 NIL
AAXX 30181 51573 NIL
AAXX 30181 51709 NIL
AAXX 30181 52533 NIL
AAXX 30181 52652 NIL
AAXX 30181 52866 NIL
AAXX 30181 52983 NIL
AAXX 30181 53463 NIL
AAXX 30181 53513 NIL
AAXX 30181 53588 NIL
AAXX 30181 53772 NIL
AAXX 30181 53915 NIL
AAXX 30181 54218 32970 00000 11117 21168 39464 40313 57005 333 11052
AAXX 30181 54337 NIL
AAXX 30181 54342 NIL
AAXX 30181 54401 NIL
AAXX 30181 54471 NIL
AAXX 30181 54497 NIL
AAXX 30181 54511 NIL
AAXX 30181 54823 NIL
AAXX 30181 56080 NIL
AAXX 30181 56096 NIL
AAXX 30181 57083 NIL
AAXX 30184 48430 31958 20000 10249 20181 30133 40140 56006 71000 80002 333 58008
AAXX 30184 48373 31558 50000 10244 20223 30092 40155 52004 71011 82536 333 58019
AAXX 30184 48458 32960 00000 10220 20188 30075 40157 57005 333 58008
BBXX 44139 30181 99442 70571 46/// /2714 10043 40172 52014 22200 00046 11313 70063 333 91218
AAXX 30181 01441 16/// /0101 11170 21184 39069 40123 52009 60002 333 11033 91104
AAXX 30181 01488 16/// /0000 11059 21066 60002 333 11001 4/007 91104
AAXX 30184 61766 32956 80606 10277 20078 30083 40125 70522 86051 333 10300 58003 86360
AAXX 30184 61769 31958 70404 10274 20126 3//// 4//// 70522 84031 333 10294 5//// 84359 83075
AAXX 30184 61781 32960 6//// 10284 20122 30026 40051 86040 333 10334 58000 86359
AAXX 30184 60285 32460 13210 10156 20118 40284 53001 81500 333 10188 81616
AAXX 30184 89002 41599 81505 11010 21035 39781 49835 52002 77072 888//
BBXX 9HA2064 30183 99373 11343 41/// /3115 10040 20017 40260 52020 700// 8//// 22234 0//// 2//// 3//// 4//// 5//// 6//// 80030 ICE /////
BBXX C6SI6 30184 99406 11444 46/// /3128 10034 21018 40096 56003 7//// 8//// 22213 0//// 2////
AAXX 30184 64700 32960 23406 10280 20053 39771 40111 80002 333 10365 58001 82075
AAXX 30184 64750 32960 50000 10260 20101 39673 40084 80002 91755 333 10387 59002 85075
AAXX 30184 06670 01770 12004 10006 21016 39700 40228 5//// 60022 70187 81540 333 10046 31/// 553// 20000 60005 81650 90766 93100
AAXX 30184 06700 01580 72701 10023 20013 39741 40248 5//// 60052 71582 878// 333 10044 32/// 553// 20000 60005 82825 87645 90766 93100
AAXX 30184 06680 01/01 92615 11124 21135 37445 47963 5//// 60202 74574 333 11091 47360 553// 20000 69945 90766 93116
AAXX 30184 06990 01450 80000 10006 21007 39658 40222 5//// 60052 76872 887// 333 10044 41/// 553// 20000 69915 88715
AAXX 30184 06760 02880 30204 10035 21057 39719 40175 5//// 60022 83020 333 10065 31/// 553// 20000 60005 83457 90766 93100
AAXX 30184 06720 03/// /2605 10023 21002 39652 40243 5//// 60042 333 10052 553// 20000 60005
AAXX 30184 06610 01667 82105 10024 20005 39643 40242 5//// 60042 78487 887// 333 10039 32/// 553// 20000 60005 88737 90766 93100
AAXX 30183 91802 NIL
AAXX 30183 91809 NIL
AAXX 30183 91831 36/// /2906 10250 20239 40082 52016 555 2////
AAXX 30183 91841 36/// /0000 10259 20230 40059 52010 555 20570
AAXX 30183 91848 36/// /1412 10228 20223 49846 52023 555 20496
AAXX 30183 91843 11397 71512 10240 20225 40077 52022 60024 78082 8477/ 333 5639/ 83706 84816 87460
AAXX 30184 04048 21458 81052 10029 20002 49749 57036 76177 8472/ 333 10030 21001 60028 555 3/554
BBXX 44139 30181 99442 70571 46/// /2714 10043 40172 52014 22200 00046 11313 70063 333 91218
AAXX 30181 38812 12997 03401 11015 21032 39898 40374 53001 69902 333 10043
AAXX 30184 41241 36/// /1504 10205 20033 30175 40213 333 0E023 10244 58010
AAXX 30184 91753 01/80 /0000 10242 20232 30057 40089 53017 69902 700// 333 10285 20235 60007 90710 91103 555 60005
AAXX 30184 91754 06/// /0302 10251 20226 30047 40088 53014 60001 333 60007 555 60005
AAXX 30184 71148 16/// /1802 11073 21088 39507 40096 58005 60001 333 11070 21121 70051 555 10060
AAXX 30184 71243 16/// /2318 10077 21009 38903 49954 57009 60001 333 10077 21007 70000
AAXX 30184 71246 16/// /3603 11090 21103 39307 49969 58007 60001 333 11036 21133 70000
AAXX 30184 71453 16/// /1822 10038 21048 39056 49955 58028 60001 333 10040 21036 70007
AAXX 30184 71456 16/// /1808 11100 21118 39434 40037 58011 60001 333 11055 21120 70000
AAXX 30184 71470 16/// /1208 11264 21291 39421 40069 51004 60001 333 11243 21297 70000
AAXX 30184 71475 17/// /1103 10047 20040 39930 40023 53039 60011 7//4/ 333 10048 20000 70144
AAXX 30184 71476 17/// /3220 39963 53061 60021 7//4/ 333 70304
AAXX 30184 71480 17/// /0101 11253 21278 39908 40034 53011 69931 7//4/ 333 11230 21292 70008 555 10010
AAXX 30184 71484 16/// /3429 10045 21028 39963 49981 53063 60001 333 10045 20011 70000
AAXX 30184 71487 16/// /1609 10008 21022 39167 40027 56022 60001 333 10008 21059 70000
AAXX 30184 71489 16/// /1109 11032 21052 39177 49975 58035 60001 333 11032 21163 70000
AAXX 30184 71492 46/// ///39 11227 21253 39286 49995 58018 6///1 333 11215 21262 7////
BBXX 44150 30181 99425 70640 46/// /2908 10056 40205 5//// 22200 00078 10905 70025 333 91210
AAXX 30184 71669 16/// /2402 11002 21020 38354 49943 53001 60001 333 10014 21034 70000
AAXX 30184 71435 17/// /0202 11065 21071 39486 40087 58002 69931 7//4/ 333 11065 21087 70003
AAXX 30184 71447 16/// /1803 11066 21082 39541 40092 58005 60001 333 11055 21137 70011
AAXX 30184 71472 17/// /3531 10023 21010 69921 7//4/ 333 10043 20010 70024
AAXX 30184 71710 17/// /2818 11023 21053 30122 40132 53031 60011 7//4/ 333 11023 21086 70011
AAXX 30184 71724 16/// /0504 11137 21196 30197 40205 56022 60001 333 11134 21201 70000
AAXX 30184 71736 46/// ///// 10041 21020 6///1 333 10041 21013 7//// 555 10010
AAXX 30184 71742 46/// /2518 11027 21059 39835 40022 53038 6///1 333 11025 21061 7////
AAXX 30184 71744 16/// /2707 11061 21153 30130 40172 53015 60001 333 11058 21118 70000
AAXX 30184 71747 46/// /0000 11060 21071 39612 40094 50000 6///1 333 11028 7////
AAXX 30184 71837 16/// ///// 10058 60001 333 10058 21007 70000
AAXX 30184 71839 16/// ///// 10049 60001 333 10053 21014 70000
AAXX 30184 71268 11266 80905 11082 21096 39686 40099 57012 69901 70272 886// 333 11082 21125 70018 90941
AAXX 30184 71288 17/// /0306 11375 21414 30102 40129 56004 69931 7//4/ 333 11363 21404 70003
AAXX 30184 71294 17/// /0202 11111 21123 39718 40133 58017 69931 7//4/ 333 11111 70006
AAXX 30184 71296 16/// /1105 11061 21063 39791 40102 58014 60001 333 11060 70003 555 10010
AAXX 30184 71299 46/// /1106 11137 21164 39845 40136 58021 6///1 333 11137 21232 7////
AAXX 30184 71074 16/// ///03 11355 21391 30034 40116 56014 60001 333 11343 21360 70000
AAXX 30184 71087 46/// /3101 11255 21281 39795 40007 52016 6///1 333 11170 21280 7////
AAXX 30184 71015 16/// ///// 10039 60001 333 10039 21017 70000
AAXX 30184 71017 46/// /2807 11377 21417 30148 40164 5/003 6///1 333 7////
AAXX 30184 71018 16/// ///05 11376 21415 30028 40120 56008 60001 333 11287 21381 70000
AAXX 30184 71019 46/// /3005 11091 21152 39879 40192 53006 6///1 333 11089 21149 7////
AAXX 30184 71020 46/// /0000 11308 21340 39741 40009 53010 6///1 333 11244 21310 7////
AAXX 30184 71021 46/// /0000 11290 21320 39642 40009 53009 6///1 333 11234 21305 7////
AAXX 30184 71633 11556 71408 10017 20008 39809 40082 58012 69901 70252 87500 333 10018 21047 43015 70043 90947
AAXX 30184 71501 16/// /3209 11278 21310 30039 40041 53010 60001 333 11226 21282 7//// 555 10050
AAXX 30184 71511 16/// /1507 11072 21078 39391 40031 58020 60001 333 11031 21128 70000
AAXX 30184 71515 16/// /2115 11020 21020 39347 40050 58013 60001 333 11017 21061 70127
AAXX 30184 71522 46/// /1403 11190 21240 39705 40220 55000 6///1 333 11189 21276 7////
AAXX 30184 71356 16/// /1401 11162 21178 39970 40037 58001 60001 333 11154 21170 70000
AAXX 30184 71357 16/// /2102 11308 21337 30072 40079 56014 60001 333 11266 21333 70000
AAXX 30184 71361 16/// /0000 11213 21237 39780 49992 52006 60001 333 11162 21240 70000
AAXX 30184 71362 16/// /0000 11235 21261 39746 40009 53001 60001 333 11166 21239 70000
AAXX 30184 71364 16/// /3003 11260 21287 39900 40038 51012 60001 333 11205 21260 70013 555 10020
AAXX 30184 71365 16/// /1802 11274 21299 39799 40022 51012 60001 333 11258 21302 70000
AAXX 30184 71381 46/// /0503 11215 21265 6///1 333 11205 21253 70000
AAXX 30184 71386 16/// /3207 11126 21174 39970 40184 53013 60001 333 11125 21151 70000
AAXX 30184 71393 16/// ///// 10039 21064 38673 49919 58008 60001 333 10039 21025 70000
AAXX 30184 71402 46/// /3019 11019 21036 39887 40001 53053 6///1 333 11015 21050 7////
AAXX 30184 71407 16/// /2602 11284 21318 30050 40072 58006 60001 333 11280 21378 70000
AAXX 30184 71434 16/// /1810 11174 21207 30060 40129 58009 60001 333 11174 70000
AAXX 30184 71442 16/// /1606 11083 21100 39773 40093 58008 60001 333 11077 21156 70000
AAXX 30184 71446 17/// /1724 10004 21041 39012 49981 58030 60011 7//4/ 333 10004 21074 70014
AAXX 30184 71448 16/// /2003 11096 21124 39766 40104 50000 60001 333 11092 21157 70000
AAXX 30184 71858 16/// /2104 11066 21074 39764 40048 56013 60001 333 11066 21165 70000
AAXX 30184 71150 46/// /2107 11065 21072 39389 40078 58006 6///1 333 11065 21133 7////
AAXX 30184 71156 16/// /2403 11086 21127 38839 49940 57006 60001 333 11067 21131 70004
AAXX 30184 71158 16/// /1708 11075 21103 39796 40075 58009 60001 333 11070 21116 70000
AAXX 30184 71159 16/// /3309 11010 21049 39995 40068 53061 60001 333 11006 21063 70011
AAXX 30184 71160 16/// /0503 11220 21251 39822 40042 53002 60001 333 11185 21220 70000
AAXX 30184 71162 16/// /1110 11154 21178 39787 49999 53004 60001 333 11141 21154 70000
AAXX 30184 71164 46/// /3101 11223 21248 39965 40048 53009 6///1 333 11222 21229 7////
AAXX 30184 71165 46/// ///03 11173 21196 39731 40019 50003 6///1 333 11162 21270 7////
AAXX 30184 71166 46/// /3601 11173 21196 39368 49985 53011 6///1 333 11106 21197 7////
AAXX 30184 71807 16/// /2630 11008 21037 30056 40075 53025 60001 333 10014 21016 70015
AAXX 30184 71920 16/// /2912 10029 21044 30196 40202 53002 60001 333 10032 20003 70000
AAXX 30184 71956 16/// /0710 11051 21057 39847 40082 58012 60001 333 11051 21084 70000 555 10020
AAXX 30184 71959 17/// ///// 11040 21073 69971 7//4/ 333 11040 21070 70014 555 10030
AAXX 30184 71970 16/// /0402 11094 21116 39403 49992 56021 60001 333 11037 21153 70005
AAXX 30184 71977 46/// /0000 11266 21266 39287 40019 53012 6///1 333 11225 21292 7////
AAXX 30184 71978 46/// /0000 11270 21297 39699 40023 52008 6///1 333 11237 21302 7//// 555 10020
AAXX 30184 71989 16/// /0303 11341 21376 30205 40222 56004 60001 333 11313 21358 70000
AAXX 30184 71622 16/// ///// 10030 20015 39744 40081 58018 60001 333 10032 21008 70031
AAXX 30184 71868 16/// /2305 11050 21092 39596 40041 50000 60001 333 11050 21129 70000
AAXX 30184 71889 11574 41211 10048 20015 39607 40019 51020 69981 72172 84800 333 10055 20030 70054 90917
AAXX 30184 71300 16/// /0503 11122 21145 30027 40155 58018 60001 333 11120 21194 70000 555 10010
AAXX 30184 71311 16/// /2608 11040 21118 30150 40175 53012 60001 333 11037 21088 70000 555 10010
AAXX 30184 71312 16/// /1908 11115 21132 39569 40033 58007 60001 333 11068 21148 70000
AAXX 30184 71317 16/// /2614 11031 21082 30121 40169 53018 60001 333 11031 21072 70000
AAXX 30184 71320 16/// /2407 11224 21244 30051 40052 58019 60001 333 11219 21259 70003 555 10010
AAXX 30184 71321 16/// /3110 11244 21270 30102 40148 58006 60001 333 11234 21274 70000
AAXX 30184 71322 46/// /1003 11142 21156 30026 40039 58005 6///1 333 11141 21189 7////
AAXX 30184 71323 16/// /1204 11100 21167 39894 40187 58017 60001 333 11100 21210 70000
AAXX 30184 71551 16/// /1514 11022 21030 39339 49993 58034 60001 333 11019 21109 70023
AAXX 30184 71553 16/// /2104 11053 21059 60001 333 11052 21118 70007
AAXX 30184 71564 17/// /2703 11057 21071 39721 40097 58001 60011 7//4/ 333 11057 21089 70037
AAXX 30184 71571 17/// /1105 11078 21087 38740 49926 56003 69961 7//4/ 333 11055 21079 70006
AAXX 30184 71578 16/// /2603 11126 21192 60001 333 11126 21199 70011
AAXX 30184 71579 16/// /1001 11081 21110 39802 40091 58004 60001 333 11081 21114 70000
AAXX 30184 71581 17/// /1103 11129 21146 39634 40132 57017 69961 7//4/ 333 11127 70017 555 10020
AAXX 30184 71585 16/// /0503 11056 21072 39531 49984 50003 60001 333 21064 7////
AAXX 30184 71885 16/// ///// 10047 60001 333 10050 21037 70000
AAXX 30184 71886 16/// /2011 11043 21047 39446 40057 58008 60001 333 11033 21074 70000
AAXX 30184 71951 11/28 93607 11014 21023 39677 49941 53046 60021 77177 333 10001 21017 47040 70062 90983 93103
AAXX 30184 71109 11459 82511 10030 20009 39998 40024 52098 60071 78088 888// 333 10048 20029 70208 90983
AAXX 30184 71110 17/// /2625 11020 21052 30019 40079 53023 69961 7//4/ 333 10001 21034 70006
AAXX 30184 71141 16/// /3404 11371 21410 30094 40122 55001 60001 333 11354 21382 70000
AAXX 30184 71915 11469 80805 11223 21262 30010 40094 58016 69901 77677 88500 333 11219 21244 44041 79999 90983
AAXX 30184 71750 16/// /0505 11055 21071 39848 40086 58003 60001 333 11055 21094 70031 555 10050
AAXX 30184 71752 16/// /2107 10072 20027 39877 40093 58013 60001 333 10075 21006 70010
AAXX 30184 71758 16/// /2618 11053 21100 30068 40147 53021 60001 333 11038 21069 70000
AAXX 30184 71771 46/// /2809 10026 21016 39988 40009 53058 6///1 333 10044 20010 7////
AAXX 30184 71783 17/// /2410 10065 20030 39973 40046 53037 60021 7//4/ 333 10082 20057 70036
BBXX 41053 30181 99185 70661 46/// /0908 10273 40162 58024 91800 22200 00271 11403 70016 333 91210
BBXX 41053 30181 99185 70661 46/// /0909 10273 40163 91750 333 91210
BBXX 41053 30181 99185 70661 46/// /0809 10272 40164 91740 333 91211
BBXX 41052 30181 99183 70648 46/// /0908 10269 40163 91750 333 91210
BBXX 41052 30181 99183 70648 46/// /0908 10270 40163 91740 333 91210
BBXX 41052 30181 99183 70648 46/// /0908 10270 40162 58021 91800 22200 00269 333 91210
AAXX 30181 34523 32497 81703 10000 21018 30073 40151 57004 886// 333 10000 88713
AAXX 30181 37279 32594 30000 10036 21002 30030 40176 53005 83200 333 10158
AAXX 30181 37308 329// 00000 10021 21040 39558 40222 53004 333 10135
AAXX 30181 37531 329// 01306 10016 21009 39517 40259 52007 333 10075
AAXX 30181 37553 329// 01801 11010 21028 39591 40261 53006 333 10080
AAXX 30181 37651 16/// ///00 11025 21035 3//// 4//// 5//// 60002 333 10050
AAXX 30181 37492 NIL
AAXX 30184 71435 17/// /0202 11065 21071 39486 40087 58002 69931 7//4/ 333 11065 21087 70003
AAXX 30184 71447 16/// /1803 11066 21082 39541 40092 58005 60001 333 11055 21137 70011
AAXX 30184 71472 17/// /3531 10023 21010 69921 7//4/ 333 10043 20010 70024
AAXX 30184 71148 16/// /1802 11073 21088 39507 40096 58005 60001 333 11070 21121 70051 555 10060
AAXX 30184 71633 11556 71408 10017 20008 39809 40082 58012 69901 70252 87500 333 10018 21047 43015 70043 90947
BBXX 44150 30181 99425 70640 46/// /2908 10056 40205 5//// 22200 00078 10905 70025 333 91210
AAXX 30184 71868 16/// /2305 11050 21092 39596 40041 50000 60001 333 11050 21129 70000
AAXX 30184 71889 11574 41211 10048 20015 39607 40019 51020 69981 72172 84800 333 10055 20030 70054 90917
AAXX 30184 71109 11459 82511 10030 20009 39998 40024 52098 60071 78088 888// 333 10048 20029 70208 90983
AAXX 30184 71807 16/// /2630 11008 21037 30056 40075 53025 60001 333 10014 21016 70015
AAXX 30184 71951 11/28 93607 11014 21023 39677 49941 53046 60021 77177 333 10001 21017 47040 70062 90983 93103
AAXX 30184 67002 32580 23407 10285 20242 30101 40134 60032 82800 333 58020 82820 92417
AAXX 30184 67009 NIL
AAXX 30184 333 67025 NIL
AAXX 30184 333 67027 31580 53210 10290 20249 30090 40111 52020 71311 84930 333 10327 82820 83640 81920 94962 95832 555 83360
AAXX 30184 67083 31470 50000 10215 20183 38739 48515 52027 71322 81933 333 10288 81817 81917 84073 94974 94977 95837
AAXX 30184 67095 11456 73602 10250 20238 30092 40098 50012 60032 79596 8597/ 333 10315 81817 81917 84633 86360 94971 94976 94978 95831 95836 95838=2.6 67113 NIL
AAXX 30184 333 67117 NIL
AAXX 30184 333 67137 NIL
AAXX 30184 333 67143 NIL
AAXX 30184 333 67161 NIL
AAXX 30184 333 67197 32480 30000 10242 20217 30113 40123 52020 83800 333 10280 82817 555 82633
AAXX 30184 71915 11469 80805 11223 21262 30010 40094 58016 69901 77677 88500 333 11219 21244 44041 79999 90983
AAXX 30184 71858 16/// /2104 11066 21074 39764 40048 56013 60001 333 11066 21165 70000
AAXX 30181 26629 11558 81703 10005 21003 39942 40039 52009 69902 72222 885// 333 10027 88623 91004 91107 555 53012
BBXX 9V9243 30183 99060 10960 41/97 /1112 10276 40120 58002 70200 8//// 22223 00290 2////
BBXX SJCD 30181 99417 11458 43/96 63014 11005 40037 58004 22263 00047
BBXX SHJC 30181 99120 10611 43/97 40216 10257 40146 55001 22274 00267 2//// 4////
AAXX 30184 71951 11/28 93607 11014 21023 39677 49941 53046 60021 77177 333 10001 21017 47040 70062 90983 93103
AAXX 30184 71453 16/// /1822 10038 21048 39056 49955 58028 60001 333 10040 21036 70007
AAXX 30184 71456 16/// /1808 11100 21118 39434 40037 58011 60001 333 11055 21120 70000
AAXX 30184 71470 16/// /1208 11264 21291 39421 40069 51004 60001 333 11243 21297 70000
AAXX 30184 71475 17/// /1103 10047 20040 39930 40023 53039 60011 7//4/ 333 10048 20000 70144
AAXX 30184 71476 17/// /3220 39963 53061 60021 7//4/ 333 70304
AAXX 30184 71480 17/// /0101 11253 21278 39908 40034 53011 69931 7//4/ 333 11230 21292 70008 555 10010
AAXX 30184 71484 16/// /3429 10045 21028 39963 49981 53063 60001 333 10045 20011 70000
AAXX 30184 71487 16/// /1609 10008 21022 39167 40027 56022 60001 333 10008 21059 70000
AAXX 30184 71489 16/// /1109 11032 21052 39177 49975 58035 60001 333 11032 21163 70000
AAXX 30184 71492 46/// ///39 11227 21253 39286 49995 58018 6///1 333 11215 21262 7////
AAXX 30184 71243 16/// /2318 10077 21009 38903 49954 57009 60001 333 10077 21007 70000
AAXX 30184 71246 16/// /3603 11090 21103 39307 49969 58007 60001 333 11036 21133 70000
AAXX 30184 71669 16/// /2402 11002 21020 38354 49943 53001 60001 333 10014 21034 70000
AAXX 30184 68398 36/// /3607 10202 20172 39362 48507 52010 333 10285 20202 91011 555 91013
AAXX 30181 48852 11496 83602 10196 20196 30185 40195 58006 60031 76366 888// 333 58017 86894 88697 96163
AAXX 30184 67002 32580 23407 10285 20242 30101 40134 60032 82800 333 58020 82820 92417
AAXX 30184 67009 NIL
AAXX 30184 67025 NIL
AAXX 30184 67027 31580 53210 10290 20249 30090 40111 52020 71311 84930 333 10327 82820 83640 81920 94962 95832 555 83360
AAXX 30184 67083 31470 50000 10215 20183 38739 48515 52027 71322 81933 333 10288 81817 81917 84073 94974 94977 95837
AAXX 30184 67095 11456 73602 10250 20238 30092 40098 50012 60032 79596 8597/ 333 10315 81817 81917 84633 86360 94971 94976 94978 95831 95836 95838
AAXX 30184 67113 NIL
AAXX 30184 67117 NIL
AAXX 30184 67137 NIL
AAXX 30184 67143 NIL
AAXX 30184 67161 NIL
AAXX 30184 67197 32480 30000 10242 20217 30113 40123 52020 83800 333 10280 82817 555 82633
AAXX 30181 48855 11597 80502 10225 20200 30183 40191 57007 69901 70262 888// 333 58013 86895 88697
AAXX 30181 48848 32597 83204 10178 20158 30201 40209 58004 888// 333 58024 82895 88697
AAXX 30184 04211 47/70 /0604 11187 21211 39819 49987 57007 77777 333 11185 21205
AAXX 30184 04220 07468 71008 11138 21162 39897 49950 52001 69972 77187 333 11111 21138 55300 20004 69917 81/11 83/18 87/24
AAXX 30184 04221 45/84 /0310 11172 21251 39901 49941 57004 333 11161 21211
AAXX 30184 04231 12484 10606 11278 21316 39889 49969 52001 6///2 81500 333 11241 21282 81625
AAXX 30184 04234 45684 81307 11120 21178 39935 49945 52003 333 11106 21162 88/39 91141
AAXX 30184 04241 45/83 /3418 11110 21233 39854 49894 52007 333 11105 21144 91126
AAXX 30184 04250 07908 53634 11146 21171 39745 49854 52009 60032 77187 333 11128 21154 55300 20036 69977 85/69
AAXX 30184 04254 47100 30233 11144 21180 39754 49871 52012 77377 333 11135 21159 81/02 83/18 91144 91044
AAXX 30184 04260 47535 83409 11068 21101 39743 49787 57006 77177 333 11053 21071 88/30
AAXX 30184 04270 47627 80000 11022 21027 39737 49775 57008 77177 333 10002 21023 81/34 87/45 88///
AAXX 30184 04272 07527 8//// 11017 21017 39704 49775 57008 60092 76777 333 11013 21019 60017 81/25 85/32 88/39
AAXX 30184 04312 46/// /0204 11310 21351 30010 40053 57018
AAXX 30184 04320 45984 73502 11329 21373 30064 40081 57034 333 11282 21347 55300 87/69
AAXX 30184 04339 46/// ///// 11160 21176 39900 49994 57032 333 11131 21171 55300 20000
AAXX 30184 04360 06/// /3605 11059 21084 39735 49805 57044 60012 333 11058 21081 55300 20000 69947
AAXX 30184 04361 465// 70406 11048 21097 39752 49804 57045 333 11048 21071 86/22 87/50 91131 91218 91018
AAXX 30184 04390 07758 70313 11048 21071 39695 49788 57015 60042 77787 333 11042 21060 69937 87/50 91122
AAXX 30184 78922 46/// /1120 10272 20203 30118 40163 56021
BBXX 61002 30184 99421 10047 46/// ///38 10130 2//// 40220 54000 22200 00133 10909 70047 555 1/052
AAXX 30184 61974 11462 62704 10260 20239 40116 60012 78081 86802 333 10316 55093 58006 85817
AAXX 30184 61986 12470 11009 10278 20253 40118 60002 81200 333 10332 58003 81819
AAXX 30184 61988 12470 21210 10256 20223 40139 60002 82800 333 10294 55117 58001 82818 91123
AAXX 30184 61989 NIL
AAXX 30184 61990 12470 53403 10250 20228 40136 60002 84802 333 10290 55080 59001 84817
AAXX 30184 61995 11470 11003 10216 20212 39658 60102 70282 81200 333 10283 55063 58000 81820
AAXX 30184 60619 36/// /0408 10101 21012 333 10140
AAXX 30184 08015 12762 31204 10083 20038 39930 40344 57004 60002 82072 333 10104
BBXX 62087 30181 99547 10068 46/// /1403 10068 20004 4//// 5//// 22270 00081
AAXX 30184 60621 36/// /0110 10137 21027 333 10170
AAXX 30184 08055 12965 00000 10018 21020 39263 48601 53002 60002 333 10066 95090
AAXX 30184 60663 36/// /0410 10125 21049 333 10152
AAXX 30184 60645 36/// /0000 10152 21045 333 10187
AAXX 30184 60612 36/// /0610 10137 21059 333 10177
BBXX 44255 30181 99473 70573 46/// /2616 10001 40073 52019 22200 00034 11010 70052 333 91220
AAXX 30181 50136 NIL
AAXX 30181 50745 32967 00000 11228 21254 30116 40319 52002 333 11120
AAXX 30181 50774 32660 60000 11265 21289 39988 40324 57001 86500 333 11132
AAXX 30181 50788 NIL
AAXX 30181 51133 NIL
AAXX 30181 51431 NIL
AAXX 30181 51747 NIL
AAXX 30181 52203 NIL
AAXX 30181 52418 NIL
AAXX 30181 52681 NIL
AAXX 30181 53564 NIL
AAXX 30181 53614 NIL
AAXX 30181 53646 NIL
AAXX 30181 53798 NIL
AAXX 30181 53845 NIL
AAXX 30181 53959 NIL
AAXX 30181 54094 32960 01801 11238 21271 39997 40327 57003 333 11133
AAXX 30181 54102 NIL
AAXX 30181 54161 NIL
AAXX 30181 54292 NIL
AAXX 30181 54374 32963 03601 11206 21231 39837 40344 57003 333 11115
AAXX 30181 54423 NIL
AAXX 30181 54618 NIL
AAXX 30181 54843 NIL
AAXX 30181 54909 NIL
AAXX 30181 56029 32980 00000 11148 21214 36499 52002 333 00453 10058
AAXX 30181 57127 NIL
AAXX 30181 57131 NIL
BBXX 44255 30181 99473 70573 46/// /2616 10001 40073 52019 22200 00034 11010 70052 333 91220
AAXX 30181 48803 32497 81402 10152 20137 30113 40229 50003 888// 333 58019 85894 88696
AAXX 30184 41315 36/// /3527 10148 21027 39184 42822 333 0E/// 10191 59017
AAXX 30184 41316 36/75 /3415 10231 21010 30166 40191 333 0E022 10279 59008
AAXX 30184 47401 12/70 10215 10001 21076 30175 40190 50005 69901 81200
AAXX 30184 47412 11/65 23312 10008 21054 30145 40178 51012 69901 70181 82200
AAXX 30184 47420 17/56 /3529 10007 21007 30009 40043 55006 60031 76776
AAXX 30184 47426 15/70 /3110 11021 21066 30079 40128 51020 60001
AAXX 30184 47582 11/60 43015 10037 21033 30184 40211 52005 69901 70281 84200
AAXX 30184 47590 11/70 22906 10025 21049 30156 40211 53005 69901 70380 82200
AAXX 30184 47600 17/60 /2206 10009 21002 30249 40258 58004 69901 76760
AAXX 30184 47648 12980 12811 10010 21046 30183 40219 56004 60001 80030
AAXX 30184 47662 12/80 13306 10035 21098 30181 40227 55000 60001 81500
AAXX 30184 47678 17/56 /0307 10070 20050 30012 40203 53003 60051 76160
AAXX 30184 47740 15/73 /3203 11010 21017 30239 40275 56006 60001
AAXX 30184 47778 15/70 /3107 10044 21065 30164 40251 58003 60001
AAXX 30184 47807 12/70 11401 10036 21013 30253 40272 55005 60001 81100
AAXX 30184 47827 12970 03408 10049 20012 30217 40257 56006 60001
AAXX 30184 47843 17/62 /2602 10065 20053 30230 40264 56011 69951 78185
AAXX 30184 47893 12/65 12904 10006 21033 30261 40267 56003 60001 81100
AAXX 30184 47909 12/75 31605 10109 20081 30229 40239 58010 60001 83500
AAXX 30184 47918 12/60 80307 10179 20124 30203 40221 58014 60001 888//
AAXX 30184 47936 11/70 20508 10152 20098 30169 40229 56017 69901 70261 82100
AAXX 30184 47945 11/65 80209 10176 20107 30196 40221 55003 69951 70262 888//
AAXX 30184 47971 11970 60209 10177 20150 30155 40165 57005 69901 72582 86200
AAXX 30184 47991 16/// /0703 10224 20186 30138 40148 56013 69901
AAXX 30184 47407 11/65 63008 11039 21063 39996 40175 51016 69951 70381 86200
AAXX 30184 47409 11/20 83522 11001 21008 30067 40122 51023 60061 78588 883//
AAXX 30184 47418 11/58 83520 10006 21018 30044 40094 53026 60041 78322 887//
AAXX 30184 47421 17/70 /3506 10024 21023 30143 40187 51006 69901 70060
AAXX 30184 47430 11/65 32908 10005 21030 30127 40183 53018 69951 70281 83200
AAXX 30184 47570 17/08 /2911 11003 21011 39969 40238 56001 60041 76776
AAXX 30184 47575 11/60 52805 10019 21008 30188 40193 51013 69901 72580 852//
AAXX 30184 47584 12/65 23012 10018 21041 39995 40189 50006 60001 82200
AAXX 30184 47604 11/65 42909 10047 21048 30230 40239 58002 69901 70181 84200
AAXX 30184 47605 11/58 82206 10012 21009 30224 40267 55001 69901 78582 882//
AAXX 30184 47610 11/60 60601 11021 21044 39739 40265 52001 69901 78581 86200
AAXX 30184 47624 12/80 32803 11012 21067 30095 40241 57001 60001 83200
AAXX 30184 47629 12980 03507 11009 21081 30183 40223 58008 60001
AAXX 30184 47636 12/70 10104 10003 21065 30181 40253 58004 60001 81500
AAXX 30184 47651 13/// /2808 10027 21028 30232 40255 56004 60001
AAXX 30184 47655 15/70 /2808 10031 21066 30155 40214 53003 60001
AAXX 30184 47675 15/70 /0413 10067 21053 30121 40214 53001 60001
AAXX 30184 47741 11/65 71501 10010 20003 30248 40277 57006 69951 70282 87200
AAXX 30184 47746 11/56 82403 10015 20004 30257 40277 56004 60021 78382 882//
AAXX 30184 47750 11/60 72504 10013 21003 30240 40269 55004 69901 78082 872//
AAXX 30184 47765 12970 00209 10006 21033 30215 40284 56004 60001
AAXX 30184 47772 12/80 71803 10031 21032 30164 40268 58003 60001 84830
AAXX 30184 47800 15/73 /3302 10031 20024 30264 40269 55006 60001
AAXX 30184 47815 12/70 11805 10016 21020 30261 40278 56004 60001 81100
AAXX 30184 47817 12980 01102 10033 21007 30220 40265 56007 60001
AAXX 30184 47830 12980 03005 10015 20007 30246 40265 56002 60001
AAXX 30184 47887 12975 01602 10008 21042 30235 40279 56003 60001
AAXX 30184 47891 12/75 12303 10011 21030 30260 40278 55002 60001 81100
AAXX 30184 47895 12/75 22809 10038 21026 30261 40269 56006 60001 82200
AAXX 30184 47927 11/65 80413 10181 20132 30168 40217 58023 69901 70262 888//
AAXX 30184 40100 12960 00704 10151 20068 30121 40153 51012 60001 918// 333 10208 92427
AAXX 30184 40101 12958 00000 10084 20001 39086 48485 53006 60001 918// 333 10156
AAXX 30184 40103 32456 30602 10096 40156 53003 80002 333 10166 83070 555 10179
AAXX 30184 40102 NIL
AAXX 30181 50468 32970 03401 11278 21301 30099 40332 52001 333 11164
AAXX 30181 53463 32965 00901 11083 21128 39040 40339 57003 333 05102 11010
AAXX 30181 53513 32965 72701 11106 21152 39071 40359 57002 80002 333 00103 11018
AAXX 30181 52866 32970 00000 11129 21174 37757 57003 333 00351 10066
AAXX 30181 53588 32470 52506 11093 21104 37799 57009 85100 333 11035
AAXX 30181 53772 31915 82501 11066 21084 39363 40329 57007 71000 80007 333 11006
AAXX 30181 54337 31958 30000 11125 21151 30202 40291 57006 71000 80002 333 11066
AAXX 30181 54471 32760 73603 11064 21121 30280 40286 57004 875// 333 11016
AAXX 30181 54497 32662 70402 11084 21117 30284 40301 57011 875// 333 11020
AAXX 30181 54823 32762 72204 10022 21029 30086 40303 57010 875// 333 10022
AAXX 30181 57083 31930 72001 11007 21026 30151 40293 57022 71000 80002 333 10051
AAXX 30181 40706 11958 30504 11032 21048 38704 40303 54000 60001 71000 80002 333 55069 21048 83070
AAXX 30181 40718 12957 00000 10082 20073 30269 40240 58014 60001 333 55060
AAXX 30181 40732 11957 02402 10070 20052 30263 40238 57012 60001 71010 333 55052
AAXX 30181 40745 12965 01502 11014 21065 39159 40361 58004 60001 333 55007 20491
AAXX 30181 40754 11658 20000 10031 21026 38918 40299 50004 60001 70500 81501 333 55081 81640
AAXX 30181 40766 12960 30000 10014 21112 38750 40279 56002 60001 80002 333 55075 21143 83069
AAXX 30181 40800 12960 00000 10008 21061 38522 40296 54000 60001 333 55073 2////
AAXX 30181 40811 12960 02702 10130 20030 30207 40234 51007 60001 333 55085 20298
AAXX 30181 40841 12960 00000 10020 21070 38325 40299 51010 60001 333 55096 21448
AAXX 30181 40848 12965 20000 10022 21075 38589 40271 52004 60001 80002 333 55094 21476 82070
AAXX 30181 40856 12960 02102 11014 21147 38701 40277 58002 60001 333 55076
AAXX 30181 40875 12960 00607 10192 21053 30201 40213 51007 60001 333 55092 21293
AAXX 30181 50136 32970 00000 11336 21378 39764 40367 52004 333 11192
AAXX 30181 50788 32970 02203 11204 21232 30206 40300 57002 333 11144
AAXX 30181 53646 32964 03401 11078 21093 38936 40336 54000 333 00154 10002
AAXX 30181 53845 32960 71601 11044 21065 39165 40325 57011 80002 333 05100 10042
AAXX 30181 54102 32980 01804 11211 21232 39088 40371 57002 333 11104
AAXX 30181 54292 32970 10701 11210 21240 39969 40316 57003 80002 333 11101
AAXX 30181 54843 32961 00000 11030 21053 30284 40313 57006 333 10020
AAXX 30181 54909 32962 51802 11002 21027 30238 40304 57011 85030 333 10049
AAXX 30181 57127 32960 71801 10026 20022 39700 40326 57009 8703/ 333 10066
AAXX 30181 53614 31940 30000 11084 21105 39001 40354 57004 71000 80002 333 00252 10003
AAXX 30181 53959 31957 73201 11020 21036 39873 40333 57008 71000 8703/ 333 10038
AAXX 30181 54161 32960 01401 11180 21223 39984 40301 57007 333 11094
AAXX 30181 08501 12/// /9903 10182 20147 30288 40325 54000 60072 333 10193 91005 91108
AAXX 30181 08505 32470 72203 10184 20159 30306 40356 55001 85832 333 10194 83812 83635 85359
AAXX 30181 08509 NIL
AAXX 30181 08512 32480 52103 10173 20137 30284 40370 54000 83802 333 10189 83816 83070 91106
AAXX 30181 08515 32480 21703 10173 20137 30251 40374 57003 81801 333 10192 81816 910// 911//
AAXX 30181 08533 NIL
AAXX 30181 08541 32/// /0103 10095 20049 30225 40347 52003 333 10132 91105
AAXX 30181 08545 31962 50102 10081 20017 30276 40362 52001 70310 80002 333 10118 85075
AAXX 30181 08548 32/// /3601 10092 20026 30146 40357 52002 333 10121
AAXX 30181 08554 NIL
AAXX 30181 08558 32/// /3401 10073 20012 30042 40345 52003 333 10145
AAXX 30181 08560 32/// /3002 10078 20009 39580 40354 54000 333 10129
AAXX 30181 08567 32/// /0000 10063 20016 39678 40361 54000 333 10100
AAXX 30181 08570 31975 12302 10098 20011 39874 40342 53001 70200 80001 333 10145 81099
AAXX 30181 08575 32/// /1502 10047 20002 39523 40360 54000 333 10082
AAXX 30181 08579 NIL
AAXX 30181 51133 11670 82201 11056 21076 39762 40447 52026 69901 77077 885// 333 01604 11007
AAXX 30181 52418 32980 00402 11116 21170 38952 40347 57018 333 05400 11005
AAXX 30181 52681 32980 02203 11109 21173 38720 40370 57006 333 00201 11002
AAXX 30181 54423 32960 00201 11126 21142 39768 40315 57004 333 11041
AAXX 30181 57131 31940 72202 11004 21018 39827 40342 57007 71000 8703/ 333 10026
AAXX 30181 58362 31958 02502 10011 21011 30311 40320 57007 71000 333 10077
AAXX 30181 57461 31956 80901 10057 20016 30150 40318 57014 71000 8807/ 333 10077
AAXX 30181 57816 11656 80203 10007 21014 38883 40327 52005 69901 76060 885// 333 00252 10036
AAXX 30181 58102 32962 21801 10014 21018 30266 40316 57014 80001 333 10055
AAXX 30181 58221 31958 01601 10000 21041 30288 40317 57013 71000 333 10058
AAXX 30181 58606 31757 80702 10080 20020 30237 40297 52002 70500 885// 333 10100
AAXX 30181 58847 32660 80402 10103 20059 30179 40283 57003 885// 333 10131
AAXX 30181 59134 32765 70702 10124 20053 30092 40262 52001 875// 333 10164
AAXX 30181 59644 32560 83604 10128 20070 30228 40245 54000 888// 333 10175
AAXX 30181 59758 32464 80906 10186 20153 30141 40218 57007 888// 333 10193
AAXX 30181 56778 32970 02201 10033 20020 38146 52008 333 00100 10185
AAXX 30181 57265 31956 70000 10017 20007 30194 40309 57017 71000 8703/ 333 10057
AAXX 30181 57494 32962 20000 10045 20027 30275 40306 57014 80002 333 10094
AAXX 30181 58150 31930 72501 11006 21026 30327 40331 57001 71000 80002 333 10052
AAXX 30181 59287 32662 80203 10129 20080 30170 40257 52003 885// 333 10182
AAXX 30181 59431 32560 80401 10116 20050 30123 40273 52007 888// 333 10135
AAXX 30181 52203 32980 20401 11140 21176 39435 40375 57009 80002 333 05251 11028
AAXX 30181 53798 32960 70201 11022 21047 30193 40294 57008 8703/ 333 10030
AAXX 30181 54618 32961 70000 11043 21064 30280 40299 57010 8703/ 333 10001
AAXX 30181 54401 32961 53203 11043 21159 39417 40322 52002 80002 333 11035
AAXX 30181 03973 11257 82612 10099 20095 39838 40090 55000 60052 75086 886// 333 10108 85703 87705 90710 91119
AAXX 30181 51463 32962 00401 11114 21145 39260 40451 52031 333 00954 11072
AAXX 30181 51573 32970 02901 11094 21159 30355 40402 54000 333 00052 11045
AAXX 30181 51709 32961 02901 11098 21128 38812 40383 54000 333 00000 11026
AAXX 30181 50953 32965 31401 11202 21230 30115 40310 57001 80002 333 11118
AAXX 30181 52533 32980 02202 11121 21185 38602 40371 57010 333 00000 10004
AAXX 30181 52652 32980 01102 11114 21202 38613 40365 57010 333 05103 10012
AAXX 30181 52983 31956 02701 11104 21119 38174 57008 70500 333 00352 10000
AAXX 30181 53915 32961 03202 11056 21077 38742 40337 57012 333 00101 10035
AAXX 30181 54342 32960 70402 11110 21152 30225 40291 57009 80002 333 11069
AAXX 30181 54511 31758 80402 11026 21087 30253 40295 57006 70500 885// 333 11013
AAXX 30181 56080 32980 02701 11134 21193 37193 57002 333 00352 10043
AAXX 30181 56096 32970 00402 10013 21034 39038 40314 57007 333 00354 10068
AAXX 30181 56187 31950 80000 10058 20048 39651 40316 57012 71000 8807/ 333 00251 10089
AAXX 30181 57516 31830 30000 10077 20048 39994 40313 57003 71000 83500 333 00151 10102
AAXX 30181 57687 11425 83203 10057 20042 30228 40315 57007 69921 76066 8772/ 333 10066
AAXX 30181 58040 31930 82501 11024 21050 30306 40320 57005 71000 8807/ 333 10018
AAXX 30181 58238 31950 00904 10016 21020 30273 40319 57005 71000 333 10089
AAXX 30181 58251 31920 02502 11007 21029 30321 40326 57003 71000 333 10063
AAXX 30181 59117 32662 82501 10117 20076 30156 40264 57001 885// 333 10138
AAXX 30181 59316 32664 80701 10152 20096 30247 40252 52002 885// 333 10178
AAXX 30181 40703 12960 00000 11008 21032 38971 40289 52006 60001 333 55065
AAXX 30181 40712 11650 32602 11036 21053 38730 40295 51001 60001 71021 81502 333 55054 21662 81640 83068
AAXX 30181 40729 12960 01104 11006 21017 38396 40296 54000 60001 333 55072 21114
AAXX 30181 40736 12960 00000 10080 20062 30268 40242 57021 60001 333 55076
AAXX 30181 40739 12965 00000 11016 21076 38776 40324 50003 60001 333 55091
AAXX 30181 40743 12965 00706 10022 21058 39168 40325 51004 60001 333 55087
AAXX 30181 40762 12965 00702 11029 21064 38640 40324 54000 60001 333 55086
AAXX 30181 40768 12960 30000 11038 21069 38323 40332 52007 60001 80002 333 55054 21199 83070
AAXX 30181 40769 11958 03102 11004 21050 38363 40311 51004 60001 70500 333 55081 21221
AAXX 30181 40785 12960 00000 10036 21023 39177 40308 51004 60001 333 55085
AAXX 30181 40809 12962 01102 11014 21134 38577 40301 52005 60001 333 55095 21302
AAXX 30181 40821 12962 10000 10030 21061 38878 40318 50000 60001 80001 333 55093 21298
AAXX 30181 40831 12960 00000 10100 20024 30235 40243 51004 60001 333 55089
AAXX 30184 67002 32580 23407 10285 20242 30101 40134 60032 82800 333 58020 82820 92417
AAXX 30184 67009 NIL
AAXX 30184 67025 NIL
AAXX 30184 67027 31580 53210 10290 20249 30090 40111 52020 71311 84930 333 10327 82820 83640 81920 94962 95832 555 83360
AAXX 30184 67083 31470 50000 10215 20183 38739 48515 52027 71322 81933 333 10288 81817 81917 84073 94974 94977 95837
AAXX 30184 67095 11456 73602 10250 20238 30092 40098 50012 60032 79596 8597/ 333 10315 81817 81917 84633 86360 94971 94976 94978 95831 95836 95838
AAXX 30184 67113 NIL
AAXX 30184 67117 NIL
AAXX 30184 67137 NIL
AAXX 30184 67143 NIL
AAXX 30184 67161 NIL
AAXX 30184 67197 32480 30000 10242 20217 30113 40123 52020 83800 333 10280 82817 555 82633
AAXX 30184 71621 11364 80308 11082 21098 30022 40131 57012 69961 70275 887// 333 11080 21095 42002 70021 90939
AAXX 30181 28676 129// 31904 11070 21095 30086 40217 52013 69900 82031 333 11047
AAXX 30181 28766 119// 82307 11078 21100 30024 40220 52016 69900 71022 8802/ 333 11052
AAXX 30181 28867 NIL
AAXX 30181 28879 115// 82310 11070 21095 39956 40253 52011 69900 73632 8557/ 333 11040 91115
AAXX 30181 28952 NIL
AAXX 30181 28966 129// 32005 11094 21119 39975 40271 52018 69900 83030 333 11057
AAXX 30181 29802 115// 82406 11074 21091 30089 40237 52029 69920 71032 885// 333 11023
AAXX 30181 29807 129// 52203 11075 21097 30147 40270 52038 69930 85030 333 11045
AAXX 30181 34691 32998 81405 11006 21037 30256 40243 57013 8807/ 333 10018
AAXX 30181 35067 129// 01906 11095 21116 30007 40296 52014 69900 333 11056
AAXX 30181 35078 319// 72511 11087 21102 39903 40298 52013 73731 80002 333 11080 91115
AAXX 30181 35085 115// 82106 11098 21114 39803 40300 52011 69920 77173 885// 333 11076
AAXX 30181 35108 129// 01803 11085 21096 30238 40286 52003 69900 333 11047
AAXX 30181 35188 129// 82004 11101 21129 39883 40339 52014 69920 8801/ 333 11050
AAXX 30181 35217 329// 01405 11125 21138 30264 40306 54000 333 11070
AAXX 30181 35229 329// 01602 11151 21165 30070 40364 52008 333 11054
AAXX 30181 35302 329// 01704 11076 21094 30263 40283 52002 333 11026
AAXX 30181 35357 319// 62009 11131 21158 39908 40371 52014 73631 83051 333 11059
AAXX 30181 35394 11598 72304 11105 21124 39668 40382 52021 60010 70232 87500 333 11061 87624
AAXX 30181 35406 329// 01503 11093 21112 30291 40293 58005 333 11015
AAXX 30181 35416 319// 21503 11145 21167 30216 40346 51003 70241 80001 333 11087
AAXX 30181 35426 31/// 92202 11122 21132 30065 40376 52009 74944 333 11065
AAXX 30181 35497 119// 82303 11098 21124 39562 40401 52021 60020 77172 8802/ 333 11063
AAXX 30181 35532 32998 80000 11086 21119 39856 40373 52002 333 11062
AAXX 30181 35671 32998 42202 11101 21126 39967 40422 52020 84040 333 11038
AAXX 30181 35700 32998 01306 11030 21057 30306 40282 57013 333 10019
AAXX 30181 35746 319// 01601 11117 21123 30338 40409 52012 71000 333 11022
AAXX 30181 35796 12997 02504 11100 21122 39985 40446 52021 69900 333 11015
AAXX 30181 35849 32998 00000 11088 21103 30325 40416 52007 333 11001
AAXX 30181 35925 NIL
AAXX 30181 35953 325// 81601 11025 21058 30292 40427 52010 885// 333 11012
AAXX 30181 35969 325// 80000 11027 21061 30265 40445 52019 885// 333 11002
AAXX 30181 36003 11998 82505 11066 21086 30133 40290 52031 69950 73673 8807/ 333 11024 91110
AAXX 30181 36152 315// 72506 11040 21109 30130 40323 52025 73633 87500 333 11014
AAXX 30181 36177 316// 72406 11042 21097 30097 40350 52024 73633 82530 333 11023
AAXX 30181 36208 115// 82903 11077 21098 39358 40372 52024 60010 77173 8872/ 333 11024
AAXX 30181 36397 329// 02304 11076 21125 39796 40381 52020 333 11026
AAXX 30181 36428 115// 80702 11092 21103 39893 40417 52027 60020 77172 8272/ 333 11070 95090
AAXX 30181 36535 129// 50000 11186 21205 39759 40448 52022 60010 85030 333 11080
AAXX 30181 36639 115// 80000 11050 21060 39803 40429 52019 60060 77177 8802/ 333 11025
AAXX 30181 36821 119// 00000 11056 21063 39943 40454 52012 60020 71040 333 11006
AAXX 30181 36859 319// 80902 11030 21043 39621 40428 52029 72272 8802/ 333 11017
AAXX 30181 36864 126// 60000 11057 21075 39520 40457 52015 69990 86500 333 11007
AAXX 30181 36870 114// 80101 11045 21054 39395 40450 52016 60020 78588 889// 333 11006
AAXX 30181 38001 NIL
AAXX 30181 38062 125// 80000 11016 21080 30264 40435 52011 69930 886// 333 11000
AAXX 30181 38069 129// 80000 11016 21048 30238 40437 52009 69900 8801/ 333 10003
AAXX 30181 38196 NIL
AAXX 30181 38198 NIL
AAXX 30181 38222 12997 60000 11088 21107 39870 40465 52013 60030 86030 333 11014
AAXX 30181 38232 NIL
AAXX 30181 38328 NIL
AAXX 30181 38334 NIL
AAXX 30181 38341 12997 50000 11075 21097 39621 40454 52006 60012 85040 333 11012
AAXX 30181 38343 12997 02302 11088 21112 39564 40461 52007 60020 333 11018
AAXX 30181 38439 NIL
AAXX 30184 88883 46/// /2920 10169 20100 49910 57009
AAXX 30184 88897 46/// /3017 10155 20089 49876 57018
AAXX 30184 NIL
AAXX 30184 82392 NIL
AAXX 30184 82583 NIL
AAXX 30184 82594 NIL
AAXX 30184 82683 NIL
AAXX 30184 82780 NIL
AAXX 30184 82789 NIL
AAXX 30184 82795 NIL
AAXX 30184 82879 NIL
AAXX 30184 82893 NIL
AAXX 30184 82979 32698 6//03 10297 20214 39648 40091 86070 333 58012
AAXX 30184 82986 32598 51408 10339 20198 39806 40086 82206 333 59002
AAXX 30184 83179 32598 61806 10309 20209 39638 40084 86200 333 58005
AAXX 30184 83192 32597 61408 10340 20135 39943 40105 85340 333 58010
AAXX 30184 83339 21495 80000 10231 20205 39153 40116 76062 8622/ 333 58033 60101
AAXX 30184 83498 32595 50505 10296 20228 30122 40127 82130 333 59006
AAXX 30184 NIL
AAXX 30181 28676 129// 31904 11070 21095 30086 40217 52013 69900 82031 333 11047
AAXX 30181 28766 119// 82307 11078 21100 30024 40220 52016 69900 71022 8802/ 333 11052
AAXX 30181 28867 NIL
AAXX 30181 28879 115// 82310 11070 21095 39956 40253 52011 69900 73632 8557/ 333 11040 91115
AAXX 30181 28952 NIL
AAXX 30181 28966 129// 32005 11094 21119 39975 40271 52018 69900 83030 333 11057
AAXX 30181 29802 115// 82406 11074 21091 30089 40237 52029 69920 71032 885// 333 11023
AAXX 30181 29807 129// 52203 11075 21097 30147 40270 52038 69930 85030 333 11045
AAXX 30181 34691 32998 81405 11006 21037 30256 40243 57013 8807/ 333 10018
AAXX 30181 35067 129// 01906 11095 21116 30007 40296 52014 69900 333 11056
AAXX 30181 35078 319// 72511 11087 21102 39903 40298 52013 73731 80002 333 11080 91115
AAXX 30181 35085 115// 82106 11098 21114 39803 40300 52011 69920 77173 885// 333 11076
AAXX 30181 35108 129// 01803 11085 21096 30238 40286 52003 69900 333 11047
AAXX 30181 35188 129// 82004 11101 21129 39883 40339 52014 69920 8801/ 333 11050
AAXX 30181 35217 329// 01405 11125 21138 30264 40306 54000 333 11070
AAXX 30181 35229 329// 01602 11151 21165 30070 40364 52008 333 11054
AAXX 30181 35302 329// 01704 11076 21094 30263 40283 52002 333 11026
AAXX 30181 35357 319// 62009 11131 21158 39908 40371 52014 73631 83051 333 11059
AAXX 30181 35394 11598 72304 11105 21124 39668 40382 52021 60010 70232 87500 333 11061 87624
AAXX 30181 35406 329// 01503 11093 21112 30291 40293 58005 333 11015
AAXX 30181 35416 319// 21503 11145 21167 30216 40346 51003 70241 80001 333 11087
AAXX 30181 35426 31/// 92202 11122 21132 30065 40376 52009 74944 333 11065
AAXX 30181 35497 119// 82303 11098 21124 39562 40401 52021 60020 77172 8802/ 333 11063
AAXX 30181 35532 32998 80000 11086 21119 39856 40373 52002 333 11062
AAXX 30181 35671 32998 42202 11101 21126 39967 40422 52020 84040 333 11038
AAXX 30181 35700 32998 01306 11030 21057 30306 40282 57013 333 10019
AAXX 30181 35746 319// 01601 11117 21123 30338 40409 52012 71000 333 11022
AAXX 30181 35796 12997 02504 11100 21122 39985 40446 52021 69900 333 11015
AAXX 30181 35849 32998 00000 11088 21103 30325 40416 52007 333 11001
AAXX 30181 35925 NIL
AAXX 30181 35953 325// 81601 11025 21058 30292 40427 52010 885// 333 11012
AAXX 30181 35969 325// 80000 11027 21061 30265 40445 52019 885// 333 11002
AAXX 30181 36003 11998 82505 11066 21086 30133 40290 52031 69950 73673 8807/ 333 11024 91110
AAXX 30181 36152 315// 72506 11040 21109 30130 40323 52025 73633 87500 333 11014
AAXX 30181 36177 316// 72406 11042 21097 30097 40350 52024 73633 82530 333 11023
AAXX 30181 36208 115// 82903 11077 21098 39358 40372 52024 60010 77173 8872/ 333 11024
AAXX 30181 36397 329// 02304 11076 21125 39796 40381 52020 333 11026
AAXX 30181 36428 115// 80702 11092 21103 39893 40417 52027 60020 77172 8272/ 333 11070 95090
AAXX 30181 36535 129// 50000 11186 21205 39759 40448 52022 60010 85030 333 11080
AAXX 30181 36639 115// 80000 11050 21060 39803 40429 52019 60060 77177 8802/ 333 11025
AAXX 30181 36821 119// 00000 11056 21063 39943 40454 52012 60020 71040 333 11006
AAXX 30181 36859 319// 80902 11030 21043 39621 40428 52029 72272 8802/ 333 11017
AAXX 30181 36864 126// 60000 11057 21075 39520 40457 52015 69990 86500 333 11007
AAXX 30181 36870 114// 80101 11045 21054 39395 40450 52016 60020 78588 889// 333 11006
AAXX 30181 38001 NIL
AAXX 30181 38062 125// 80000 11016 21080 30264 40435 52011 69930 886// 333 11000
AAXX 30181 38069 129// 80000 11016 21048 30238 40437 52009 69900 8801/ 333 10003
AAXX 30181 38196 NIL
AAXX 30181 38198 NIL
AAXX 30181 38222 12997 60000 11088 21107 39870 40465 52013 60030 86030 333 11014
AAXX 30181 38232 NIL
AAXX 30181 38328 NIL
AAXX 30181 38334 NIL
AAXX 30181 38341 12997 50000 11075 21097 39621 40454 52006 60012 85040 333 11012
AAXX 30181 38343 12997 02302 11088 21112 39564 40461 52007 60020 333 11018
AAXX 30181 38439 NIL
AAXX 30184 83384 NIL
AAXX 30184 83386 NIL
AAXX 30184 83388 NIL
AAXX 30184 83393 NIL
AAXX 30184 83442 NIL
AAXX 30184 83479 NIL
AAXX 30184 83483 NIL
AAXX 30184 83531 NIL
AAXX 30184 83538 NIL
AAXX 30184 83574 NIL
AAXX 30184 83582 NIL
AAXX 30184 83595 NIL
AAXX 30184 83687 NIL
AAXX 30184 83692 NIL
AAXX 30184 83695 32698 21406 10286 20216 39995 40131 57010 81230
AAXX 30184 83718 NIL
AAXX 30184 NIL
AAXX 30184 87022 32560 40904 10304 20219 39542 40035 57021 84100 333 56100 84830
AAXX 30184 87046 32565 61404 10313 20174 39062 48465 56020 82951 333 56099 57995 81825 81940 94080 94090 94489 94499 98365
AAXX 30184 87047 12468 60000 10279 20185 38754 48477 57024 69961 84303 333 56200 57991 82815 82920
AAXX 30184 87097 31558 80904 10284 20210 39769 40074 58025 78082 8527/ 333 56449 57844 82820 83635 86360
AAXX 30184 87121 11665 72310 10288 20228 39577 40073 57011 60031 70296 82570 333 56820 82640 87360
AAXX 30184 87129 32965 81404 10326 20187 39848 40071 58008 8317/ 333 83845
AAXX 30184 87155 32565 31406 10355 20196 30002 40061 57021 81106 333 56306 81825 83270
AAXX 30184 87162 32570 62007 10350 20192 39991 40058 57020 83830 333 56560 83625 84360
AAXX 30184 87166 31559 31804 10342 20171 39994 40064 57017 70411 81105 333 56406 81830
AAXX 30184 87178 32570 22707 10317 20161 39922 40063 57012 81170 333 56060 81830
AAXX 30184 87217 42770 11806 10350 20216 39572 40041 57017 81200 333 56600 81850
AAXX 30184 87222 32770 10000 10339 20164 39540 40035 58017 81400 333 56000 81656
AAXX 30184 87257 32965 02506 10352 20151 39968 40067 57037
AAXX 30184 87270 32965 21413 10326 20148 30014 40076 57009 81085 333 56076 81360
AAXX 30184 87289 32562 21812 10302 20171 39996 40076 57008 81135 333 56577 81825
AAXX 30184 87311 32665 21812 10346 20140 39400 40046 57025 82200 333 56000 57891 82845
AAXX 30184 87320 32675 20000 10363 20170 39542 40049 57027 81103 333 56606 81840
AAXX 30184 87328 32680 41804 10325 20165 39437 40061 57020 84300 333 56600 57952 83840 81950 95060
AAXX 30184 82022 32970 50710 10325 20176 30011 40107 85200 333 59001
AAXX 30184 82193 21458 73310 10296 20248 30074 40092 79561 86930 333 59008 69901
AAXX 30184 82281 32570 30314 10319 20194 30031 40093 83200 333 59012
AAXX 30184 82332 21570 70805 10281 20240 30011 40104 70362 84230 333 58008 60011
AAXX 30184 82398 32570 40815 10290 20213 30071 40100 84100 333 59012
AAXX 30184 82400 32570 41212 10278 20237 30050 40115 84100 333 59009
AAXX 30184 82579 32570 42203 10371 20196 30004 40079 84200 333 59013
AAXX 30184 82917 21556 70508 10252 20243 39882 40103 76062 85220 333 59000 69951
AAXX 30184 82965 32570 60106 10324 20211 39760 40084 84204 333 59003
AAXX 30184 82993 32570 21013 10294 20219 39985 40121 82100 333 58007
AAXX 30184 83208 32570 73012 10275 20211 39412 48540 85230 333 59001
AAXX 30184 83349 21570 60505 10280 20223 30121 40127 70162 83210 333 58013 60011
AAXX 30184 83362 21570 71702 10244 20221 39876 40092 72162 85230 333 58018 69911
AAXX 30184 83378 32570 63210 10258 20171 38950 48510 85230 333 58010
AAXX 30184 83460 32570 60608 10254 20218 30068 40125 82130 333 58023
AAXX 30184 83497 NIL
AAXX 30184 83566 32570 60504 10243 20177 39190 48510 86100 333 59004
AAXX 30184 83599 NIL
AAXX 30184 83612 21230 63314 10281 20218 39455 48490 56030 76061 87200 333 69901
AAXX 30184 83649 32570 71808 10257 20217 30125 40130 58008 84550
AAXX 30184 83650 NIL
AAXX 30184 83780 31965 41710 10245 20156 39222 48510 57012 70511 84040
AAXX 30184 83827 21570 72506 10312 20207 39792 40061 56027 70162 85230 333 69931
AAXX 30184 83840 32570 60811 10234 20166 39108 48510 56012 86500
AAXX 30184 83899 32570 70708 10240 20190 30128 40134 57007 87800
AAXX 30184 83925 NIL
AAXX 30184 83970 NIL
AAXX 30184 83971 32970 71012 10295 20182 30090 40094 56015 80009
AAXX 30184 NIL
AAXX 30184 70133 12562 60808 11317 21350 30041 40047 53009 69901 91753 333 11294 21317 555 93018
AAXX 30184 70174 31966 00000 11439 39789 40062 53007 91753 333 11394 21439 4/076 555 93018
AAXX 30184 70200 12666 40000 11294 21311 30052 40057 53008 69901 91753 333 11256 21350 555 93018
AAXX 30184 70219 31116 82103 11328 21367 30019 40079 53008 91753 333 11294 21350 4/003 555 93018
AAXX 30184 70231 11864 80000 11333 21367 39921 40062 53004 69901 771// 91753 333 11333 21417 4/097 555 93018
AAXX 30184 70261 11240 60000 11361 39861 40049 53006 69901 771// 91753 333 11322 21378 96010 555 93018
AAXX 30184 70267 12566 40000 11339 21367 39524 40065 53007 69901 91753 333 11300 21339 555 93018
AAXX 30184 70271 32666 63103 11322 21356 39334 49967 53001 91753 333 11228 21328 4/010 555 93018
AAXX 30184 70273 11424 /0204 11150 21178 39875 49935 53008 60011 771// 91753 333 11144 21156 4/071 555 93018
AAXX 30184 70316 12566 63409 11089 21122 30043 40079 53001 60011 91753 333 11056 21106 555 93018
AAXX 30184 70326 31956 02303 11328 21367 30042 40055 53005 710// 91754 333 11250 21339 555 93018
AAXX 30184 70340 32966 03204 11267 21311 39975 40043 51009 91753 333 11233 21283 555 93018
AAXX 30184 70350 12564 42612 11144 21217 39952 49992 51007 69931 91753 333 11106 21144 4/003 91018 555 93018
AAXX 30184 70361 12666 60905 11044 21056 39918 49928 53004 60021 91753 333 11033 21072 4/063 555 93018
AAXX 30184 70381 11466 80811 11033 21050 39946 49954 53014 69901 771// 91753 333 11028 21078 4/013 555 93018
AAXX 30184 70414 37216 93318 11028 21039 30109 40147 55000 710// 91756 333 11006 21067 555 93018
AAXX 30183 87007 11463 72302 10172 20043 36729 47125 57012 69971 72161 84848 333 56047 57316 83618 84270
AAXX 30183 87148 32970 60902 10343 20192 39948 40052 57025 80006 333 56000 86270
AAXX 30184 783388 11578 50716 10280 20221 30150 40159 60031 70182 85801 333 01209 10300 20231 58007 84822 90920
AAXX 30184 71621 11364 80308 11082 21098 30022 40131 57012 69961 70275 887// 333 11080 21095 42002 70021 90939
AAXX 30181 20107 12597 31405 11166 21216 39977 40078 58004 69902 82501 333 11156 91005
AAXX 30181 22003 NIL
AAXX 30181 22004 NIL
AAXX 30181 22100 NIL
AAXX 30181 22140 NIL
AAXX 30181 22113 11582 70505 11023 21045 39914 49977 52003 69902 78582 87900 333 11019 91008
AAXX 30181 22212 11562 73502 11042 21051 39791 49956 52002 69902 70282 83535 333 11040 91003 93502
AAXX 30181 22213 NIL
AAXX 30181 22217 32584 80603 11032 21056 39910 49942 53007 889// 333 11032 86645 91007
AAXX 30181 22235 32982 70902 11104 21117 39762 49962 52007 86071 333 11103 91003
AAXX 30181 22249 32484 80402 11049 21055 39780 49969 52008 886// 333 11048 91003 93513
AAXX 30181 22312 11459 80704 11046 21062 39911 49933 52007 60012 78583 889// 333 11042 91008 91110
AAXX 30181 22334 11467 80509 11031 21051 39914 49921 52006 60012 78583 889// 333 11030 91010 91110
AAXX 30181 22349 11596 80609 11028 21037 39926 49938 52006 69942 78583 889// 333 11023 91011 91113
AAXX 30181 22408 11370 80402 11011 21011 39746 49894 52011 60032 72272 886// 333 11008 88706
AAXX 30181 22602 11358 81201 10001 21001 39658 49879 52009 69962 77172 8872/ 333 10009 88707
AAXX 30181 22619 11482 81903 10010 20002 39739 49897 52007 60012 70272 886// 333 10016 88710
AAXX 30181 22721 11497 81502 10011 20008 39814 49913 52008 60032 78082 889// 333 10020 86713
AAXX 30181 22802 11565 82102 10020 20007 39877 49900 53012 60012 78082 889// 333 10029
AAXX 30181 22820 12384 72204 10010 21001 39790 49926 52007 69962 87500 333 10016 87608
AAXX 30181 26059 11497 82204 10021 20010 39940 49964 52016 60022 78082 889// 333 10038 86919
AAXX 30181 26063 11496 82303 10025 20001 39944 49951 52013 69902 70262 885// 333 10038 88618 91111
AAXX 30181 26094 32970 82005 10027 21015 39908 49983 51008 8805/ 333 10030
AAXX 30181 26157 32497 82208 10029 21001 39925 49974 52012 883// 333 10033 86919 91114
AAXX 30181 26167 11457 72004 10015 20001 39881 49993 52016 69972 78082 87900 333 10033 87916
AAXX 30181 26258 12598 82103 10018 21013 39953 40008 52014 69902 8653/ 333 10035
AAXX 30181 26298 32497 82004 10018 21023 39812 40041 52013 886// 333 10022
AAXX 30181 26359 32683 71803 10019 21015 39898 40032 52014 875// 333 10028
AAXX 30181 26702 11496 82701 10019 20011 30000 40026 52012 60022 76162 8802/ 333 10029 91002 91104
AAXX 30181 26781 31296 72001 11002 21008 39787 40081 52002 71022 87700 333 10015 87704
AAXX 30181 27208 12997 72003 10017 21008 39873 40048 52008 69902 87030 333 10025
AAXX 30181 27402 32697 71902 10016 20000 39891 40072 52008 87500 333 10023 87636
AAXX 30181 22028 11580 71112 10000 21046 39943 49981 52004 60032 73683 87900 333 10002 91015 91117
AAXX 30181 22106 11598 80403 11040 21049 39885 49964 51001 69922 72682 8695/ 333 11040 86924 91006 93502
AAXX 30181 22127 11998 20000 11117 21130 39766 49975 52016 69942 70283 82030 333 11032
AAXX 30181 22324 11426 80403 11059 21066 39882 49932 52005 69992 78682 889// 333 11057 91006
AAXX 30181 22621 11482 81904 10006 20001 39766 49903 52012 60022 70272 885// 333 10016 88611
AAXX 30181 22831 11496 81602 10009 20006 39899 49959 52010 60052 78082 889// 333 10020
AAXX 30181 22892 11497 72604 10024 20016 39907 49923 52024 60042 70282 87500 333 10031 87618
AAXX 30181 26275 32698 81804 10028 21014 39988 40018 52011 885// 333 10038 88639
AAXX 30181 26389 32597 72102 10017 21024 39787 40051 52008 87500 333 10021
AAXX 30181 26499 12597 72004 10016 21012 39840 40070 52002 69902 87500 333 10018 87626
AAXX 30181 26695 11296 82003 10008 20005 39785 40095 52008 69902 71052 886// 333 10012 88702
AAXX 30181 26882 11457 72102 10006 20000 39817 40094 52002 69902 71054 87500 333 10011 87610
AAXX 30181 22271 NIL
AAXX 30181 22520 12497 81302 10001 21002 39888 49897 52009 69952 886// 333 10003 88712
AAXX 30181 22550 NIL
AAXX 30181 22583 11331 81601 11035 21040 39907 49989 52006 69970 77372 8872/ 333 11042
AAXX 30181 22768 NIL
AAXX 30181 22845 11598 82005 10015 21005 39833 49988 52011 69900 70262 8572/ 333 10016 85720
AAXX 30181 22887 11497 81903 10005 21003 39979 40049 52017 69920 78582 889// 333 10001 84710 91106
AAXX 30181 23205 NIL
AAXX 30181 23219 31498 62004 11083 21102 39927 40035 52025 70232 86600 333 11051
AAXX 30181 23418 12565 71602 11102 21115 39966 40042 52025 69940 87500 333 11052 87620 93403
AAXX 30181 23606 11260 82002 11038 21043 39867 40040 52021 69950 70275 886// 333 11048 88705
AAXX 30181 23711 11398 81602 11044 21057 39898 40074 52024 69920 70282 889// 333 11049 86707
AAXX 30181 23804 11397 82002 11022 21031 39914 40063 52013 69900 77172 887// 333 11028 86707
AAXX 30181 27037 11498 81903 10014 21008 39891 40052 52015 69900 70372 885// 333 10016 86716
AAXX 30181 27199 11598 82403 11012 21019 39919 40117 52014 69980 70273 885// 333 11020
AAXX 30181 27271 11496 81403 10001 21004 39946 40103 52014 69930 75152 886// 333 10000
AAXX 30181 27459 11397 82102 11015 21026 39936 40134 52011 77172 8872/ 333 11006 88709
AAXX 30181 27730 11497 81903 10002 21009 39927 40124 53003 69900 77172 8802/ 333 10009 88511
BBXX 44067 30181 99384 70770 46/// /2303 10083 40150 58031 91800
BBXX 44032 30181 99437 70694 46/30 /0603 11004 40185 56013 91804 22200 00082 11101 70006 333 91204 555 11032 22033
AAXX 30181 30372 41999 30000 11327 21351 39453 40448 52002 70171 82041
AAXX 30181 30433 42999 02901 11180 21206 39722 40363 58004
AAXX 30181 30554 419// 80000 11326 21342 39215 40462 52010 77177 8802/
AAXX 30181 30635 429// 01403 11212 21231 39755 40380 52005
AAXX 30181 30673 419// 80000 11253 21260 39522 40372 51001 77172 8801/
AAXX 30181 30692 42999 00902 11343 21359 39802 40371 52///
AAXX 30181 30758 41929 00000 11283 21313 39483 40409 52005 70511 80001
AAXX 30181 30802 42999 02401 11250 21256 38742 48506 58001
AAXX 30181 30823 42999 00703 11282 21307 39693 40409 52003
AAXX 30181 30879 42999 80000 11293 21318 39529 40386 52001 80003
AAXX 30181 30935 42999 00000 11305 21336 39378 40441 57003
AAXX 30181 30949 42999 50000 11211 21223 39180 40368 58003 85030
AAXX 30181 30965 429// 01001 11319 21344 39471 40413 52002
AAXX 30181 31168 42999 00000 11249 21281 30280 40292 52004
AAXX 30181 31300 41911 00000 11322 21334 30020 40351 55000 71040
AAXX 30181 31329 42999 00000 11346 21367 39601 40370 53010
AAXX 30181 31369 41596 80000 11182 21188 30186 40278 58002 78582 8395/ 333 83923
AAXX 30181 31416 41998 40000 11270 21276 30202 40302 52004 70271 82021
AAXX 30181 31484 42999 00000 11274 21285 39938 40314 52003
AAXX 30181 31512 429// 03001 11267 21299 30142 40329 54000
AAXX 30181 31538 42998 00000 11317 21335 39846 40340 53004
AAXX 30181 31707 42998 03201 11213 21246 30204 40304 53001
AAXX 30181 31735 42997 50000 11245 21270 30200 40298 53001 80001
AAXX 30181 31770 41557 83402 11098 21140 30220 40252 52006 78582 889//
AAXX 30181 26997 11424 82201 10008 20005 39886 40107 53006 69902 72052 886// 333 10012 88710
AAXX 30181 27595 32697 82301 11033 21066 30029 40177 52014 8850/ 333 11020 88640
AAXX 30181 27612 314// 81901 10015 20001 39902 40095 52004 71022 886// 333 10018
AAXX 30181 27707 41546 72301 10002 21004 39806 40102 52003 69922 72842 87500 333 10008 87625
AAXX 30181 27719 11596 81902 10010 21001 39862 40113 54000 69902 72272 885// 333 10012
AAXX 30181 27786 32697 31806 11049 21089 30034 40200 51003 83500 333 11023
AAXX 30181 27857 11997 81603 11031 21050 39997 40164 58002 69900 70272 8802/ 333 11022
AAXX 30181 27906 31495 81503 10006 20001 39866 40109 58004 71022 886// 333 10013
AAXX 30181 27928 11596 81702 11001 21010 39919 40128 57008 69940 71076 8655/ 333 10007
AAXX 30181 27947 11697 61504 11030 21057 30000 40163 53002 69900 70282 83530 333 11012
AAXX 30181 27962 32997 72003 11050 21071 40195 55001 87050 333 11052
AAXX 30181 27983 32972 02003 11054 21079 30094 40228 52004 333 11021
AAXX 30181 27995 32973 21903 11053 21067 40241 52006 82050 333 11030
AAXX 30181 28506 32997 32302 11060 21100 30081 40197 52018 83030 333 11031
AAXX 30181 28704 32998 32002 11106 21120 30118 40218 52016 80002 333 11062
AAXX 30181 28711 31997 02308 11078 21110 39835 40226 51012 73630 333 11070 91011 91112
AAXX 30181 28807 32997 01402 11074 21095 30197 40250 52015 333 11028
AAXX 30181 34009 11295 81803 11001 21004 39808 40116 57005 60032 77372 8872/ 333 10003 93702
AAXX 30181 34110 11597 81802 11012 21019 39849 40132 57006 69962 78582 8635/ 333 10002
AAXX 30181 34123 12497 81704 11019 21037 39962 40150 56002 69900 886// 333 10000 88711
AAXX 30181 34152 32984 01403 11037 21048 39993 40196 57006 333 11015
AAXX 30181 34163 32998 01302 11044 21057 40217 58011 333 11006
AAXX 30181 34171 32460 41805 11047 21056 30022 40222 58001 84600 333 11010
AAXX 30181 34186 32978 21605 11071 21084 30105 40249 58006 80001 333 11035
AAXX 30181 34247 32563 81903 10003 21024 30048 40164 57016 885// 333 10020 88621
AAXX 30181 34336 32997 81503 10002 21024 30057 40162 57013 8802/ 333 10009
AAXX 30181 34391 32997 01603 11061 21076 30220 40252 58011 333 11005
AAXX 30181 35011 31984 01503 11108 21136 40295 52014 70230 333 11072
AAXX 30181 35121 32998 20000 11133 21159 30168 40326 52011 81031 333 11062
BBXX 46111 30181 99481 71227 46/// /2104 10065 40049 53029 91800 22200 00050
AAXX 30181 38598 426// 50000 11011 21040 40417 52006 82530
AAXX 30181 38599 NIL
AAXX 30181 38725 NIL
AAXX 30181 38734 425// 30902 11085 21108 47080 52006 82903
AAXX 30181 38744 416// 80000 11096 21112 38034 48600 51002 77172 8352/
AAXX 30181 38836 115// 80000 10008 21000 39230 40362 51001 60020 78582 889// 333 10045
AAXX 30181 38838 NIL
AAXX 30181 38844 41/// 90000 11036 21046 48500 58002 78684 333 96045
AAXX 30181 38846 NIL
AAXX 30181 38847 NIL
AAXX 30181 38932 NIL
AAXX 30181 38933 NIL
AAXX 30181 38944 326// 80000 10029 20016 39706 40254 52007 885// 333 10056
AAXX 30181 38954 NIL
AAXX 30183 64800 NIL
AAXX 30183 64820 NIL
AAXX 30183 64860 32960 70000 10305 20104 39825 40093 80002 333 10375 58000 87080
AAXX 30183 64861 NIL
AAXX 30183 64870 32960 70404 10235 20098 38913 48508 80002 333 0//00 10316 58001 87080
AAXX 30183 64871 NIL
AAXX 30183 64892 NIL
AAXX 30183 64893 NIL
AAXX 30183 64894 NIL
AAXX 30183 64910 31457 72204 10280 20249 30105 40114 70522 84502 333 10330 59001 84616 87080
AAXX 30183 64911 NIL
AAXX 30183 64950 NIL
AAXX 30184 78526 12566 40817 10289 20217 30149 40172 58023 69901 91756 333 10300 20244 91021 555 93018
AAXX 30184 78543 32566 41013 10300 20217 30092 40171 58021 91753 333 10306 20244 91020 555 93018
AAXX 30184 91165 12466 61008 10217 20167 30162 40197 53013 69931 91753 333 10233 20206 555 93018
AAXX 30184 91182 12666 63304 10228 20172 30184 40188 53014 69901 91753 333 10244 20206 555 93018
AAXX 30184 91190 32666 21703 10167 20122 30171 40190 53014 91754 333 10217 20150 555 93018
AAXX 30184 91212 12966 00810 10250 20211 31375 40110 56015 69901 91754 333 10289 20239 555 93018
AAXX 30184 91285 32766 22105 10189 20133 30175 40189 51012 91753 333 10194 20167 555 93018
AAXX 30184 91245 32466 4//// 10240 20240 30157 91750 555 93018
BBXX KEY796 30183 99571 71703 41/97 63413 11089 21156 40119 53/// 702// 8//// 222// 01017 2//// 3//// 4//// 5//// 6//// 8//// ICE /////
BBXX WQZ9670 30184 99473 70893 43/98 /0105 11005 2//// 40071 5//// 7//// 8//// 22223 0//// 2//01 3//// 4//// 5//// 6//// 8//// ICE /////
BBXX WABS 30184 99437 71258 41397 83234 10106 20073 40125 53005 72586 8227/ 22283 0//// 20909 3//// 4//// 5//// 6//// 80089 ICE /////
BBXX WCOB 30184 99280 70557 41998 01015 10225 20172 40270 56005 7//00 80/// 22223 0//// 20502 329// 41403 5//// 6//// 80190 ICE /////
BBXX WBO3345 30184 99274 70797 41697 42907 10256 20232 40170 52/// 70300 84363 22272 0//// 20501 302// 40501 5//// 6//// 80239 ICE /////
BBXX C6SW3 30184 99067 10796 41997 01809 10270 20213 40090 52020 7//// 80000 22242 00270 20301 39999 40301 53001 6//// 80230 ICE /////
BBXX WZJC 30184 99195 70690 41398 40919 10283 2023/ 40169 57030 70200 842// 22263 00267 20604 306// 40604 5//// 6//// 80244 ICE /////
BBXX WDF7020 30184 99467 70866 41/97 51608 1//// 2//// 40064 54/// 70101 85/7/ 22223 0//// 20202 3//// 4//// 5//// 6//// 8//// ICE /////
AAXX 30184 83437 NIL
AAXX 30184 83550 31597 4//// 10294 20221 30072 40101 70201 81240 333 59002
AAXX 30184 83552 21498 8//// 10267 20246 39900 4//// 71022 885// 333 59004 60111
AAXX 30184 83565 32697 73602 10304 20215 39614 40072 87200 333 58004
AAXX 30184 83579 NIL
AAXX 30184 83592 NIL
AAXX 30184 83623 NIL
AAXX 30184 83630 32497 70000 10254 20204 3//// 4//// 57028 83570
AAXX 30184 83676 NIL
AAXX 30184 83698 32999 81403 10258 20210 30126 40140 56003 8802/
AAXX 30184 83702 21997 83214 10232 20209 39339 40091 58019 76552 88900 333 69951
AAXX 30184 83704 32798 83202 10270 20235 39638 40041 58020 88700
AAXX 30184 83716 NIL
AAXX 30184 83726 32597 60000 10279 20191 39164 40120 58013 86230
AAXX 30184 83738 32698 83604 10254 20198 39620 40117 57003 887//
AAXX 30184 NIL
AAXX 30184 82586 NIL
AAXX 30184 82678 NIL
AAXX 30184 82784 NIL
AAXX 30184 82791 NIL
AAXX 30184 82983 NIL
AAXX 30184 83096 32695 20906 10293 20236 30107 40114 82200 333 58000
AAXX 30184 83186 32598 51407 10311 20189 39561 40084 83302 333 58013
AAXX 30184 83236 NIL
AAXX 30184 83242 32497 71802 10270 20199 39627 40120 87700 333 58031
AAXX 30184 83288 32598 40000 10301 20201 39615 40101 83190 333 58029
AAXX 30184 83344 32498 83203 10249 20217 39160 40123 886// 333 58023
AAXX 30184 NIL
AAXX 30184 82143 NIL
AAXX 30184 82599 32570 51013 10294 20234 30047 40107 85200 333 59006
AAXX 30184 82824 NIL
AAXX 30184 82899 32570 30709 10284 20222 30106 40118 83200 333 59004
AAXX 30184 83117 NIL
AAXX 30184 83248 32470 40911 10302 20249 30103 40125 82130 333 59012
AAXX 30184 83746 31460 71311 10255 20193 30117 40128 58013 70522 88500
AAXX 30181 08579 32/// /2402 10114 20017 30221 40349 54000 333 10136 91105
AAXX 30181 13492 NIL
AAXX 30181 13584 NIL
AAXX 30181 13585 41595 82701 11060 21061 39316 40144 55002 71044 886// 333 11050 94000 90591
AAXX 30181 13597 42698 80000 10004 21022 30043 40118 56004 885// 333 10054 94044
AAXX 30181 13598 42998 60000 11024 21040 48388 53002 80001 333 10038 43004 94007
AAXX 30181 08521 32470 40106 10165 20088 30278 40349 52005 84800 333 10188 84818
AAXX 30181 08524 32465 60205 10161 20092 30257 40356 52007 86800 333 10190 82815 85630 91008 91108
AAXX 30184 61017 32960 70412 10220 21042 39749 40165 80008 333 10255 58019 87280
AAXX 30184 61024 32960 61008 10244 21038 39581 40155 80002 333 10290 58010 85080
AAXX 30184 61036 32962 70202 10258 20042 39899 40140 80008 333 10303 58002 87280
AAXX 30184 61043 32960 70606 10268 21057 39686 40130 80008 333 10307 58000 87280
AAXX 30184 61045 32965 70000 10250 21008 39632 40133 80008 333 10320 58012 87280
AAXX 30184 61049 32960 70000 10247 20032 39798 40119 80008 333 10320 58010 87280
AAXX 30184 61052 32965 30206 10262 21022 39882 40142 80002 333 10313 58004 83080
AAXX 30184 61075 32965 30000 10271 20048 39811 40122 80002 333 10335 58003 83080
AAXX 30184 61080 32960 70000 10266 20040 39710 40133 80008 333 10315 58009 87280
AAXX 30184 61090 32965 70000 10274 20017 39610 40120 80008 333 10330 59001 87280
AAXX 30184 61091 32965 30000 10250 20117 39680 40141 80002 333 10340 58004 83080
AAXX 30184 61096 32960 70202 10270 20028 39747 40130 80008 333 10334 58009 87280
AAXX 30184 61099 32965 73606 10292 20018 39879 40108 80008 333 10332 59002 87280
AAXX 30184 91945 16/// /0310 10274 20232 30147 40152 51009 69981
BBXX 3FMV6 30183 99247 30539 41398 63516 10260 20246 40097 51010 70122 86566 22213 06260 20101 80250
BBXX SHJC 30181 99120 10611 43/97 40216 10257 40146 55001 22274 00267 2//// 4////
BBXX PHKL 30181 99140 10537 41998 00309 10234 20164 40173 50005 70200 80000 22224 00243 2//// 3//// 4//// 5//// 80188
BBXX PHPP 30184 99255 10573 41998 00511 10225 20109 40205 51010 702// 80000 22235 00260 2//01 80156
BBXX PDKK 30183 99036 50025 41298 61806 10239 20229 40118 53003 70300 8317/ 22264 20201 321// 41002 80232
BBXX UBAU 30181 99127 70175 41498 70508 10260 40143 54000 70321 875// 22211 04260 20301
BBXX A8IH2 30183 99056 71452 41399 60514 10245 20217 40140 53010 7//22 86760 22254 06245 21202 307// 41002 5//// 80225
BBXX SJCD 30181 99417 11458 43/96 63014 11005 40037 58004 22263 00047
BBXX 9V9243 30183 99060 10960 41/97 /1112 10276 40120 58002 70200 8//// 22223 00290 2////
BBXX DGWD2 30183 99091 10741 41497 42717 10270 20243 40090 52020 70200 8217/ 22234 00270 20804 80250
BBXX WHIA 30183 99222 11198 41297 80121 10200 2017/ 40212 56007 70222 886// 22283 0//// 20201 301// 40505 5//// 6//// 80180 ICE /////
BBXX C6SW3 30184 99067 10796 41997 01809 10270 20213 40090 52020 7//// 80000 22242 00270 20301 39999 40301 53001 6//// 80230 ICE /////
BBXX WCX8812 30184 99507 11674 41299 23017 11010 2108/ 40200 50005 71570 829// 22264 00050 2//// 3//// 4//// 5//// 6//// 81030 ICE /////
BBXX A8UL6 30183 99317 11418 41398 62604 10150 20133 40140 54000 7//22 8/290 22264 20303 30100 40202 50000 80140
BBXX VNVZ 30184 99256 11342 41/98 73622 10200 20186 40195 52006 70322 8//// 22213 00231 2//// 3//// 4//// 5//// 6//// 80191
BBXX MTFH5 30183 99091 10896 41497 10818 10280 20242 40127 54000 70200 81/00 22273 20804 399// 4//// 5//// 80252
BBXX DDIG2 30184 99262 50712 41598 41810 10210 20160 40130 54000 7//00 8214/ 22244 04210 20200 318// 41003 80180
BBXX MZDL7 30183 99536 50596 41297 83228 10095 20095 49874 54000 70282 8377/ 22214 00090 20502 326// 40806 5//// 80095
BBXX 44008 30181 99405 70692 46/// /1407 10096 20057 40186 58020 91750 22200 00115 10702 20602 318// 40701 70011 333 91207 555 11068 22071 31652 41408 61749 140064 143064 141061 143058 146061 144061
BBXX 46042 30181 99368 71224 46/// /3405 10123 40238 51020 91750 22200 00123 11906 20501 330// 41906 70030 333 91206 555 11052 22055 31719 43306 61749 342048 351043 347053 357050 004046 007043
BBXX 46001 30181 99563 71480 46/// /2815 11030 40000 51012 91750 22200 00042 10909 20706 300// 40908 70047 333 91219 555 11158 22166 31727 42820 61749 275146 280154 271153 274154 270147 271159
BBXX 46083 30181 99582 71380 46/// /2906 11004 21070 49952 53025 91750 22200 00062 10906 20403 300// 40905 70030 333 91209 555 11060 22063 31715 42815 61749 290054 286067 285103 284117 270089 266092 82913 91715
BBXX 46089 30181 99459 71258 46/// /3209 10079 20045 40118 53047 91750 22200 00094 11109 20705 328// 41108 70046 333 91212 555 11091 22096 31650 42813 61749 322088 312097 292093 280090 288090 286093
BBXX 46053 30181 99342 71198 46/// /0202 10139 40188 53020 91750 22200 00137 11103 20401 328// 41103 70013 333 91203 555 11024 22027 31650 40604 61749 016022 015024 037022 035022 040027 054030
BBXX DGDD 30181 99324 71401 41298 72106 10185 20170 40255 52015 70222 877// 22224 04190 20501 329// 40506 5//// 80175
BBXX LAJK7 30184 99293 70437 41899 40913 10230 2019/ 40330 54000 70100 81181 22263 00245 20404 330// 40604 5//// 6//// 80200
BBXX DDJS2 30183 99216 71101 41498 30404 10225 20186 40166 50010 70211 82100 22274 04250 20101 334// 40202 5//// 80200
BBXX PHDL 30183 99264 70753 41/98 /3007 40200 70200 8//// 22213 29901 399// 41001 90966
BBXX NWS0020 30184 99259 70757 43/// /0413 10221 20200 40191 5//// 7//// 8//// 222// 04246 2//// 3//// 4//// 5//// 6//// 8//// ICE /////
BBXX C6VG7 30184 99204 70869 415// 41215 10260 2//// 40170 5/010 7//11 84/6/ 22200 0//// 20600 3//// 40600 50600 6//// 8//// ICE /////
BBXX WXJ63 30183 99611 71464 41/97 83204 11062 21103 49906 5//// 702// 8//// 222// 00044 2//// 3//// 4//// 5//// 6//// 8//// ICE /////
BBXX NWS0003 30184 99539 71665 43/// /3500 11045 21085 40103 5//// 7//// 8//// 222// 0//// 2//// 3//// 4//// 5//// 6//// 8//// ICE /////
BBXX NWS0029 30184 99415 70707 43/// /1612 10086 20043 40175 5//// 7//// 8//// 222// 04067 2//// 3//// 4//// 5//// 6//// 8//// ICE /////
BBXX 41041 30181 99142 70460 46/// /0709 10260 20204 40154 56017 91750 22200 00262 10907 20704 3//// 40905 70034 333 91211 555 11098 22105 31700 40713 61749 065092 066085 063089 064100 062106 073098 80612 91700
BBXX 44011 30181 99411 70666 46/// /2602 10076 20015 40206 57011 91750 22200 00093 10803 20401 3//// 40803 70017 333 91202 555 11018 22019 31656 40504 61749 262018 265019 244023 242023 249025 237028
BBXX 42364 30181 99291 70881 46/// /2207 10217 20133 40193 58010 91800
BBXX 41046 30181 99238 70683 46/// /1405 10249 20214 40201 56015 91750 22200 00254 11304 20502 300// 41303 70019 333 91206 555 11057 22060 31731 41308 61749 137055 127064 128064 129059 129058 130058 81307 91724
BBXX 42363 30181 99282 70892 46/// /2009 10228 20111 40197 58006 91800 333 91209
BBXX 44255 30181 99473 70573 46/// /2616 10001 40073 52019 22200 00034 11010 70052 333 91220
BBXX 9HXC9 30184 99251 70756 41598 30306 10238 20181 40171 55003 7//00 83100 22274 04257 20502 3//// 40802 5//// 6//// 80200 ICE /////
BBXX 5BDK2 30184 99223 70864 414// 70913 10260 2022/ 40220 55020 78166 87773 22233 00250 20402 3//// 40701 5//// 6//// 80230 ICE /////
BBXX 41053 30181 99185 70661 46/// /0809 10272 40164 91740 333 91211
BBXX 41053 30181 99185 70661 46/// /0909 10273 40163 91750 333 91210
BBXX 41052 30181 99183 70648 46/// /0908 10270 40162 58021 91800 22200 00269 333 91210
BBXX 41053 30181 99185 70661 46/// /0908 10273 40162 58024 91800 22200 00271 11403 70016 333 91210
BBXX 41052 30181 99183 70648 46/// /0908 10269 40163 91750 333 91210
BBXX 41052 30181 99183 70648 46/// /0908 10270 40163 91740 333 91210
BBXX 44150 30181 99425 70640 46/// /2908 10056 40205 5//// 22200 00078 10905 70025 333 91210
BBXX 44139 30181 99442 70571 46/// /2714 10043 40172 52014 22200 00046 11313 70063 333 91218
BBXX 41038 30181 99341 70777 46/// /2205 10152 40188 58024 91800 22200 00133 333 91205
BBXX WBO3345 30184 99274 70797 41697 42907 10256 20232 40170 52/// 70300 84363 22272 0//// 20501 302// 40501 5//// 6//// 80239 ICE /////
BBXX C6SE5 30184 99266 70880 43/// ///// 1//// 2//// 4//// 5//// 7//// 8//// 22211 0//// 2//// 3//// 4//// 5//// 6//// ICE /////
BBXX WCOB 30184 99280 70557 41998 01015 10225 20172 40270 56005 7//00 80/// 22223 0//// 20502 329// 41403 5//// 6//// 80190 ICE /////
BBXX WRYD 30184 99234 70594 43997 00520 10230 2017/ 40190 51015 7//// 80/// 22274 00246 20803 30505 40803 50602 6/00/ 80190 ICE /////
BBXX WSRL 30183 99331 71331 41498 62609 10170 2015/ 40260 51018 70111 8/004 22254 0//// 20401 328// 40804 5//// 6//// 80155 ICE 0/0//
BBXX 9HXD9 30184 99180 70630 41898 30917 10270 2//// 40150 54/// 70211 831// 22200 04290 20802 310// 4//// 5//// 6//// 8//// ICE /////
BBXX WABS 30184 99437 71258 41397 83234 10106 20073 40125 53005 72586 8227/ 22283 0//// 20909 3//// 4//// 5//// 6//// 80089 ICE /////
BBXX WZJC 30184 99195 70690 41398 40919 10283 2023/ 40169 57030 70200 842// 22263 00267 20604 306// 40604 5//// 6//// 80244 ICE /////
BBXX DPLE 30183 99456 70564 41597 62840 10010 21046 40120 52025 70222 8589/ 22263 00040 21412 81010
BBXX A8IO2 30184 99200 70424 41598 40913 10280 20224 40185 70211 8/11/ 22254 04260 2//// 3//// 4//// 5//// 80240
BBXX VQKZ5 30183 99119 70785 41597 40629 10289 20243 40112 50010 70211 83475 22213 02290 20506 306// 40507 5//// 80257
BBXX A8LP6 30184 99339 70485 41597 62316 10210 20180 40290 51010 70222 865// 22224 04160 29903 80190
BBXX VQAJ8 30183 99486 71225 41698 62520 10088 20006 40046 52015 70322 85165 22200 00105 20303 325// 40601 5//// 80055
BBXX VQKR7 30184 99322 71171 41296 80802 10115 20115 40194 51010 71222 89610 22200 04070 20401 39900 40401 80115
BBXX C6UB2 30184 99545 71668 43/// /2719 10010 2102/ 40100 54000 7//// 8//// 22263 00100 2//// 3//// 4//// 5//// 6//// 80000 ICE /////
BBXX WSRH 30184 99300 71428 41498 70509 10194 2015/ 40230 51001 7//22 8654/ 22214 00189 29903 327// 4//05 5//// 6//// 80167 ICE /////
BBXX DCLH2 30180 99300 71779 41/98 10702 10185 20127 40205 52015 70100 81/// 22263 06210 2//// 3//// 4//// 5//// 80150
BBXX DDAC2 30180 99453 71393 41/98 33007 10050 20050 40190 51030 7//22 83400 22273 04100 2//// 329// 40408 5//// 80050
BBXX DDSC2 30183 99211 70631 41398 30920 10270 20213 40210 57023 70300 82472 22254 00251 20604 312// 40604 80230
BBXX PHIN 30184 99484 70636 41/96 83136 11025 21028 40121 52043 77474 8//// 22253 00000 20809 315// 40809 65023 82025
BBXX FLAO 3018/ 99764 70847 46/// ///// 11368 40081 57016
BBXX ZQAY4 30184 99131 31524 41497 32714 10280 20237 40067 56006 71311 83200 22243 00317 20802 327// 40803 5//// 80250
BBXX VNSZ 30184 99408 31461 46/// /0819 10168 20140 30163 40189 52001 22236 04179 85151
BBXX 2ALD3 30183 99247 31539 41/98 /1427 10240 20211 40111 53/// 70322 8//// 22243 04270 20604 80220
BBXX VRAE2 30184 99247 31655 41598 52011 10235 20188 40086 54000 70011 84530 22274 04260 20101 322// 40403 80205
BBXX ZCBU6 30184 99392 31597 41398 81618 10150 20113 40190 52008 70211 887// 22234 00176 20402 314// 40504 5//// 80130
BBXX 3ECI3 30184 99399 31738 41294 81342 10170 20135 40077 58010 76362 8972/ 22231 00180 20618 315// 40618 80150
BBXX ZCBH7 30184 99071 31153 41597 33120 10292 20280 40125 51031 70322 8/292 22272 04293 20202 334// 40202 5//// 80283
BBXX PCKU 30183 99044 31177 41/98 21804 10271 20232 40112 58018 7//00 8//// 22253 04293 20201 30000 80243
BBXX DCDO2 30183 99004 11358 41698 62310 10285 20251 40070 54000 70322 86464 22234 00300 2//// 3//// 4//// 5//// 80260
BBXX VK4041 30180 99092 51257 41598 70908 10253 20213 40132 52003 70381 838/2 22262 02252 20302 30999 40608 5//04 80226
BBXX MGRH9 30184 99266 31532 41/97 51324 10230 20156 40147 54000 7//11 85/// 22200 00242 2//// 3//// 4//// 5//// 80185
BBXX PCCL 30183 99393 31556 41197 22310 10150 40213 54000 70222 821// 22263 04186 20501 321// 40806
BBXX VQNW6 30184 99007 30861 41997 03311 10282 20240 40131 51012 702// 80000 22233 00288 2//// 3//// 4//// 5//// 80253
BBXX PCIM 30184 99034 11054 41/98 72919 10255 20238 40100 58010 70222 8587/ 22213 00269 20503 30000 80243
BBXX PFBF 30184 99137 51737 41398 22413 10280 20277 40085 53015 70100 8114/ 22213 02278 20206 314// 40506 5//// 80278
BBXX MIBR 30183 99130 30785 41597 82125 10280 20237 40066 52020 71822 87/// 22254 00293 2//// 3//// 4//// 5//// 80250
BBXX KAOU 30184 99002 10840 43/// /0097 10280 20239 40113 5//// 7//// 8//// 222// 04286 2//// 3//// 4//// 5//// 6//// 8//// ICE /////
BBXX 62087 30181 99547 10068 46/// /1403 10068 20004 4//// 5//// 22270 00081
BBXX DQVI 30183 99364 10181 41698 82108 10160 20118 40115 51005 71322 8/9// 22224 00185 20502 80135
BBXX 62023 30183 99514 70079 46/96 /2632 10110 2//// 40161 5//// 22200 10505 70027 333 91138 555 70051 81004
BBXX KABP 30183 99376 10104 41398 53038 10140 2010/ 40171 52008 72585 859// 22263 00163 2//// 3//// 4//// 5//// 6//// 80115 ICE /////
BBXX LF4H 30184 99596 10022 46/98 11201 10045 21048 40075 57010 8//// 22200 06077 10805 70026 333 91115
BBXX LDGJ 30181 99603 10053 43/// /1701 10011 21015 40081 5//// 222/0 04065 1//// 3//// 4//// 5////
BBXX LMEL 30181 99603 10053 43/// /1601 10002 21011 40076 5//// 222/0 04071 1//// 3//// 4//// 5////
BBXX LAHV 30181 99589 10057 43/// /0502 10031 21010 40078 222// 04082 1////
BBXX UCJL 30181 99614 10040 41698 52805 10041 40063 52010 70222 855// 22243 00080 20301 33400 40804
BBXX DDYZ2 30184 99366 10000 41999 02310 10160 20098 40305 56005 7//// 80000 22224 00160 2//// 80125
BBXX TFGRV 30184 99638 70225 46/// ///// 22200 10708 70039
BBXX TFBKF 30184 99635 70202 46/// ///// 22200 10606 70029
BBXX TFGSK 30184 99641 70229 46/// ///// 22200 10604 70022
BBXX TFSTD 30184 99664 70234 46/// ///// 22200 10603 70015
BBXX TFGRS 30184 99663 70182 46/// ///// 22200 10503 70013
BBXX TFKGR 30184 99657 70136 46/// ///// 22200 10606 70030
BBXX TFDRN 30184 99658 70212 46/// ///// 22200 10501 70007
BBXX TFHFN 30184 99642 70152 46/// ///// 22200 10604 70018
BBXX PHAM 30183 99495 70011 41297 82808 10114 20107 40171 57019 76165 887// 22200 20201 80110 90967
BBXX C6KD6 30184 99485 70073 41/97 92527 10130 20121 40235 57025 70311 8972/ 22214 02118 21009 80125
BBXX VRFX8 30184 99506 70187 41/95 /2422 10140 20120 40150 54000 74544 8//// 22224 0//// 20404 324// 40805 80130
BBXX DGOS 30183 99387 70324 41297 82018 10186 20174 40315 55005 70222 8577/ 22264 21203 320// 41404 80178
AAXX 30184 60351 11558 52816 10138 20090 40261 53001 60032 70162 85800 333 10147 84820 85633 95900
AAXX 30184 60355 11658 23010 10138 20059 40248 51005 60052 72582 82200 333 10152 82833 95990
AAXX 30184 60445 12460 42810 10044 20018 39098 48563 53006 60022 81200 333 10072 81710 84826 95900
AAXX 30184 60468 11460 42706 10048 20009 39304 48555 53009 60012 70360 84800 333 10080 81813 84623 95990
AAXX 30184 60507 12560 33002 10083 20064 40321 53002 60002 83200 333 10128 83830 95990
AAXX 30184 60511 12560 23008 10042 20035 39154 48574 53001 60002 82200 333 10087 82823 95990
AAXX 30184 60535 12560 63616 10030 21008 38910 48564 56010 69922 86200 333 10062 86826 95900
AAXX 30184 60536 12660 20000 10056 20043 39421 48577 50003 60002 82500 333 10119 82633 95990
AAXX 30184 60549 11660 30000 10047 20021 39013 48595 54000 60002 70211 83200 333 10084 83830 95990
AAXX 30184 60550 12460 70000 10035 20014 38758 48588 51006 60002 852// 333 10039 85710 84820 95990
AAXX 30184 60555 12970 03207 10122 20004 40271 53007 60002 333 10176
AAXX 30184 60559 12960 00000 10116 20014 40264 53011 60002 333 10171
AAXX 30184 60581 12960 00000 10120 20035 40274 52008 60002 333 10166
AAXX 30184 60602 12960 00404 10130 20001 40301 55000 60002 333 10150 95990
AAXX 30184 60607 12960 00106 10124 21034 40284 55005 60002 333 10150
AAXX 30184 60640 12960 03408 10123 21003 40272 53008 60002 333 10160
AAXX 30184 60690 NIL
AAXX 30184 60360 11560 62615 10120 20092 40248 53008 60022 70162 84830 333 10149 82826 83640 95990
AAXX 30184 60390 12570 22102 10108 20075 40238 53006 60002 82800 333 10158 82820 95990
AAXX 30184 60402 12560 30000 10100 20068 40285 53010 69932 83800 333 10161 82820 95990
AAXX 30184 60419 11558 72914 10069 20027 40272 53006 60012 70262 878// 333 10089 82820 86623 95990
AAXX 30184 60475 11560 53017 10050 20034 39282 48531 53002 60022 70162 85800 333 10067 82826 84833 95990
AAXX 30184 60490 12470 22602 10110 20075 40312 53001 60002 82200 333 10160 82816 95990
AAXX 30184 60525 12960 03210 10135 20005 40258 52010 60002 333 10170 95990
AAXX 30184 60531 12970 00000 10098 20050 40327 52005 60002 333 10155 95990
AAXX 30184 60566 12660 23508 10121 20027 40296 53011 60002 82100 333 10154 82840
AAXX 30184 60571 12965 00208 10105 20001 39354 48585 53003 60002 333 0//00 10140 95900
AAXX 30184 60580 12960 03306 10135 20070 40276 53010 60002 333 10182
AAXX 30184 60590 12960 00000 10114 20011 40300 53004 60002 333 0//00 10154 95900
AAXX 30184 60611 12960 03208 10104 21040 40266 52014 60002 333 10152
AAXX 30184 60620 12960 00211 10137 20003 40286 52009 60002 333 10175
AAXX 30184 60630 12975 00712 10152 21047 40269 53010 60002 333 10181
AAXX 30184 60656 12970 00912 10159 21010 40284 51001 60002 333 10183
AAXX 30184 60670 12970 20108 10110 21025 39123 48554 53018 60002 80002 333 10162 82073 95990
AAXX 30184 60680 12980 31210 10118 21061 38670 48543 53012 60002 80002 333 10172 83073 95990
AAXX 30184 60351 11558 52816 10138 20090 40261 53001 60032 70162 85800 333 10147 84820 85633 95900
AAXX 30184 60355 11658 23010 10138 20059 40248 51005 60052 72582 82200 333 10152 82833 95990
AAXX 30184 60445 12460 42810 10044 20018 39098 48563 53006 60022 81200 333 10072 81710 84826 95900
AAXX 30184 60468 11460 42706 10048 20009 39304 48555 53009 60012 70360 84800 333 10080 81813 84623 95990
AAXX 30184 60507 12560 33002 10083 20064 40321 53002 60002 83200 333 10128 83830 95990
AAXX 30184 60511 12560 23008 10042 20035 39154 48574 53001 60002 82200 333 10087 82823 95990
AAXX 30184 60535 12560 63616 10030 21008 38910 48564 56010 69922 86200 333 10062 86826 95900
AAXX 30184 60536 12660 20000 10056 20043 39421 48577 50003 60002 82500 333 10119 82633 95990
AAXX 30184 60549 11660 30000 10047 20021 39013 48595 54000 60002 70211 83200 333 10084 83830 95990
AAXX 30184 60550 12460 70000 10035 20014 38758 48588 51006 60002 852// 333 10039 85710 84820 95990
AAXX 30184 60555 12970 03207 10122 20004 40271 53007 60002 333 10176
AAXX 30184 60559 12960 00000 10116 20014 40264 53011 60002 333 10171
AAXX 30184 60581 12960 00000 10120 20035 40274 52008 60002 333 10166
AAXX 30184 60602 12960 00404 10130 20001 40301 55000 60002 333 10150 95990
AAXX 30184 60607 12960 00106 10124 21034 40284 55005 60002 333 10150
AAXX 30184 60640 12960 03408 10123 21003 40272 53008 60002 333 10160
AAXX 30184 60690 NIL
AAXX 30184 41858 31906 00000 10140 20120 30130 40177 74440 333 58020 70000
AAXX 30184 41863 31950 00000 10132 20120 30126 40172 70500 333 58004 70000
AAXX 30184 41886 31940 00000 10150 20130 30143 40165 71044 333 58006 70000
AAXX 30184 41895 32950 03601 10141 20130 30149 40173 333 58012 70000
AAXX 30184 41909 31940 00000 10150 20130 30141 40153 70500 333 58005 70000
AAXX 30184 41915 32950 00000 10124 20110 30145 40172 333 58013 70000
AAXX 30184 41926 31950 00000 10140 20130 30161 40175 70500 333 58016 70000
AAXX 30184 41929 32956 00000 10177 20160 30149 40158 333 58010 70000
AAXX 30184 41933 31930 00000 10174 20160 30156 40465 70500 333 58011 70000
AAXX 30184 41939 31950 00000 10167 20160 40169 70544 333 58010 70000
AAXX 30184 41941 31940 00000 10202 20180 30159 40165 70500 333 58016 70000
AAXX 30184 41946 31940 00000 10180 20160 30161 40165 70500 333 58010 70000
AAXX 30184 41947 31950 00000 10202 20180 30157 40159 70500 333 58007 70000
AAXX 30184 41951 NIL
AAXX 30184 41953 31930 00000 10200 20190 30147 40153 70500 333 58005 70000
AAXX 30184 41958 31930 00000 10200 20180 30146 40148 70500 333 58001 70000
AAXX 30184 41960 31940 00000 10192 20190 30162 40164 70500 333 58008 70000
AAXX 30184 41963 31930 00000 10200 20180 30145 40148 70500 333 58012 70000
AAXX 30184 41964 31932 00000 10194 20180 30166 40168 70500 333 58014 70000
AAXX 30184 41965 NIL
AAXX 30184 41966 NIL
AAXX 30184 41984 32440 50000 10207 20190 30145 40147 82530 333 56990 58003 70000 82618 83362
AAXX 30184 41989 NIL
AAXX 30184 41998 NIL
AAXX 30184 60360 11560 62615 10120 20092 40248 53008 60022 70162 84830 333 10149 82826 83640 95990
AAXX 30184 60390 12570 22102 10108 20075 40238 53006 60002 82800 333 10158 82820 95990
AAXX 30184 60402 12560 30000 10100 20068 40285 53010 69932 83800 333 10161 82820 95990
AAXX 30184 60419 11558 72914 10069 20027 40272 53006 60012 70262 878// 333 10089 82820 86623 95990
AAXX 30184 60475 11560 53017 10050 20034 39282 48531 53002 60022 70162 85800 333 10067 82826 84833 95990
AAXX 30184 60490 12470 22602 10110 20075 40312 53001 60002 82200 333 10160 82816 95990
AAXX 30184 60525 12960 03210 10135 20005 40258 52010 60002 333 10170 95990
AAXX 30184 60531 12970 00000 10098 20050 40327 52005 60002 333 10155 95990
AAXX 30184 60566 12660 23508 10121 20027 40296 53011 60002 82100 333 10154 82840
AAXX 30184 60571 12965 00208 10105 20001 39354 48585 53003 60002 333 0//00 10140 95900
AAXX 30184 60580 12960 03306 10135 20070 40276 53010 60002 333 10182
AAXX 30184 60590 12960 00000 10114 20011 40300 53004 60002 333 0//00 10154 95900
AAXX 30184 60611 12960 03208 10104 21040 40266 52014 60002 333 10152
AAXX 30184 60620 12960 00211 10137 20003 40286 52009 60002 333 10175
AAXX 30184 60630 12975 00712 10152 21047 40269 53010 60002 333 10181
AAXX 30184 60656 12970 00912 10159 21010 40284 51001 60002 333 10183
AAXX 30184 60670 12970 20108 10110 21025 39123 48554 53018 60002 80002 333 10162 82073 95990
AAXX 30184 60680 12980 31210 10118 21061 38670 48543 53012 60002 80002 333 10172 83073 95990
AAXX 30181 40701 12960 00000 11082 21100 38641 40332 53001 60001 333 55085
AAXX 30181 40704 12970 33007 10010 21053 38653 40272 51002 60001 80001 333 55072 21142 83069
AAXX 30181 40708 12960 02014 10032 21033 38700 40241 52009 60001 333 55086 21111
AAXX 30181 40710 12980 13402 11048 21068 38363 40314 50004 60001 80001 333 55055 81069
AAXX 30181 40713 12960 00705 10004 21068 38710 40275 50008 60001 333 55066
AAXX 30181 40719 11930 00000 10050 20050 30248 40238 50000 60001 71000 333 55054
AAXX 30181 40731 12960 00904 10014 21024 38820 40312 52007 60001 333 55072 21093
AAXX 30181 40738 12960 01903 10042 20037 30262 40264 57008 60001 333 55084
AAXX 30181 40740 12960 00910 11012 21049 38820 40314 50000 60001 333 55065
AAXX 30181 40747 12960 40000 11004 21055 38688 40291 53010 60001 80001 333 55072 20913 84070
AAXX 30181 40757 12965 03301 10020 21030 38993 40308 53003 60001 333 55082 21146
AAXX 30181 40763 12965 01102 10020 21076 39013 40317 53003 60001 333 55090
AAXX 30181 40782 12962 30000 10018 21071 38941 40287 51006 60001 80001 333 55074 83069
AAXX 30181 40783 12965 01205 10014 21112 38041 40274 51004 60001 333 55086
AAXX 30181 40789 12965 00000 10020 21040 39306 40314 55002 60001 333 55090 21272
AAXX 30181 40798 12960 20000 11050 21126 38025 40327 52010 60001 80001 333 55083 82070
AAXX 30181 40818 12965 10000 10000 21085 38041 40303 51004 60001 80002 333 55092 81070
AAXX 30181 40827 12965 00000 10036 21073 38910 40314 58004 60001 333 55094
AAXX 30181 40836 12962 20000 10032 21098 38250 40283 52011 60001 82070 333 55092 21468 82360
AAXX 30181 40851 12960 03002 10010 21083 38325 40281 51015 60001 333 55089
AAXX 30181 40853 12960 00303 10022 21093 37792 40244 51006 60001 333 55095
AAXX 30181 40854 12960 02702 10076 21057 39036 40258 51010 60001 333 55085
AAXX 30181 40857 12960 00202 10152 20126 30225 40235 52011 60001 222// 00/// 20000 333 55084
AAXX 30181 40859 12960 03302 10068 21076 38778 40236 52014 60001 333 55095
AAXX 30181 40878 12962 00000 10089 21099 38903 40259 51007 60001 333 55074
AAXX 30181 40879 12960 10402 10129 21077 39549 40239 52014 60001 81030 333 55089 81360
AAXX 30181 40883 12960 03405 10182 20054 30190 40213 51005 60001 333 55093
AAXX 30181 40898 11956 00000 10214 20099 30180 40189 51010 60001 70500 222// 00236 10700 333 55070 2////
BBXX TBWUK35 30184 99552 10040 41598 32505 10061 20047 40107 54000 70200 83500 22242 00090 2//// 80055
AAXX 30184 43466 22470 10000 10245 20219 30099 40111 81101 333 58017 60007 81818
BBXX 46207 30181 99509 71299 46/// /2914 10057 40035 52078 22200 00081 11214 70071 333 91218
BBXX 3ERR2 30184 99635 10053 41498 21305 10046 21001 40058 52012 70182 82200 22200 06096 10908 70038 333 91126
BBXX LF3F 30184 99643 10078 43/// /0117 10039 21038 40053 52018 22200 04085 10807 70036 333 91126
BBXX LF3N 30184 99653 10073 41698 50212 10033 21072 40053 52014 78382 858// 22200 00091 10706 70031
BBXX LF4B 30184 99606 10037 47/98 /0712 10026 40079 57002 700// 22200 00047 10906 70032 333 91121
BBXX LF4C 30184 99584 10019 41598 71307 10056 21005 40078 57015 70210 89/// 22200 00066 10805 70027 333 91115
BBXX LF5T 30184 99660 10081 43697 /0216 10032 21054 40044 52016 22200 06078 10807 70035 333 91131
AAXX 30181 01025 17/80 01101 11048 21084 39986 49997 52016 60002 700// 333 11026 91103
AAXX 30181 01311 47/70 01302 11017 21019 30014 40078 52001 700// 333 10029 91105
BBXX 46207 30181 99509 71299 46/// /2914 10057 40035 52078 22200 00081 11214 70071 333 91218
AAXX 30181 38838 415// 80502 10011 21004 39666 40362 52002 78082 889//
AAXX 30181 38954 328// 70000 11058 21163 37996 48610 57005 8652/ 333 10002
AAXX 30181 38599 12997 62304 11016 21042 39872 40419 53003 69900 86030 333 10019
AAXX 30181 38725 429// 40000 11086 21119 48580 52002 80001
AAXX 30181 38599 12997 62304 11016 21042 39872 40419 53003 69900 86030 333 10019
AAXX 30181 48900 41497 40102 10240 20230 30107 40117 57018 84800 333 58000 81894 83696
AAXX 30181 48918 32498 70506 10252 20213 30112 40123 58011 879// 222// 00244 2//// 333 58003 82894 86995 9111 7 91505
AAXX 30181 48917 32598 60901 10268 20245 30116 40122 58010 8221/ 222// 00280 333 59003 82895 86499
AAXX 30181 48914 11597 70904 10250 20220 30123 40125 58005 69921 78082 888// 333 58006 83895 85696
AAXX 30181 48919 32598 70506 10258 20240 30109 40131 58001 82208 22200 02260 333 58029 82895 87299
AAXX 30181 48916 32598 70000 10262 20239 30078 40125 57007 82208 333 58001 82895 87299
AAXX 30184 41264 36/70 /2605 10189 20065 39811 40184 333 0E020 10260 58006
AAXX 30184 41288 36/// /1010 10233 20180 30172 40196 333 0E023 10260 59001
AAXX 30183 87480 32765 20508 10328 20138 30054 40083 57009 82500 333 56000 82656
AAXX 30183 87532 32570 21802 10303 20193 39921 40086 57011 82100 333 56300 82826
AAXX 30184 87344 32565 41107 10326 20158 39546 40076 57007 83306 333 56000 57962 81830 82935
AAXX 30184 87349 32570 21802 10306 20176 39700 40083 57012 82200 333 56200 57871 82830
AAXX 30184 87371 32962 01409 10319 20151 30070 40091 57008
AAXX 30184 87374 32565 12304 10318 20130 39994 40080 57012 81100 333 56200 81825
AAXX 30184 87395 32965 02314 10314 20104 30033 40077 57013
AAXX 30184 87418 32665 21408 10324 20101 39300 40059 57013 82400 333 56600 82640
AAXX 30184 87436 32670 41604 10332 20150 39285 40058 57033 83270 333 56770 57884 83840
AAXX 30184 87448 32665 51104 10360 20125 39530 40065 57011 85100 333 56800 85835
AAXX 30184 87453 32565 31809 10329 20130 39597 40067 57011 83200 333 56500 57800 83820
AAXX 30184 87467 NIL
AAXX 30184 87497 32565 21606 10310 20113 30072 40098 57008 82100 333 56300 82830
AAXX 30184 87506 31959 00505 10278 20027 38570 48496 57008 70400 333 95090
AAXX 30184 87509 31960 30910 10309 20109 39264 40081 58009 70600 81032 333 56077 81360 83070 90061 90079 90085
AAXX 30184 87534 32960 03604 10343 20111 39917 40073 57019
AAXX 30184 87548 32965 30506 10325 20099 39997 40090 58012 80006 333 56007 83270
AAXX 30184 87576 32760 70710 10307 20158 30080 40103 57011 82886 333 56555 81650 83360
AAXX 30184 87582 32660 60911 10258 20174 30102 40109 57008 82205 333 56009 57810 82840 84270
AAXX 30184 87585 NIL
AAXX 30181 34560 32497 71105 11001 21026 30018 40187 57021 87500 333 10013 87612
AAXX 30181 34720 32497 81002 10000 21002 30111 40151 50001 886// 333 11008 93601
AAXX 30181 34730 31240 81602 11001 21009 30063 40157 54000 71022 886// 333 10021 88706
AAXX 30181 34740 31/93 91403 11004 21004 30067 40165 57003 74542 333 10012
AAXX 30181 34824 31594 81302 10008 20007 30133 40138 57010 76166 8860/ 333 11002
AAXX 30181 34858 31294 80000 10010 20006 30059 40168 54001 71011 886// 333 10018
AAXX 30181 34866 11496 81003 10035 20034 30172 40163 57004 69930 75155 8860/ 333 10048
AAXX 30181 34880 32497 81006 10033 21021 30221 40194 56014 8637/ 333 10048 88919 91112
AAXX 30181 37018 32698 52304 10085 20040 30095 40170 52004 82501 333 10122
AAXX 30181 37054 31/93 93001 11028 21029 39789 40185 55001 74742 333 10001
AAXX 30181 37472 32997 03004 10000 21017 30173 40150 53007 333 10079
AAXX 30181 22282 325// 71403 11051 21061 39988 49996 52016 87500 333 11031
AAXX 30181 22438 NIL
AAXX 30181 22471 11250 81103 11063 21075 39941 42965 52004 69940 78582 889// 333 11075 86706
AAXX 30181 22563 NIL
AAXX 30181 22641 NIL
AAXX 30181 22695 11496 82302 11020 21023 39864 40017 52013 69970 77172 8672/ 333 11030 86710
AAXX 30181 22867 NIL
AAXX 30181 22939 12597 71907 10019 21028 39853 40014 52011 69900 875// 333 10018 87623
AAXX 30181 22996 11497 81902 11022 21031 39897 40088 52017 69940 71022 885// 333 11015
AAXX 30181 23324 12480 82605 11079 21097 39959 40039 52027 69900 886// 333 11035 88712
AAXX 30181 27008 12598 81804 10021 21016 39847 40016 52011 69900 885// 333 10024
AAXX 30181 27051 11496 81904 10008 21003 39890 40056 52015 69960 78582 8555/ 333 20007 84914
AAXX 30181 27225 12464 82003 10016 21012 39936 40067 52016 69930 885// 333 10018 88618
AAXX 30181 27252 11496 82003 10005 20002 39905 40090 52017 69900 71032 885// 333 10000 88617
AAXX 30181 27333 12484 82004 10013 21004 39924 40081 52008 69900 887// 333 10015 88713
AAXX 30181 27369 11697 81903 11006 21018 39985 40124 52012 69900 70252 885// 333 10000
AAXX 30181 27393 11497 82306 11018 21026 39976 40146 52017 69900 78083 889// 333 11015 93400
AAXX 30181 27479 11498 81702 11028 21048 30014 40150 52015 69900 70273 886// 333 11009 88712
AAXX 30181 27532 11396 82104 10005 21003 39894 40109 52007 69900 71022 8667/ 333 10007 86707
AAXX 30181 27648 11496 81803 11006 21015 39965 40135 52003 69900 71032 886// 333 11004 88710
AAXX 30181 27675 42497 82004 11039 21054 30004 40178 52015 885// 333 11034 88616
AAXX 30181 27679 32598 81805 11050 21063 39953 40183 52009 885// 333 11041 88623
AAXX 30181 28214 11496 82205 11038 21050 39931 40147 52017 69940 77173 8872/ 333 21036
AAXX 30181 22165 11598 80903 11030 21040 39932 49994 52023 60020 70282 885// 333 10001
AAXX 30181 22676 NIL
AAXX 30181 22837 11475 81504 10023 21014 39902 49972 52005 69910 70282 889// 333 10028 85916
AAXX 30181 22954 12498 81905 10007 21004 39779 40028 50013 60010 887// 333 10008 85710
AAXX 30181 23405 11667 81103 11087 21102 39918 40020 52013 69930 77171 8255/ 333 11059
AAXX 30181 23412 31399 81801 11078 21088 39932 40030 52021 72452 8872/ 333 11054 85708
AAXX 30181 23803 32599 82203 11031 21045 39902 40083 51020 889// 333 11040 88924
AAXX 30181 27066 11396 81703 11001 21009 39902 40079 52014 69900 77172 8677/ 333 11003 86708
AAXX 30181 27083 12484 82003 11011 21015 39860 40084 52013 69920 885// 333 11011
AAXX 30181 27113 12560 81905 10018 21007 39888 40033 52010 69900 8353/ 333 10026
AAXX 30181 27242 32598 82602 10013 21001 39945 40073 52010 889// 333 10015 88920
AAXX 30181 27329 12684 82102 10011 21003 39959 40084 52008 69900 885// 333 10017
AAXX 30181 27355 12497 81802 10005 21003 39950 40114 52015 69900 885// 333 10005
AAXX 30181 27373 11296 81805 11011 21018 39904 40124 52012 69940 70285 886// 333 11008 88706 93401
AAXX 30181 27665 32497 81802 11036 21050 39888 40165 52007 886// 333 11030 88711
AAXX 30181 27835 31296 81803 11001 21004 39972 40132 58004 71022 886// 333 11001 88705
AAXX 30181 28009 11498 82003 11024 21040 39909 40122 52019 69900 70282 889// 333 11028
AAXX 30181 28411 11597 82107 11043 21062 39976 40176 52015 69900 77172 8455/ 333 11041
AAXX 30181 28418 32598 80000 11042 21076 30016 40186 52018 885// 333 11034 88624
AAXX 30184 43400 NIL
AAXX 30184 43404 NIL
AAXX 30184 43410 NIL
AAXX 30184 43413 NIL
AAXX 30184 43415 NIL
AAXX 30184 43418 22470 61606 10257 20234 3//// 4//// 84036 333 5//// 60007 84358 85280
AAXX 30184 43421 22460 60000 10252 20231 30013 40115 86100 333 58026 60007 86818
AAXX 30184 43422 NIL
AAXX 30184 43424 22968 72502 10242 20224 30097 40100 80006 333 58020 60007 86280
AAXX 30184 43436 22970 21403 10262 20233 30114 40116 80001 333 58025 60007 82080
AAXX 30184 43441 NIL
AAXX 30184 43444 21965 10000 10202 20195 39584 40117 71000 80001 333 58016 60007 81080
AAXX 30184 43467 22460 10901 10244 20220 30106 40111 81100 333 58019 60007 81816
AAXX 30184 43473 22970 00000 10090 20075 48137 333 58013 60007
AAXX 30184 43475 NIL
AAXX 30184 43476 NIL
AAXX 30184 43479 NIL
AAXX 30184 43486 22470 10000 10226 20208 30018 40112 81100 333 58019 60007 81810
AAXX 30184 43495 22468 4//// 10246 20213 30106 40122 81101 333 58020 60007 81818 84078
AAXX 30184 43497 22970 02507 10250 20214 30088 40066 333 58012 60007
AAXX 30184 61017 32960 70412 10220 21042 39749 40165 80008 333 10255 58019 87280
AAXX 30184 61024 32960 61008 10244 21038 39581 40155 80002 333 10290 58010 85080
AAXX 30184 61036 32962 70202 10258 20042 39899 40140 80008 333 10303 58002 87280
AAXX 30184 61043 32960 70606 10268 21057 39686 40130 80008 333 10307 58000 87280
AAXX 30184 61045 32965 70000 10250 21008 39632 40133 80008 333 10320 58012 87280
AAXX 30184 61049 32960 70000 10247 20032 39798 40119 80008 333 10320 58010 87280
AAXX 30184 61052 32965 30206 10262 21022 39882 40142 80002 333 10313 58004 83080
AAXX 30184 61075 32965 30000 10271 20048 39811 40122 80002 333 10335 58003 83080
AAXX 30184 61080 32960 70000 10266 20040 39710 40133 80008 333 10315 58009 87280
AAXX 30184 61090 32965 70000 10274 20017 39610 40120 80008 333 10330 59001 87280
AAXX 30184 61091 32965 30000 10250 20117 39680 40141 80002 333 10340 58004 83080
AAXX 30184 61096 32960 70202 10270 20028 39747 40130 80008 333 10334 58009 87280
AAXX 30184 61099 32965 73606 10292 20018 39879 40108 80008 333 10332 59002 87280
AAXX 30181 01271 17/37 93503 11008 21022 30024 40045 53031 6//// 771// 333 10022 91110
AAXX 30181 01415 17/80 63602 10018 21011 30067 40078 50004 6//// 700// 333 10050 91109
AAXX 30181 40716 12960 03002 10004 21035 38977 40296 51003 60001 333 55080
AAXX 30181 40719 11930 00000 10050 20050 30248 40238 50000 60001 71000 333 55054
AAXX 30181 40721 12960 01514 10116 21061 39703 40254 56007 60001 333 55085
AAXX 30181 40858 12960 00000 10148 20110 30220 40230 51012 60001 333 55081
AAXX 30181 40872 12960 03202 10178 20017 30216 40221 51012 60001 222// 00/// 20401 333 55090
AAXX 30181 40877 12960 00000 10126 21017 39658 40209 52012 60001 333 55094
AAXX 30181 40898 11956 00000 10214 20099 30180 40189 51010 60001 70500 222// 00236 10700 333 55070 2////
AAXX 30184 60395 12660 60000 10115 20074 40291 53005 60002 86500 333 10155 86640 95990
AAXX 30184 60421 11560 52206 10035 20026 39208 48538 53003 60032 70361 85800 333 10068 82826 84830 95970
AAXX 30184 60423 11658 62818 10057 20041 39240 48500 51005 60092 70162 86800 333 10068 82833 85640 95990
AAXX 30184 60430 12565 42808 10080 20063 40315 53001 60012 84200 333 10113 84820 95990
AAXX 30184 60437 12460 63007 10050 20038 39069 48560 53007 69942 86800 333 10071 81816 86823 95990
AAXX 30184 60444 12594 33604 10048 20020 39165 48565 51001 69952 83200 333 10102 83830 95900
AAXX 30184 60452 12565 2//// 10135 20107 40304 52001 60002 82200 222// 2//// 333 10173 82820 91837
AAXX 30184 60457 12560 20000 10120 20088 40311 53002 60002 82200 333 10157 82820 95990
AAXX 30184 60514 12560 32606 10055 20031 39372 48592 53003 60002 83500 333 10104 83626 95990
AAXX 30184 60518 12965 10000 10124 20065 40297 55000 60002 81030 222// 20000 333 10163 81360 91807 95990
AAXX 30184 60520 12560 12902 10086 20060 40316 51004 60002 81200 333 10134 81826 95990
AAXX 30184 60540 11560 60904 10054 20029 39095 48546 56013 60004 70210 86200 333 10078 86830 95900
AAXX 30184 60560 11660 11204 10068 21000 39052 48586 53004 60002 70200 81100 333 10102 81840 95990
AAXX 30181 60370 36/// /2801 10124 20071 333 10161
AAXX 30181 60371 36/// /1801 10125 20075 333 10157
AAXX 30181 60372 36/// /3103 10102 20071 333 10136
AAXX 30181 60373 NIL
AAXX 30181 60374 NIL
AAXX 30181 60376 NIL
AAXX 30181 60379 NIL
AAXX 30181 60380 NIL
AAXX 30181 60381 NIL
AAXX 30181 60393 NIL
AAXX 30181 60394 NIL
AAXX 30181 60593 NIL
AAXX 30181 60595 NIL
AAXX 30181 60605 NIL
AAXX 30181 60613 NIL
AAXX 30181 60623 NIL
AAXX 30184 60624 36/// /0000 10156 21043 333 10184
AAXX 30184 60639 NIL
AAXX 30184 60645 36/// /0000 10152 21045 333 10187
BBXX FVNM 30184 99098 70801 46/// /0314 10274 20239 40119 58015 22200 00274
BBXX PCEO 30183 99301 70403 41498 22402 10220 20175 40317 56011 7//// 81207 22254 04217 2//// 318// 40602 5//// 80190
BBXX PHQX 30183 99210 70540 41598 40712 10272 20197 40215 56035 70211 84162 22254 20704 301// 40805 5//// 80220
BBXX 41101 30184 99146 70562 46/// /0721 10265 20223 40150 57016 22200 00269 10907 70035 555 1/028
BBXX DCPC2 30184 99230 71419 41598 30820 10230 20170 40220 54000 70211 8247/ 22264 00211 2//// 3//// 4//// 5////
BBXX A8IO2 30184 99200 70424 41598 40913 10280 20224 40185 70211 8/11/ 22254 04260 2//// 3//// 4//// 5//// 80240
BBXX BATFR53 30184 99185 51358 46/// /1115 10255 20202 40172 51004 22222 00267
BBXX BATFR56 30184 99022 11018 46/// /0208 10269 20267 40115 58005 22233 00294
BBXX IDDUK02 30184 99526 50430 46/// ///// 49981 222//
BBXX A8SF8 30184 99224 50747 41598 52015 10190 20175 40135 54000 70200 83078 22244 04200 21001 321// 41403 80180
BBXX C6OM8 30180 99142 50369 41398 80704 10278 20222 40137 56010 70200 887// 22243 06276 20402 307// 40402 5//// 80240
BBXX BATFR19 30184 99067 30055 46/// /1812 10235 20192 40136 53010 22200 00257
BBXX PCSV 30183 99319 30135 41598 22015 10190 20157 40185 53/// 70111 82100 22273 04193 20603 319// 40803 80169
BBXX V7OX3 30181 99320 50311 41/// /0408 10230 20215 40110 52/// 7//// 8//// 22223 20507 3//// 4//// 5//// 80220
BBXX 2ALE5 30183 99253 70160 41598 30523 10190 20128 40284 57010 70100 831/0 22253 20406 80155
AAXX 30181 45032 36/// /3401 10154 20104 30230 40247 57001
AAXX 30181 45035 36/// /0602 10160 20117 30203 40245 57001
AAXX 30181 45039 36/// /0202 10159 20117 30228 40243 57002
AAXX 30181 45044 36/// /1005 10160 20132 30146 40240 57001
AAXX 30184 60353 NIL
AAXX 30184 60367 12560 7//// 10119 20108 40251 58006 60042 879// 333 10148 83820 81933 87840
AAXX 30184 60369 12560 40000 10138 21021 40294 50002 60002 84200 333 10165 84826 91837
AAXX 30184 60401 NIL
AAXX 30184 60403 11658 52812 10106 20054 40255 52006 60072 70262 85200 333 10124 85836 95990
AAXX 30184 60425 12565 42807 10115 20085 40300 55002 60002 84200 333 10142 84826 95990
AAXX 30184 60461 12570 13004 10138 20081 40308 54000 60002 81200 222// 20000 333 10165 81830 91818 95990
AAXX 30184 60467 12665 33008 10086 20051 40285 51002 60002 83830 333 10136 83833 95990
AAXX 30184 60492 12665 20000 10104 20100 40309 55000 60002 82200 333 10157 82830 95990
AAXX 30184 60515 12560 20000 10098 20048 40289 50006 60002 82800 333 10142 82830 95990
AAXX 30184 60517 12965 02101 10137 20090 40319 52006 60002 333 10166 95990
AAXX 30184 60522 12570 10000 10092 20062 40333 53004 60002 81200 333 10146 81826 95990
AAXX 30184 60557 11570 10000 10045 20017 38956 48586 53005 60002 70200 81200 333 10078 81830 95990
AAXX 30184 60563 12660 23612 10082 20009 39386 48571 53011 60002 82100 333 10124 82830
AAXX 30184 60603 12960 03504 10108 20016 40299 53012 60002 333 10155
AAXX 30184 60638 12960 0//// 10114 20015 40276 53009 60002 333 10147
AAXX 30184 60686 NIL
BBXX BAREU56 30184 99404 10100 46/// ///// 40118 57009 22282
BBXX BAREU63 30184 99342 10179 46/// /2911 10153 29071 40127 57001 22233
BBXX TESTFR9 30184 99503 70041 46/// /2630 10115 29100 40178 57022 22275
BBXX BAREU08 30184 99480 70080 46/// ///// 40236 52005 22254
BBXX BAREU05 30184 99403 70206 46/// ///// 40379 52006 22224
BBXX BATFR24 30184 99427 10095 46/// /3506 10145 20000 40134 22211 00147
BBXX BAREU12 30184 99537 10056 46/// ///// 4//// 22264
BBXX BATFR15 30184 99427 70207 46/// /2217 10160 20144 40348 56010 22214 00152
BBXX BATFR14 30184 99495 10001 46/// /1401 10087 20080 40181 56020 22261 00089
BBXX BATFR04 30184 99581 70097 46/// /2529 10102 20090 49936 50003 22243 00107
BBXX BATFR52 30184 99503 70042 46/// /2535 10115 20109 40170 58009 22273 00110
BBXX BATFR03 30184 99500 70006 46/// /2323 10112 20110 40161 22284
BBXX BATEU01 30184 99489 70069 44596 82628 10120 20112 40205 53003 72022 886// 22254 00117 21006 325// 41006 5////
BBXX BATEU05 30184 99601 10014 46/// /1306 10047 40066 58011 22273
BBXX BATEU08 30184 99588 70188 46/// /2731 10079 20054 49922 53014 22223
BBXX BATFR42 30184 99498 70017 46/// /2636 10117 20112 40169 22245 00122
BBXX BATFR60 30184 99466 70033 46/// /2727 10129 20114 40260 58001 22232 00125
BBXX 61001 30184 99434 10078 46/// /0612 10141 20036 40130 52038 22200 00140 10804 70022
BBXX OXHY2 30183 99373 10083 41398 12611 10151 20084 40225 56019 70200 81070 22224 00168 20307 311// 40407 5//// 80114
BBXX 61002 30184 99421 10047 46/// ///38 10130 2//// 40220 54000 22200 00133 10909 70047 555 1/052
AAXX 30181 14235 11460 8//// 11024 21027 38951 48401 52017 69922 70277 885// 333 11001 44019 93197
AAXX 30181 14246 11958 32501 11003 21008 39922 40132 52/// 60002 710// 80002 333 10035
AAXX 30181 14314 12675 63402 10077 20041 30048 40112 53/// 60062 84870 333 10092 92312 92428
AAXX 30181 14323 11780 60601 10069 20022 30214 40249 52/// 69912 702// 86500 333 10090 92311 92418
AAXX 30181 14324 12260 70906 11061 21069 38308 48418 51/// 60022 87600 333 11027 44034
AAXX 30181 14328 11640 72902 10009 20002 39721 40125 53/// 60002 710// 87500 333 10030 43006
AAXX 30181 14330 11560 82102 10011 20002 39439 40117 52/// 60012 70266 885// 333 10026 43008 92802
AAXX 30181 14438 11670 60000 10054 20039 30001 40094 53/// 60022 70162 86800 333 10091 923//
AAXX 30181 14443 11698 832// 10084 20080 39988 40085 57005 60032 76066 887// 333 10106 92323
AAXX 30181 14447 11565 70102 10072 20058 30051 40082 57/// 60102 70262 85270 333 10107 92311
AAXX 30181 14472 11665 80902 10066 20038 30041 40106 57009 60102 7636/ 8327/ 333 10102 92312
AAXX 30181 08501 12/// /9903 10182 20147 30288 40325 54000 60072 333 10193 91005 91108 555 60005
AAXX 30181 08505 32470 72203 10184 20159 30306 40356 55001 85832 333 10194 83812 83635 85359 555 60007
AAXX 30181 08506 12/// /2204 10174 20157 30290 40362 52002 69992 333 10195 91009 91109 555 60005
AAXX 30181 08509 NIL
AAXX 30181 08511 NIL
AAXX 30181 08512 32480 52103 10173 20137 30284 40370 54000 83802 333 10189 83816 83070 91106 555 60005
AAXX 30181 08515 32480 21703 10173 20137 30251 40374 57003 81801 333 10192 81816 910// 911// 555 60007 912//
AAXX 30181 08521 32470 40106 10165 20088 30278 40349 52005 84800 333 10188 84818 555 60007
AAXX 30181 08522 32568 49901 10175 20096 30278 40348 52005 84500 222// 314// 40301 333 10206 84630 555 60005
AAXX 30181 08524 32465 60205 10161 20092 30257 40356 52007 86800 333 10190 82815 85630 91008 91108 555 60005
AAXX 30181 08530 NIL
AAXX 30181 08531 32/// /0105 10125 20082 30317 40356 52001 333 10132 91007 91108 555 60005
AAXX 30181 08532 NIL
AAXX 30181 08533 NIL
AAXX 30181 08534 32965 00602 10146 20022 30331 40349 56001 333 10154 555 60007
AAXX 30181 08535 NIL
AAXX 30181 08537 NIL
AAXX 30181 08540 32960 13302 10088 20064 30282 40353 55000 80001 333 10136 81070 555 60007
AAXX 30181 08541 32/// /0103 10095 20049 30225 40347 52003 333 10132 91105 555 60005
AAXX 30181 08544 32960 20501 10090 20049 30332 40353 55000 80001 333 10128 82070 555 60007
AAXX 30181 08545 31962 50102 10081 20017 30276 40362 52001 70310 80002 333 10118 85075 555 60005
AAXX 30181 08548 32/// /3601 10092 20026 30146 40357 52002 333 10121 555 60005
AAXX 30181 08551 NIL
AAXX 30181 08554 NIL
AAXX 30181 08558 32/// /3401 10073 20012 30042 40345 52003 333 10145 555 60005
AAXX 30181 08560 32/// /3002 10078 20009 39580 40354 54000 333 10129 555 60005
AAXX 30181 08561 32970 03502 10098 20020 30108 40346 53004 333 10145 555 60007
AAXX 30181 08562 32/// /3302 10105 20020 30041 40341 52004 333 10141 555 60005
AAXX 30181 08567 32/// /0000 10063 20016 39678 40361 54000 333 10100 555 60005
AAXX 30181 08568 32/// /2908 10066 21081 38758 48624 54000 333 10112 91112 555 60005
AAXX 30181 08570 31975 12302 10098 20011 39874 40342 53001 70200 80001 333 10145 81099 555 60005
AAXX 30181 08571 NIL
AAXX 30181 08575 32/// /1502 10047 20002 39523 40360 54000 333 10082 555 60005
AAXX 30181 08579 32/// /2402 10114 20017 30221 40349 54000 333 10136 91105 555 60005
AAXX 30181 45032 36/// /3401 10154 20104 30230 40247 57001
AAXX 30181 45035 36/// /0602 10160 20117 30203 40245 57001
AAXX 30181 45039 36/// /0202 10159 20117 30228 40243 57002
AAXX 30181 45044 36/// /1005 10160 20132 30146 40240 57001
AAXX 30181 40700 12960 01802 10002 21009 30164 40256 58006 60001 333 55018
AAXX 30181 40723 12960 00604 10002 21025 39006 40322 50002 60001 333 55078 21185
AAXX 30181 40726 12960 00000 11010 21028 38700 40282 54000 60001 333 55053
AAXX 30181 40727 12960 40000 11032 21042 38529 40296 51002 60001 80005 333 55063 20654 84270
AAXX 30181 40734 12560 11802 10084 20067 30274 40248 58014 60001 81100 333 55078 81825
AAXX 30181 40737 12960 00000 10038 20028 30226 40245 57020 60001 333 55074 2////
AAXX 30181 40741 12960 00903 10011 21025 30025 40378 58010 60001 333 55057
AAXX 30181 40780 12960 60803 10038 21060 38745 40265 53007 60001 84076 333 55066 21156 84360 86270
AAXX 30181 40791 12962 00000 10056 21071 39445 40295 51006 60001 333 55093
AAXX 30181 40792 12975 00602 10006 21099 38804 40305 53004 60001 333 55094
AAXX 30181 40794 12960 40000 10096 20052 30143 40244 51017 60001 80006 333 55069 21135 83270
AAXX 30181 40812 12960 00000 10322 20009 39846 40230 52005 60001 333 55078
AAXX 30181 40829 12960 03206 10057 21043 39688 40277 51009 60001 333 55090
AAXX 30181 40833 12960 00000 10104 20040 30209 40242 51008 60001 333 55078
AAXX 30181 40835 12970 30000 10094 21016 39399 40248 52007 60001 80002 333 55085 83070
AAXX 30181 40845 NIL
AAXX 30181 40882 11956 03002 10190 20118 30181 40217 52009 60001 70500 333 55090
AAXX 30181 40889 NIL
AAXX 30181 40890 NIL
AAXX 30181 40893 11958 03602 10202 20095 30199 40205 51009 60001 70500 222// 00/// 20501 333 55083
AAXX 30181 40897 14658 20000 10192 20040 30190 40204 51016 60001 70500 333 55080 82635
AAXX 30180 44214 32698 63201 11173 21209 38302 40423 57004 82570
AAXX 30180 44231 NIL
AAXX 30180 44259 NIL
AAXX 30180 44277 329// 02701 11122 21228 37835 40419 57006
AAXX 30180 44288 32999 02703 11116 21223 38204 40394 58005
AAXX 30180 44292 319// 00000 11258 21276 38760 40467 58002 70400
AAXX 30180 44304 329// 00000 11287 21318 39048 40432 58009
AAXX 30180 44354 329// 00000 11244 21269 39173 40412 57017
AAXX 30180 44373 32999 02701 11149 21202 38592 40398 54000
AAXX 30181 50844 32962 00202 11208 21239 40308 52004 333 11114
AAXX 30181 50854 32965 00401 11218 21252 40306 57001 333 11103
AAXX 30181 50968 32962 00000 11254 21280 40324 57002 333 11124
AAXX 30181 51379 11762 72503 11146 21174 40447 52043 69901 70070 875// 333 00752 11059
AAXX 30181 51467 32980 00000 11114 21174 38317 52004 333 00052 10018
AAXX 30181 51495 32980 00203 11108 21163 40384 57007 333 05151 11037
AAXX 30181 53480 32980 00000 11110 21136 40328 57006 333 11016
AAXX 30181 53673 31930 70201 11079 21097 40329 57004 71000 80002 333 11024
AAXX 30181 53698 31956 72901 11005 21037 40298 57006 71000 80002 333 10012
AAXX 30181 53898 31930 00000 11034 21041 40285 57013 71000 333 10037
AAXX 30181 54308 32965 00000 11157 21175 40331 57001 333 11058
AAXX 30181 54602 32960 81801 11024 21057 40298 57008 8802/ 333 11007
AAXX 30181 54725 32962 81803 11008 21050 40305 57013 8802/ 333 10011
AAXX 30181 54751 32962 82006 11002 21046 40300 57009 8807/ 333 10002
AAXX 30181 54916 32960 81602 11012 21039 40315 57009 80007 333 10034
AAXX 30181 57014 32962 32902 11039 21050 40329 57003 83030 333 00255 10078
AAXX 30181 57025 31730 82902 11025 21042 40333 57011 71000 885// 333 10005
AAXX 30181 57046 32962 02709 11049 21050 37984 57009 333 00052 10001
AAXX 30181 58208 32963 01602 10021 21012 40311 57007 333 10081
AAXX 30184 89022 41580 73007 11030 21058 39783 49820 52011 72682 85871 333 85821 87358
AAXX 30184 89062 42789 21021 10026 21058 39622 49661 57006 81501 333 81656
AAXX 30181 34357 32998 31302 10007 21012 30012 40170 58014 80001 333 10019
AAXX 30181 34363 32998 51503 11024 21038 30057 40214 57006 85030 333 11005
AAXX 30181 34545 32598 81603 10010 20004 30054 40167 56009 8850/
AAXX 30181 34579 32998 81105 10005 21015 30166 40211 57013 8850/ 333 10020
AAXX 30181 34838 32997 00101 11004 21008 30061 40160 58002 333 10045
AAXX 30181 34927 31996 50401 10015 20009 30120 40158 54000 71022 85030 333 10017
AAXX 30181 34949 32998 02503 11010 21028 39614 40171 54001 333 10022
AAXX 30181 37001 11497 82310 10090 20062 30104 40144 52017 60010 70282 889// 333 10094
AAXX 30181 37031 31993 01501 11025 21025 39967 40168 52004 74440 333 10010
AAXX 30181 37061 31546 83202 10007 20004 39993 40162 50001 71011 885// 333 10033
AAXX 30181 37085 32596 82503 10049 20021 30169 40195 54001 885// 333 10088
AAXX 30181 37107 32998 83502 10021 21010 39514 40202 52001 80002 333 10094
AAXX 30181 37126 42999 31300 11009 21221 37906 48476 53001 80001 333 10077
AAXX 30181 37171 32996 60000 10048 20023 30159 40178 58001 80001 333 10136
AAXX 30181 37228 32997 01601 10007 21090 39326 40171 50006 333 10047
AAXX 30181 37470 32996 03204 10053 20018 30151 40129 53007 333 10084
AAXX 30181 37663 32996 02904 10061 21113 38987 48470 50001 333 10153
AAXX 30183 NIL
AAXX 30184 87078 32670 73605 10310 20203 39924 40069 57015 87800 333 56100 84845 83650
AAXX 30184 87244 11570 31405 10346 20221 39682 4//// 5//// 69901 71796 83300 333 56400 57982 83925
AAXX 30184 87393 32570 11811 10322 20160 30024 40085 57005 81105 333 56400 81825
AAXX 30184 87416 32665 11408 10342 20110 39350 40061 56016 81100 333 56100 81840
AAXX 30184 87563 32565 60000 10303 20109 30036 40077 56004 82105 333 56000 82825 85260
AAXX 30184 87640 32565 33408 10305 20144 39982 4//// 57019 81136 333 56566 81820
AAXX 30184 87688 32465 70000 10310 20110 39952 40083 57011 87100 333 56600 87814
AAXX 30184 87774 32982 52305 10290 20129 39112 48482 5//// 80008 333 56000 85270
AAXX 30184 87852 31982 52728 10258 20094 39576 40063 56003 70422 83044 333 56000 57306 83360 83070
AAXX 30183 87016 32460 70000 10330 20223 39643 40029 57024 84206 333 56406 84817
AAXX 30183 87896 31970 12724 10342 20143 39900 49992 55012 70710 80005 333 56005 81270
AAXX 30181 28049 32997 71903 11061 21069 39965 40132 53025 87050 333 11065
AAXX 30181 28144 12598 82503 11045 21068 39984 40144 52028 69900 8452/ 333 11038
AAXX 30181 28319 12498 82204 11037 21059 30008 40176 52021 69900 885// 333 11032 88613
AAXX 30181 28321 11596 81604 11043 21049 39958 40166 52020 69950 77172 8552/ 333 11046
AAXX 30181 28334 11497 82303 11053 21061 39875 40186 52018 60010 72475 8872/ 333 11051
AAXX 30181 28434 12698 71703 11046 21068 39935 40198 52015 69900 87400 333 11046
AAXX 30181 28552 11598 52804 11039 21085 30076 40191 52019 69900 70282 83502 333 11029
AAXX 30181 28666 12999 02104 11071 21090 30024 40224 52019 333 11035
AAXX 30181 28825 32997 02003 11096 21126 30094 40275 52022 333 11058
AAXX 30181 29111 41498 82804 11063 21086 30047 40136 52035 73683 889// 333 86916
AAXX 30181 29209 42598 82003 11061 21080 30034 40162 52035 86500
AAXX 30181 29551 41497 31905 11037 21070 30038 40222 52017 73683 83300
AAXX 30181 29602 41598 82405 11070 21103 30069 40214 52035 70282 885// 333 88625
AAXX 30181 29636 41598 82003 11041 21046 39996 40218 52012 70282 883//
AAXX 30181 29654 41395 82106 11059 21074 39611 40235 52009 78683 889// 333 86707
AAXX 30181 29712 41/98 82503 11072 21089 30079 40226 52028 73673 8807/
AAXX 30181 29724 41495 82303 11066 21086 30024 40232 52030 78583 8637/
AAXX 30181 29726 41998 82306 11050 21086 30058 40230 52027 73683 80006
AAXX 30181 29814 41497 82405 11068 21092 30101 40252 52033 78582 883// 333 88911
AAXX 30181 29827 41697 82308 11058 21065 30100 40258 53032 78583 889//
AAXX 30181 29923 41596 82207 11048 21061 39986 40267 52021 77373 8802/
AAXX 30181 29939 41596 82507 11032 21071 30007 40296 52015 78583 8693/
AAXX 30181 35026 31996 01801 11135 21152 39658 40338 52019 71000 333 11061
AAXX 30181 36021 41597 82605 11060 21079 30106 40292 52036 78583 889//
AAXX 30181 36022 41597 82408 11051 21068 30034 40303 52030 78583 889// 333 85920
AAXX 30181 36038 41496 82007 11060 21087 39885 40342 52020 78583 889// 333 88917
AAXX 30181 36058 42699 32001 11012 21133 39781 40308 52021 83500
AAXX 30181 36064 41699 83001 11044 21053 39705 40312 52014 70282 8352/ 333 95090 95879
AAXX 30181 36229 41599 53102 11065 21142 39152 40358 52018 70132 85900 333 84929
AAXX 30181 36259 42599 80000 11208 21233 38253 48540 53004 84902
AAXX 30181 48826 31796 83602 10162 20145 30084 40223 51001 71022 885// 333 58025 88697
AAXX 30181 48839 32697 80510 10165 20135 30155 40222 51000 885// 222// 00182 2//// 333 58017 88696
AAXX 30181 23909 11496 82203 11036 21047 39856 40106 52016 69930 77172 8652/ 333 11042
AAXX 30181 28044 32597 61902 11057 21082 39963 40129 51031 86500 333 11038
AAXX 30181 28116 31496 81803 11032 21046 39897 40132 52022 78522 889// 333 11036
AAXX 30181 28240 11598 82604 11053 21072 39838 40169 52024 69900 70232 889// 333 11046
AAXX 30181 28522 11997 82307 11053 21060 39946 40211 52018 69900 73673 8805/ 333 11047
AAXX 30181 28621 32597 62003 11074 21108 39976 40217 52020 85901 333 11047
AAXX 30181 28719 31984 020// 11087 21146 39802 40261 52018 70230 333 11075
AAXX 30181 29023 41396 82103 11052 21069 30016 40114 52017 78582 889// 333 87707
AAXX 30181 29122 41799 72104 11048 21065 30059 40133 52022 70282 87300 333 84656
AAXX 30181 29328 41598 82104 11042 21065 30031 40172 52020 72683 889// 333 86921
AAXX 30181 29348 41596 82002 11042 21058 30042 40189 52017 78583 8397/
AAXX 30181 29405 42497 82505 11068 21088 30037 40187 52037 883// 333 88919
AAXX 30181 29418 41498 82404 11048 21068 30025 40187 52032 70282 889//
AAXX 30181 29430 41498 82402 11046 21062 30019 40198 51012 77172 887// 333 84711
AAXX 30181 29524 41498 82303 11053 21067 30021 40187 52029 70282 889//
AAXX 30181 29605 41598 72403 11079 21097 30068 40214 52032 70283 87500
AAXX 30181 29631 41497 82205 11047 21063 30020 40208 52018 70283 889//
AAXX 30181 29645 41596 81803 11040 21066 30043 40232 52015 78583 889// 333 88922
AAXX 30181 29706 41498 82606 11081 21095 30082 40235 52032 70273 883// 333 88913
AAXX 30181 29736 41496 82206 11045 21065 39981 40235 52014 78583 883//
AAXX 30181 29937 41596 82006 11048 21061 30070 40297 52028 78581 889//
AAXX 30181 36034 41596 82209 11053 21071 30033 40317 52023 77173 885// 333 88622
AAXX 30181 36096 42997 62401 11271 21295 39590 40462 57010 84031 333 95090
AAXX 30181 23914 11496 82004 11047 21056 39856 40118 52020 60020 77172 8872/ 333 11047
AAXX 30181 23921 32998 32202 11058 21080 39983 40104 52023 81041 333 11034
AAXX 30181 23955 41482 52603 11091 21111 30051 40114 52036 78582 85300 333 85917
AAXX 30181 23966 41499 81501 11046 21066 39977 40104 52012 72682 889//
AAXX 30181 28138 11596 82303 11074 21080 39566 40140 52006 69970 78582 883// 333 11060
AAXX 30181 28224 11497 82002 11047 21056 39945 40163 52022 69960 76987 8802/ 333 11041 93400
AAXX 30181 28255 32594 82401 11059 21076 30024 40156 52021 885// 333 11041 88629
AAXX 30181 28440 11597 72703 11050 21075 39831 40189 52024 69940 70283 87300 333 11040
AAXX 30181 28645 32997 82001 11056 21098 39912 40215 52025 87300 333 11030
AAXX 30181 28661 12997 82105 11049 21075 30102 40196 53017 69900 8805/ 333 11025
AAXX 30181 28722 32697 21804 11087 21130 30099 40236 52015 82500 333 11043
AAXX 30181 28748 31970 82506 11048 21115 39992 40239 52028 70232 8807/ 333 11026
AAXX 30181 28838 31996 72505 11052 21149 39775 40266 52026 70232 80002 333 11039
AAXX 30181 29231 41396 82002 11038 21056 30051 40148 52017 78582 889// 333 85709
AAXX 30181 29313 41596 82103 11054 21068 30039 40163 52028 78582 889// 333 85621
AAXX 30181 29612 41498 82506 11060 21079 30052 40207 52031 70282 883// 333 88917
AAXX 30181 29638 41596 81905 11042 21054 30048 40217 52015 78583 86901
AAXX 30181 29838 41496 82004 11045 21065 30024 40262 52016 78587 883// 333 88918
AAXX 30181 29846 41428 82210 11045 21061 39878 40271 52008 78583 889// 333 87612
AAXX 30181 36061 41699 60000 11071 21080 39891 40313 52016 70282 86500
AAXX 30181 48830 31796 83603 10120 20084 39934 40253 52010 71022 885// 333 58018 88697
AAXX 30181 48808 11497 80000 10116 20109 39967 40261 52011 69921 76162 888// 333 58017 83894 88696 96160
AAXX 30184 87593 32960 70503 10266 20142 30085 40112 57007 80008 333 56006 87270
AAXX 30184 87623 32680 11804 10318 20160 39872 40089 57011 81100 333 56400 81841
AAXX 30184 87641 NIL
AAXX 30184 87645 32470 53608 10299 20054 39898 40098 57009 81106 333 56406 81815 84270
AAXX 30184 87648 32560 80510 10270 20157 30094 40105 57011 83988 333 56776 57970 81825 82935 83365
AAXX 30184 87692 32560 50712 10250 20195 30089 40114 58001 81106 333 56607 81825 84270
AAXX 30184 87715 32965 32306 10334 20015 39785 40088 57019 80004 333 56006 83070
AAXX 30184 87750 32565 12312 10304 20158 39996 40091 57007 81100 333 56600 81825
AAXX 30184 87765 32960 22909 10286 20040 39180 48491 57021 80001 333 56007 82070 96120
AAXX 30184 87784 32980 11111 10280 20113 30084 40187 57012 80001 333 56000 81070
AAXX 30184 87791 32980 01813 10290 20147 30092 40100 57007
AAXX 30184 87800 32980 11808 10289 20117 39722 40112 57029 80001 333 56008 81089
AAXX 30184 87803 32980 22510 10262 20088 39222 40109 57011 80006 333 56006 82270
AAXX 30184 87828 32980 72311 10320 20033 30030 40080 57012 80006 333 56000 87270
AAXX 30184 87860 31975 72719 10345 20087 39976 40028 57023 70722 80006 333 56006 87270
AAXX 30184 87904 31680 42732 10226 20074 39718 49952 52021 71511 82871 333 56666 81840
AAXX 30184 87909 32980 72732 10330 20067 39888 49958 57007 80002 333 56000 87070
AAXX 30184 87925 42680 62331 10227 20044 39894 49917 52029 84550 333 56550 84635
AAXX 30184 87938 31575 82519 10109 20065 39782 49851 52016 71562 85570 333 56550 85622 85540
AAXX 30180 44203 NIL
AAXX 30180 44207 NIL
AAXX 30180 44212 32999 60000 11311 21334 39266 40568 58009 86030
AAXX 30180 44213 32699 60000 11275 21306 38863 40520 57022 86500
AAXX 30180 44215 32998 60000 11258 21282 38464 40493 57012 86070
AAXX 30180 44218 329// 00000 11250 21274 38666 40487 58004
AAXX 30180 44225 329// 00000 11368 21391 38348 40666 56002
AAXX 30180 44230 NIL
AAXX 30180 44232 329// 00000 11314 21348 39189 40486 54000
AAXX 30180 44237 32999 00000 11175 21225 38530 40399 58007
AAXX 30180 44239 329// 03401 11250 21281 38841 40406 58004 555 99600 99905
AAXX 30180 44241 329// 00000 11294 21317 39336 40445 56004
AAXX 30180 44256 NIL
AAXX 30180 44265 329// 00000 11216 21241 38917 40458 51008
AAXX 30180 44272 329// 00000 11179 21238 38254 40387 57017
AAXX 30180 44275 32998 00000 11243 21255 37767 40507 56005
AAXX 30180 44282 32999 02904 11089 21238 38333 40334 58010
AAXX 30180 44284 32999 00000 11263 21289 37902 40600 58005
AAXX 30180 44285 32999 01502 11232 21253 38367 40482 58003
AAXX 30180 44287 32999 00305 11171 21229 38170 40468 58003
AAXX 30180 44294 329// 03502 11310 21343 38603 40525 57004
AAXX 30180 44298 329// 00000 11220 21226 38761 40406 57005
AAXX 30180 44302 329// 32705 11254 21282 39164 40400 58009 83070
AAXX 30180 44305 32999 02903 11241 21271 39109 40388 58008
AAXX 30180 44313 NIL
AAXX 30180 44314 NIL
AAXX 30180 44317 32998 00000 11196 21222 38991 40386 57009
AAXX 30180 44336 329// 03301 11223 21251 38751 40474 56001
AAXX 30180 44341 329// 00000 11200 21224 38654 40443 56002
AAXX 30180 44347 32999 00000 11175 21225 38770 40408 57005
AAXX 30180 44352 NIL
AAXX 30180 44358 329// 00000 11217 21229 39155 40426 50007
AAXX 30184 71832 16/// /1504 11108 21145 39778 40115 58011 60001 333 11108 21184 70000
AAXX 30184 71303 46/// ///// 10052 20036 6///1 333 10059 20018 7////
AAXX 30184 71309 17/// /0603 11214 21238 30168 40180 58020 69951 7//4/ 333 11214 21304 70016
AAXX 30184 71340 16/// /1106 11035 21091 60001 333 11034 21137 70000
AAXX 30184 71341 16/// /2113 10052 21011 60001 333 10052 21009 70000
AAXX 30184 71342 16/// /1712 11004 21032 60001 333 11004 21085 70031
AAXX 30184 71344 16/// /2316 10005 21041 60001 333 10012 21054 70000
AAXX 30184 71347 17/// /0609 11053 21064 69951 7//4/ 333 11051 21127 70005
AAXX 30184 71348 17/// /0807 11050 21061 60011 7//4/ 333 11050 21114 7////
AAXX 30184 71349 16/// ///// 11092 21122 60001 333 11054 21164 70009
AAXX 30184 71228 16/// /1310 11033 21061 60001 333 11033 21141 70019
AAXX 30184 71374 46/// /3317 11033 21078 6///1 333 11009 21045 7////
AAXX 30184 71387 16/// /1802 11174 21221 39811 40218 58008 60001 333 11174 21310 70000
AAXX 30184 71976 46/// /2509 11241 21268 39495 40151 58009 6///1 333 11226 21252 7//// 555 10010
AAXX 30184 71026 16/// /2119 10066 21025 39099 49936 58028 60001 333 21038 7////
AAXX 30184 71063 16/// /0609 11133 21161 30062 40167 56018 60001 333 11132 21218 70000
AAXX 30184 71151 16/// /1602 11094 21103 39582 40096 58005 60001 333 11094 21125 70000
AAXX 30184 71155 16/// ///// 11050 21070 60001 333 11040 21142 70000
AAXX 30184 71186 46/// /2712 11178 21231 6///1 333 11175 21212 7////
AAXX 30184 71190 46/// /3013 11110 21162 6///1 333 11106 7////
AAXX 30184 71550 16/// /2310 11039 21055 39688 40066 58013 60001 333 11038 21137 70000
AAXX 30184 71575 16/// /2912 11162 21181 30045 40112 56016 60001 333 11157 21215 70000
AAXX 30184 71503 46/// /2905 11277 21308 39747 40028 52007 6///1 333 11215 21320 7//// 555 10020
AAXX 30184 71506 46/// /0103 11270 21295 39082 40000 53009 6///1 333 11264 21297 7////
AAXX 30184 71514 16/// /1304 11044 21056 39346 40046 58022 60001 333 11014 21099 70034
AAXX 30184 71539 16/// /1508 10008 21009 39343 40036 58022 60001 333 10008 21093 70007
AAXX 30184 71465 46/// /1209 10049 20031 39846 40061 58031 6///1 333 10051 20020 7////
AAXX 30184 71478 17/// /2941 10051 21008 39893 40028 51091 69941 7//4/ 333 10071 20025 7////
AAXX 30184 71482 46/// /2014 10035 39941 49979 53071 6///1 333 10037 20004 7////
AAXX 30184 71423 16/// /3318 11034 21069 30099 40109 51044 60001 333 11027 21070 70000
AAXX 30181 13463 12670 82901 10052 20020 30043 40104 57006 69902 8482/ 333 10063
AAXX 30181 13459 32670 52701 10001 20001 39337 40115 57013 82510 333 10020 82696 85498
AAXX 30181 13461 32665 80903 10082 20023 30086 40094 57010 888// 333 10117 83833 86645 92322 92427
AAXX 30181 13363 32662 80000 11008 21008 39179 48395 52005 885// 333 10029 43010
AAXX 30184 71107 16/// /3529 10044 21006 39909 40021 51076 60001 333 10057 20018 70000
AAXX 30184 71667 16/// /3103 11035 21060 39838 40086 58001 60001 333 11035 21053 70003
AAXX 30184 71682 17/// /0000 11303 21330 39792 40034 53012 69951 7//4/ 333 11290 21332 70005
AAXX 30184 71269 16/// /2116 10037 21016 60001 333 10038 21038 70022
AAXX 30184 71270 16/// /1509 11036 21049 39870 40095 58014 60001 333 11036 21066 70015
AAXX 30184 71285 46/// /1113 11044 21109 6///1 333 11044 21151 7////
AAXX 30184 71295 16/// /1002 11091 21119 39647 40101 56010 60001 333 11089 21105 70000 555 10020
AAXX 30184 71421 16/// ///// 11156 21180 39423 40156 53031 60001 333 11075 21156 70040
AAXX 30184 71737 16/// /0902 11164 21209 39634 40188 56024 60001 333 11164 21335 70000
AAXX 30184 71743 16/// /2308 11175 21200 39971 40197 55003 60001 333 11169 21280 70000
AAXX 30184 71746 16/// /1506 10025 20013 39845 40065 58022 60001 333 10041 20004 70016
AAXX 30184 71748 16/// /2106 11082 21109 39810 40105 50000 60001 333 11082 21151 70000
AAXX 30184 71832 16/// /1504 11108 21145 39778 40115 58011 60001 333 11108 21184 70000
BBXX 46035 30181 99571 71778 46/// /1207 1//// 40131 56016 91750 22200 10602 20602 300// 41002 70011 333 91209 555 11073 22078 31732 41110 61749 116073 111077 116070 123064 122060 121061 81109 91732
BBXX C6UB2 30184 99545 71668 43/// /2719 10010 21020 40100 54000 7//// 8//// 22263 00100 2//// 3//// 4//// 5//// 6//// 80000 ICE /////
BBXX DCLH2 30180 99300 71779 41/98 10702 10185 20127 40205 52015 70100 81/// 22263 06210 2//// 3//// 4//// 5//// 80150
BBXX DFGX2 30183 99536 71534 41/97 63121 10015 21030 40062 55002 78671 865// 22264 00040 20704 81002
BBXX KEY796 30183 99571 71703 41/97 63413 11089 21156 40119 53/// 702// 8//// 222// 01017 2//// 3//// 4//// 5//// 6//// 8//// ICE /////
BBXX NWS0003 30184 99539 71665 43/// /3500 11045 21085 40103 5//// 7//// 8//// 222// 0//// 2//// 3//// 4//// 5//// 6//// 8//// ICE /////
AAXX 30184 71421 16/// ///// 11156 21180 39423 40156 53031 60001 333 11075 21156 70040
AAXX 30184 71107 16/// /3529 10044 21006 39909 40021 51076 60001 333 10057 20018 70000
AAXX 30184 71667 16/// /3103 11035 21060 39838 40086 58001 60001 333 11035 21053 70003
AAXX 30184 71682 17/// /0000 11303 21330 39792 40034 53012 69951 7//4/ 333 11290 21332 70005
AAXX 30184 48437 32960 00000 10202 20166 39950 40164 57004 333 58015
AAXX 30184 48464 31557 52903 10235 20204 30118 40131 57007 71011 83551 333 58008
AAXX 30184 61972 16/// /1507 10264 20220 40116 60002 333 10325 58017 90710 91114 555 60005
AAXX 30181 28216 11597 82302 11046 21059 39861 40148 52019 69960 77177 8872/ 333 11052
AAXX 30181 28428 11497 82304 11044 21075 30011 40201 52020 69930 70272 885// 333 11042
AAXX 30181 28451 12996 82603 11041 21076 30018 40180 52027 69900 8807/ 333 11032
AAXX 30181 28541 11583 72706 11054 21072 39699 40203 52019 69900 73632 87500 333 11047
AAXX 30181 28655 32998 02904 11058 21105 39991 40220 52036 333 11036
AAXX 30181 28756 32997 02103 11079 21106 30068 40222 52021 333 11043
AAXX 30181 29557 41998 22403 11038 21075 39958 40229 52010 70281 82030
AAXX 30181 29625 41598 62706 11067 21091 30029 40212 52029 73683 86500
AAXX 30181 29813 41999 82606 11069 21082 30031 40215 52020 72682 8807/
AAXX 30181 29822 41996 82306 11055 21066 30075 40243 52029 77173 8802/
AAXX 30181 29915 41498 82305 11073 21090 30105 40269 52029 73683 889// 333 88916
AAXX 30181 36020 41496 82509 11054 21058 30067 40273 52032 78583 889// 333 88916
AAXX 30184 41252 36/// /3012 10169 20069 39825 40115 333 0E016 10246 58004
AAXX 30181 22100 11996 80702 11049 21062 39823 49968 52001 69982 77172 8802/ 333 11044 91004
AAXX 30181 22003 11499 80711 11001 21031 39989 49999 52009 69922 73683 889// 333 10000 91014 91116
AAXX 30181 22004 11575 80504 11029 21049 39870 49983 52003 60032 78583 889// 333 11027 91007 91110
AAXX 30181 10544 06/// ///// 1//// 2//// 3//// 48/// 5//// 6///2 333 1//// 2//// 3//// 553// 6///7
AAXX 30181 22140 11597 50810 10001 21052 39949 49964 51007 69972 73632 85500 333 10001 91012 91114
AAXX 30181 22213 11484 80802 11040 21066 39781 49949 52007 69902 70272 8467/ 333 11040 91006 93504
AAXX 30181 23226 11456 82508 11070 21091 39778 49996 52035 60010 77172 885// 333 11042 88616 93404
AAXX 30181 23701 11350 81903 11024 21033 39921 40051 52028 69900 77172 8872/ 333 11032 86707
AAXX 30181 28909 32999 01702 11080 21094 30168 40274 52014 333 11064
AAXX 30181 40001 32970 00704 10025 21045 40244 53005
AAXX 30181 40007 32960 00706 10064 20017 40201 50001 333 10108
AAXX 30181 40025 32965 03603 10100 20025 40143 55005 333 10192
AAXX 30181 40045 32570 60907 10080 21021 40229 54000 83550 333 10116 83630 86360
AAXX 30181 40061 32970 50305 10085 21042 40181 56007 80002 333 10108 85070
AAXX 30181 40080 32965 00301 10014 21062 39457 40193 53004 333 10112
AAXX 30181 40087 NIL
AAXX 30181 40095 NIL
AAXX 30184 60595 36/// /0000 11451 333 11451
AAXX 30184 60381 36/// /2301 10123 20075 333 10169
AAXX 30184 60605 36/// /0305 10130 21030 333 10156
AAXX 30183 41150 41960 03207 10176 20132 40236 70500 333 10190 58010
BBXX 4XFV 30183 99395 11769 43298 22928 00/// 10080 20040 40210 54000 7//// 81/// 22224 0//// 20505 329// 4//// 5//// 6//// 80060 ICE /////
BBXX A8EH3 30183 99463 11519 41/98 80940 10015 40120 57050 70322 88/// 22254 04020 29904 399// 40904
BBXX WCX8812 30184 99507 11674 41299 23017 11010 21080 40200 50005 71570 829// 22264 00050 2//// 3//// 4//// 5//// 6//// 81030 ICE /////
AAXX 30181 56146 32980 02501 11082 21163 36775 52006 333 00400 10111
AAXX 30181 56444 32980 02702 11044 21075 36837 57001 333 00251 10081
AAXX 30181 56492 31720 81801 10084 20062 39901 40319 57008 71000 885// 333 00200 10095
AAXX 30181 56571 32980 01401 10071 21001 38439 52020 333 00301 10199
AAXX 30181 57799 11457 80000 10080 20077 30206 40298 57004 69921 76000 885// 333 10086
AAXX 30181 57866 11750 80402 10057 20034 30099 40314 57003 69901 72160 885// 333 10068
AAXX 30181 57957 31757 80202 10077 20032 30096 40301 52002 71000 885// 333 10098
AAXX 30181 57993 32760 80000 10081 20064 30119 40291 57001 885// 333 10086
AAXX 30181 58027 32961 70000 10021 21042 30255 40308 57012 8704/ 333 10046
AAXX 30181 58141 31930 01601 11003 21028 30303 40323 57005 71000 333 10053
AAXX 30181 58265 31530 22702 10013 21016 30315 40323 57010 71000 82500 333 10066
AAXX 30181 58472 NIL
AAXX 30181 58477 NIL
AAXX 30181 58527 32660 70000 10074 20029 30217 40295 57009 875// 333 10136
AAXX 30181 58633 NIL
AAXX 30181 58666 NIL
AAXX 30181 58725 11758 80000 10088 20076 30012 40280 57006 69901 71060 885// 333 10098
AAXX 30181 58921 11656 80201 10110 20105 30013 40265 57006 69921 71060 885// 333 10122
AAXX 30181 59082 31656 80202 10097 20057 30129 40279 54000 70500 885// 333 10121
AAXX 30181 59211 11856 81801 10120 20065 30065 40277 52014 69901 76060 885// 333 10135
AAXX 30181 59265 11757 80202 10110 20057 30130 40271 52006 69901 72160 885// 333 10155
AAXX 30181 59293 32765 80704 10110 20055 30178 40265 54000 885// 333 10158
AAXX 30181 59501 31758 80201 10147 20115 30226 40247 54000 71000 885// 333 10183
AAXX 30181 59663 32660 80404 10145 20078 30135 40244 57001 885// 333 10198
AAXX 30181 59838 32760 70703 10202 20160 30190 40200 57002 875// 333 10243
AAXX 30181 59948 32370 70712 10182 20153 39710 40197 57011 82102 333 10221
AAXX 30181 59981 32570 70705 10233 20214 30168 40175 57009 878// 333 10252
AAXX 30180 44231 319// 00000 11273 21326 38788 40528 58005 70400
AAXX 30180 44214 32698 63201 11173 21209 38302 40423 57004 82570
AAXX 30180 44259 32997 32405 11202 21235 39376 40363 56006 80004
AAXX 30180 44277 329// 02701 11122 21228 37835 40419 57006
AAXX 30180 44288 32999 02703 11116 21223 38204 40394 58005
AAXX 30180 44292 319// 00000 11258 21276 38760 40467 58002 70400
AAXX 30180 44304 329// 00000 11287 21318 39048 40432 58009
AAXX 30180 44354 329// 00000 11244 21269 39173 40412 57017
AAXX 30180 44373 32999 02701 11149 21202 38592 40398 54000
AAXX 30181 23205 11297 82402 11090 21110 30002 40017 52022 69900 77187 886// 333 11049 88704 91106
AAXX 30181 22271 31/93 91405 11063 21078 39987 49997 52023 74984 333 21008
AAXX 30181 48806 32498 81401 10147 20129 39439 40231 52008 888// 333 58025 82894 88696
AAXX 30181 48887 11998 70702 10252 20208 30113 40119 57013 69911 70262 80008 333 59003 87299
AAXX 30181 48877 32598 53403 10247 20209 30150 40155 57015 85100 333 58008 85895
AAXX 30181 48870 11598 73602 10236 20225 30157 40164 58012 60061 72586 878// 333 58011 84895 85696
AAXX 30181 48920 11598 73605 10249 20239 30121 40124 58018 69911 70362 8291/ 333 58025 82895 81996 87499
AAXX 30181 48892 32598 20504 10264 20250 30127 40132 58002 82200 333 58016 82895
BBXX PDHY 30183 99461 70466 41498 52721 10090 40098 55000 70222 85800 22262 04060 20712 3//// 40610 5////
AAXX 30184 16337 11497 83208 10058 20044 39526 40102 57010 60032 70292 884// 333 10114 88610 555 0////
AAXX 30181 40009 32965 01001 10046 20005 40203 51002 333 10128
AAXX 30181 40016 NIL
AAXX 30181 40022 32965 00205 10116 20041 40146 53004 222// 20501 333 10152
AAXX 30181 40030 31560 50000 10018 20010 40187 58004 71022 82550 333 10051 82630 85360
AAXX 30181 40039 32970 00000 10050 20012 40204 50000 333 10112
AAXX 30181 40066 32970 01303 10076 20014 40154 53008 333 10090
AAXX 30181 40072 32970 01602 10094 20006 40231 54000 333 10128
AAXX 30181 40083 32970 01801 10042 21046 48464 54000 333 10100
AAXX 30184 16294 42597 40802 10104 20045 39918 40111 57005 6///2 84500 333 10104 84625 555 0////
AAXX 30184 64650 31920 01002 10252 20176 39678 40088 70400 333 10350 55090 58006
AAXX 30181 50353 32970 00000 11313 21351 30090 40342 52001 333 11222
AAXX 30181 50557 32962 00701 11277 21309 39994 40331 57002 333 11170
AAXX 30181 50756 32960 01401 11236 21255 39993 40324 57002 333 11190
AAXX 30181 50949 32965 01601 11182 21233 30116 40301 57005 333 11091
AAXX 30181 50963 32960 00701 11255 21282 30165 40317 54000 333 11142
AAXX 30181 50978 32975 02703 11206 21240 39935 40314 57004 333 11120
AAXX 30181 51087 32980 70701 11121 21151 39373 40407 52031 80002 333 00406 11085
AAXX 30181 51156 NIL
AAXX 30181 51644 32960 03401 11130 21151 39047 40393 52002 333 00001 11025
AAXX 30181 51656 NIL
AAXX 30181 51886 32980 10401 11155 21272 37154 52001 80002 333 00100 11025
AAXX 30181 52602 32980 00701 11165 21287 37315 57005 333 00300 11018
AAXX 30181 52713 32980 02701 11159 21264 36947 57007 333 00252 11013
AAXX 30181 52754 32980 03401 11155 21221 36824 57005 333 00353 11026
AAXX 30181 52818 32980 01601 11127 21235 37275 57012 333 00153 11012
AAXX 30181 52836 32980 01402 11123 21256 36936 57009 333 00301 11008
AAXX 30181 52955 32980 01601 11160 21274 37016 57007 333 00451 10020
AAXX 30181 53068 32980 02902 11218 21245 39149 40400 57002 333 00051 11128
AAXX 30181 53276 32980 02203 11156 21203 38934 40360 52002 333 11044
AAXX 30181 54135 32980 02902 11158 21226 30065 40304 57003 333 11063
AAXX 30181 54236 32965 03201 11161 21197 30186 40300 57004 333 11079
AAXX 30181 54539 32765 82702 11036 21065 30283 40298 57007 885// 333 11013
AAXX 30181 54662 32960 82502 11004 21054 30177 40296 57010 8802/ 333 11004
AAXX 30181 54753 32760 82205 11012 21058 30298 40305 57010 885// 333 10003
AAXX 30181 54857 31950 02501 11004 21028 30219 40316 57005 71000 333 10005
AAXX 30181 57067 31950 70000 11040 21055 39620 40325 57009 71000 8703/ 333 10062
AAXX 30181 57178 31920 81801 10023 21003 30145 40309 57019 71000 8807/ 333 10061
AAXX 30181 57245 31956 81801 10019 20009 39968 40331 57004 71000 8807/ 333 00054 10077
AAXX 30181 57297 31720 80000 10023 21001 30161 40307 57019 71000 885// 333 10039
AAXX 30181 89062 42789 21021 10026 21058 39622 49661 57006 81501 333 81656
AAXX 30181 91945 16/// /0310 10274 20232 30147 40152 51009 69981
AAXX 30184 40582 32960 41804 10101 21076 40242 50003 80004 333 55300 00000 10167 20000 30000 41111 51276 60000 55407 40000 84070 90400 91005 91107 91205 91301
AAXX 30184 41150 NIL
AAXX 30184 41168 NIL
AAXX 30184 41170 41959 03008 10183 20134 30220 40233 70500 333 10217 58001
AAXX 30184 41176 NIL
AAXX 30184 41184 42960 01503 10165 20088 40202 333 10245 58002
AAXX 30184 41194 12660 19902 10205 20107 30209 40214 60001 81500 333 10232 58004 81640
AAXX 30184 41196 42660 10300 10163 20096 30175 40216 81500 333 10237 58004 81640
AAXX 30184 41198 32983 03105 10203 20107 30180 40209 333 10244 58009
AAXX 30184 41210 NIL
AAXX 30184 41216 NIL
AAXX 30184 41217 42960 03102 10172 20124 30181 40211 333 10219 58002
AAXX 30184 41218 42960 03106 10156 20093 39900 40214 333 10228 59005
AAXX 30184 41226 NIL
AAXX 30184 41244 36/// /3205 10164 20097 39858 48389 333 0E017 10225 59005
AAXX 30184 41246 NIL
AAXX 30184 41254 36/// /3404 10084 20041 38013 48018 333 0E008 10127 58033
AAXX 30184 41256 32560 41602 10197 20122 30198 40208 82530 333 10251 58011 82625
AAXX 30184 41258 36/// /0104 10232 20135 30196 40201 333 0E/// 10247 58013
AAXX 30184 41268 36/// /0011 10231 20147 30179 48406 333 0E024 10261 58003
AAXX 30184 41312 36/// /3315 10245 20015 30149 40188 333 0E/// 10282 59007
AAXX 30184 41314 NIL
AAXX 30184 41316 36/75 /3415 10231 21010 30166 40191 333 0E022 10279 59008
AAXX 30184 41404 42960 00000 10131 21055 37913 48573 333 10255 58007
AAXX 30184 41407 NIL
AAXX 30184 41431 42960 01508 10256 20209 30144 40157 333 10294 58004
AAXX 30184 41466 42960 00000 10150 20112 38604 48505 333 10256 58008
AAXX 30184 41477 NIL
AAXX 30184 41480 42460 10806 10245 20181 30184 40187 81500 333 10285 59001 81618
BBXX MYSU5 30184 99493 70053 41/97 81332 10120 20101 40195 52010 72586 8//// 22263 00120 20607 3//// 4//// 5//// 80110
BBXX 64045 30184 99591 70117 46/// /2522 10096 20091 49910 55003 22200 00101 10707 70037 333 90710 91130
BBXX 62105 30184 99554 70122 46/// /2629 10113 20103 40034 52002 22200 00106 10809 70047 333 90710 91141
BBXX 62081 30184 99510 70134 46/// ///// 10124 20119 40172 57007 22200 00119 10709 70045
BBXX 62442 30184 99490 70164 46/// /2323 1//// 2//// 40216 57014 22200 00122 333 90710 91131
BBXX 62029 30184 99487 70125 46/// /2622 10126 20120 40236 56007 22200 00127 10708 70039 333 90710 91128
BBXX 62163 30184 99475 70084 46/// /2622 10119 20106 40260 57014 22200 00125 10808 70038 333 90710 91128
BBXX 62001 30184 99452 70050 46/// /2621 10129 20102 40304 57007 22200 00130 10707 70037 333 90710 91128
BBXX 64046 30184 99605 70049 46/// /1324 10061 20039 49986 58039 22200 00079 10807 70037
BBXX 62301 30184 99524 70047 46/// /2421 10102 20098 40116 57015 22200 00089 10503 70016 333 90710 91128
BBXX 62303 30184 99516 70051 46/// /2523 10116 20106 40142 57014 22200 00110 10605 70026 333 90710 91129
BBXX 62027 30184 99491 70022 46/// /2823 1//// 2//// 40194 57013 22200 00107 10905 331// 70023
BBXX 63055 30184 99606 10016 47999 /1405 10043 21045 40066 57010 700// 22200 10805 70026
BBXX 62112 30184 99584 70002 47498 /1615 10055 20012 40061 57025 700// 22200
BBXX PJAI 30184 99581 70014 47397 /1818 10070 20007 40045 57032 762// 22200
BBXX 62111 30184 99580 70003 46/// /1913 10058 21004 40063 57028 22200 10704 70022
BBXX 63056 30184 99597 10016 47999 /1105 10046 21052 40059 58012 700// 22200 10806 70032
BBXX 63110 30184 99595 10015 46/// ///// 22200
BBXX 63057 30184 99592 10015 47699 /1606 10052 21036 40069 58015 700// 22200 10906 70031
BBXX 62128 30184 99587 10014 47699 /1709 10057 21019 40073 58015 700// 22200 10806 70029
BBXX 62129 30184 99584 10003 46/// ///// 10054 20009 40064 58020 22200
BBXX 62113 30184 99584 10002 47599 /1614 10053 20005 40062 58022 700// 22200
BBXX 63108 30184 99608 10017 47699 /1406 10044 21059 40059 57009 700// 22200 11007 70033
BBXX 63106 30184 99610 10017 46/// /1204 10034 40068 58006 22200
BBXX 63105 30184 99610 10017 47698 ///// 10039 21068 40067 58007 700// 22200
BBXX 63113 30184 99610 10017 46/// /0305 10061 21056 40066 58007 22200 10907 70037
BBXX 63112 30184 99611 10010 46/// /1605 10044 21074 40061 57012 22200 10907 70037
BBXX 63107 30184 99611 10017 46/// /1504 10041 40066 57007 22200
BBXX 63101 30184 99612 10009 46/// /1507 10044 21046 40061 57012 22200
BBXX 63103 30184 99612 10011 46/// /1307 10041 21053 40064 57012 22200 11007 70036
BBXX 63104 30184 99612 10016 47699 /1204 10041 21067 40067 57008 700// 22200
BBXX 63117 30184 99613 10011 47699 /1107 10039 21064 40064 57010 700// 22200
BBXX 63115 30184 99616 10013 47698 /1405 10048 21046 40064 58008 700// 22200 11008 70040
BBXX MWYG6 30184 99603 70040 47998 /1531 10056 700// 22200
BBXX 64041 30184 99607 70026 47698 /1320 10055 21012 40022 57028 700// 22200 10907 70036
BBXX PJGO 30184 99571 10022 47/98 /2005 10063 20011 40089 58014 700// 22200
BBXX 62133 30184 99571 10009 46/// /1909 10078 20002 40082 58018 22200 10705 70026
BBXX 62119 30184 99570 10019 47698 /2204 10053 21002 40088 58016 700// 22200 10805 70026
BBXX 62152 30184 99570 10018 47/98 /1706 10060 20005 40089 58016 700// 22200 10706 70029
BBXX 62154 30184 99564 10022 46/// /1708 10053 20009 40092 58014 22200
BBXX 62120 30184 99564 10021 47598 /2405 10060 20027 40093 58015 700// 22200
BBXX 62132 30184 99564 10020 46/// /1805 10058 20012 40093 58016 22200
BBXX 62123 30184 99563 10022 47699 /1906 10060 20010 40096 58015 700// 22200
BBXX 62165 30184 99540 10009 47498 /2211 10047 20008 40125 57022 762// 22200 10604 70020
BBXX 62127 30184 99540 10007 47497 ///// 10050 20021 40118 57023 762// 22200 10704 70022
BBXX 62131 30184 99539 10012 46/// /19// 10048 20003 40124 57020 22200
BBXX 62149 30184 99537 10011 47496 /2211 10054 20011 40127 57022 700// 22200 10704 70019
BBXX 62148 30184 99536 10015 46/// /2107 10051 20019 40132 57020 22200
BBXX 62150 30184 99536 10007 47496 /1911 10046 20014 40131 57024 762// 22200 10704 70022
BBXX 62121 30184 99535 10027 46/// ///// 22200
BBXX 62144 30184 99534 10017 47596 /2109 10065 20015 40134 57021 761// 22200 10503 70014
BBXX 62145 30184 99531 10028 47998 /2409 10056 21002 40145 56014 700// 22200 10603 70017
BBXX 62142 30184 99530 10021 47698 /2109 10056 20025 40139 56018 700// 22200 10502 70012
BBXX 62102 30184 99579 10018 46/// /1707 10055 21016 40082 58014 22200 10806 70028
BBXX 62134 30184 99580 10014 47598 /1808 10055 21001 40077 58017 700// 22200 10705 70026
BBXX 62117 30184 99579 10000 47898 /1814 10057 20010 40066 57024 700// 22200 10604 70019
BBXX 62143 30184 99577 10018 47598 /1905 10057 21008 40081 58017 700// 22200 10705 70026
BBXX 62114 30184 99583 10000 46/// /1616 10051 20006 40063 57023 22200
BBXX ZQSD5 30184 99583 10007 46/// /1604 10061 20007 40072 57020 22200 11007 70037
BBXX 62118 30184 99577 10009 47998 /1909 10062 20009 40068 58020 700// 22200 10705 70024
BBXX 62155 30184 99577 10007 47998 /1810 10053 20008 40074 58022 751// 22200 10705 70025
BBXX 62116 30184 99576 10011 47598 /2007 10052 20005 40077 58018 700// 22200 10705 70024
BBXX 62104 30184 99574 10013 47698 /2009 10053 21005 40079 58017 700// 22200
BBXX 62153 30184 99573 10020 47999 /1303 10052 20005 40086 58014 700// 22200 10705 70027
BBXX 62122 30184 99573 10016 47699 /1807 10057 20003 40084 58016 700// 22200 10705 70027
BBXX 62140 30184 99573 10013 46/// /18// 10053 20004 40082 58016 22200
BBXX 62146 30184 99572 10021 47/99 /1703 10057 21004 40085 58014 700// 22200 10706 70029
BBXX 62164 30184 99572 10008 47598 /1709 10061 20009 40080 58022 700// 22200 10705 70027
BBXX 62304 30184 99511 10018 46/97 /2514 10067 20031 40167 57014 22200 00103 10702 70009
BBXX 62170 30184 99514 10020 46/96 /2516 10067 20030 40164 56014 22200 00102 10602 70010
BBXX 62103 30184 99499 70029 46/97 /2626 10118 20110 40174 56012 22200 00119 10703 70015 333 90710 91133
BBXX 62305 30184 99504 10000 46/96 /1817 10083 20075 40169 57022 22200 00113 10702 70009
BBXX 62163 30184 99475 70084 46/// /2521 10130 20117 40256 57017 22200 00124 10808 70038 333 90710 91128
BBXX 62094 30184 99517 70067 46/// /24// 10111 20106 40142 56016 22200 00106 10505 70026 333 90710 91137
BBXX A8RL2 30184 99443 70137 41/96 82520 10145 20136 40320 57/// 75166 8//// 22214 04139 20905 330// 41204 80140
BBXX 2AUO5 30183 99606 10016 41597 39904 10050 21033 40074 58005 70200 834// 22281 20000 335// 40307 80021
BBXX 62103 30184 99499 70029 46/97 /2627 10118 20111 40170 58011 22200 00119 10704 70018 333 90710 91135
BBXX 62107 30184 99501 70061 46/// /2628 10117 20108 40189 58007 22200 00115 10705 70024 333 90710 91142
BBXX 62095 30184 99530 70159 46/// /2518 10118 20113 40108 58003 22200 00112 10809 70043 333 90710 91126
BBXX 62094 30184 99517 70067 46/// /2423 10111 20106 40142 56016 22200 00106 10505 70026 333 90710 91137
BBXX PHBO 30183 99434 70224 41297 82220 10150 20139 40322 56007 70222 887// 22214 20902 322// 40902 80144
AAXX 30184 82586 32598 53606 10357 20213 39814 40088 85200 333 58000
AAXX 30184 82678 32596 52702 10350 20213 39944 40081 83200 333 59002
AAXX 30184 82784 32598 30903 10334 20246 39632 40079 83200 333 59010
AAXX 30184 82791 32599 60506 10355 20191 39800 40074 86300 333 59005
AAXX 30184 82983 32597 51406 10340 20240 39669 40071 85200 333 58003
AAXX 30180 44210 325// 70000 11195 21214 38580 54000 83020
AAXX 30180 44216 32999 30000 11286 21310 39096 40523 57009 80006
AAXX 30180 44217 326// 80000 11092 21126 37883 40341 51007 8557/
AAXX 30180 44219 329// 00000 11259 21277 38672 40482 56006
AAXX 30180 44221 329// 00000 11290 21307 38654 40518 58006
AAXX 30180 44224 329// 00000 11304 21327 38092 40551 58010
AAXX 30180 44229 32999 02702 11250 21274 37962 40504 58010
AAXX 30180 44242 329// 01103 11305 21335 39401 40447 52002
AAXX 30180 44243 329// 00000 11328 21364 39501 40462 58002
AAXX 30180 44254 329// 32704 11208 21235 39080 40358 58004 82044
AAXX 30180 44257 329// 02901 11271 21300 39019 40436 58005
AAXX 30180 44263 32998 00000 11233 21272 38124 40540 57001
AAXX 30180 44266 329// 00000 11130 21238 37801 40369 54000
AAXX 30180 44286 329// 02706 11146 21194 38688 40380 57002
AAXX 30180 44291 319// 00000 11313 21342 38797 40527 56003 70400
AAXX 30180 44325 329// 00901 11239 21264 38934 40470 58003
AAXX 30180 44329 32998 00000 11141 21223 37812 40321 54000
AAXX 30180 44338 32999 01102 11190 21231 38531 40428 58001
AAXX 30180 44348 329// 03205 11154 21173 38634 40352 57001
AAXX 30180 44374 32999 02002 11127 21216 38311 40420 58004
AAXX 30180 44385 32999 02703 11117 21200 38999 40393 53001
AAXX 30180 44386 329// 00000 11184 21217 39117 40395 58003
AAXX 30181 29998 42999 00000 11295 21307 38676 48525 57006
AAXX 30181 30385 42999 20000 11272 21284 39786 40378 54000 80001
AAXX 30181 30469 419// 00000 11334 21344 39767 40434 52007 70171
AAXX 30181 30636 429// 00000 11347 21365 39736 40438 52005
AAXX 30181 30650 42984 20000 11311 21328 39176 40438 52010 80001
AAXX 30181 30664 42999 30000 11364 21382 39317 40462 52006 83040
AAXX 30181 30781 42999 00000 11279 21297 39873 40389 50004 80001
AAXX 30181 30777 41997 80000 11309 21332 39670 40409 52004 77171 85027
AAXX 30181 30844 42999 81101 11312 21330 39331 40437 52002 80007
AAXX 30181 30925 429// 20000 11232 21250 39333 40397 53002 80001
AAXX 30181 31371 42999 00000 11348 21377 30046 40351 52003
AAXX 30181 31388 42984 00000 11349 21365 30038 40341 53001
AAXX 30181 31478 NIL
AAXX 30181 31532 42999 00000 11340 21355 39958 40351 52004
AAXX 30181 31594 42999 00000 11294 21311 30125 40318 57003
AAXX 30181 31655 42998 00000 11259 21271 30247 40299 54000
AAXX 30181 31754 42999 00000 11304 21315 39770 40336 53001
AAXX 30180 44256 415// 70000 11172 21191 39417 40340 56002 77172 8652/
AAXX 30180 44314 32998 00000 11200 21226 39194 40374 57008
AAXX 30180 44313 41999 00000 11209 21236 39434 40345 57012 70271
AAXX 30180 44203 329// 40000 11334 21356 38480 40592 54000 82019
AAXX 30180 44207 329// 32702 11256 21295 38351 40470 57004 82042
AAXX 30180 44230 329// 00103 11245 21275 38852 40491 58005
AAXX 30180 44212 32999 60000 11311 21334 39266 40568 58009 86030
AAXX 30180 44213 32699 60000 11275 21306 38863 40520 57022 86500
AAXX 30180 44215 32998 60000 11258 21282 38464 40493 57012 86070
AAXX 30180 44218 329// 00000 11250 21274 38666 40487 58004
AAXX 30180 44225 329// 00000 11368 21391 38348 40666 56002
AAXX 30180 44232 329// 00000 11314 21348 39189 40486 54000
AAXX 30180 44237 32999 00000 11175 21225 38530 40399 58007
AAXX 30180 44239 329// 03401 11250 21281 38841 40406 58004 555 99600 99905
AAXX 30180 44241 329// 00000 11294 21317 39336 40445 56004
AAXX 30180 44265 329// 00000 11216 21241 38917 40458 51008
AAXX 30180 44272 329// 00000 11179 21238 38254 40387 57017
AAXX 30180 44275 32998 00000 11243 21255 37767 40507 56005
AAXX 30180 44282 32999 02904 11089 21238 38333 40334 58010
AAXX 30180 44284 32999 00000 11263 21289 37902 40600 58005
AAXX 30180 44285 32999 01502 11232 21253 38367 40482 58003
AAXX 30180 44287 32999 00305 11171 21229 38170 40468 58003
AAXX 30180 44294 329// 03502 11310 21343 38603 40525 57004
AAXX 30180 44298 329// 00000 11220 21226 38761 40406 57005
AAXX 30180 44302 329// 32705 11254 21282 39164 40400 58009 83070
AAXX 30180 44305 32999 02903 11241 21271 39109 40388 58008
AAXX 30180 44317 32998 00000 11196 21222 38991 40386 57009
AAXX 30180 44336 329// 03301 11223 21251 38751 40474 56001
AAXX 30180 44341 329// 00000 11200 21224 38654 40443 56002
AAXX 30180 44347 32999 00000 11175 21225 38770 40408 57005
AAXX 30180 44352 NIL
AAXX 30180 44358 329// 00000 11217 21229 39155 40426 50007
AAXX 30181 38388 32998 00904 11019 21087 30277 40352 58014 333 10050
AAXX 30181 38392 32997 00904 11056 21086 30288 40398 53004 333 10030
AAXX 30181 38507 32996 01003 10002 21053 30163 40269 57026 333 10089
AAXX 30181 38511 32998 01107 10003 21059 30166 40313 57010 333 10060
AAXX 30181 38545 32998 00802 11044 21100 30213 40399 58001 333 10031
AAXX 30181 38647 32997 01108 10022 21053 30232 40276 57013 333 10090
AAXX 30181 38656 32998 00904 10007 21054 30238 40352 57004 333 10062
AAXX 30181 38687 32996 00201 11022 21041 30153 40398 52002 333 10036
AAXX 30181 38750 32997 00203 10053 20021 30275 40246 57017 333 10127
AAXX 30181 38763 32997 00910 10028 21024 30174 40282 57018 333 10088
AAXX 30181 38774 32995 00902 10015 21033 30116 40318 57018 333 10091
AAXX 30181 38799 32997 00503 11017 20041 30152 40396 58003 333 10043
AAXX 30181 38806 NIL
AAXX 30181 38880 32997 01006 10022 21038 30062 40327 58015 333 10082
AAXX 30181 38886 32997 01003 11008 21050 30131 40370 58008 333 10062
AAXX 30181 38895 32996 00702 11010 21064 30086 40392 58008 333 10055
AAXX 30181 38911 32997 03203 10005 21028 30073 40311 58003 333 10061
AAXX 30181 38915 32997 00000 10004 21013 30033 40372 58006 333 10089
AAXX 30181 38974 32998 01402 10006 21030 30022 40371 58005 333 10070
AAXX 30181 38987 32696 70501 10017 21014 39593 40363 58011 87500 333 10057
BBXX SHIP 30184 99045 11476 41/97 20512 10283 20242 40080 57008 70200 8//// 22241 06295 10904 399// 4////
BBXX 46088 30181 99483 71232 46/// /2311 10074 40046 91820 22200 00077 10502 20502 70010 333 91214 555 11121 22129 31733 42417 61819 230112 225118 234121 237125 239135 241121
AAXX 30181 23929 32979 62204 11098 21106 30039 40109 52024 82031 333 11062
AAXX 30181 28586 11496 82403 11067 21075 30050 40202 52022 69920 77172 885// 333 11040 88618
AAXX 30181 28383 11996 81902 11069 21089 30087 40174 52022 69920 77172 8802/ 333 11035
AAXX 30184 41257 36/// /0000 10182 20134 39726 40217 333 0E017 10242 58010
AAXX 30181 28588 11998 72202 11066 21078 30049 40213 52023 69900 70282 87050 333 11059
AAXX 30181 28696 11497 82303 11073 21094 30081 40224 52027 69920 70273 8472/ 333 11041
AAXX 30181 28465 12998 01904 11089 21096 30104 40185 52022 69900 333 11030
AAXX 30181 28791 11498 82303 11058 21076 30080 40229 52019 69900 72272 8802/ 333 11049 88519
AAXX 30181 28688 11997 22203 11068 21088 30052 40217 52016 69900 70271 82030 333 11060
AAXX 30181 38847 3//// /2601 10009 20000 39550 40350
BBXX 7JJA 30184 99316 11355 41797 83520 00 10100 20060 40230 54000 76162 87//// 9//// 22200 0 2//02 336 4//05 5 6//// 80080 IC E/////
BBXX SHIP 30184 99273 11470 41698 82718 10200 20153 40134 57005 70222 884// 22283 00263 80170
BBXX SHIP 30184 99090 11274 41398 20311 10270 20257 40097 56021 70300 8334/ 22213 00293 2//// 399// 4//// 5//// 80260
BBXX SHIP 30184 99307 11373 41598 43223 10150 20066 40205 56010 70300 8314/ 22244 00190 2//// 3//// 4//// 80105
BBXX SHIP 30184 99103 11119 41497 70907 10245 20209 40136 57021 70222 8652/ 22252 00257 80220
BBXX H9UY 30184 99319 11473 41698 63627 00/// 10140 40147 56010 70322 84616 9//// 22263 04200 20308 315// 40307 5//// 6//// 80120
BBXX SHIP 30184 99366 11349 41/97 53109 10045 20010 40272 5/003 70100 8423/ 22254 00143 20000 80030
BBXX 3FMH7 30184 99330 11732 41598 71722 00/// 10180 20148 40192 57014 70322 87/// 9//// 22263 00190 1//// 2//03 399// 41206 5//// 6//// 80160
BBXX DHEB 30183 99541 71786 41/98 52022 11030 40092 56017 70222 85/// 22264 04020 2//// 3//// 4//// 5////
BBXX SHIP 30184 99055 71405 41396 81308 10247 20228 40122 52018 76262 8762/ 22234 04252 20310 30816 40704 50803
AAXX 30184 65101 31956 70105 10295 20139 39715 40099 80008 333 10342 59003 87280
AAXX 30184 65112 31940 71103 10303 20116 3//// 4//// 70522 80008 333 10355 5//// 87280
AAXX 30184 65123 31920 72307 10302 20130 30076 40094 70522 80008 333 10360 59004 87280
AAXX 30184 65145 31960 70000 10307 20190 3//// 4//// 70522 80008 333 10350 5//// 87280
AAXX 30184 65205 32958 70000 10293 20254 3//// 40099 80008 333 10318 59009 87280
AAXX 30184 65213 32962 71704 10312 20208 3//// 4//// 80008 333 10318 59009 87280
BBXX ZCAO7 30184 99090 31241 41/99 82407 10284 20250 40074 57008 70311 8//// 22253 00293 2//// 80260
BBXX SHIP 30184 99478 31100 41697 63429 10090 20058 40028 57054 70122 84850 22243 00068 11305 399// 85074
BBXX ZCAO7 30184 99090 31241 41/99 82407 10284 20250 40074 57008 70311 8//// 22253 00293 2//// 80260
BBXX SHIP 30184 99478 31100 41697 63429 10090 20058 40028 57054 70122 84850 22243 00068 11305 399// 85074
AAXX 30181 14216 NIL
AAXX 30181 14219 12570 73002 11013 21020 39106 48411 53/// 69902 87500 333 10009 43018 93197
AAXX 30181 14232 11420 70601 10002 21003 39994 40133 52/// 60002 71022 83626 333 10012
AAXX 30181 14234 11/04 92401 10005 20003 39883 40136 52/// 60002 745// 333 10015
AAXX 30181 14236 11220 30301 10018 20013 39924 40125 52/// 69902 71021 83600 333 10026
AAXX 30181 14244 11420 80000 10003 21002 30000 40133 51/// 69912 710// 886// 333 10005
AAXX 30181 14248 11/01 93202 10003 20001 39954 40132 52/// 60002 7474/ 333 10006
AAXX 30181 14253 11/08 93101 10001 21004 39952 40130 52/// 69902 74772 333 10009
AAXX 30181 14256 11420 52802 11010 21013 39803 40131 52013 60002 7104/ 85600 333 10002 41998
AAXX 30181 14280 11540 82601 10025 20013 30008 40119 52012 69912 7212/ 8352/ 333 10048
AAXX 30181 14308 12770 22701 10015 20008 39761 40121 53/// 60002 82400 333 10065
AAXX 30181 14321 12682 53303 10072 20033 30092 40116 53/// 60012 83801 333 10100 92323 92438
AAXX 30181 14370 11510 82301 10010 20005 30011 40123 52013 60002 71044 886// 333 10022
AAXX 30181 14382 11930 81002 10019 20009 39998 40120 52013 60002 7102/ 8807/ 333 10040
AAXX 30181 14428 11470 70102 10068 20045 30095 40102 53/// 60022 70262 84870 333 10088 92301
AAXX 30181 14441 11580 83602 10085 20069 30051 40075 56/// 60162 70066 8221/ 333 10103 92313
AAXX 30181 14452 NIL
AAXX 30181 14454 11668 80602 10071 20046 30021 40081 54/// 60022 70262 8757/ 333 10108 92312
AAXX 30181 14462 11560 80105 10054 20041 30089 40095 56/// 60072 761// 8652/ 333 10080
AAXX 30181 14216 12675 30102 10054 20011 39964 40117 53/// 69902 81134 333 10084 923// 924/8
AAXX 30181 38806 32997 03601 11014 21028 30123 40395 52002 333 10059
BBXX ZMFR 30184 99413 31748 43/// /1921 10120 20120 40132 52005 22200 00144
BBXX V2QD4 30183 99342 31646 41297 11730 10190 20142 40113 53021 71222 81673 22263 00200 20705 317// 40705
BBXX VRDX2 30183 99084 31278 41/97 /1007 10290 20263 40070 7//// 22224 00290 20301 30000
AAXX 30184 93800 16/// /1506 10120 20083 40120 52003 60001
AAXX 30184 93805 16/// /1108 10115 20079 40169 54000 60001
AAXX 30184 93994 16/// /0802 10214 20203 40154 52008 60001
BBXX ZMFR 30184 99413 31748 43/// /1921 10120 20120 40132 52005 22200 00144
BBXX V2QD4 30183 99342 31646 41297 11730 10190 20142 40113 53021 71222 81673 22263 00200 20705 317// 40705
BBXX VRDX2 30183 99084 31278 41/97 /1007 10290 20263 40070 7//// 22224 00290 20301 30000
AAXX 30181 21432 NIL
AAXX 30181 21824 NIL
AAXX 30181 21908 42999 01801 11272 21296 30057 40145 57005
AAXX 30181 21921 NIL
AAXX 30181 21931 NIL
AAXX 30181 21946 41998 82304 11270 21294 30129 40214 53002 77872 8805/
AAXX 30181 21982 11596 83506 11243 21268 30125 40154 57001 69932 77173 8257/ 333 21248 48013 91107
AAXX 30181 25062 31998 01906 11316 21345 30182 40186 57004 73632 333 21357 48038 91108
AAXX 30181 25123 41496 81403 11285 21315 30210 40246 57001 77173 885// 333 88610
AAXX 30181 25138 41598 81102 11324 21355 30117 40253 57007 77172 86537 333 91103
AAXX 30181 25173 32999 02202 11301 21325 30179 40184 54000 333 21308 48057 91106
AAXX 30181 25248 41597 80000 11351 21380 39756 40262 57003 77172 8352/ 333 91101
AAXX 30181 25282 31980 03208 11292 21309 30152 40159 57004 73630 333 21297 46003 91112
AAXX 30181 25325 NIL
AAXX 30181 25356 32999 10000 11439 21474 30116 40235 57001 80001 333 21448 48017 55000 91000
AAXX 30181 25399 11574 43102 11268 21300 30099 40109 54000 69900 70283 82501 333 21268 48036 55000 91105
AAXX 30181 25428 NIL
AAXX 30181 25551 32998 01601 11371 21395 30193 40228 57003 333 21429 47035 55000 91102
AAXX 30181 25563 32984 03306 11341 21364 30118 40207 57003 333 21341 44030 55023 91107
AAXX 30181 25594 32998 51102 11221 21254 30080 40134 52006 85030 333 21223 49040 91105
AAXX 30181 25677 31998 02803 11324 21255 30191 40197 54000 70200 333 21332 91106
AAXX 30181 31054 41998 60000 11426 21455 30081 40404 52001 77172 83026
AAXX 30181 31123 42998 00000 11385 21413 30036 40417 52002
BBXX A8IE6 30184 99037 11057 41/97 82712 10260 20246 40100 54000 70200 8//// 22254 04270 20705 80250
AAXX 30184 04203 46/// /3319 11204 21238 30006 40024 57019
AAXX 30184 04205 45/84 /0000 11253 21290 39993 40017 57025 333 11217 21264
AAXX 30184 04208 46/// /3206 11200 21262 39932 49978 57009
AAXX 30184 04213 46/// /3123 11153 21188 39841 49955 57013 333 11137 21155 91128
AAXX 30184 04214 46/// /0113 11141 21179 39936 49969 57005
AAXX 30184 04224 47481 71008 11132 21176 39914 49948 54000 77777 333 11101 21134 87/15 91124
AAXX 30184 04228 NIL
AAXX 30184 04242 46/// /0616 11125 21176 39880 49896 52007
AAXX 30184 04253 46/// /3414 11063 21117 39762 49789 57003
AAXX 30184 04266 46/// /1215 11018 21021 39734 49772 57004
AAXX 30184 04285 46/// /0804 11018 21023 39753 49772 57007
AAXX 30184 04301 46/// /2510 11269 21328 30024 40029 57023
AAXX 30184 04313 46/// /2211 11289 21329 30064 40076 57017
AAXX 30184 04330 46/// /2103 11274 21315 30065 40083 57028
AAXX 30184 04351 46/// /3404 11085 21098 39869 49885 57038
AAXX 30184 04373 46/// /3325 11067 21079 39716 49809 57033
AAXX 30184 04382 46/// /3419 11034 21070 39732 49780 57023
AAXX 30184 04416 46/// ///// 11458 21475 36388 57019
BBXX A8IM7 30184 99337 71428 41398 32114 10180 20148 40260 52010 70300 8/100 22224 20202 327// 40405 5//// 80160
AAXX 30181 60373 36/// /3304 10123 20096 333 10146
AAXX 30181 60623 36/// /0000 10118 21112 333 10156
AAXX 30181 60393 16/// /1801 10131 20076 69922 333 10162
BBXX A8AF6 30183 99136 70176 41/96 /0512 10230 20134 40155 56005 70633 8///8 22243 02220 20102 336// 40603 80170
AAXX 30184 91487 NIL
AAXX 30184 91490 NIL
AAXX 30184 91533 NIL
AAXX 30184 91601 NIL
AAXX 30184 91610 11599 21014 10262 20246 40087 53010 60001 70200 81100 333 563//
AAXX 30184 91623 NIL
AAXX 30184 91629 NIL
AAXX 30184 91701 NIL
AAXX 30184 60667 36/// /0000 10131 21046 333 10167
BBXX A8AF6 30183 99136 70176 41/96 /0512 10230 20134 40155 56005 70633 8///8 22243 02220 20102 336// 40603 80170
BBXX A8IE6 30184 99037 11057 41/97 82712 10260 20246 40100 54000 70200 8//// 22254 04270 20705 80250
AAXX 30184 60692 36/// /0312 10203 21056 333 10240
AAXX 30184 60691 36/// /0608 10191 21130 333 10232
AAXX 30184 91487 NIL
AAXX 30184 91490 NIL
AAXX 30184 91533 NIL
AAXX 30184 91601 NIL
AAXX 30184 91610 11599 21014 10262 20246 40087 53010 60001 70200 81100 333 563//
AAXX 30184 91623 NIL
AAXX 30184 91629 NIL
AAXX 30184 91701 NIL
BBXX PDHY 30183 99461 70466 41498 52721 10090 40098 55000 70222 85800 22262 04060 20712 3//// 40610 5////
BBXX A8IM7 30184 99337 71428 41398 32114 10180 20148 40260 52010 70300 8/100 22224 20202 327// 40405 5//// 80160
AAXX 30181 10544 06/// /2604 11021 21021 39058 48428 52019 60062 333 11011 21021 3/102 553// 6///7
AAXX 30184 60662 36/// /0000 10082 21070 333 10110
AAXX 30181 89064 11455 82904 10020 29089 49664 52004 60021 75027 885//
AAXX 30184 65528 NIL
AAXX 30184 65536 NIL
AAXX 30184 65545 NIL
AAXX 30184 65548 NIL
AAXX 30184 65555 NIL
AAXX 30184 65557 31450 7//// 10289 20164 39868 40106 70511 87202 333 10/// 59007 88813 83070 94919
AAXX 30184 65560 31940 6//// 10290 20098 39794 40102 70511 80002 333 10340 59004 86076
AAXX 30184 65562 NIL
AAXX 30184 65563 31940 60000 10266 20141 39871 40111 70511 80002 333 10330 59003 86076
AAXX 30184 65578 32558 52406 10275 20247 30100 40117 82502 333 10320 59012 82620 85076
AAXX 30184 65585 NIL
AAXX 30184 65592 11460 7//// 10253 20244 30086 40109 69952 70196 8353/ 333 10270 59007 83613 87360
AAXX 30184 65594 11460 72206 10263 20242 30081 40115 60112 70196 82572 333 10300 59011 82613 85460
AAXX 30184 65599 32460 7//// 10266 20249 30027 40101 82233 333 10300 59009 82813 83360 85076 94904
AAXX 30184 61600 32960 70606 10245 20046 30164 40170 70620 80002 333 10257 58005 87073
AAXX 30184 61612 31925 40612 10240 21016 30172 40180 70711 80002 333 10260 58014 84073
AAXX 30184 61627 31940 60808 10242 21030 3//// 4//// 7061/ 80002 333 10266 5//// 86073
AAXX 30184 61630 31945 60812 10240 20040 30150 40170 707// 80002 333 10268 59013 86073
AAXX 30184 61641 31948 80216 10229 20137 30121 40154 70622 82032 333 10248 58003 82363 87073
AAXX 30184 61666 32960 70806 10264 20161 30140 40149 80002 333 10280 58003 87073
AAXX 30184 61679 31950 50408 10280 20211 30143 40151 706// 80002 333 10310 58009 85363
AAXX 30184 61687 31953 60412 10275 21004 30087 40145 70611 85032 333 10294 58004 85363
AAXX 30184 61695 32958 63606 10279 20079 30111 40137 83082 333 10305 58005 83363 85073
AAXX 30184 61697 31956 73606 10272 20100 30118 40133 70722 82032 333 10300 59002 82363 86073
AAXX 30184 61698 32960 60406 10286 20039 30122 40133 82032 333 10311 58005 82363 86073
AAXX 30184 61699 32958 60406 10282 20104 39912 40102 83082 333 10302 59012 83363 84073
AAXX 30184 60660 36/// /3511 10163 21053 333 10189
AAXX 30181 08533 32/// /0202 10094 20054 30312 40342 52003 333 10165 91105 555 60005
AAXX 30181 08571 32/// /3403 10086 21010 39628 40345 54000 333 10125 91006 91106 555 60005
AAXX 30181 08511 32/// /2204 10166 20166 30251 40360 54000 333 10181 91106 555 60005
AAXX 30184 60679 36/// /1208 10014 21103 333 10077
AAXX 30184 60650 36/// /0513 10138 21032 333 10160
AAXX 30184 60677 36/// /0000 10102 21070 333 10128
AAXX 30184 60676 36/// /0512 10121 21059 333 10150
AAXX 30184 60661 36/// /0213 10108 21053 333 10162
AAXX 30184 60672 36/// /0809 10102 21070 333 10119
AAXX 30181 08533 32/// /0202 10094 20054 30312 40342 52003 333 10165 91105
AAXX 30184 60633 36/// /3609 10154 21095 333 10200
AAXX 30181 08554 32965 03101 10129 20054 30331 40340 52005 333 10171
AAXX 30184 60195 32970 00000 10081 21053 38602 48614 52005 333 10122 95500
AAXX 30181 51076 11975 81602 11086 21116 39454 40390 52016 69901 77000 8802/ 333 00407 11047
AAXX 30181 51243 32865 70904 11114 21148 39807 40411 52011 82502 333 00406 11113
AAXX 30181 08554 32965 03101 10129 20054 30331 40340 52005 333 10171 555 60005
AAXX 30181 08535 32/// /9902 10109 20023 30256 40351 52002 333 10148 555 60005
BBXX 46001 30181 99563 71480 46/// /2815 11030 40000 51012 91750 22200 00042 10909 20706 300// 40908 70047 333 91219 555 11158 22166 31727 42820 61749 275146 280154 271153 274154 270147 271159
BBXX 46207 30181 99509 71299 46/// /2914 10057 40035 52078 22200 00081 11214 70071 333 91218
BBXX 9VVN 30184 99518 71312 41311 82927 10060 21060 40050 52040 7//// 8//// 22274 00080 2//// 3//// 4//// 5//// 6//// 80015
BBXX A8IM7 30184 99337 71428 41398 32114 10180 20148 40260 52010 70300 8/100 22224 20202 327// 40405 5//// 80160
BBXX DDAC2 30180 99453 71393 41/98 33007 10050 20050 40190 51030 7//22 83400 22273 04100 2//// 329// 40408 5//// 80050
BBXX KIYI 30184 99494 71271 43498 52938 10060 20000 40045 52100 7//// 852// 22234 0//// 20205 329// 40907 5//// 6//// 80035 ICE /////
BBXX VQAJ8 30183 99486 71225 41698 62520 10088 20006 40046 52015 70322 85165 22200 00105 20303 325// 40601 5//// 80055
BBXX WABS 30184 99437 71258 41397 83234 10106 20073 40125 53005 72586 8227/ 22283 0//// 20909 3//// 4//// 5//// 6//// 80089 ICE /////
BBXX WDC6644 30184 99382 71249 41396 82515 10122 20100 40200 52010 72844 884// 22273 00128 20101 325// 41205 5//// 6//// 80111 ICE /////
BBXX WSRH 30184 99300 71428 41498 70509 10194 20150 40230 51001 7//22 8654/ 22214 00189 29903 327// 4//05 5//// 6//// 80167 ICE /////
BBXX WSRL 30183 99331 71331 41498 62609 10170 20150 40260 51018 70111 8/004 22254 0//// 20401 328// 40804 5//// 6//// 80155 ICE 0/0//
AAXX 30181 58472 32472 83405 10065 20010 30211 40308 57008 8517/ 333 10086
AAXX 30181 58477 31958 73601 10040 20010 30264 40310 57005 71000 8704/ 333 10111
AAXX 30181 58633 31657 70705 10062 21001 30198 40301 57008 70500 875// 333 10093
AAXX 30181 58666 32962 13610 10062 20028 30182 40287 57021 80002 333 10092
AAXX 30181 51431 11962 81102 11025 21038 39612 40451 52028 60021 77077 8802/ 333 01607 11011
AAXX 30181 51747 32965 00000 11204 21240 39028 40418 52008 333 00000 11031
AAXX 30181 53564 32962 20000 11103 21113 39277 40351 57001 80002 333 05101 11004
AAXX 30181 51156 32780 72704 11045 21115 38808 40367 52017 86502 333 00406 11032
AAXX 30181 51656 31958 01601 11109 21131 39220 40390 57001 70400 333 05152 11035
AAXX 30181 58457 31750 71402 10053 21003 30268 40322 52003 71000 875// 333 10101
AAXX 30181 58752 31557 20203 10076 20019 30251 40298 57007 70500 82100 333 10123
BBXX 46147 30181 99518 71312 46/// /3111 10031 40032 52069 22200 00077 11010 70051 333 91215
BBXX 46147 30181 99518 71312 46/// /3111 10031 40032 52069 22200 00077 11010 70051 333 91215
AAXX 30181 25703 41996 00000 11496 21522 30030 40358 57011 77670
AAXX 30181 25745 NIL
AAXX 30181 25913 41598 80403 11157 21191 30089 40245 53001 77172 8657/
AAXX 30181 25954 42998 40206 11223 21281 30081 40204 53003 80001
AAXX 30181 25956 42598 80304 11198 21224 30135 40141 53003 885//
AAXX 30181 31088 42999 03605 11256 21312 30266 40274 52001
AAXX 30181 31873 42997 00901 11259 21278 30171 40321 55001
AAXX 30181 31909 42998 03204 11132 21226 30173 40257 57005
AAXX 30181 31960 42998 03608 11161 21231 30043 40297 57007 333 91112
AAXX 30181 31961 42998 00000 11250 21268 30257 40308 56009
AAXX 30181 32053 41395 83503 11137 21157 30195 40247 53001 78582 889// 333 87707 91005 91106
AAXX 30181 32061 41516 83405 11115 21143 30210 40251 53011 78682 889// 333 91007 91108
AAXX 30181 32098 41597 83303 11050 21057 30213 40223 53004 78582 85903 333 91004 91105
AAXX 30181 32150 41596 73504 11025 21041 30161 40191 53003 78582 87900 333 91007 91107
AAXX 30181 32165 41598 63508 10000 21023 30007 40068 53018 78583 86900 333 91010 91114
AAXX 30181 32215 42996 02503 11052 21089 30205 40235 57005 333 91005 91105
AAXX 30181 32252 NIL
AAXX 30181 32389 41996 31101 11285 21304 30195 40237 57003 74011 83030
AAXX 30181 32477 41597 81702 11116 21116 30197 40230 57007 72682 885//
AAXX 30181 32583 42999 03203 11106 21112 30201 40233 58005
AAXX 30181 32618 42598 83406 11059 21117 30174 40196 57003 885//
AAXX 30184 89002 41599 81505 11010 21035 39781 49835 52002 77072 888//
AAXX 30184 71276 16/// ///16 11057 21102 60001 333 11043 21113 70017
AAXX 30184 71189 46/// /2822 11164 21223 6///1 333 11161 21204 7////
AAXX 30184 71946 11574 70000 11270 21298 39804 40028 53013 69901 70272 87500 333 11266 21297 48045 79999 90932
AAXX 30184 71307 16/// /1406 10050 20032 39822 40071 58027 60001 333 10051 20006 70019
AAXX 30184 71343 16/// /2120 10059 21010 60001 333 10059 21004 70000
AAXX 30184 71979 16/// ///// 11142 21166 38252 49917 50002 60001 333 11083 21181 70000
BBXX 46183 30181 99536 71311 46/// /0904 10038 49999 52068 22200 00074 10705 70024 333 91211
AAXX 30184 71946 11574 70000 11270 21298 39804 40028 53013 69901 70272 87500 333 11266 21297 48045 79999 90932
BBXX 46183 30181 99536 71311 46/// /0904 10038 49999 52068 22200 00074 10705 70024 333 91211
AAXX 30184 71276 16/// ///16 11057 21102 60001 333 11043 21113 70017
AAXX 30184 71979 16/// ///// 11142 21166 38252 49917 50002 60001 333 11083 21181 70000
AAXX 30184 71189 46/// /2822 11164 21223 6///1 333 11161 21204 7////
AAXX 30184 71307 16/// /1406 10050 20032 39822 40071 58027 60001 333 10051 20006 70019
AAXX 30184 71343 16/// /2120 10059 21010 60001 333 10059 21004 70000
AAXX 30181 50434 32980 40000 11295 21328 39381 40370 52003 80002 333 11200
AAXX 30181 50527 32970 03201 11292 21322 39492 40385 54000 333 11248
AAXX 30181 50603 32977 50701 11270 21304 39621 40380 57002 80002 333 11200
AAXX 30181 50632 32680 73406 11204 21248 39362 40325 52001 875// 333 11118
AAXX 30181 50727 11580 70000 11204 21234 39061 40353 57003 69911 77070 875// 333 11177
AAXX 30181 50915 32980 00000 11257 21300 39273 40374 57005 333 11119
AAXX 30181 51716 32965 00000 11109 21135 39001 40375 57002 333 00000 11003
AAXX 30181 51765 32980 02001 11157 21182 39317 40397 54000 333 05153 11029
AAXX 30181 51777 32975 02701 11130 21168 39272 40389 52010 333 05200 11006
AAXX 30181 51811 32962 02501 11106 21129 38879 40395 52003 333 00151 11016
AAXX 30181 51828 32965 02702 11075 21131 38714 40366 52002 333 00100 11001
AAXX 30181 52267 32980 02001 11126 21200 39203 40384 57005 333 00151 11030
AAXX 30181 52323 32980 02902 11164 21213 38284 57009 333 00154 11001
AAXX 30181 52495 32980 00701 11153 21225 38766 40386 57001 333 00200 11010
AAXX 30181 53149 32980 02905 11130 21195 38845 40351 57004 333 00101 11057
AAXX 30181 53192 32980 02701 11236 21255 38950 40401 57001 333 11143
AAXX 30181 53231 32970 01605 11135 21198 38556 57003 333 00253 11051
AAXX 30181 53336 32980 23202 11088 21186 38786 40342 57004 80002 333 00105 11033
AAXX 30181 53391 32980 03402 11148 21194 38548 40335 57002 333 05151 11042
AAXX 30181 53529 32980 00000 11082 21154 38692 40330 57003 333 00102 10024
AAXX 30181 53543 32980 03402 11081 21160 38593 40316 57003 333 10017
AAXX 30181 53723 32970 02202 11058 21141 38729 40337 57004 333 00104 11006
AAXX 30181 54012 32980 00000 11267 21304 39082 40381 57005 333 11115
AAXX 30181 54026 32980 00000 11155 21208 39953 40302 52001 333 11045
AAXX 30181 54027 32980 02502 11145 21207 39680 40309 57001 333 11040
AAXX 30181 54208 32980 02901 11170 21196 38806 40339 52002 333 11041
AAXX 30181 54776 32980 02701 11015 21063 30250 40310 57012 333 10003
AAXX 30181 56004 32980 02702 11212 21349 35844 57002 333 00352 11024
AAXX 30181 56033 32980 20401 11179 21306 36046 57005 80002 333 00351 11041
AAXX 30181 56046 32980 01601 11172 21239 36296 57003 333 00452 10005
AAXX 30181 56193 NIL
AAXX 30181 56196 31920 52902 10045 20033 40318 57010 71000 85040 333 00153 10071
AAXX 30181 56287 11830 80000 10060 20056 40320 57020 60011 71060 885// 333 00251 10083
AAXX 30181 56684 32560 80703 10017 21009 37951 52007 885// 333 00251 10149
AAXX 30181 56751 32780 12703 10069 20014 38041 52002 81100 333 00002 10179
AAXX 30181 56786 32560 83404 10045 20020 38157 52015 884// 333 00151 10177
AAXX 30181 56977 32465 72902 10116 20114 40192 52004 874// 333 00151 10224
AAXX 30181 57259 32961 83202 10028 20016 40319 57015 8807/ 333 10064
AAXX 30181 57279 31959 80000 10035 20011 40312 57019 71000 8807/ 333 10064
AAXX 30181 57348 32860 80000 10086 20034 40305 57002 885// 333 10104
AAXX 30181 57399 32960 80000 10049 20014 40314 57005 8807/ 333 10120
AAXX 30181 57554 11850 80000 10052 20017 40323 57009 69901 71060 885// 333 10078
AAXX 30181 57793 11716 82901 10075 20075 40302 57005 69931 72160 885// 333 10084
AAXX 30181 58345 31956 01101 10012 21007 40324 54000 71000 333 10082
AAXX 30181 58506 32961 70000 10009 21003 40311 57003 8704/ 333 10039
AAXX 30181 58813 11660 80000 10077 20076 40287 57002 69911 72160 885// 333 10079
AAXX 30181 58834 11760 80401 10102 20093 40274 57010 69911 70060 885// 333 10121
AAXX 30181 58926 11657 82201 10120 20099 40262 57005 69901 71060 885// 333 10153
AAXX 30181 58944 32561 83607 10109 20052 40267 57007 885// 333 10121
AAXX 30181 59096 32562 83401 10101 20057 40271 57002 885// 333 10153
AAXX 30181 59102 32660 81401 10081 20066 40277 57001 885// 333 10098
AAXX 30181 59278 31759 73602 10141 20072 40259 52002 70500 875// 333 10177
AAXX 30181 59456 32862 70202 10149 20077 40245 52004 875// 333 10176
AAXX 30181 59493 32762 80201 10156 20106 40247 52003 885// 333 10197
AAXX 30181 59658 32760 73602 10152 20100 40236 52002 875// 333 10216
AAXX 30181 59673 32562 83605 10160 20105 40241 52002 888// 333 10184
AAXX 30181 59845 32460 81101 10177 20157 40219 57003 888// 333 10202
AAXX 30181 38927 31001 9000 10010 20010 39974 40365 58002 74744 89/// 333 10054 89/01
AAXX 30184 48566 32560 50000 10268 20224 30108 40116 57011 82145 333 59004
BBXX 42085 30181 99179 70665 46/// /1009 10276 40160 91750 333 91211
BBXX 42085 30181 99179 70665 46/// /1009 10276 40161 91740 333 91211
BBXX 42085 30181 99179 70665 46/// /1009 10275 40160 57022 91800 22200 00272 10703 70014 333 91210
AAXX 30184 89667 46/// /1203 10001 29033 39818 4//// 5////
AAXX 30184 45011 47934 /0108 10145 20123 40246 52004 75165 333 58026
AAXX 3018/ 89869 46/// ///// 11006 39749 4//// 5//// 91810
AAXX 3018/ 89828 46/// ///// 11199 36555 4//// 5////
AAXX 3018/ 89828 46/// ///// 11198 36555 4//// 5//// 91810
AAXX 3018/ 89108 46/// ///// 11199 36927 4//// 5////
AAXX 3018/ 89108 46/// ///// 11198 36927 4//// 5//// 91810
AAXX 3018/ 89879 46/// ///// 10046 39736 4//// 5////
AAXX 3018/ 89872 46/// ///// 11016 39769 4//// 5////
AAXX 3018/ 89866 46/// ///// 10029 39722 4//// 5////
AAXX 3018/ 89329 46/// ///// 11100 38598 4//// 5////
AAXX 3018/ 89799 46/// ///// 11233 4//// 5////
AAXX 3018/ 89332 46/// ///// 11038 39096 4//// 5////
AAXX 3018/ 89332 46/// ///// 11033 39096 4//// 5//// 91810
AAXX 3018/ 89769 46/// ///// 11031 39784 4//// 5////
AAXX 3018/ 89314 46/// ///// 11120 38098 4//// 5////
AAXX 30184 45011 47934 /0108 10145 20123 40246 52004 75165 333 58026
AAXX 30181 08509 32460 62008 10177 20160 30287 40352 55004 82831 333 10189 81815 84359 91013 91113 555 60007
AAXX 30184 62002 32960 03510 10096 21008 39512 48547 52012 333 1028
AAXX 30184 62010 32560 42713 10127 20049 40208 52003 82470 333 10155 82630 83357 62012 11560 72615 10125 20081 30165 40195 52005 60012 7261 878//333 0//13 10160 82625 86630
AAXX 30184 62016 32560 32612 10128 20045 40215 52006 83800 333 10160 81820 83625
AAXX 30184 62053 ///// 62715 10122 20094 40164 51008 76096 86900 333 0//11 10163 82820 84622 82940
AAXX 30184 62124 32960 22407 10133 21009 39723 40240 52017 80004 333 10162 82070
AAXX 30184 62161 32960 02404 10139 20052 40178 53007 333 10192
AAXX 30184 62259 32960 00000 10138 20016 40229 53018 333 10196
AAXX 30184 62271 32960 03508 10168 21034 40225 51009 333 10206
AAXX 30183 61701 31960 70806 10269 20052 40135 70522 80006 333 10292 58005 84271 83072
AAXX 30183 61705 32960 50904 10275 20069 4//// 84032 333 10300 5//// 84360 83071
AAXX 30183 61707 32960 50905 10272 20093 4//// 80002 333 10315 5//// 85074
AAXX 30183 61711 32960 40902 10285 20168 4//// 80002 333 10310 5//// 85074
AAXX 30183 61712 NIL
AAXX 30183 61717 31959 60908 10278 21010 4//// 70511 86030 333 10299 5//// 86362
AAXX 30183 61720 NIL
AAXX 30183 61721 32960 73609 10278 20050 4//// 84032 333 10300 5//// 85262 84073
AAXX 30183 61722 32960 60812 10275 20009 4//// 86070 333 10300 5//// 84462 83363
AAXX 30183 61731 31959 61810 10274 20045 4//// 70522 85032 333 10299 5//// 85362 84074
AAXX 30183 61733 32960 60908 10275 20054 4//// 80002 333 10302 5//// 84363 85464
AAXX 30181 60379 36/// /2802 10126 20112 333 10161
AAXX 30181 60380 36/// /0000 10111 20087 333 10153
AAXX 30181 60394 36/// /2001 10107 20081 333 10161
AAXX 30181 60374 36/// /2905 10142 20085 333 10159
AAXX 30181 60613 36/// /0000 10087 21044 333 10140
AAXX 30184 89016 46/89 /3107 11037 29085 39423 4//// 5////
AAXX 30184 89507 46/89 /0908 11205 29070 36796 4//// 5////
AAXX 30184 89577 46/// /0601 11309 36816 4//// 5////
AAXX 30184 89578 46/// /3502 11315 36894 4//// 5////
AAXX 3018/ 89767 46/// ///// 11040 39832 4//// 5////
AAXX 30181 08509 32460 62008 10177 20160 30287 40352 55004 82831 333 10189 81815 84359 91013 91113
AAXX 30184 08221 02974 02104 10054 21029 39634 40340 53002 60002 333 10110 60007
AAXX 30181 38927 31001 90000 10010 20010 39974 40365 58002 74744 89/// 333 10054 89/01
BBXX 46131 30181 99499 71250 46/// /1504 1//// 49996 52039 22200 00076 10301 70004 333 91204
BBXX 46131 30181 99499 71250 46/// /1504 1//// 49996 52039 22200 00076 10301 70004 333 91204
BBXX 46241 30181 99330 71173 46/// ///// 1//// 91741 22200 00144 11302 20801 327// 41301 70008
BBXX 46088 30181 99483 71232 46/// /2311 10074 40046 91820 22200 00077 10502 20502 70010 333 91214 555 11121 22129 31733 42417 61819 230112 225118 234121 237125 239135 241121
BBXX 46087 30181 99485 71247 46/// /2914 10087 20025 40056 91820 22200 00082 333 91217 555 11147 22158 31811 42819 61819 286141 283138 280128 279128 288134 281142
BBXX 46249 30181 99338 71197 46/// ///// 1//// 91810 22200 00149 11303 20903 327// 41302 70015
BBXX 46248 30181 99461 71247 46/// ///// 1//// 91804 22200 00096 11110 21007 329// 41107 70050
BBXX 46244 30181 99409 71244 46/// ///// 1//// 91805 22200 00102 11208 21005 329// 41206 70039
BBXX 46240 30181 99366 71219 46/// ///// 1//// 91812 22200 00121 11203 21001 335// 41203 70014
BBXX 46237 30181 99378 71226 46/// ///// 1//// 91810 22200 00110 11305 21003 326// 41304 70024
BBXX 46229 30181 99438 71246 46/// ///// 1//// 91751 22200 00098 11708 21004 328// 41706 70039
BBXX 46212 30181 99408 71243 46/// ///// 1//// 91812 22200 00104 11307 20904 329// 41305 70034
BBXX 46217 30181 99342 71194 46/// ///// 1//// 91812 22200 00145 11202 20702 327// 41201 70010
BBXX 46223 30181 99335 71178 46/// ///// 1//// 91800 22200 00148 11302 21001 328// 41301 70009
BBXX 46216 30181 99343 71198 46/// ///// 1//// 91757 22200 00142 11102 20802 327// 41101 70012
BBXX 46231 30181 99327 71174 46/// ///// 1//// 91754 22200 00147 11402 20802 325// 41401 70010
BBXX 46222 30181 99336 71183 46/// ///// 1//// 91756 22200 00146 11102 20902 327// 41102 70012
BBXX 46242 30181 99332 71174 46/// ///// 1//// 91758 22200 00142 11502 21001 322// 41501 70008
BBXX 44029 30181 99425 70706 46/30 /1304 10050 40171 56022 91804 22200 00080 10201 70003 333 91205 555 11050 22052
BBXX 44030 30181 99432 70704 46/// /0504 1//// 40181 56015 91804 22200 00080 11101 70004 333 91206 555 11044 22046
BBXX 44098 30181 99428 70702 46/// ///// 1//// 91807 22200 00083 11101 21001 70005
BBXX 46211 30181 99469 71242 46/// ///// 1//// 91806 22200 00092 11309 21006 327// 41306 70045
BBXX 46204 30181 99514 71288 46/// /2514 10065 40012 52098 22200 00080 11212 70060 333 91218
BBXX 46204 30181 99514 71288 46/// /2514 10065 40012 52098 22200 00080 11212 70060 333 91218
AAXX 30181 25428 41917 70000 11460 21492 39932 40328 57005 71022 80001 333 91100
AAXX 30184 82106 32598 60906 10323 20243 3//// 4//// 85290 333 5////
AAXX 30184 82113 32696 73206 10319 20238 3//// 4//// 85460 333 5////
AAXX 30184 82212 21698 81402 10288 20260 30034 40116 70252 886// 333 59014 69981
AAXX 30184 82336 21598 71402 10278 20242 3//// 4//// 70366 83176 333 5//// 60051
AAXX 30184 82425 21596 63602 10276 20250 3//// 4//// 70262 84304 333 5//// 60091
AAXX 30184 82533 32197 60502 10290 20243 3//// 4//// 86700 333 5////
AAXX 30184 82704 32696 60000 10301 20227 39866 40059 86400 333 59008
AAXX 30184 82723 32698 62704 10320 20241 30031 40112 86400 333 59016
AAXX 30184 82042 32598 50506 10317 20233 3//// 4//// 83400 333 5////
AAXX 30184 82240 32596 20000 10303 20241 3//// 4//// 81130 333 5////
AAXX 30184 82317 32594 60904 10290 20243 3//// 4//// 82253 333 5////
AAXX 30184 82610 32495 40000 10322 20260 3//// 4//// 83420 333 5////
AAXX 30184 82807 32295 80000 10273 20245 3//// 4//// 887// 333 5////
AAXX 30184 82143 31598 30310 10310 20257 40096 7010/ 82289 222// 80270 333 9004
AAXX 30184 83117 31197 81401 10290 20264 40141 57009 7022/ 8867/ 222// 02210 20101 80270
AAXX 30181 35925 319// 61603 11050 21057 40360 53005 71011 80005 333 11017
AAXX 30181 38001 32997 00508 10032 21036 30223 40193 57026 333 10049
AAXX 30181 38196 32998 00502 11117 21147 39409 40463 51004 333 11035
AAXX 30181 38198 329// 50202 11048 21061 30171 40443 52009 85040 333 11005
AAXX 30181 38232 32998 01406 11003 21057 30210 40311 57005 333 10030
AAXX 30181 38328 129// 01303 11091 21121 39670 40450 51001 60040 333 10023
AAXX 30181 38334 12597 10803 11112 21118 39426 40461 54000 60040 81600 333 11012
AAXX 30181 38439 32998 00202 11020 21036 30066 40420 52001 333 10012
AAXX 30181 35925 319// 61603 11050 21057 40360 53005 71011 80005 333 11017
AAXX 30181 38001 32997 00508 10032 21036 30223 40193 57026 333 10049
AAXX 30181 38196 32998 00502 11117 21147 39409 40463 51004 333 11035
AAXX 30181 38198 329// 50202 11048 21061 30171 40443 52009 85040 333 11005
AAXX 30181 38232 32998 01406 11003 21057 30210 40311 57005 333 10030
AAXX 30181 38328 129// 01303 11091 21121 39670 40450 51001 60040 333 10023
AAXX 30181 38334 12597 10803 11112 21118 39426 40461 54000 60040 81600 333 11012
AAXX 30181 38439 32998 00202 11020 21036 30066 40420 52001 333 10012
BBXX 9HA2479 30184 99271 31602 46/// /1732 10214 20171 30085 40114 57004 22214 04231 85186
BBXX VROB 30184 99274 31532 46/// /2008 10205 20133 30132 40157 57004 22200 04247 85161
BBXX VNAH 30184 99383 31416 46/// /0702 10163 20127 30126 40150 57007 22200 04198 85142
BBXX C6FS9 30184 99388 31429 46/// /0907 10169 20148 30122 40159 57004 22223 04174 85156
BBXX A8TX8 30183 99078 31198 41/98 /2905 10285 20242 40094 58005 703// 8//// 22224 04300 20400 30000 80255
BBXX 9HA2479 30184 99271 31602 46/// /1732 10214 20171 30085 40114 57004 22214 04231 85186
BBXX VROB 30184 99274 31532 46/// /2008 10205 20133 30132 40157 57004 22200 04247 85161
BBXX VNAH 30184 99383 31416 46/// /0702 10163 20127 30126 40150 57007 22200 04198 85142
BBXX C6FS9 30184 99388 31429 46/// /0907 10169 20148 30122 40159 57004 22223 04174 85156
BBXX A8TX8 30183 99078 31198 41/98 /2905 10285 20242 40094 58005 703// 8//// 22224 04300 20400 30000 80255
AAXX 30181 21802 42999 01304 11300 21316 30087 40113 54000
AAXX 30181 24125 41998 80000 11222 21233 39876 40176 57004 77172 80007
AAXX 30181 24136 42999 00000 11382 21409 30113 40228 53002
AAXX 30181 24143 41997 81805 11313 21350 30219 40274 53001 77172 8802/
AAXX 30181 24266 42998 02201 11433 21461 30089 40296 54000
AAXX 30181 24329 42998 20000 11381 21409 39919 40264 57004 82010
AAXX 30181 24343 41597 81602 11315 21345 30167 40300 54000 77172 86507 333 86620
AAXX 30181 24382 41995 30000 11436 21461 30010 40306 57002 71011 80001
AAXX 30181 24639 41998 82501 11231 21255 30118 40284 57004 77172 80007
AAXX 30181 24641 41998 80901 11316 21345 30137 40298 57008 77177 8802/
AAXX 30181 24652 41997 81702 11334 21362 30205 40345 53003 70272 85037
AAXX 30181 24656 41998 80801 11342 21378 30244 40361 57001 77177 80007
AAXX 30181 24671 42999 00000 11471 21494 39802 40413 53002
AAXX 30181 24688 41996 00000 11545 21569 39385 40527 57002 71000
AAXX 30181 24724 41597 82204 11176 21202 39706 40267 57005 78583 889//
AAXX 30181 24738 42998 81601 11237 21248 30103 40295 57005 80005
AAXX 30181 24768 41998 70801 11388 21424 30092 40364 53002 70272 80007
AAXX 30181 24923 42999 02502 11273 21298 39996 40336 57005
AAXX 30181 24944 41996 82703 11261 21279 30022 40345 53001 84031
AAXX 30181 24951 41998 82801 11321 21345 30155 40344 56001 77171 80007
AAXX 30181 24661 41998 80000 11373 21401 30058 40365 53001 77072 8802/
AAXX 30181 24959 41993 80000 11362 21390 30194 40344 57004 77174 80005 333 96048
AAXX 30181 24962 41996 80000 11406 21432 30145 40366 57004 72271 80001
AAXX 30181 24966 41998 80000 11420 21443 30118 40375 54000 77171 80007
AAXX 30181 24967 41998 80000 11423 21455 30124 40384 57001 77171 80007
AAXX 30181 25206 41998 82202 11336 21365 30211 40242 57010 77177 80007
AAXX 30181 25400 41995 01801 11406 21432 30196 40260 57002 71000
AAXX 30181 30054 42998 20000 11322 21352 30098 40372 57002 80001
AAXX 30181 30089 41998 80000 11310 21334 30126 40380 54000 77177 80007
AAXX 30181 30393 41998 80000 11319 21337 39230 40411 52004 77172 80007
AAXX 30181 30493 41998 80901 11222 21247 39218 40352 54000 77172 80007
AAXX 30181 31004 41997 82301 11247 21265 39448 40365 52001 77172 80007
AAXX 30181 31137 41998 80000 11432 21456 39244 40472 53010 77171 80005
AAXX 30181 30157 42998 01201 11305 21336 30096 40419 54000
AAXX 30184 67765 41520 83002 10184 20181 38662 48504 79196 81973 333 10262 59001 81925 88460
AAXX 30184 67775 41/80 81502 10187 20185 38511 48515 71398 81973 333 10226 58005 819// 88458
AAXX 30184 67779 NIL
AAXX 30184 67853 NIL
AAXX 30184 67861 NIL
AAXX 30184 67867 NIL
AAXX 30184 67881 41980 80000 10191 20182 38582 48510 71582 8807/ 333 10237 59002 88460
AAXX 30184 67965 41480 21512 10186 20164 38692 48516 70151 81532 333 10240 58021 81610
AAXX 30184 67975 41475 80000 10194 20175 38930 48517 70252 885// 333 10210 58001 88610
AAXX 30184 67977 NIL
AAXX 30184 67983 41980 60000 10195 20182 38892 48517 70265 86030 333 10200 58007 86360
AAXX 30184 67991 42980 00000 10248 20185 39595 48494 333 10285 58003
AAXX 30184 91650 11599 30000 10255 2025/ 40080 53015 60001 70200 82801 333 569/9 82820
AAXX 30184 91652 NIL
AAXX 30184 91656 NIL
AAXX 30184 91659 NIL
AAXX 30184 91660 NIL
AAXX 30184 91669 36/// /1408 10266 20255 40093 52010 91815
AAXX 30184 91670 36/// /0600 10264 20232 40086
AAXX 30184 91676 14/// /0904 10252 20233 30023 40083 50013 60001
AAXX 30184 91680 11699 51005 10245 20235 40088 53009 60001 70222 85800 333 569// 83830 85650
AAXX 30184 91682 NIL
AAXX 30184 91683 11599 60000 10240 20233 40094 53014 60001 70312 86800 333 569// 85824 83650
AAXX 30184 91691 14/// /0601 10232 20223 30097 40100 53014 60001
AAXX 30184 91693 11599 50000 10262 2023/ 40093 53017 60001 70112 8383/ 333 5699/ 83825 83362
AAXX 30184 91697 14/// /1102 10242 20209 30095 40100 53015 60001
AAXX 30184 91699 14/// /1004 10257 20231 30077 40109 53016 60001
BBXX 51203 30181 99208 71570 46/// ///// 1//// 91813 22200 00245 11301 20901 325// 41301 70006
BBXX 52200 30181 99134 11448 46/// ///// 1//// 91815 22200 00286 10804 20804 309// 41101 70021
BBXX 51201 30181 99217 71581 46/// ///// 1//// 91812 22200 00239 11304 20902 333// 41303 70018
BBXX 41029 30181 99328 70796 46/// /2204 1//// 91800 555 11038 22038
BBXX 44033 30181 99441 70690 46/30 /1202 11011 40194 56013 91804 22200 00064 10801 70004 333 91202 555 11016 22016
BBXX 44034 30181 99441 70681 46/30 /2602 11012 40193 56014 91804 22200 00077 10802 70011 333 91203 555 11018 22019
BBXX 41115 30181 99184 70673 46/// ///// 1//// 91805 22200 11403 21002 301// 41402 70013
BBXX 41114 30181 99276 70802 46/// ///// 1//// 91816 22200 00233 11302 20301 306// 41301 70008
BBXX 42362 30181 99278 70907 46/// /2107 10228 20128 40193 91815
BBXX 42363 30181 99282 70892 46/// /2108 10228 20111 40193 91815 333 91208
BBXX 42364 30181 99291 70881 46/// /2208 10217 20139 40190 91815
BBXX 41036 30181 99342 70770 46/// ///// 10157 20070 40190 91820 22200 00174
BBXX 46221 30181 99339 71186 46/// ///// 1//// 91745 22200 00150 10802 20802 326// 41101 70012
BBXX 51205 30181 99210 71564 46/// ///// 1//// 91818 22200 00236 11005 21004 332// 41303 70023
BBXX 46114 30181 99364 71222 46/// ///// 1//// 91804 22200 00122 11806 21003 328// 41805 70032
BBXX V7NV4 30184 99333 11408 41797 70233 10110 20072 40180 7//21 86923 22263 00190 20310 30202 40310 50310 6//// 80090 ICE /////
BBXX WKAE 30183 99269 70799 41598 22205 10232 20152 40185 58020 70100 82200 22244 00240 20101
AAXX 30184 40250 32960 62004 10120 21013 39370 40165 52003 86070 333 10174 83358 84360
AAXX 30184 40265 32960 40000 10090 21019 39388 40198 52014 84030 333 10120 84360
AAXX 30184 40296 11660 70000 10144 20124 40165 54001 60042 76062 8782/ 333 10184 82830 85630 84460
AAXX 30184 40310 12560 40000 10100 20078 38961 48505 54001 69942 84200 333 10190 84830
AAXX 30184 89050 41296 83418 10012 20012 49672 52009 77372 886//
AAXX 30184 89512 32998 81412 11005 21080 39668 49815 54000 80001 333 10012
AAXX 30184 89574 42998 30904 11009 21077 49940 52009 82031
AAXX 30184 89592 42998 00000 11032 21069 49885 52001
AAXX 30184 89606 41996 83508 11287 21331 36302 47752 57003 77672 80007 333 11204
BBXX A8AF6 30183 99136 70176 41/96 /0512 10230 20134 40155 56005 70633 8///8 22243 02220 20102 336// 40603 80170
BBXX MDGV9 30184 99268 70148 41/98 50414 10190 20174 40295 54000 70222 82182 22253 10501 70005 80180
BBXX PHAA 30183 99224 70182 41999 10315 10210 20105 40255 57018 70200 80004 22253 20201 80148 90967
AAXX 30184 67002 32580 23407 10285 20242 30101 40134 60032 82800 333 58020 82820 92417
AAXX 30184 67009 NIL
AAXX 30184 67025 NIL
AAXX 30184 67027 31580 53210 10290 20249 30090 40111 52020 71311 84930 333 10327 82820 83640 81920 94962 95832 555 83360
AAXX 30184 67083 31470 50000 10215 20183 38739 48515 52027 71322 81933 333 10288 81817 81917 84073 94974 94977 95837
AAXX 30184 67095 11456 73602 10250 20238 30092 40098 50012 60032 79596 8597/ 333 10315 81817 81917 84633 86360 94971 94976 94978 95831 95836 95838
AAXX 30184 67113 NIL
AAXX 30184 333 67117 NIL
AAXX 30184 333 67137 NIL
AAXX 30184 333 67143 NIL
AAXX 30184 333 67161 NIL
AAXX 30184 333 67197 32480 30000 10242 20217 30113 40123 52020 83800 333 10280 82817 555 82633
BBXX SHIP 30184 99090 11274 41398 20311 10270 20257 40097 56021 70300 8334/ 22213 00293 2//// 399// 4//// 5//// 80260
BBXX 7JJA 30184 99316 11355 41797 83520 00 10100 20060 40230 54000 76162 87//// 9//// 22200 0 2//02 336 4//05 5 6//// 80080 IC E/////
BBXX SHIP 30184 99366 11349 41/97 53109 10045 20010 40272 5/003 70100 8423/ 22254 00143 20000 80030
BBXX 3FMH7 30184 99330 11732 41598 71722 00/// 10180 20148 40192 57014 70322 87/// 9//// 22263 00190 1//// 2//03 399// 41206 5//// 6//// 80160
BBXX SHIP 30184 99103 11119 41497 70907 10245 20209 40136 57021 70222 8652/ 22252 00257 80220
BBXX SHIP 30184 99307 11373 41598 43223 10150 20066 40205 56010 70300 8314/ 22244 00190 2//// 3//// 4//// 80105
BBXX H9UY 30184 99319 11473 41698 63627 00/// 10140 40147 56010 70322 84616 9//// 22263 04200 20308 315// 40307 5//// 6//// 80120
BBXX SHIP 30184 99273 11470 41698 82718 10200 20153 40134 57005 70222 884// 22283 00263 80170
BBXX V7NV4 30184 99333 11408 41797 70233 10110 20072 40180 5010 7//21 86923 22263 00190 20310 30202 40310 50310 6//// 80090 ICE /////
BBXX UFLC 30180 99516 11459 42/98 90807 11020 40255 54000 89/// 22283 06030 20402
AAXX 30181 60376 36/// /2602 10136 20092 333 10160
AAXX 30181 60593 36/// /0000 10122 333 10155
AAXX 30184 61202 32965 70000 10179 21084 39613 40187 82046 333 10205 59003 82365 87075
AAXX 30184 61214 NIL
AAXX 30184 61223 31920 70408 10200 21041 39882 40188 70622 80002 333 10217 58004 87075
AAXX 30184 61226 32960 73604 10218 20074 39864 40174 80002 333 10245 58003 87075
AAXX 30184 61230 31958 50412 10220 21080 39881 40157 70611 84042 333 10237 58005 84365
AAXX 30184 61233 32960 70608 10200 21039 3//// 4//// 80002 333 10237 4//// 86075
AAXX 30184 61235 31958 70618 10235 21024 3//// 4//// 70622 80002 333 10255 5//// 87075
AAXX 30184 61240 32960 70406 10225 20014 39831 40164 87040 333 10260 58002 87365
AAXX 30184 61250 32960 50000 10246 20078 3//// 4//// 80002 333 10270 5//// 85075
AAXX 30184 61257 31930 40414 10250 21035 30100 40175 70522 80002 333 10266 58008 84075
AAXX 30184 61265 32970 50408 10220 21028 39847 40462 80002 333 10252 58001 85075
AAXX 30184 61270 32960 50404 10260 21006 3//// 4//// 80002 333 10295 5//// 85075
AAXX 30184 61272 32960 30402 10232 20070 39833 40162 80002 333 10272 58010 83075
AAXX 30184 61277 32960 30406 10236 20029 39818 40144 80002 333 10265 59009 83075
AAXX 30184 61285 31956 70606 10277 21026 39990 40141 70622 80002 333 10298 58004 87075
AAXX 30184 61291 31930 30608 10248 21005 39723 40140 70600 80002 333 10270 58001 83075
AAXX 30184 61293 32960 70210 10245 20001 3//// 4//// 87042 333 10257 5//// 87365
AAXX 30184 61296 32960 60802 10252 20096 3//// 4//// 80002 333 10289 5//// 86075
AAXX 30184 61297 32960 73608 10252 20006 3//// 4//// 80002 333 10278 5//// 87075
BBXX P3GY9 30184 99190 50378 41897 50313 10320 2027/ 40155 57010 70322 85293 22243 00280 20501 308// 40803 5//// 6//// 80280 ICE /////
BBXX A8SF8 30184 99224 50747 41598 52015 10190 20175 40135 54000 70200 83078 22244 04200 21001 321// 41403 80180
BBXX C6OM8 30180 99142 50369 41398 80704 10278 20222 40137 56010 70200 887// 22243 06276 20402 307// 40402 5//// 80240
BBXX IDDUK02 30184 99526 50430 46/// ///// 49981 222//
BBXX 46207 30181 99509 71299 46/// /2914 10057 40035 52078 22200 00081 11214 70071 333 91218
BBXX C6KD9 30180 99251 70615 41597 31208 10254 20214 40230 56022 70100 83465 22214 02243 21004 312// 41005 5//// 80227
BBXX KEY796 30183 99571 71703 41/97 63413 11089 21156 40119 53/// 702// 8//// 222// 01017 2//// 3//// 4//// 5//// 6//// 8//// ICE /////
BBXX 46111 30181 99481 71227 46/// /2104 10065 40049 53029 91800 22200 00050
BBXX 44032 30181 99437 70694 46/30 /0603 11004 40185 56013 91804 22200 00082 11101 70006 333 91204 555 11032 22033
BBXX 44067 30181 99384 70770 46/// /2303 10083 40150 58031 91800
BBXX WDF7020 30184 99467 70866 41/97 51608 1//// 2//// 40064 54/// 70101 85/7/ 22223 0//// 20202 3//// 4//// 5//// 6//// 8//// ICE /////
BBXX WQZ9670 30184 99473 70893 43/98 /0105 11005 2//// 40071 5//// 7//// 8//// 22223 0//// 2//01 3//// 4//// 5//// 6//// 8//// ICE /////
BBXX 46204 30181 99514 71288 46/// /2514 10065 40012 52098 22200 00080 11212 70060 333 91218
BBXX 44029 30181 99425 70706 46/30 /1304 10050 40171 56022 91804 22200 00080 10201 70003 333 91205 555 11050 22052
BBXX 46211 30181 99469 71242 46/// ///// 1//// 91806 22200 00092 11309 21006 327// 41306 70045
BBXX 44098 30181 99428 70702 46/// ///// 1//// 91807 22200 00083 11101 21001 70005
BBXX 44030 30181 99432 70704 46/// /0504 1//// 40181 56015 91804 22200 00080 11101 70004 333 91206 555 11044 22046
BBXX 46242 30181 99332 71174 46/// ///// 1//// 91758 22200 00142 11502 21001 322// 41501 70008
BBXX 46222 30181 99336 71183 46/// ///// 1//// 91756 22200 00146 11102 20902 327// 41102 70012
BBXX 46231 30181 99327 71174 46/// ///// 1//// 91754 22200 00147 11402 20802 325// 41401 70010
BBXX 46223 30181 99335 71178 46/// ///// 1//// 91800 22200 00148 11302 21001 328// 41301 70009
BBXX 46216 30181 99343 71198 46/// ///// 1//// 91757 22200 00142 11102 20802 327// 41101 70012
BBXX 46217 30181 99342 71194 46/// ///// 1//// 91812 22200 00145 11202 20702 327// 41201 70010
BBXX 46212 30181 99408 71243 46/// ///// 1//// 91812 22200 00104 11307 20904 329// 41305 70034
BBXX 46229 30181 99438 71246 46/// ///// 1//// 91751 22200 00098 11708 21004 328// 41706 70039
BBXX 46237 30181 99378 71226 46/// ///// 1//// 91810 22200 00110 11305 21003 326// 41304 70024
BBXX 46240 30181 99366 71219 46/// ///// 1//// 91812 22200 00121 11203 21001 335// 41203 70014
BBXX 46087 30181 99485 71247 46/// /2914 10087 20025 40056 91820 22200 00082 333 91217 555 11147 22158 31811 42819 61819 286141 283138 280128 279128 288134 281142
BBXX 46244 30181 99409 71244 46/// ///// 1//// 91805 22200 00102 11208 21005 329// 41206 70039
BBXX 46248 30181 99461 71247 46/// ///// 1//// 91804 22200 00096 11110 21007 329// 41107 70050
BBXX 46249 30181 99338 71197 46/// ///// 1//// 91810 22200 00149 11303 20903 327// 41302 70015
BBXX 46241 30181 99330 71173 46/// ///// 1//// 91741 22200 00144 11302 20801 327// 41301 70008
BBXX 46131 30181 99499 71250 46/// /1504 1//// 49996 52039 22200 00076 10301 70004 333 91204
BBXX 42085 30181 99179 70665 46/// /1009 10276 40161 91740 333 91211
BBXX 42085 30181 99179 70665 46/// /1009 10275 40160 57022 91800 22200 00272 10703 70014 333 91210
BBXX 42085 30181 99179 70665 46/// /1009 10276 40160 91750 333 91211
BBXX 46183 30181 99536 71311 46/// /0904 10038 49999 52068 22200 00074 10705 70024 333 91211
BBXX WRYC 30184 99355 70455 41498 72019 10220 2//// 40296 57004 70322 81866 22264 00196 20304 326// 40707 5//// 6//// ICE /////
BBXX WKAE 30183 99269 70799 41598 22205 10232 20152 40185 58020 70100 82200 22244 00240 20101 3//// 4//// 5//// 6//// 80181 ICE /////
BBXX WJBJ 30183 99190 70667 41298 31222 10270 2024/ 40161 57016 70200 83181 22234 00273 20504 311// 40604 5//// 6//// 80245 ICE /////
BBXX 46147 30181 99518 71312 46/// /3111 10031 40032 52069 22200 00077 11010 70051 333 91215
BBXX A8IM7 30184 99337 71428 41398 32114 10180 20148 40260 52010 70300 8/100 22224 20202 327// 40405 5//// 80160
BBXX DHEB 30183 99541 71786 41/98 52022 11030 40092 56017 70222 85/// 22264 04020 2//// 3//// 4//// 5////
BBXX 46088 30181 99483 71232 46/// /2311 10074 40046 91820 22200 00077 10502 20502 70010 333 91214 555 11121 22129 31733 42417 61819 230112 225118 234121 237125 239135 241121
BBXX PDHY 30183 99461 70466 41498 52721 10090 40098 55000 70222 85800 22262 04060 20712 3//// 40610 5////
BBXX DGXS 30184 99543 71683 41498 43107 11020 21068 40113 57008 72277 844// 22224 00050 2//// 3//// 4//// 5//// 82035
BBXX A8WP6 30184 99220 70634 41698 31018 00/// 10285 2020/ 40260 50010 70211 83/// 22273 00241 2//// 3//// 4//// 5//// 6//// 80250
BBXX SHIP 30184 99055 71405 41396 81308 10247 20228 40122 52018 76262 8762/ 22234 04252 20310 30816 40704 50803
BBXX PCBZ 30184 99082 70865 41998 62406 10279 20239 40111 54000 70122 86030 22223 00220 20100 329// 40801 80250 90967
BBXX A8IE6 30184 99037 11057 41/97 82712 10260 20246 40100 54000 70200 8//// 22254 04270 20705 80250
BBXX VRDX2 30183 99084 31278 41/97 /1007 10290 20263 40070 7//// 22224 00290 20301 30000
BBXX V2QD4 30183 99342 31646 41297 11730 10190 20142 40113 53021 71222 81673 22263 00200 20705 317// 40705
BBXX ZMFR 30184 99413 31748 43/// /1921 10120 20120 40132 52005 22200 00144
BBXX SHIP 30184 99478 31100 41697 63429 10090 20058 40028 57054 70122 84850 22243 00068 11305 399// 85074
BBXX ZCAO7 30184 99090 31241 41/99 82407 10284 20250 40074 57008 70311 8//// 22253 00293 2//// 80260
BBXX SHIP 30184 99045 11476 41/97 20512 10283 20242 40080 57008 70200 8//// 22241 06295 10904 399// 4////
BBXX C6UA2 30184 99188 31679 41797 53203 10260 2//// 40100 54/// 7//11 85260 22284 02300 2//02 3//// 4//// 5//// 6//// 8//// ICE /////
BBXX PHBO 30183 99434 70224 41297 82220 10150 20139 40322 56007 70222 887// 22214 20902 322// 40902 80144
BBXX 62094 30184 99517 70067 46/// /2423 10111 20106 40142 56016 22200 00106 10505 70026 333 90710 91137
BBXX 62095 30184 99530 70159 46/// /2518 10118 20113 40108 58003 22200 00112 10809 70043 333 90710 91126
BBXX A8RL2 30184 99443 70137 41/96 82520 10145 20136 40320 57/// 75166 8//// 22214 04139 20905 330// 41204 80140
BBXX 62107 30184 99501 70061 46/// /2628 10117 20108 40189 58007 22200 00115 10705 70024 333 90710 91142
BBXX 62305 30184 99504 10000 46/96 /1817 10083 20075 40169 57022 22200 00113 10702 70009
BBXX 62103 30184 99499 70029 46/97 /2627 10118 20111 40170 58011 22200 00119 10704 70018 333 90710 91135
BBXX 62103 30184 99499 70029 46/97 /2626 10118 20110 40174 56012 22200 00119 10703 70015 333 90710 91133
BBXX 2AUO5 30183 99606 10016 41597 39904 10050 21033 40074 58005 70200 834// 22281 20000 335// 40307 80021
BBXX 62163 30184 99475 70084 46/// /2521 10130 20117 40256 57017 22200 00124 10808 70038 333 90710 91128
BBXX 62094 30184 99517 70067 46/// /24// 10111 20106 40142 56016 22200 00106 10505 70026 333 90710 91137
BBXX 62170 30184 99514 10020 46/96 /2516 10067 20030 40164 56014 22200 00102 10602 70010
BBXX 62140 30184 99573 10013 46/// /18// 10053 20004 40082 58016 22200
BBXX 62304 30184 99511 10018 46/97 /2514 10067 20031 40167 57014 22200 00103 10702 70009
BBXX 62164 30184 99572 10008 47598 /1709 10061 20009 40080 58022 700// 22200 10705 70027
BBXX 62146 30184 99572 10021 47/99 /1703 10057 21004 40085 58014 700// 22200 10706 70029
BBXX 62122 30184 99573 10016 47699 /1807 10057 20003 40084 58016 700// 22200 10705 70027
BBXX 62104 30184 99574 10013 47698 /2009 10053 21005 40079 58017 700// 22200
BBXX 62153 30184 99573 10020 47999 /1303 10052 20005 40086 58014 700// 22200 10705 70027
BBXX 62116 30184 99576 10011 47598 /2007 10052 20005 40077 58018 700// 22200 10705 70024
BBXX 62155 30184 99577 10007 47998 /1810 10053 20008 40074 58022 751// 22200 10705 70025
BBXX 62118 30184 99577 10009 47998 /1909 10062 20009 40068 58020 700// 22200 10705 70024
BBXX 62143 30184 99577 10018 47598 /1905 10057 21008 40081 58017 700// 22200 10705 70026
BBXX 62134 30184 99580 10014 47598 /1808 10055 21001 40077 58017 700// 22200 10705 70026
BBXX 62117 30184 99579 10000 47898 /1814 10057 20010 40066 57024 700// 22200 10604 70019
BBXX 62114 30184 99583 10000 46/// /1616 10051 20006 40063 57023 22200
BBXX ZQSD5 30184 99583 10007 46/// /1604 10061 20007 40072 57020 22200 11007 70037
BBXX 62144 30184 99534 10017 47596 /2109 10065 20015 40134 57021 761// 22200 10503 70014
BBXX 62102 30184 99579 10018 46/// /1707 10055 21016 40082 58014 22200 10806 70028
BBXX 62150 30184 99536 10007 47496 /1911 10046 20014 40131 57024 762// 22200 10704 70022
BBXX 62142 30184 99530 10021 47698 /2109 10056 20025 40139 56018 700// 22200 10502 70012
BBXX 62149 30184 99537 10011 47496 /2211 10054 20011 40127 57022 700// 22200 10704 70019
BBXX 62145 30184 99531 10028 47998 /2409 10056 21002 40145 56014 700// 22200 10603 70017
BBXX 62121 30184 99535 10027 46/// ///// 22200
BBXX 62148 30184 99536 10015 46/// /2107 10051 20019 40132 57020 22200
BBXX 62131 30184 99539 10012 46/// /19// 10048 20003 40124 57020 22200
BBXX 62132 30184 99564 10020 46/// /1805 10058 20012 40093 58016 22200
BBXX 62127 30184 99540 10007 47497 ///// 10050 20021 40118 57023 762// 22200 10704 70022
BBXX 62165 30184 99540 10009 47498 /2211 10047 20008 40125 57022 762// 22200 10604 70020
BBXX 62123 30184 99563 10022 47699 /1906 10060 20010 40096 58015 700// 22200
BBXX 62120 30184 99564 10021 47598 /2405 10060 20027 40093 58015 700// 22200
BBXX PDZS 30183 99631 50526 41/92 93218 10010 20005 49675 57060 74572 89/// 22251 02004 20402 336// 40807 5//// 80008 ICE //4//
BBXX 62119 30184 99570 10019 47698 /2204 10053 21002 40088 58016 700// 22200 10805 70026
BBXX 62154 30184 99564 10022 46/// /1708 10053 20009 40092 58014 22200
BBXX 62152 30184 99570 10018 47/98 /1706 10060 20005 40089 58016 700// 22200 10706 70029
BBXX 62133 30184 99571 10009 46/// /1909 10078 20002 40082 58018 22200 10705 70026
BBXX 64041 30184 99607 70026 47698 /1320 10055 21012 40022 57028 700// 22200 10907 70036
BBXX 63115 30184 99616 10013 47698 /1405 10048 21046 40064 58008 700// 22200 11008 70040
BBXX MWYG6 30184 99603 70040 47998 /1531 10056 700// 22200
BBXX PJGO 30184 99571 10022 47/98 /2005 10063 20011 40089 58014 700// 22200
BBXX 62113 30184 99584 10002 47599 /1614 10053 20005 40062 58022 700// 22200
BBXX 63104 30184 99612 10016 47699 /1204 10041 21067 40067 57008 700// 22200
BBXX 63101 30184 99612 10009 46/// /1507 10044 21046 40061 57012 22200
BBXX 63112 30184 99611 10010 46/// /1605 10044 21074 40061 57012 22200 10907 70037
BBXX 62129 30184 99584 10003 46/// ///// 10054 20009 40064 58020 22200
BBXX 63103 30184 99612 10011 46/// /1307 10041 21053 40064 57012 22200 11007 70036
BBXX 63117 30184 99613 10011 47699 /1107 10039 21064 40064 57010 700// 22200
BBXX 63107 30184 99611 10017 46/// /1504 10041 40066 57007 22200
BBXX 62128 30184 99587 10014 47699 /1709 10057 21019 40073 58015 700// 22200 10806 70029
BBXX 63057 30184 99592 10015 47699 /1606 10052 21036 40069 58015 700// 22200 10906 70031
BBXX 63113 30184 99610 10017 46/// /0305 10061 21056 40066 58007 22200 10907 70037
BBXX 63106 30184 99610 10017 46/// /1204 10034 40068 58006 22200
BBXX 63105 30184 99610 10017 47698 ///// 10039 21068 40067 58007 700// 22200
BBXX 63108 30184 99608 10017 47699 /1406 10044 21059 40059 57009 700// 22200 11007 70033
BBXX 63110 30184 99595 10015 46/// ///// 22200
BBXX 63056 30184 99597 10016 47999 /1105 10046 21052 40059 58012 700// 22200 10806 70032
BBXX 62001 30184 99452 70050 46/// /2621 10129 20102 40304 57007 22200 00130 10707 70037 333 90710 91128
BBXX 62111 30184 99580 70003 46/// /1913 10058 21004 40063 57028 22200 10704 70022
BBXX PJAI 30184 99581 70014 47397 /1818 10070 20007 40045 57032 762// 22200
BBXX 62112 30184 99584 70002 47498 /1615 10055 20012 40061 57025 700// 22200
BBXX 63055 30184 99606 10016 47999 /1405 10043 21045 40066 57010 700// 22200 10805 70026
BBXX 62303 30184 99516 70051 46/// /2523 10116 20106 40142 57014 22200 00110 10605 70026 333 90710 91129
BBXX 62027 30184 99491 70022 46/// /2823 1//// 2//// 40194 57013 22200 00107 10905 331// 70023
BBXX 62301 30184 99524 70047 46/// /2421 10102 20098 40116 57015 22200 00089 10503 70016 333 90710 91128
BBXX 64046 30184 99605 70049 46/// /1324 10061 20039 49986 58039 22200 00079 10807 70037
BBXX 62163 30184 99475 70084 46/// /2622 10119 20106 40260 57014 22200 00125 10808 70038 333 90710 91128
BBXX 62442 30184 99490 70164 46/// /2323 1//// 2//// 40216 57014 22200 00122 333 90710 91131
BBXX 62029 30184 99487 70125 46/// /2622 10126 20120 40236 56007 22200 00127 10708 70039 333 90710 91128
BBXX 64045 30184 99591 70117 46/// /2522 10096 20091 49910 55003 22200 00101 10707 70037 333 90710 91130
BBXX 62081 30184 99510 70134 46/// ///// 10124 20119 40172 57007 22200 00119 10709 70045
BBXX MYSU5 30184 99493 70053 41/97 81332 10120 20101 40195 52010 72586 8//// 22263 00120 20607 3//// 4//// 5//// 80110
BBXX 62105 30184 99554 70122 46/// /2629 10113 20103 40034 52002 22200 00106 10809 70047 333 90710 91141
BBXX BATFR24 30184 99427 10095 46/// /3506 10145 20000 40134 22211 00147
BBXX BAREU05 30184 99403 70206 46/// ///// 40379 52006 22224
BBXX TESTFR9 30184 99503 70041 46/// /2630 10115 29100 40178 57022 22275
BBXX BAREU56 30184 99404 10100 46/// ///// 40118 57009 22282
BBXX BAREU08 30184 99480 70080 46/// ///// 40236 52005 22254
BBXX 61002 30184 99421 10047 46/// ///38 10130 2//// 40220 54000 22200 00133 10909 70047 555 1/052
BBXX 61001 30184 99434 10078 46/// /0612 10141 20036 40130 52038 22200 00140 10804 70022
BBXX BATFR60 30184 99466 70033 46/// /2727 10129 20114 40260 58001 22232 00125
BBXX OXHY2 30183 99373 10083 41398 12611 10151 20084 40225 56019 70200 81070 22224 00168 20307 311// 40407 5//// 80114
BBXX BATFR42 30184 99498 70017 46/// /2636 10117 20112 40169 22245 00122
BBXX BATEU08 30184 99588 70188 46/// /2731 10079 20054 49922 53014 22223
BBXX BATEU01 30184 99489 70069 44596 82628 10120 20112 40205 53003 72022 886// 22254 00117 21006 325// 41006 5////
BBXX BATEU05 30184 99601 10014 46/// /1306 10047 40066 58011 22273
BBXX BATFR03 30184 99500 70006 46/// /2323 10112 20110 40161 22284
BBXX BATFR52 30184 99503 70042 46/// /2535 10115 20109 40170 58009 22273 00110
BBXX BATFR04 30184 99581 70097 46/// /2529 10102 20090 49936 50003 22243 00107
BBXX BATFR14 30184 99495 10001 46/// /1401 10087 20080 40181 56020 22261 00089
BBXX BATFR15 30184 99427 70207 46/// /2217 10160 20144 40348 56010 22214 00152
BBXX BAREU12 30184 99537 10056 46/// ///// 4//// 22264
BBXX BAREU63 30184 99342 10179 46/// /2911 10153 29071 40127 57001 22233
BBXX LF5T 30184 99660 10081 43697 /0216 10032 21054 40044 52016 22200 06078 10807 70035 333 91131
BBXX LF3N 30184 99653 10073 41698 50212 10033 21072 40053 52014 78382 858// 22200 00091 10706 70031
BBXX LF3F 30184 99643 10078 43/// /0117 10039 21038 40053 52018 22200 04085 10807 70036 333 91126
BBXX LF4B 30184 99606 10037 47/98 /0712 10026 40079 57002 700// 22200 00047 10906 70032 333 91121
BBXX LF4C 30184 99584 10019 41598 71307 10056 21005 40078 57015 70210 89/// 22200 00066 10805 70027 333 91115
BBXX 3ERR2 30184 99635 10053 41498 21305 10046 21001 40058 52012 70182 82200 22200 06096 10908 70038 333 91126
BBXX TBWUK35 30184 99552 10040 41598 32505 10061 20047 40107 54000 70200 83500 22242 00090 2//// 80055
AAXX 30181 37432 32997 00000 11035 21067 38997 48521 57005 333 10043
BBXX A8IN9 30183 99419 70201 41598 42306 10159 20149 40345 50001 70111 83541 22254 06160 20602 335// 41803 5//// 80153
BBXX DGZT2 30183 99394 70098 41598 30315 10130 20088 40350 52010 70300 83800 22284 04160 2//// 80107
AAXX 30181 55299 32980 00000 11141 21291 35881 57002 333 00201 10025
AAXX 30181 55591 32980 00901 11020 21209 36533 52008 333 00202 10135
AAXX 30181 56739 32980 00401 10041 20004 38388 54000 333 00152 10170
AAXX 30181 56951 32970 01401 10073 20037 38546 52007 333 00151 10224
AAXX 30181 56964 32970 02901 10114 20105 38748 40190 52004 333 00151 10222
AAXX 30181 57328 31940 80000 10072 20034 39886 40306 57003 71000 8807/ 333 10104
AAXX 30181 57411 31915 71101 10055 20045 39932 40315 57005 71000 8704/ 333 10098
AAXX 30181 57447 31930 83201 10053 20044 39756 40315 57006 71000 8807/ 333 10077
AAXX 30181 57662 11856 82501 10062 20017 30274 40319 57011 69911 76066 885// 333 10079
AAXX 30181 57745 11756 80901 10049 20012 39988 40326 52001 69901 71060 885// 333 10085
AAXX 30181 57972 11430 80000 10058 20052 30076 40309 57002 69921 76066 887// 333 10059
AAXX 30181 58203 31956 31102 11001 21022 30271 40314 57011 71000 83040 333 10071
AAXX 30181 58314 32960 50701 10005 20005 30201 40311 57005 85040 333 10092
AAXX 30181 58424 32960 70402 10048 21040 30283 40309 57008 8707/ 333 10099
AAXX 30181 59023 11759 82502 10098 20074 39970 40288 52005 69901 71060 885// 333 10124
AAXX 30181 59417 32563 80901 10128 20085 30107 40264 52009 888// 333 10146
AAXX 30181 59985 32570 70405 10235 20217 30172 40177 57009 878// 333 10263
AAXX 30181 59995 NIL
AAXX 30184 94996 45258 82804 10200 20187 39941 40076 53010 91830
AAXX 30184 42309 31994 00501 10120 20105 40187 71000 333 58025
AAXX 30184 42314 31995 10000 10142 20112 40198 71040 81030 333 58017 81360
AAXX 30184 42410 31595 10000 10140 20136 40172 70500 81500 333 58005 81620
AAXX 30184 42415 31996 20000 10146 20124 40205 70500 82030 333 58023 82360
AAXX 30184 42492 31994 00000 10140 20133 40173 71000 333 58008
AAXX 30184 42587 31995 00000 10160 20124 40175 70500 333 58007
AAXX 30184 42591 31994 01405 10142 20124 40183 71000 333 58008
AAXX 30184 42623 31595 10000 10096 20080 39297 40201 70500 81500 333 58010 81620
AAXX 30184 42701 31995 00000 10162 20120 39432 40174 70500 333 58004
AAXX 30184 42706 31995 00000 10188 20136 40172 70500 333 58012
AAXX 30184 42724 31995 00000 10146 20128 40166 70500 333 58009
AAXX 30184 42798 31995 00000 10180 20134 40163 70500 333 58004
AAXX 30184 42809 31995 00000 10200 20138 40165 70500 333 58009
AAXX 30184 42886 31996 50501 10226 20167 40159 70522 85030 333 58008 85360
AAXX 30184 42895 32596 60000 10216 20171 40162 83530 333 58010 83620 85360
AAXX 30184 42971 31595 60502 10234 20166 40159 70522 83530 333 58010 83620 85360
AAXX 30184 43333 31495 61106 10260 20237 40132 70522 85401 333 56309 59001 83618 83820 86070
AAXX 30184 42398 NIL
AAXX 30184 42977 NIL
AAXX 30184 43368 NIL
AAXX 30184 63733 32580 50000 10228 20176 38862 48503 81931 333 10282 58005 81924 85359
AAXX 30184 63791 12580 20000 10220 20168 39129 48508 69902 82500 333 0//19 10285 55300 58006 82624
AAXX 30184 63801 12580 60000 10235 20201 39210 48534 60022 8193/ 333 0//19 10280 58008 81620 81921 86358
AAXX 30184 63832 01480 70000 10210 20196 38828 48495 60052 70362 83970 333 0//23 58005 83819 81920 87358
AAXX 30184 63862 31580 40000 10230 20193 38895 48507 70166 83900 333 10282 59003 83820 81922
AAXX 30184 63866 12580 70000 10218 20204 39517 48/// 60072 8492/ 333 0//11 10305 58003 84624 81926 87459
AAXX 30184 63881 12480 20000 10173 20162 38208 48/// 60032 81530 333 10241 58001 81618
AAXX 30184 63887 01480 70000 10195 20187 38591 48514 60142 71796 8397/ 333 0//13 55300 59001 69947 83619 81920 86358
AAXX 30184 63894 32580 20311 10274 20243 30059 40119 82100 333 10322 55300 58004 82822
AAXX 30184 63932 12580 40000 10196 20164 38310 48506 60042 84900 333 10245 59006 84622 81923
AAXX 30184 63962 31580 40000 10240 20195 38947 48510 71790 82920 333 10302 59003 82820 81923 84458
AAXX 30184 63729 NIL
AAXX 30184 63756 NIL
AAXX 30184 63870 NIL
AAXX 30184 63971 NIL
AAXX 30184 94996 45258 82804 10200 20187 39941 40076 53010 91830
BBXX 46185 30181 99524 71298 46/// /3015 10051 40002 52084 22200 00070 10910 70050 333 91218
BBXX 46185 30181 99524 71298 46/// /3015 10051 40002 52084 22200 00070 10910 70050 333 91218
AAXX 30181 22867 11598 81903 10015 21005 39908 40020 52011 69900 70282 885// 333 10017 88623 91108
AAXX 30181 22676 11484 81803 10007 21001 39919 49997 52017 60020 70282 889// 333 10002
AAXX 30181 22641 11397 81603 10007 20001 39914 49930 52007 60050 78585 889// 333 10015 87707 91106
AAXX 30181 22550 11472 81803 10014 21005 39939 49949 52012 60020 70276 885// 333 10013 88711
AAXX 30181 22563 11497 72002 10004 20001 39922 49960 52015 60030 72272 87500 333 11014 87610
AAXX 30181 22768 12597 81905 10015 21002 39947 40002 52011 69900 885// 333 10016 88622
AAXX 30181 24790 42999 00000 11508 21524 39468 40461 57003
AAXX 30181 24988 42999 02902 11315 21338 30014 40298 53002
AAXX 30181 25378 32998 00000 11258 21313 30142 40178 57001 333 21263 48004 91103
AAXX 30181 25503 41699 61202 11451 21476 30166 40318 57008 77673 82531
AAXX 30181 25705 41996 02401 11467 21494 39952 40349 57008 77670
AAXX 30181 25927 42698 73202 11193 21212 30251 40258 57004 84506
AAXX 30181 25932 42999 02001 11217 21235 30207 40256 53002
AAXX 30181 31152 42997 30000 11392 21425 39921 40391 53004 80002
AAXX 30181 31174 42999 20503 11301 21313 30292 40305 52005 80001
AAXX 30181 31489 41998 70000 11270 21295 30181 40311 52005 70272 80007
AAXX 30181 31866 42999 63208 11088 21214 30225 40231 53004 86040 333 91013 91113
AAXX 30181 31959 42998 02706 11095 21202 30195 40240 57003 333 91114
AAXX 30181 31989 42999 00206 11092 21225 30189 40246 56009
AAXX 30181 32027 41597 80207 11151 21171 30260 40269 53002 78583 889// 333 91009 91110
AAXX 30181 32076 41598 83602 11078 21088 30218 40228 53002 70282 8597/ 333 91004 91105
AAXX 30181 32099 42598 50102 11025 21038 30199 40207 53001 85900 333 91003 91106
AAXX 30181 32121 42597 60302 11038 21075 30187 40210 53002 86900 333 91003 91104
AAXX 30181 32213 42998 00703 11062 21107 30164 40230 56004
AAXX 30181 32287 41599 71402 11124 21137 30208 40219 58005 70282 86570 333 86629
AAXX 30181 32408 42999 00000 11159 21178 30175 40216 54000
AAXX 30181 32509 42998 03305 11091 21159 30180 40216 58008
AAXX 30181 32594 42998 10805 11117 21152 30183 40221 57008 80001
AAXX 30181 28952 329// 22304 11059 21107 30058 40254 52020 82030 333 11043
AAXX 30181 28867 11998 02006 11112 21140 39970 40254 52019 69900 73633 333 11058
AAXX 30181 28867 11998 02006 11112 21140 39970 40254 52019 69900 73633 333 11058
AAXX 30184 06610 01667 82105 10024 20005 39643 40242 52016 60042 78487 887// 333 10039 32/// 55300 20000 60005 88737 90766 93100 91115 91209
AAXX 30184 89132 NIL
AAXX 30184 89542 46/// /1006 11032 20036 49888 52012
AAXX 30184 89575 NIL
AAXX 30184 89657 NIL
BBXX NIL
BBXX NIL
BBXX NIL
AAXX 30184 06670 01770 12004 10006 21016 39700 40228 51022 60022 70187 81540 333 10046 31/// 55300 20000 60005 81650 90766 93100 91119 91210
AAXX 30184 06700 01580 72701 10023 20013 39741 40248 52015 60052 71582 878// 333 10044 32/// 55300 20000 60005 82825 87645 90766 93100 91111 91208
AAXX 30184 06680 01/01 92615 11124 21135 37445 47963 52013 60202 74574 333 11091 47360 55300 20000 69945 90766 93116 91145 91217
AAXX 30184 06990 01450 80000 10006 21007 39658 40222 52019 60052 76872 887// 333 10044 41/// 55300 20000 69915 88715 91134 91213
AAXX 30184 06760 02880 30204 10035 21057 39719 40175 52019 60022 83020 333 10065 31/// 55300 20000 60005 83457 90766 93100 91113 91208
AAXX 30184 06720 03/// /2605 10023 21002 39652 40243 52033 60042 333 10052 55300 20000 60005 91118 91211
BBXX NIL
AAXX 30184 40250 32960 62004 10120 21013 39370 40165 52003 86070 333 10174 83358 84360
AAXX 30184 40265 32960 40000 10090 21019 39388 40198 52014 84030 333 10120 84360
AAXX 30184 40296 11660 70000 10144 20124 40165 54001 60042 76062 8782/ 333 10184 82830 85630 84460
AAXX 30184 40310 12560 40000 10100 20078 38961 48505 54001 69942 84200 333 10190 84830
BBXX NIL
AAXX 30181 23074 41496 81708 11045 21065 39943 49967 57006 78583 8592/ 333 91114
AAXX 30181 23274 41497 71607 11047 21064 39975 40011 53003 78583 879// 333 86618 91114
AAXX 30181 23383 41597 80502 11089 21128 39750 40107 57003 77172 8252/
AAXX 30181 23472 41497 71505 11049 21070 30005 40053 58001 78583 87900
AAXX 30181 23678 415// 61303 11051 21068 30031 40082 53004 70273 86500
AAXX 30181 23884 415// 80000 11062 21066 30043 40117 53008 78582 889//
AAXX 30181 23891 41696 80000 11147 21174 39851 57001 77177 8457/
AAXX 30181 24507 419// 81103 11197 21216 39936 40195 57011 77172 8807/
AAXX 30181 24817 415// 81502 11148 21168 39850 40276 56003 78582 83506
AAXX 30181 24908 42998 80000 11166 21185 39898 40247 57016 82035
AAXX 30181 29263 41976 71902 11050 21071 30093 40195 52017 70283 80002
AAXX 30181 29282 41960 81701 11092 21103 30053 40227 54000 77172 8807/
AAXX 30181 29379 41898 81701 11080 21094 30019 40233 52004 70272 8802/
AAXX 30181 29570 42896 42304 11039 21080 39889 40241 52015 82031
AAXX 30181 29698 429// 80000 11188 21201 39732 40282 53002 83052
AAXX 30181 30230 42998 30000 11335 21366 39999 40374 57006 80001
AAXX 30181 30252 429// 60901 11340 21362 30088 40457 52001 80001
AAXX 30181 30309 42999 82702 11189 21201 39739 40297 57008 82032
AAXX 30181 30328 429// 00000 11292 21316 39910 40390 54000
AAXX 30181 30521 429// 30000 11287 21306 39804 40392 53001 80001
AAXX 30181 30710 41495 40802 11148 21161 39702 40319 57009 71000 83601
AAXX 30181 23973 41997 82101 11037 21039 30064 40127 53013 77173 8802/
AAXX 30181 23975 415// 52304 11034 21052 30023 40130 52031 78582 859//
AAXX 30181 23986 41498 81704 11055 21069 39515 40152 52003 78582 8632/
AAXX 30181 23987 41496 71804 11036 21054 30070 40144 53019 78583 87900 333 92980
AAXX 30181 24606 419// 80000 11206 21225 39945 40233 57011 77172 8802/
AAXX 30181 29253 419// 80000 11030 21047 30002 40175 52011 77172 8802/
AAXX 30181 29471 42998 01702 11079 21106 30002 40236 52014
AAXX 30181 29481 11599 81701 11085 21096 39999 40244 52014 72271 8672/
AAXX 30181 29553 42971 02002 11058 21080 39858 40230 52012
AAXX 30181 29562 42984 22103 11055 21121 39815 40238 52013 82030
AAXX 30181 29581 429// 81202 11131 21144 39995 40265 52020 8801/
AAXX 30181 29594 42999 82401 11134 21157 39869 40273 53020 85031
AAXX 30181 29653 42997 01801 11170 21182 39757 40272 52008
AAXX 30181 29675 41898 80000 11062 21070 39672 40276 52011 70272 8802/
AAXX 30181 29676 41698 82402 11025 21054 39825 40251 52019 72272 885//
AAXX 30181 29752 414// 82306 11106 21112 38807 48459 52009 78683 889// 333 91115
AAXX 30181 29759 415// 82102 11072 21093 39225 40274 52015 78582 889//
AAXX 30181 29766 41899 82801 11116 21122 39941 40313 53028 70272 8802/
AAXX 30181 29789 NIL
AAXX 30181 29864 429// 00000 11148 21161 39624 40311 52007
AAXX 30181 29866 415// 80602 11121 21127 39975 40312 52008 71082 889//
AAXX 30181 29869 419// 80401 11139 21152 39935 40331 51007 77171 8802/ 333 95030
AAXX 30181 29956 41612 82702 11047 21063 39736 40305 52012 70282 889// 333 88939
AAXX 30181 30337 42998 00000 11316 21339 39867 40376 57014
AAXX 30181 30405 429// 20000 11223 21242 39727 40300 57009 80001
AAXX 30181 30504 42997 71504 11148 21161 39603 40285 57008 80002
AAXX 30181 30603 41996 00000 11221 21228 39698 40318 57007 71000
AAXX 30181 30612 429// 53102 11239 21257 39761 40346 57001 82038
AAXX 30181 30622 429// 00000 11309 21326 39680 40410 54000
AAXX 30181 30627 42999 00203 11215 21233 39359 40368 58002
AAXX 30181 30703 429// 30000 11283 21288 39598 40348 57009 80001
AAXX 30181 36307 42897 81002 11300 21330 39058 48555 58011 8801/ 333 95090
AAXX 30184 87641 32665 53609 10312 20128 39922 40091 57016 83105 333 56806 83845
AAXX 30184 71257 16/// /2010 10023 21032 60001 333 10026 21054 70035
AAXX 30184 71258 16/// /2309 10003 21058 60001 333 10012 21075 70000
AAXX 30184 71259 16/// /2009 10020 21027 60001 333 10021 21068 70000
AAXX 30184 71274 16/// /1013 11039 21109 60001 333 11039 21161 70000
AAXX 30184 71275 46/// /0912 11062 21108 6///1 333 11056 21171 7////
AAXX 30184 71278 16/// /1515 11047 21066 60001 333 11047 21160 70017
AAXX 30184 71286 16/// /1012 11047 21090 60001 333 11039 21136 7////
AAXX 30184 71287 16/// /0509 11068 21103 60001 333 11068 21128 7////
AAXX 30184 71289 16/// /1709 11009 21046 60001 333 11009 21073 70004
AAXX 30184 71445 16/// /1818 11073 21090 39784 40064 58012 60001 333 11066 21079 70017
AAXX 30184 71525 16/// /2019 10051 21011 60001 333 10051 21037 70000
AAXX 30184 71535 16/// /2015 10071 21003 60001 333 10071 21015 70000
AAXX 30184 71536 16/// /2221 10077 21007 60001 333 10077 20010 70000
AAXX 30184 71537 16/// /1917 10030 21021 60001 333 10040 21060 7////
AAXX 30184 71683 46/// /2603 11232 39905 40018 53012 6///1 333 11200 21232 7////
AAXX 30184 71345 16/// /2018 10067 21018 60001 333 10067 21013 70000
AAXX 30184 71916 46/// /0000 11366 21400 30114 40173 5/000 6///1 333 11355 21402 7////
AAXX 30184 71464 46/// ///15 10062 39865 40077 58017 6///1 333 10062 20008 7////
AAXX 30184 71214 17/// /1312 11014 21023 60011 7//4/ 333 11012 21113 70034
AAXX 30184 71217 16/// /2020 10047 21021 60001 333 10050 21007 70000
AAXX 30184 71223 16/// /1106 11019 21033 60001 333 11019 21122 70022
AAXX 30184 71224 16/// /2215 10040 20006 60001 333 10045 21018 70000
AAXX 30184 71225 16/// /2020 10053 21015 60001 333 10055 21032 70004
AAXX 30184 71227 46/// /1411 11028 21047 6///1 333 11028 21137 7////
AAXX 30184 71351 17/// /1103 11033 21087 69941 7//4/ 333 11022 21115 70009
AAXX 30184 71353 17/// /2507 11018 21057 69941 7//4/ 333 11018 21090 70004
AAXX 30184 71375 46/// /3317 11050 6///1 333 11027 21070 7////
AAXX 30184 42027 32996 00000 11012 21026 38464 48552 333 59005
AAXX 30184 42101 31994 00000 10094 20082 40189 71000 333 59004
AAXX 30184 42111 31996 00502 10106 20043 39400 40194 70500 333 58002
AAXX 30184 42131 31994 00000 10074 20070 40194 71000 333 59002
AAXX 30184 42165 31995 00501 10124 20004 40181 70500 333 59009
AAXX 30184 42182 31992 00000 10100 20096 40191 74444 333 59002
AAXX 30184 42189 31995 00000 10146 20112 40175 71000 333 58///
AAXX 30184 42328 31995 01801 10112 21029 40186 70500 333 59010
AAXX 30184 42339 31995 00502 10156 21005 40177 70500 333 59007
AAXX 30184 42348 31994 00000 10138 20082 40180 70400 333 59003
AAXX 30184 42361 31994 00000 10114 20098 40183 71044 333 58000
AAXX 30184 42369 31994 00000 10130 20107 40183 71000 333 58003
AAXX 30184 42379 31995 00000 10122 20094 40178 71000 333 58008
AAXX 30184 42452 32996 02501 10134 20086 40175 333 59007
AAXX 30184 42475 31994 00000 10154 20129 40184 71000 333 58000
AAXX 30184 42071 NIL
AAXX 30184 42260 NIL
AAXX 30183 42071 31994 00000 10068 20068 40199 71000 333 59004
AAXX 30181 51711 32980 02703 11112 21163 38058 57002 333 00006 11021
AAXX 30181 51730 32970 00000 11138 21162 40386 52004 333 00001 10001
AAXX 30181 52112 32970 02702 11135 21189 40377 57004 333 00002 11039
AAXX 30181 52737 32980 00901 11128 21283 37127 57009 333 00451 11021
AAXX 30181 52787 32980 03601 11091 21243 37055 57005 333 00253 11011
AAXX 30181 53352 32980 00701 11140 21167 40356 57003 333 11001
AAXX 30181 53593 32960 73201 11110 21142 40331 52001 80002 333 11025
AAXX 30181 53705 32965 22502 11082 21123 40366 57005 80002 333 00453 10015
AAXX 30181 53863 32961 52204 11010 21045 40314 57009 80002 333 10015
AAXX 30181 53975 31958 70000 11043 21072 40319 57010 71000 80002 333 10009
AAXX 30181 54273 32970 00901 11262 21296 40331 57007 333 11137
AAXX 30181 54324 32965 00000 11171 21209 40302 52001 333 11049
AAXX 30181 54405 31956 01102 11088 21124 40311 57003 71000 333 11044
AAXX 30181 54436 32965 00201 11123 21142 40307 57007 333 11026
AAXX 30181 54808 32961 71402 11001 21020 40295 57015 80002 333 10024
AAXX 30181 54826 31/00 92711 11072 21083 38489 57016 74940 333 11061
AAXX 30181 54836 32960 82701 11007 21046 40316 57009 80007 333 10023
AAXX 30181 54863 32960 82001 11034 21068 40314 57005 8807/ 333 10019
AAXX 30181 56018 32980 00000 11147 21288 36218 52003 333 00453 10043
AAXX 30181 56021 32980 00701 11186 21334 36107 52001 333 00300 11008
AAXX 30181 57071 31920 70000 11019 21030 40304 57019 71000 80002 333 10013
AAXX 30184 68513 36/// /1421 10184 20133 30022 40134 53004 333 10244 20184 91028 555 91013
AAXX 30184 68514 NIL
AAXX 30184 68523 36/// /2211 10274 21003 39080 48510 52011 333 10355 20274 91017 555 91014
AAXX 30184 68527 36/// /2210 10328 21038 39017 48482 52007 333 10370 20327 91017 555 91010
AAXX 30184 68572 11674 73202 10162 20144 38399 48507 52012 60062 79599 879// 333 10285 20162 91004 555 20060 60605 91019
AAXX 30184 68575 NIL
AAXX 30184 68581 36/// /1302 10200 20174 39352 48503 52017 333 10294 20200 91004 555 91013
AAXX 30184 68583 36/// /0302 10230 20175 30006 40115 52007 333 10267 20230 91007 555 91011
AAXX 30184 68589 16/// /0000 10189 20142 38251 48508 53008 69922 333 10252 20189 91002 555 20002 91020
AAXX 30184 68613 36/// /2213 10173 20120 30027 40143 53007 333 10226 20173 91021 555 91014
AAXX 30184 68647 36/// /1411 10183 20119 38909 48507 52028 333 10315 20183 91016 555 91017
AAXX 30184 68651 NIL
AAXX 30184 68715 NIL
AAXX 30184 68717 36/// /1603 10231 20122 39990 40131 52018 333 10328 20231 91007 555 91013
AAXX 30184 68723 36/// /1606 10217 20109 39376 48514 52017 333 10296 20217 91013 555 91014
AAXX 30184 68737 36/// /1610 10215 20078 39230 48511 52023 333 10315 20214 91017 555 91014
AAXX 30184 68744 32980 01715 10184 20095 39081 48495 52018 333 10326 20184 91023 555 91014
AAXX 30184 68747 36/// /1507 10214 20136 39619 48540 53016 333 10332 20214 91010 555 91015
AAXX 30184 68754 36/// /1902 10165 20145 39142 48524 52018 333 10298 20165 91006 555 91018
AAXX 30184 68817 36/// /1819 10204 20132 30131 40143 52008 333 10253 20204 91038 555 91014
AAXX 30184 68821 36/// /1211 10229 20114 39899 40134 52025 333 10317 20228 91017 555 91014
AAXX 30184 68835 36/// /0000 10207 20125 30041 40154 52018 333 10282 20207 91003 555 91015
AAXX 30184 68843 36/// /2605 10201 20167 30043 40141 52008 333 10245 20201 91009 555 91014
AAXX 30184 68849 36/// /1706 10170 20146 39414 48521 52006 333 10270 20169 91008 555 91016
AAXX 30184 68912 NIL
AAXX 30184 68918 36/// /1505 10206 20148 30154 40172 52011 333 10230 20206 91009 555 91017
AAXX 30184 68921 NIL
AAXX 30184 68925 NIL
AAXX 30184 68926 NIL
AAXX 30184 68935 NIL
AAXX 30184 87467 32970 03605 10310 20162 39944 40074 57015
AAXX 30184 62002 32960 03510 10096 21008 39512 48547 52012 333 10///
AAXX 30184 62010 32560 42713 10127 20049 40208 52003 82470 333 10155 82630 83357
AAXX 30184 62012 11560 72615 10125 20081 30165 40195 52005 60012 7261/ 878// 333 0//13 10160 82625 86630
AAXX 30184 62016 32560 32612 10128 20045 40215 52006 83800 333 10160 81820 83625
AAXX 30184 62053 ///// 62715 10122 20094 40164 51008 76096 86900 333 0//11 10163 82820 84622 82940
AAXX 30184 62124 32960 22407 10133 21009 39723 40240 52017 80004 333 10162 82070
AAXX 30184 62161 32960 02404 10139 20052 40178 53007 333 10192
AAXX 30184 62259 32960 00000 10138 20016 40229 53018 333 10196
AAXX 30184 62271 32960 03508 10168 21034 40225 51009 333 10206
BBXX 7JJA 30184 99316 11355 41797 83520 00 10100 20060 40230 54000 76162 87//// 9//// 22200 0 2//02 336 4//05 5 6//// 80080 IC E/////
BBXX A8UL6 30183 99317 11418 41398 62604 10150 20133 40140 54000 7//22 8/290 22264 20303 30100 40202 50000 80140
BBXX H9UY 30184 99319 11473 41698 63627 00/// 10140 40147 56010 70322 84616 9//// 22263 04200 20308 315// 40307 5//// 6//// 80120
BBXX SHIP 30184 99366 11349 41/97 53109 10045 20010 40272 5/003 70100 8423/ 22254 00143 20000 80030
BBXX SHIP 30184 99307 11373 41598 43223 10150 20066 40205 56010 70300 8314/ 22244 00190 2//// 3//// 4//// 80105
BBXX SJCD 30181 99417 11458 43/96 63014 11005 40037 58004 22263 00047
BBXX UFLC 30180 99516 11459 42/98 90807 11020 40255 54000 89/// 22283 06030 20402
BBXX V7NV4 30184 99333 11408 41797 70233 10110 20072 40180 7//21 86923 22263 00190 20310 30202 40310 50310 6//// 80090 ICE /////
AAXX 30184 48331 32960 00000 10202 20184 39937 40172 51003 333 58014
AAXX 30180 44203 329// 40000 11334 21356 38480 40592 54000 82019
AAXX 30180 44207 329// 32702 11256 21295 38351 40470 57004 82042
AAXX 30180 44230 329// 00103 11245 21275 38852 40491 58005
AAXX 30180 44256 415// 70000 11172 21191 39417 40340 56002 77172 8652/
AAXX 30180 44313 41999 00000 11209 21236 39434 40345 57012 70271
AAXX 30180 44314 32998 00000 11200 21226 39194 40374 57008
AAXX 30180 44231 319// 00000 11273 21326 38788 40528 58005 70400
AAXX 30180 44259 32997 32405 11202 21235 39376 40363 56006 80004
AAXX 30184 68514 NIL
AAXX 30184 68575 NIL
AAXX 30184 68651 NIL
AAXX 30184 68715 NIL
AAXX 30184 68912 NIL
AAXX 30184 68921 NIL
AAXX 30184 68925 NIL
AAXX 30184 68926 NIL
AAXX 30184 68935 NIL
AAXX 30181 50548 32980 60000 11263 21298 40333 54000 80002 333 11166
AAXX 30181 50564 32970 22501 11287 21311 40333 52001 80002 333 11156
AAXX 30181 51334 32765 72203 11089 21125 40426 52012 83502 333 00710 11019
AAXX 30181 51818 32965 02901 11113 21144 40388 52006 333 00152 11018
AAXX 30181 52378 NIL
AAXX 30181 53487 31958 03403 11086 21105 40319 54000 71000 333 10002
AAXX 30181 53502 32980 02203 11114 21161 40371 57005 333 00203 11002
AAXX 30181 53923 32965 02701 11038 21055 40328 57013 333 10020
AAXX 30181 54049 32970 01802 11153 21223 40295 57007 333 11090
AAXX 30181 54115 32980 40000 11129 21188 40310 57003 80002 333 11032
AAXX 30181 54157 32962 00000 11185 21215 40304 57008 333 11079
AAXX 30181 54186 32970 00000 11239 21275 40321 57005 333 11102
AAXX 30181 54311 32960 03204 11093 21158 40303 57003 333 11050
AAXX 30181 54346 32962 01102 11123 21187 40298 57012 333 11049
AAXX 30181 54377 32970 03602 11158 21180 40322 57005 333 11052
AAXX 30181 54386 32970 00402 11228 21259 40348 57004 333 11110
AAXX 30181 54493 32974 00000 11152 21174 40310 57005 333 11021
AAXX 30181 54587 NIL
AAXX 30181 54715 32964 81802 11004 21048 40298 57015 8801/ 333 10002
AAXX 30181 54929 32960 82001 10004 21039 40316 57011 8807/ 333 10022
AAXX 30181 54945 32960 22702 11005 21055 40321 57003 80002 333 10020
AAXX 30181 56065 32980 11601 11186 21229 36663 57004 80002 333 00452 11003
AAXX 30181 57193 31958 72001 11001 21017 40308 57017 71000 80002 333 10053
AAXX 30181 57290 31958 80000 10007 21012 40308 57018 71000 8807/ 333 10044
AAXX 30181 78310 12470 31004 10268 20205 30176 40186 58004 60001 83200 333 10268 20194 30/// 56200 58004 83819 92023 555 10902
AAXX 30181 78315 11472 41201 10259 20175 30121 40197 58016 60001 70500 84200 333 10273 20156 30/// 56900 58010 84819
AAXX 30181 78318 11562 10504 10269 20177 30180 40184 58018 60001 70500 81200 333 10270 20178 30/// 56900 58008 81820
AAXX 30181 78322 11559 31001 10272 20195 30175 40192 58019 60001 70500 83200 333 10272 20158 30/// 56800 58012 83820 555 13602
AAXX 30181 78324 11/10 20704 10261 20206 30179 40190 58009 60001 70500 82240 333 10261 20223 30/// 56990 58010 828//
AAXX 30181 78325 11564 10506 10259 20173 30130 40188 58020 60001 70500 81160 333 10261 20188 30/// 56190 58010 81820 555 10501
AAXX 30181 78328 11/61 21004 10256 20176 30190 40/// 58017 60001 70500 82200 333 10258 20214 30/// 56900 58009 828// 92427
AAXX 30181 78333 11410 21802 10279 20194 30176 40183 58020 60001 70500 82230 333 10279 20182 30/// 56490 58005 82818 555 11802
AAXX 30181 78344 11564 30802 10282 20187 30129 40177 58023 60001 70500 83240 333 10282 20187 30/// 56990 58009 83820
AAXX 30181 78345 12565 30704 10281 20205 30178 40181 58021 60001 83200 333 10283 20186 30/// 56900 58009 83820
AAXX 30181 78348 01550 70402 10228 20216 30132 40185 58023 60101 76186 87802 333 10230 20206 31/// 56209 57814 58006 60027 70219 84820 86631 555 10902
AAXX 30181 78349 11566 60201 10274 20186 30078 40187 58025 60001 70511 86400 333 10280 20204 30/// 56200 57872 58004 86824 555 10902
AAXX 30181 78351 12550 31203 10286 20194 30164 40166 58011 60001 83800 333 10290 20172 30/// 56300 57881 58007 83826 555 11203
AAXX 30181 78353 12570 40603 10280 20177 30168 40190 58017 60001 84800 333 10280 20221 30/// 56900 58008 83823
AAXX 30181 78355 11570 30505 10272 20183 30039 40175 58022 60001 70140 83800 333 10276 20190 30/// 56900 58007 81823
AAXX 30181 78358 11540 40305 10284 20223 30158 40173 58020 60001 70540 84200 333 10284 20172 30/// 56200 57845 58008 84823 555 10903
AAXX 30181 78360 12570 22503 10302 20200 30159 40170 58022 60001 81802 333 10302 20200 30/// 56909 57889 58007 81820 92012
AAXX 30181 78363 NIL
AAXX 30181 78365 11/62 20704 10276 20228 30178 40183 58018 60001 70500 82200 333 10278 20216 30/// 56900 57825 58007 828// 92013
AAXX 30181 78369 11568 10404 10281 20220 30159 40168 57016 60001 70511 81200 333 10281 20220 30/// 56900 57866 58006 81820 92013
AAXX 30184 48433 31958 00000 10206 20172 39994 40164 57003 71000 333 58017
AAXX 30184 17600 11562 71016 10155 20062 30116 40126 57010 60002 71322 8498/ 333 10183 20093 81825 83935 97035
AAXX 30181 78310 12470 31004 10268 20205 30176 40186 58004 60001 83200 333 10268 20194 30/// 56200 58004 83819 92023 555 10902
AAXX 30181 78315 11472 41201 10259 20175 30121 40197 58016 60001 70500 84200 333 10273 20156 30/// 56900 58010 84819
AAXX 30181 78318 11562 10504 10269 20177 30180 40184 58018 60001 70500 81200 333 10270 20178 30/// 56900 58008 81820
AAXX 30181 78322 11559 31001 10272 20195 30175 40192 58019 60001 70500 83200 333 10272 20158 30/// 56800 58012 83820 555 13602
AAXX 30181 78324 11/10 20704 10261 20206 30179 40190 58009 60001 70500 82240 333 10261 20223 30/// 56990 58010 828//
AAXX 30181 78325 11564 10506 10259 20173 30130 40188 58020 60001 70500 81160 333 10261 20188 30/// 56190 58010 81820 555 10501
AAXX 30181 78328 11/61 21004 10256 20176 30190 40/// 58017 60001 70500 82200 333 10258 20214 30/// 56900 58009 828// 92427
AAXX 30181 78333 11410 21802 10279 20194 30176 40183 58020 60001 70500 82230 333 10279 20182 30/// 56490 58005 82818 555 11802
AAXX 30181 78344 11564 30802 10282 20187 30129 40177 58023 60001 70500 83240 333 10282 20187 30/// 56990 58009 83820
AAXX 30181 78345 12565 30704 10281 20205 30178 40181 58021 60001 83200 333 10283 20186 30/// 56900 58009 83820
AAXX 30181 78348 01550 70402 10228 20216 30132 40185 58023 60101 76186 87802 333 10230 20206 31/// 56209 57814 58006 60027 70219 84820 86631 555 10902
AAXX 30181 78349 11566 60201 10274 20186 30078 40187 58025 60001 70511 86400 333 10280 20204 30/// 56200 57872 58004 86824 555 10902
AAXX 30181 78351 12550 31203 10286 20194 30164 40166 58011 60001 83800 333 10290 20172 30/// 56300 57881 58007 83826 555 11203
AAXX 30181 78353 12570 40603 10280 20177 30168 40190 58017 60001 84800 333 10280 20221 30/// 56900 58008 83823
AAXX 30181 78355 11570 30505 10272 20183 30039 40175 58022 60001 70140 83800 333 10276 20190 30/// 56900 58007 81823
AAXX 30181 78358 11540 40305 10284 20223 30158 40173 58020 60001 70540 84200 333 10284 20172 30/// 56200 57845 58008 84823 555 10903
AAXX 30181 78360 12570 22503 10302 20200 30159 40170 58022 60001 81802 333 10302 20200 30/// 56909 57889 58007 81820 92012
AAXX 30181 78363 NIL
AAXX 30181 78365 11/62 20704 10276 20228 30178 40183 58018 60001 70500 82200 333 10278 20216 30/// 56900 57825 58007 828// 92013
AAXX 30181 78369 11568 10404 10281 20220 30159 40168 57016 60001 70511 81200 333 10281 20220 30/// 56900 57866 58006 81820 92013
BBXX TBWUK18 30183 99321 30405 41298 22014 10220 20205 40137 54000 70100 8214/ 22222 00230 20502 335// 40903 5//// 80210
BBXX A8HD5 30181 99357 11209 41598 31802 10070 20021 40320 54000 70122 82141 22200 04065 20601 30000 40000 5//// 80050
BBXX TBWUK17 30183 99327 30287 41398 61213 10244 20212 40159 52039 70322 85/// 22253 04260 20101 313// 40504 5//// 80223
BBXX MSTM6 30183 99152 10533 41998 20515 10260 20122 40180 52/// 70211 80005 22214 00248 20103 305// 40102 80180
AAXX 30184 68174 31875 20000 10209 20129 38794 48520 53002 70500 81081 333 10236 20209 91002 555 91018
AAXX 30184 68191 36/// /0303 10226 20155 39634 48535 53002 333 10285 20226 91004 555 91014
AAXX 30184 68242 32880 50802 10186 20143 38727 48506 53006 84072 333 10243 20186 91004 555 91017
AAXX 30184 68262 36/// /0000 10228 20164 38706 48516 53008 333 10250 20228 91003 555 91018
AAXX 30184 68263 32880 33205 10195 20162 38489 48514 53006 83070 333 10242 20195 91007 555 91020
AAXX 30184 68267 31665 23111 10192 20136 38243 48512 52010 70500 81201 333 10254 20192 91015 555 91021
AAXX 30184 68289 36/// /1002 10212 20162 39149 48523 53006 333 10244 20212 91004 555 91016
AAXX 30184 68350 36/// /2604 10208 20152 38673 48524 53012 333 10305 20208 91011 555 91020
AAXX 30184 68368 41470 72011 10183 20123 38330 48520 53016 79522 8438/ 333 10234 555 91022
AAXX 30184 68403 36/// /2117 10192 20151 30122 40155 53003 333 10243 20192 91024 555 91015
AAXX 30184 68424 32882 12408 10319 21018 39145 48495 55000 81070 333 10395 20314 91012 555 91010
AAXX 30184 68438 32882 33512 10249 20109 38777 48477 53005 83072 333 10340 20249 91017 555 91013
AAXX 30184 68442 32882 42704 10236 20111 38630 48485 53002 84072 333 10316 20236 91007 555 91015
AAXX 30184 68461 11770 72108 10177 20136 38324 48509 53010 69962 71799 83973 333 10263 20175 91019 555 20006 91020
AAXX 30184 68512 32982 02315 10198 20073 39007 48506 53003 333 10287 20198 91019 555 91016
AAXX 30184 68538 31774 32908 10286 20044 38669 48460 53001 70500 81180 333 10340 20286 91010 555 91012
AAXX 30184 68587 NIL
AAXX 30184 68588 36/// /0207 10234 20177 30103 40119 52005 333 10281 20234 91012 555 91011
AAXX 30184 68591 NIL
AAXX 30184 68592 NIL
AAXX 30184 68618 32980 02611 10245 20069 39033 48511 53003 333 10315 20245 91018 555 91015
AAXX 30184 68633 36/// /1818 10198 20128 38479 48473 53006 333 10311 20198 91023 555 91015
AAXX 30184 68668 32670 31609 10207 20157 39278 48509 53025 83501 333 10305 20207 91011 555 91014
AAXX 30184 68714 36/// /1917 10187 20120 30106 40142 52011 333 10254 20187 91024 555 91014
AAXX 30184 68727 36/// /1212 10258 20081 39092 48493 52015 333 10333 20258 91019 555 91012
AAXX 30184 68752 36/// /1604 10206 20172 39470 48533 53012 333 10300 20206 91006 555 91016
AAXX 30184 68816 32982 01819 10198 20137 30102 40156 53011 333 10240 91025 555 91015
AAXX 30184 68828 32470 51805 10185 20160 39928 40160 53017 85500 333 10224 555 91016
AAXX 30184 68842 32670 42411 10196 20155 30081 40151 53019 84500 333 10243 555 91015
AAXX 30184 68858 32460 62406 10211 20195 39984 40138 51018 86500 333 10280 555 91014
AAXX 30184 68906 11398 73223 10203 20160 30064 40127 57018 60052 72166 8267/ 222// 00136 333 10204 20152 91041 555 20056 91012
AAXX 30184 68994 11395 83118 10083 20081 39934 49962 57010 69962 74544 886// 222// 00070 333 10095 20070 91025 555 20006 90996
AAXX 30184 89004 31880 41013 11075 21135 38826 49835 53003 72233 82032 333 11063 21081 91016 555
AAXX 30184 42559 32996 00902 10140 20092 40164 333 59003
AAXX 30184 42571 31596 50000 10172 20113 40162 70500 82530 333 59005
AAXX 30184 42667 31995 00505 10154 20130 39560 40163 70500 333 59006
AAXX 30184 42754 31995 00708 10162 20100 39500 40148 70500 333 59012
AAXX 30184 42779 32996 00000 10186 20150 39458 40165 333 58005
AAXX 30184 42867 31595 40904 10228 20190 40139 70520 82501 333 58001 82625 83075
AAXX 30184 42874 32996 40502 10224 20186 40147 82031 333 58010 82360 83075
AAXX 30184 42933 32596 10000 10210 20141 40137 81500 333 59008 81630
AAXX 30184 43041 21996 01401 10210 20198 39528 40150 70265 333 58008 6990/
AAXX 30184 42675 NIL
BBXX 46206 30181 99488 71260 46/// /2815 10072 40058 52060 22200 00083 11311 70056 333 91220
AAXX 30184 89003 46/89 /3109 11055 29067 39033 4//// 5////
BBXX 46206 30181 99488 71260 46/// /2815 10072 40058 52060 22200 00083 11311 70056 333 91220
AAXX 30184 68587 NIL
AAXX 30184 68591 NIL
AAXX 30184 68592 NIL
BBXX 46132 30181 99497 71279 46/// ///// 1//// 4//// 5//// 22200 0//// 1//// 70/// 333 912//
BBXX 46205 30181 99542 71343 46/// /3014 10030 40023 52051 22200 00071 10809 70044 333 91218
AAXX 30184 86330 32598 31405 10314 20145 40071 57009 82205
AAXX 30184 86360 32598 22112 10318 20111 40081 56011 82175
AAXX 30184 86460 32698 30904 10302 20090 40097 57009 81136
AAXX 30184 86490 32698 51411 10320 20091 40091 56011 81455
AAXX 30184 86530 32597 60000 10300 20092 40085 57012 81177
AAXX 30184 86545 32597 70908 10284 20139 40113 54003 83206
AAXX 30184 86565 32598 70920 10254 20171 40119 58001 82206
AAXX 30184 86580 32697 61211 10250 20170 40120 54001 81405
AAXX 30181 50658 31956 00000 11261 21275 40320 57003 70400 333 11173
AAXX 30181 50888 32980 00000 11197 21236 40301 57005 333 11118
AAXX 30181 50983 32970 00000 11256 21284 40313 57004 333 11131
AAXX 30181 51053 11965 82702 11090 21106 40421 52029 60011 77070 8802/ 333 00903 11069
AAXX 30181 51542 31970 20911 11138 21170 37619 52016 77600 80002 333 00209 11135
AAXX 30181 52436 32980 02001 11153 21192 38533 40361 57014 333 05153 11003
AAXX 30181 52908 32980 02703 11201 21368 35778 57007 333 00201 11052
AAXX 30181 52996 32970 00000 11073 21102 37608 57007 333 00200 11057
AAXX 30181 53083 32980 00000 11253 21277 40393 57004 333 05153 11148
AAXX 30181 53764 32962 73402 11047 21068 40331 57005 80002 333 10031
AAXX 30181 53787 31957 80702 11069 21080 40327 57008 71000 8802/ 333 11034
AAXX 30181 54096 32970 03203 11205 21239 40308 57009 333 11116
AAXX 30181 54226 32980 00401 11153 21209 40307 54000 333 11068
AAXX 30181 54259 32965 02001 11194 21229 40319 57002 333 11071
AAXX 30181 54527 32962 72502 11013 21053 40301 57005 80002 333 11008
AAXX 30181 54534 32965 82902 11042 21062 40299 57005 8802/ 333 11019
BBXX 46205 30181 99542 71343 46/// /3014 10030 40023 52051 22200 00071 10809 70044 333 91218
BBXX 46132 30181 99497 71279 46/// ///// 1//// 4//// 5//// 22200 0//// 1//// 70/// 333 912//
AAXX 30184 83064 32598 21404 10322 20229 39811 40077 82200 333 59003
AAXX 30184 83332 32697 72702 10289 20198 39197 40091 84220 333 58013
AAXX 30184 83423 21495 82703 10216 20199 39294 40110 76096 8377/ 333 58015 60351
AAXX 30184 83470 22698 83206 10218 20210 39240 40097 885// 333 58005 60131
AAXX 30184 83599 31498 499// 10275 20225 40090 57016 70121 82862 222// 20502 80240
AAXX 30184 83925 32699 70916 10234 20187 40124 57007 7032/ 8750/ 222// 20702 80202
AAXX 30184 83970 41498 65304 10250 20208 40189 52010 7032/ 85420 222// 02210 20301 80215
AAXX 30184 82141 32498 50211 10303 20253 30084 40096 85060 333 59012
AAXX 30184 82181 32797 70710 10325 20208 39980 40119 87030 333 59010
AAXX 30184 82476 32595 40301 10365 20191 39962 40079 84200 333 59011
AAXX 30184 82098 31596 40706 10328 20234 30075 40092 71521 82940 333 59002
AAXX 30184 82562 32598 43603 10325 20238 39965 40072 84200 333 59009
AAXX 30184 82571 32497 31403 10230 20227 39907 40079 83200 333 59007
AAXX 30184 82863 32598 60000 10321 20236 39875 40084 82944 333 58000
AAXX 30184 83228 32799 62304 10312 20228 39809 40081 84101 333 58004
AAXX 30184 83368 21698 80902 10254 20235 39733 40098 70362 84214 333 58002 60181
AAXX 30184 83374 21598 72704 10235 20216 39542 40112 72052 87800 333 58007 69901
AAXX 30184 83526 21498 83203 10231 20202 39167 40100 70362 885// 333 58013 69951
AAXX 30184 82594 32697 40510 10316 20234 30085 40093 82210 333 59011
AAXX 30184 82780 32598 22303 10365 20194 39846 40092 82200 333 59014
AAXX 30184 82795 32597 30905 10303 20185 39513 40119 83200 333 58002
AAXX 30184 82879 32598 80504 10366 20182 39811 40071 84200 333 59007
AAXX 30184 68155 36/// /0102 10244 20170 39192 48528 53009 333 10271 20244 91003 555 91016
AAXX 30184 68171 NIL
AAXX 30184 68176 36/// /0802 10208 20156 39139 48523 53006 333 10289 20208 91005 555 91017
AAXX 30184 68181 NIL
AAXX 30184 68182 16/// /3002 10190 20166 39343 48525 53001 69942 333 10254 20190 91003 555 20004 91016
AAXX 30184 68185 NIL
AAXX 30184 68253 36/// /0603 10233 20171 39046 48521 53007 333 10273 20232 91006 555 91016
AAXX 30184 68255 36/// /3003 10227 20159 38854 48505 53007 333 10246 20227 91005 555 91016
AAXX 30184 68271 36/// /0202 10208 20149 38914 48518 53005 333 10253 20208 91004 555 91017
AAXX 30184 68273 36/// /3006 10189 20165 38457 48511 53003 333 10236 20187 91009 555 91020
AAXX 30184 68287 36/// /0202 10158 20146 38580 48515 53007 333 10195 20154 91003 555 91019
AAXX 30184 68291 NIL
AAXX 30184 68297 NIL
AAXX 30184 68329 36/// /0802 10287 20144 39049 48495 53005 333 10355 20287 91005 555 91012
AAXX 30184 68331 36/// /0203 10253 20152 38818 48508 55000 333 10331 20253 91006 555 91016
AAXX 30184 68335 16/// /3406 10213 20157 38907 48516 53008 60052 333 10306 20206 91011 555 20056 91017
AAXX 30184 68341 36/// /3402 10199 20158 38543 48528 53010 333 10242 20199 91004 555 91021
AAXX 30184 68342 NIL
AAXX 30184 68343 36/// /2406 10216 20148 38762 48487 53001 333 10295 20216 91010 555 91015
AAXX 30184 68349 36/// /2705 10207 20165 38513 48507 52015 333 10258 20207 91008 555 91019
AAXX 30184 68353 16/// /0902 10182 20163 38516 48495 53005 60072 333 10260 20173 91004 555 20074 91017
AAXX 30184 68355 36/// /3508 10207 20157 38566 48500 53011 333 10280 20207 91013 555 91018
AAXX 30184 68370 32670 60000 10194 20177 38366 48514 52006 86200 333 10252 2//// 555 91020
AAXX 30184 68377 36/// /0815 10246 20177 38733 48477 53005 333 10319 20246 91021 555 91013
AAXX 30184 68380 36/// /2602 10186 20151 3//// 4//// 5//// 333 10257 20186 91004 555
AAXX 30184 68387 NIL
AAXX 30184 68411 36/// /1908 10292 20049 39909 40109 53015 333 10384 20292 91014 555 91012
AAXX 30184 68429 36/// ///// 10271 20017 38653 48478 53001 333 10332 20271 555 91014
AAXX 30184 68449 36/// /0307 10178 20129 38378 48491 53012 333 10266 20172 91009 555 91017
AAXX 30184 68471 NIL
AAXX 30184 68474 NIL
AAXX 30184 68479 16/// /0907 10242 20180 38926 48497 52020 69982 333 10329 20242 91013 555 20008 69965 91014
AAXX 30184 68481 36/// /0702 10256 20171 39752 40113 52017 333 10324 20256 91005 555 91012
AAXX 30184 68487 36/// /1904 10207 20173 38978 48503 53007 333 10295 20207 91007 555 91015
AAXX 30184 68491 36/// /0405 10233 20184 30103 40112 53001 333 10280 20233 91010 555 91011
AAXX 30184 68497 36/// /0906 10227 20170 30078 40122 52015 333 10282 20227 91010 555 91012
AAXX 30184 68183 32970 03504 10211 20165 39442 48532 53002 333 10250 20211 91005 555 91015
AAXX 30184 68188 36/// /0502 10187 20161 39205 48528 53002 333 10255 20187 91004 555 91017
AAXX 30184 68268 36/// /0000 10211 20187 38887 48528 52009 333 10278 20211 91002 555 91019
AAXX 30184 68272 36/// /1003 10209 20183 39070 48516 52011 333 10269 20209 91004 555 91016
AAXX 30184 68296 36/// /2202 1//// 2//// 38914 4//// 53001 333 1//// 2//// 91002 555
AAXX 30184 68322 32982 02104 10316 20012 39092 48488 52011 333 10409 20316 91006 555 91010
AAXX 30184 68338 12580 70207 10178 20151 38755 48486 52003 69982 879// 333 10290 20177 91010 555 20008 91015
AAXX 30184 68345 NIL
AAXX 30184 68362 36/// /3002 10199 20143 38499 48501 52011 333 10283 20199 91005 555 91018
AAXX 30184 68400 16/// /0607 10245 20158 30043 40115 52018 69922 333 10353 20245 91011 555 20002 91011
AAXX 30184 68408 36/// /1608 10160 20138 30135 40143 52011 333 10203 20160 91015 555 91014
AAXX 30184 68416 36/// /1916 10276 20014 39008 48497 52012 333 10350 20276 91027 555 91013
AAXX 30184 68478 31580 60503 10244 20172 38855 48502 52012 71799 86900 333 10321 20244 91007 555 91015
AAXX 30184 68488 36/// /0000 10194 20161 39251 48503 52008 333 10292 20194 91001 555 91014
AAXX 30184 68494 36/// /0605 10210 20164 39983 40113 52010 333 10273 20210 91009 555 91011
AAXX 30184 68524 32986 02712 10305 21029 39014 48488 52011 333 10370 20305 91017 555 91011
AAXX 30184 68546 36/// /1103 10223 20096 38621 48469 56001 333 10305 20216 91006 555 91013
AAXX 30184 68558 16/// /0604 10186 20089 38178 48490 53003 69922 333 10257 20186 91020 555 20002 91018
AAXX 30184 68570 32360 71304 10210 20140 38501 48494 52013 875// 333 10294 20210 91009 555 91017
AAXX 30184 68580 16/// /1402 10175 20162 38937 48500 52009 69922 333 10283 20175 91005 555 20002 91016
AAXX 30184 68614 32980 02311 10214 20123 30074 40114 52011 333 10306 20214 91026 555 91011
AAXX 30184 68624 32982 01411 10249 20032 38715 48492 52013 333 10339 20249 91019 555 91015
AAXX 30184 68674 36/// /2802 10232 20200 30090 48549 53027 333 10289 20231 91005 555 91012
AAXX 30184 68712 36/// /1817 10147 20125 30077 40142 52012 333 10191 20147 91020 555 91014
AAXX 30184 68718 NIL
AAXX 30184 68722 32980 01706 10207 20064 38538 48496 52008 333 10293 20207 91012 555 91017
AAXX 30184 68814 NIL
AAXX 30184 68832 32970 01307 10180 20094 39188 48510 52020 333 10289 20180 91014 555 91015
AAXX 30184 68916 32370 20305 10182 20131 39901 40168 52010 82500 333 10223 20182 91013 555 91017
AAXX 30184 68920 NIL
AAXX 30184 68928 36/// /1806 10203 20142 30005 40164 53012 333 10242 20203 91012 555 91016
BBXX ZDLP 30183 99526 50429 41297 83220 10057 20050 49975 58025 70252 886// 22261 04039 20202 324// 40908 5//// 80054
BBXX 44062 30181 99386 70764 46/// /1505 1//// 91820 22200 00082 333 91205
BBXX 44062 30181 99386 70764 46/// /1605 1//// 40139 91810 22200 00081 333 91206
BBXX 44062 30181 99386 70764 46/// /1604 10070 40139 57028 91800 22200 00081 10201 70003 333 91205
BBXX 44063 30181 99390 70764 46/// /2004 1//// 91820 333 91205
BBXX 44063 30181 99390 70764 46/// /2004 1//// 40175 91810 333 91205
BBXX 44063 30181 99390 70764 46/// /2004 10070 40173 57024 91800 22200 00068 10201 70003 333 91204
BBXX 44041 30181 99372 70768 46/// /1503 1//// 91820 333 91204
BBXX 44041 30181 99372 70768 46/// /1404 1//// 40179 91810 333 91204
BBXX 44041 30181 99372 70768 46/// /1404 10099 40181 57029 91800 22200 00083 1//00 70000 333 91204
BBXX 44042 30181 99380 70763 46/// /1304 1//// 91820 333 91205
BBXX 44042 30181 99380 70763 46/// /1204 1//// 40158 91810 333 91204
BBXX 44042 30181 99380 70763 46/// /1203 10089 40159 57029 91800 22200 00084 1//00 70002 333 91204
BBXX 44043 30181 99392 70764 46/// /1704 1//// 91820 333 91204
BBXX 44043 30181 99392 70764 46/// /1904 1//// 40150 91810 333 91206
BBXX 44043 30181 99392 70764 46/// /1905 10072 40152 57021 91800 22200 00059 1//00 70002 333 91206
BBXX 41010 30181 99289 70785 46/// /1601 10219 40197 91820 22200 00237 11401 300// 41401 70007 333 91203 555 11014 22015
BBXX 41009 30181 99285 70802 46/// /3602 10209 20151 40200 91820 22200 00231 11401 300// 41401 70007 333 91202 555 11016 22017
BBXX VQIB9 30184 99330 30302 41598 30711 10215 20166 40126 54000 70200 82543 22254 00240 2//// 3//// 4//// 5//// 80185
BBXX MLRM6 30183 99384 30104 41598 62425 10129 20062 40206 53007 70222 86500 22252 00151 20202 324// 40306 5////
BBXX VQHO7 30184 99061 50291 41498 31122 10265 20225 40115 57013 70300 83200 22234 00270 20404 315// 40506 5//// 80238
BBXX A8RV9 30184 99096 50267 41598 31315 10275 20203 40130 53010 70300 8/16/ 22234 20604 311// 40804 5//// 80225
BBXX TBWUK34 30183 99037 70103 41398 71806 10258 20247 40124 56004 72052 877// 22234 00310 20200 318// 40601 5//// 80250
BBXX MLJA8 30183 99253 10566 41498 30310 10240 20210 40233 54000 70222 8/1// 22200 04250 2//01 317// 4//02 5//// 80220
AAXX 30181 30455 429// 00000 11280 21298 38986 48499 52010
AAXX 30181 30731 429// 00000 11302 21308 39652 40438 58001
AAXX 30181 30739 429// 30502 11330 21360 39501 40437 52004 82041
AAXX 30181 30741 429// 00000 11193 21199 38735 48525 53009
AAXX 30181 30745 429// 00000 11307 21330 39143 40437 52009
AAXX 30181 30764 42998 00000 11376 21412 39525 40453 52010
AAXX 30181 30829 42984 00000 11303 21321 39646 40427 54000
AAXX 30181 30838 42998 00000 11311 21322 39334 40447 52004
AAXX 30181 30846 41998 82101 11202 21228 39385 40367 52003 77171 8801/
AAXX 30181 30859 42899 80000 11269 21300 39460 40389 52005 8802/
AAXX 30181 30862 42975 10602 11300 21330 39586 40419 52004 80001
AAXX 30181 30957 419// 81501 11184 21196 39395 40355 58004 77177 8802/
AAXX 30181 30967 NIL
AAXX 30181 30975 42998 00000 11363 21390 39667 40418 57002
AAXX 30181 30499 42999 02303 11326 21342 39638 40384 52002
AAXX 30181 30683 429// 80000 11260 21278 39644 40360 54000 80004
AAXX 30181 30695 42999 22903 11324 21348 39978 40359 51004 80004
AAXX 30181 31253 42999 00000 11355 21384 39843 40371 54000
AAXX 30181 31295 42999 00000 11301 21326 39838 40351 52002
AAXX 30181 31348 41999 00000 11273 21272 30100 40317 52004 70271
AAXX 30181 31418 41984 00000 11227 21252 30030 40309 53022 70171
AAXX 30181 31439 41596 80204 11147 21160 30228 40275 52002 78582 889//
AAXX 30181 31442 42997 00000 11339 21375 39940 40345 52002
AAXX 30181 31445 42984 00000 11334 21363 30049 40338 54000
AAXX 30181 31474 42998 00000 11344 21374 39802 40353 52003
AAXX 30181 31521 32984 00000 11315 21327 30006 40337 53001
AAXX 30181 31527 42998 00000 11311 21328 39989 40331 56001
AAXX 30181 31534 42999 20000 11317 21341 39951 40342 54000 80001
AAXX 30181 31587 42997 00000 11312 21330 30170 40336 54000
AAXX 30181 31632 NIL
AAXX 30181 31702 42998 00102 11294 21331 39953 40330 53001
AAXX 30181 31713 42998 00000 11299 21317 30190 40301 53007
AAXX 30181 31725 42998 00000 11283 21288 30220 40295 53003
AAXX 30181 31801 42998 00000 11317 21335 30067 40326 53002
BBXX A8MH2 30184 99278 31560 41598 61824 10230 40130 54000 70322 84444 22234 20505 399// 4//// 5//// 80000
AAXX 30181 31825 42984 00000 11236 21243 30058 40287 53005
AAXX 30181 31845 42998 00000 11336 21359 30140 40329 57007
AAXX 30181 31878 41965 00000 11278 21306 30179 40319 55005 70400
AAXX 30181 31915 42998 02802 11210 21249 30021 40310 57009
AAXX 30181 31921 42998 00000 11208 21233 30198 40305 56010
AAXX 30181 31969 42/// /0000 11133 21220 30242 40295 55007
AAXX 30181 31981 42999 02502 11255 21273 30060 40322 57006
AAXX 30181 31987 42999 03603 11149 21249 30007 40284 57010
AAXX 30181 32069 41598 83407 11069 21081 30224 40229 52005 73683 889// 333 91010 91114
BBXX LAXP4 30184 99152 70722 41497 71017 00/// 10230 2023/ 40157 57010 79222 86693 22253 00270 20603 335// 40402 80230 NNNN
BBXX ELWZ5 30184 99467 71567 41297 81431 10065 20018 40020 57019 7//66 887// 22224 04130 2//05 3//// 4//// 5//// 80044
BBXX GDTT 30184 99106 70668 41398 30914 10275 20231 40124 58025 70211 81206 22200 02235 20201 304// 40303 80245
BBXX ZCDM6 30183 99237 70829 41998 01213 10255 20185 40170 58005 70200 80000 22224 00270 20401 30811 40801 50601 80210
BBXX ZCDG4 30183 99213 70759 41598 20514 10261 20213 40179 57020 70100 82100 22234 00270 20501 300// 4//// 5////
BBXX 46181 30181 99538 71288 46/// /1806 10027 49954 52058 22200 00036 10200 70001 333 91208
BBXX 46092 30181 99368 71220 46/// /3403 10112 40246 52025 91757 22200 00121 555 11026 22026
BBXX 44059 30181 99368 70763 46/// /2305 1//// 91820 333 91207
BBXX 44059 30181 99368 70763 46/// /2105 1//// 40157 91810 333 91207
BBXX 44059 30181 99368 70763 46/// /2105 10135 40158 57030 91800 22200 00103 333 91208
BBXX 44057 30181 99395 70761 46/// /0601 1//// 91820 333 91201
BBXX 44057 30181 99395 70761 46/// /0000 1//// 40157 91810 333 91201
BBXX 44057 30181 99395 70761 46/// /0601 10062 40157 57020 91800 22200 00045 333 91201
BBXX 44058 30181 99376 70763 46/// /1504 1//// 91820 333 91204
BBXX 44058 30181 99376 70763 46/// /1604 1//// 40158 91810 333 91204
BBXX 44058 30181 99376 70763 46/// /1704 10092 40161 57023 91800 22200 00084 10201 70003 333 91204
AAXX 30184 42634 32996 00502 10174 20120 40164 333 59003
AAXX 30184 42647 32996 03603 10172 20073 40157 333 59006
AAXX 30184 42737 32996 00503 10150 20078 40164 333 59003
AAXX 30184 42840 32996 03602 10184 20127 40144 333 59007
AAXX 30184 42909 32996 00206 10188 20042 40148 333 59008
AAXX 30184 42921 32996 00000 10140 20096 40183 333 58002
AAXX 30184 43003 31995 00000 10186 20152 40120 70500 333 59014
AAXX 30184 43063 32996 00000 10154 20119 39500 40140 333 59007
AAXX 30184 43110 31996 01101 10226 20124 40118 70040 333 59006
AAXX 30184 43117 32996 11401 10248 20171 40122 80001 333 58002
AAXX 30184 43192 32996 40903 10250 20187 40116 81032 333 58003
AAXX 30184 43014 NIL
BBXX 46181 30181 99538 71288 46/// /1806 10027 49954 52058 22200 00036 10200 70001 333 91208
AAXX 30181 52378 32980 00000 11130 21186 40382 57006 333 00100 11025
AAXX 30184 68171 NIL
AAXX 30184 68181 NIL
AAXX 30184 68185 NIL
AAXX 30184 68291 NIL
AAXX 30184 68297 NIL
AAXX 30184 68342 NIL
AAXX 30184 68387 NIL
AAXX 30184 68471 NIL
AAXX 30184 68474 NIL
AAXX 30181 38933 116// 83601 10028 20010 39836 40367 58007 76164 8802/ 333 10043 69900
AAXX 30181 38933 116// 83601 10028 20010 39836 40367 58007 76164 8802/ 333 10043 69900
BBXX AVMI 30183 99330 31517 41198 60410 10195 20/// 40290 53000 70302 85111 22200 00200
AAXX 30181 38846 414// 80403 11042 21042 38589 48560 57004 77172 8872/
BBXX 46184 30181 99539 71389 46/// /3012 10006 40075 52044 22200 00060 11008 70042 333 91214
AAXX 30184 62305 32960 02409 10119 20043 40159 52002 333 10174
AAXX 30184 62306 32960 02410 10124 20044 40168 52011 333 10190
AAXX 30184 62318 32560 22605 10141 20099 40162 52012 82100 333 10188
AAXX 30184 62337 NIL
AAXX 30184 62366 31856 32007 10139 20074 40176 52015 70520 83030 333 10171
AAXX 30184 62393 32960 63404 10146 20063 40188 52015 86020 333 10196
AAXX 30184 62405 32960 30000 10186 20108 40154 52013 80001 333 10254
AAXX 30184 62414 32960 03605 10216 20099 40155 52017 333 10284
AAXX 30184 62417 32960 02605 10136 20044 40184 52016 333 10206
AAXX 30184 62440 31940 02204 10122 20089 40165 52011 71020 333 10155
AAXX 30184 62463 32560 72904 10178 20134 40165 52011 8322/ 333 10215
AAXX 30184 62465 32960 60000 10198 20161 40152 52004 86010 333 10224
AAXX 30184 62419 NIL
AAXX 30181 21921 41996 80000 11268 21300 30204 40252 58001 77172 8807/
AAXX 30181 21432 41998 02306 11228 21253 30082 40103 57001 73630
AAXX 30181 21824 41994 62216 11222 21232 30160 40169 57002 73832 83032 333 91021 91123
AAXX 30184 91723 NIL
AAXX 30184 91759 NIL
AAXX 30184 91762 11598 40000 10243 20224 40090 53021 60001 70300 82102 333 82822 84078
AAXX 30181 21931 42998 72302 11242 21273 30175 40209 53004 8703/
AAXX 30181 80400 NIL
AAXX 30181 80403 32470 70705 10322 20230 30115 40134 81206 333 30/// 56909 58006 81816 87075 555 10137
AAXX 30181 80405 NIL
AAXX 30181 80407 32470 4//// 10338 20235 30047 4//// 84400 333 30/// 56900 5//// 84616 555 10122
AAXX 30181 80410 32470 70906 10286 20224 39446 40122 84208 333 30/// 56909 59013 84816 555 10158
AAXX 30181 80413 32470 72002 10293 20172 39638 40126 876// 333 30/// 569// 59004 87713 555 10156
AAXX 30181 80415 NIL
AAXX 30181 80419 NIL
AAXX 30181 80421 NIL
AAXX 30181 80423 11458 8//// 10248 20234 30105 40122 60041 76065 889// 333 32/// 562// 58001 87610 81910 555 10121
AAXX 30181 80428 32470 70503 10293 20205 39946 40130 875// 333 30/// 599// 59007 85617 555 10141
AAXX 30181 80432 NIL
AAXX 30181 80435 32470 30203 10281 20214 30059 40134 83200 333 30/// 56900 58026 83813 555 10133
AAXX 30181 80438 32575 42305 10236 20156 38523 48520 83501 333 30/// 56909 59002 83627 555 10206
AAXX 30181 80444 NIL
AAXX 30181 80447 32565 71809 10301 20178 39663 40082 81507 333 30/// 56909 59006 81620 86280 555 10135
AAXX 30181 80448 32570 40704 10324 20219 3//// 4//// 84100 333 30/// 56900 84820
AAXX 30181 80450 32475 81403 10306 20232 30086 40141 84508 333 30/// 56909 58012 84616 85280 555 10138
AAXX 30181 80453 NIL
AAXX 30181 80457 32470 3//// 10343 20094 30030 40115 83500 333 30/// 56900 58006 83613 555 10115
AAXX 30181 80462 NIL
BBXX 46184 30181 99539 71389 46/// /3012 10006 40075 52044 22200 00060 11008 70042 333 91214
AAXX 30181 80402 NIL
AAXX 30181 80412 NIL
AAXX 30181 80416 NIL
AAXX 30181 80420 NIL
AAXX 30181 80425 32470 22703 10328 20247 30079 40110 83100 333 30/// 56900 58000 82820 555 10111
AAXX 30181 80426 32570 40202 10280 20203 39490 40132 84500 333 30/// 56900 58005 84630 555 10165
AAXX 30181 80427 32570 51101 10301 20226 39879 40132 857// 333 30/// 569// 59003 85617 555 10148
AAXX 30181 80431 32570 5//// 10288 20186 39633 40112 858// 333 30/// 569// 59008 85820 555 10135
AAXX 30181 80434 NIL
AAXX 30181 80437 32470 62502 10322 20205 30016 40101 8351/ 333 30/// 5699/ 58000 83617 83460 10108
AAXX 30181 80440 32570 60703 10312 20217 39922 40132 8253/ 333 30/// 5699/ 58001 82623 84359 555 10142
AAXX 30181 80442 NIL
AAXX 30181 80472 32468 51104 10312 20208 39638 40113 8422/ 333 30/// 5699/ 59008 84816 555 10140
AAXX 30181 80475 32560 61402 10287 20242 39798 40169 865// 333 31/// 569// 58012 86620 555 10182
AAXX 30181 80476 32370 5//// 10353 20245 30095 40125 83507 333 30/// 56909 58001 83610
AAXX 30181 80478 NIL
AAXX 30181 80479 NIL
AAXX 30184 62309 32960 02405 10134 20046 40161 52012 333 10195
AAXX 30184 62325 32960 02708 10146 20117 40162 52013 333 10218
AAXX 30184 62332 32960 02309 10137 20107 40160 52013 333 10171
AAXX 30184 62387 31920 73301 10130 20115 40181 52012 71022 8702/ 333 10200
AAXX 30184 62459 32960 60104 10168 20058 40163 52007 86020 333 10212
AAXX 30184 62452 12960 81705 10122 20074 40186 52011 60052 72162 8802/ 333 10174
AAXX 30181 78458- 32566 30905 10289 20239 40179 57022 82230 333 102902 02000 30/// 56000 58003 82820
AAXX 30181 78460- 31560 51306 10294 20223 40167 57029 71522 82231 333 10300 20190 30/// 56115 59002 82825
AAXX 30181 78467-32566 20904 10280 20239 40173 57025 82200 333 10285 20180 30/// 56200 58007 82820
AAXX 30181 78479-32566 21104 10288 20231 40163 58018 82201 333 10290 20250 30/// 56200 58000 82822
AAXX 30181 78482-32566 51103 10295 20215 40187 57024 82256 333 10302 20215 30/// 56500 59002 82824 83360
AAXX 30181 78485-32566 41507 10296 20210 40168 57020 84236 333 10302 20200 30/// 56400 58005 84824
AAXX 30181 78486- 32566 51204 10291 20237 40157 57017 85200 333 10306 20225 30/// 56300 58007 85824
AAXX 30181 78488-32566 50905 10300 20233 40172 57023 85200 333 10300 20180 30/// 56200 58003 85822
AAXX 30184 68345 NIL
AAXX 30181 31913 NIL
AAXX 30181 32128 42599 70000 11027 21061 30152 40204 53006 87300 333 91003 91104
AAXX 30181 24856 41997 80000 11364 21387 30165 40343 57004 77177 80007
AAXX 30181 30679 NIL
AAXX 30181 30686 42999 00000 11336 21359 39951 40378 52004
AAXX 30181 30961 42999 43401 11289 21314 39516 40399 52002 80005
AAXX 30181 30971 42999 02501 11326 21362 39295 40412 54000
AAXX 30181 30978 42999 00000 11342 21371 39633 40414 54000
AAXX 30181 31513 42999 03201 11266 21271 30075 40327 58002
AAXX 30181 31624 NIL
AAXX 30181 31832 41958 00000 11282 21306 30217 40314 57003 71000
AAXX 30181 78458- 32566 30905 10289 20239 40179 57022 82230 333 102902 02000 30/// 56000 58003 82820
AAXX 30181 78460- 31560 51306 10294 20223 40167 57029 71522 82231 333 10300 20190 30/// 56115 59002 82825
AAXX 30181 78467-32566 20904 10280 20239 40173 57025 82200 333 10285 20180 30/// 56200 58007 82820
AAXX 30181 78479-32566 21104 10288 20231 40163 58018 82201 333 10290 20250 30/// 56200 58000 82822
AAXX 30181 78482-32566 51103 10295 20215 40187 57024 82256 333 10302 20215 30/// 56500 59002 82824 83360
AAXX 30181 78485-32566 41507 10296 20210 40168 57020 84236 333 10302 20200 30/// 56400 58005 84824
AAXX 30181 78486- 32566 51204 10291 20237 40157 57017 85200 333 10306 20225 30/// 56300 58007 85824
AAXX 30181 78488-32566 50905 10300 20233 40172 57023 85200 333 10300 20180 30/// 56200 58003 85822
AAXX 30184 43086 32596 50000 10260 20212 39960 40138 83531 333 58019
AAXX 30184 43128 31996 10904 10232 20180 39521 40127 70511 80001 333 59002 81070
AAXX 30184 43150 21596 50510 10242 20215 30074 40149 70511 81530 333 58011 6996/ 81620 85360
AAXX 30184 43185 32596 20905 10250 20214 30131 40135 81501 333 58019 81620
AAXX 30184 43189 32596 60702 10248 20224 30135 40144 83532 333 58014
AAXX 30184 43198 32496 40908 10220 20170 39292 40119 82530 333 56290 58005 82615 83358
AAXX 30184 43201 32396 60910 10238 20193 39400 40117 84602 333 56209 58011 82708 83612 85075
AAXX 30184 43213 32596 80000 10244 20194 39812 40130 8381/ 333 58011
AAXX 30184 43226 32996 00904 10278 20195 30079 40108 333 58007
AAXX 30184 43233 32396 80504 10212 20191 39312 40124 8672/ 333 56199 58011
AAXX 30184 43237 21496 80904 10220 20205 39726 40123 72052 8557/ 333 56299 58016 6005/ 85615 86358
AAXX 30184 43245 21596 81403 10234 20222 30103 40130 70262 83877 333 58031 6037/
AAXX 30184 43279 21496 70000 10216 20210 30116 40134 70265 84970 333 57962 58066 6067/ 83618 81925 87458
AAXX 30184 43284 32596 53604 10274 20208 39972 40086 82531 333 59005 82620
AAXX 30184 43295 21396 80505 10182 20169 39106 48508 70252 8677/ 333 56199 58021 6005/ 82708 83616 88458
AAXX 30184 43311 32996 03603 10270 20241 40092 333 59002
AAXX 30184 43314 32596 30000 10280 20237 40077 81402 333 59013
AAXX 30184 43321 21496 73608 10218 20199 39665 40116 70550 83570 333 56990 58018 6990/
AAXX 30184 43329 21596 83203 10214 20214 30081 40125 70565 8452/ 333 58109 6097/
AAXX 30184 43344 21496 70908 10222 20213 30019 40120 70562 83538 333 58044 6021/ 83615 84360 87270
AAXX 30184 43346 21495 80000 10226 20214 30108 40116 75065 8457/ 333 58077 6008/ 84618 86458
AAXX 30184 43353 31496 60602 10274 20234 40091 71322 82970 333 56690 57912 59009 82614 81925 86458
AAXX 30184 43369 32596 43603 10276 20241 40105 83501 333 59006 83620
AAXX 30184 43371 21596 83204 10244 20244 30023 40096 76066 8447/ 333 58001 6048/ 84618 88458
AAXX 30181 78458- 32566 30905 10289 20239 40179 57022 82230 333 102902 02000 30/// 56000 58003 82820
AAXX 30181 78460- 31560 51306 10294 20223 40167 57029 71522 82231 333 10300 20190 30/// 56115 59002 82825
AAXX 30181 78467-32566 20904 10280 20239 40173 57025 82200 333 10285 20180 30/// 56200 58007 82820
AAXX 30181 78479-32566 21104 10288 20231 40163 58018 82201 333 10290 20250 30/// 56200 58000 82822
AAXX 30181 78482-32566 51103 10295 20215 40187 57024 82256 333 10302 20215 30/// 56500 59002 82824 83360
AAXX 30181 78485-32566 41507 10296 20210 40168 57020 84236 333 10302 20200 30/// 56400 58005 84824
AAXX 30181 78486- 32566 51204 10291 20237 40157 57017 85200 333 10306 20225 30/// 56300 58007 85824
AAXX 30181 78488-32566 50905 10300 20233 40172 57023 85200 333 10300 20180 30/// 56200 58003 85822
AAXX 30184 62476 32960 60205 10228 20202 40144 51004 86020 333 10250
AAXX 30184 62458 12960 71302 10160 20093 40155 52007 69912 8702/ 333 10194
AAXX 30184 62420 32960 80000 10148 20070 40178 52013 8802/ 333 10184
AAXX 30184 62432 32960 33103 10164 20043 40178 52019 80004 333 10250
AAXX 30184 62435 32960 33608 10203 20013 40161 52017 83030 333 10264
AAXX 30184 62455 11560 80804 10144 20109 40146 52015 60022 70262 8322/ 333 10164
AAXX 3018/ 89866 46/// ///// 10029 39722 4//// 5//// 91810
AAXX 3018/ 89329 46/// ///// 11106 38599 4//// 5//// 91810
AAXX 3018/ 89799 46/// ///// 11231 4//// 5//// 91810
AAXX 3018/ 89327 46/// ///// 11031 39536 4//// 5//// 91810
AAXX 3018/ 89769 46/// ///// 11031 39784 4//// 5//// 91810
AAXX 3018/ 89314 46/// ///// 11120 38097 4//// 5//// 91810
AAXX 30184 89667 46/// /1402 10019 29028 39818 4//// 5//// 91810
AAXX 30184 40153 12660 52016 10080 21009 39087 48483 52009 60002 84480 333 10098
AAXX 30184 40179 12960 21306 10121 20093 30123 40161 52018 60002 82070 333 10166
AAXX 30184 40180 12960 30802 10124 20084 30114 40163 53008 60002 83030 333 10165
AAXX 30184 40190 16/// ///// 10138 20068 39827 40159 52010 60002 333 10172
AAXX 30184 40199 12975 70305 10156 20081 30141 40164 52006 60002 86078 333 10179
BBXX 46004 30181 99509 71361 46/// /3013 10035 40109 52046 22200 00073 10910 70048 333 91216
AAXX 30181 80400 NIL
AAXX 30181 80403 32470 70705 10322 20230 30115 40134 81206 333 30/// 56909 58006 81816 87075 555 10137
AAXX 30181 80405 NIL
AAXX 30181 80407 32470 4//// 10338 20235 30047 4//// 84400 333 30/// 56900 5//// 84616 555 10122
AAXX 30181 80410 32470 70906 10286 20224 39446 40122 84208 333 30/// 56909 59013 84816 555 10158
AAXX 30181 80413 32470 72002 10293 20172 39638 40126 876// 333 30/// 569// 59004 87713 555 10156
AAXX 30181 80415 NIL
AAXX 30181 80419 NIL
AAXX 30181 80421 NIL
AAXX 30181 80423 11458 8//// 10248 20234 30105 40122 60041 76065 889// 333 32/// 562// 58001 87610 81910 555 10121
AAXX 30181 80428 32470 70503 10293 20205 39946 40130 875// 333 30/// 599// 59007 85617 555 10141
AAXX 30181 80432 NIL
AAXX 30181 80435 32470 30203 10281 20214 30059 40134 83200 333 30/// 56900 58026 83813 555 10133
AAXX 30181 80438 32575 42305 10236 20156 38523 48520 83501 333 30/// 56909 59002 83627 555 10206
AAXX 30181 80444 NIL
AAXX 30181 80447 32565 71809 10301 20178 39663 40082 81507 333 30/// 56909 59006 81620 86280 555 10135
AAXX 30181 80448 32570 40704 10324 20219 3//// 4//// 84100 333 30/// 56900 84820
AAXX 30181 80450 32475 81403 10306 20232 30086 40141 84508 333 30/// 56909 58012 84616 85280 555 10138
AAXX 30181 80453 NIL
AAXX 30181 80457 32470 3//// 10343 20094 30030 40115 83500 333 30/// 56900 58006 83613 555 10115
AAXX 30181 80462 NIL
AAXX 30181 0000090801SMVN20 SVMR 301800
AAXX 30181 80402 NIL
AAXX 30181 80412 NIL
AAXX 30181 80416 NIL
AAXX 30181 80420 NIL
AAXX 30181 80425 32470 22703 10328 20247 30079 40110 83100 333 30/// 56900 58000 82820 555 10111
AAXX 30181 80426 32570 40202 10280 20203 39490 40132 84500 333 30/// 56900 58005 84630 555 10165
AAXX 30181 80427 32570 51101 10301 20226 39879 40132 857// 333 30/// 569// 59003 85617 555 10148
AAXX 30181 80431 32570 5//// 10288 20186 39633 40112 858// 333 30/// 569// 59008 85820 555 10135
AAXX 30181 80434 NIL
AAXX 30181 80437 32470 62502 10322 20205 30016 40101 8351/ 333 30/// 5699/ 58000 83617 83460 10108
AAXX 30181 80440 32570 60703 10312 20217 39922 40132 8253/ 333 30/// 5699/ 58001 82623 84359 555 10142
AAXX 30181 80442 NIL
AAXX 30181 80472 32468 51104 10312 20208 39638 40113 8422/ 333 30/// 5699/ 59008 84816 555 10140
AAXX 30181 80475 32560 61402 10287 20242 39798 40169 865// 333 31/// 569// 58012 86620 555 10182
AAXX 30181 80476 32370 5//// 10353 20245 30095 40125 83507 333 30/// 56909 58001 83610
AAXX 30181 80478 NIL
AAXX 30181 80479 NIL
AAXX 30181 0000068801SAVN20 SVMR 301800 METAR SVCR 301800Z 07010KT 9999 FEW016 BKN250 32/23 Q1013
AAXX 30181 METAR SVMC 301800Z /////KT 9999 SCT016 34/24 Q1012 NOSIG
AAXX 30181 METAR SVBM 301800Z 09012KT 9999 SCT016 29/22 Q1015
AAXX 30181 METAR SVBS 301800Z 20004KT 9999 BKN013 29/17 Q1015
AAXX 30181 METAR SVMI 301800Z NIL
AAXX 30181 METAR SVFM 301800Z NIL
AAXX 30181 METAR SVBC 301800Z /////KT 9999 SCT010 SCT060 31/20 Q1013
AAXX 30181 METAR SVCU 301800Z NIL
AAXX 30181 METAR SVMG 301800Z NIL
AAXX 30181 METAR SVAC 301800Z 11003KT 9999 BKN017 30/23 Q1014
AAXX 30181 METAR SVMT 301800Z 02006KT 9999 SCT013 28/21 Q1013
AAXX 30181 METAR SVBI 301800Z 07005KT 9999 FEW023 SCT090 31/22 Q1014
AAXX 30181 METAR SVCB 301800Z NIL
AAXX 30181 METAR SVVA 301800Z 11008KT 9999 SCT016 31/21 Q1014
AAXX 30181 METAR SVSO 301800Z 14003KT 9999 BKN020 29/24 Q1018
AAXX 30184 62423 32960 60000 10142 20058 40200 52021 86020 333 10177
AAXX 30184 62357 32960 02204 10128 20071 40160 52012 333 10176
AAXX 30184 62403 32960 62603 10190 20096 40158 52013 86020 333 10246
AAXX 30181 56671 32980 02201 10033 20002 38234 52008 333 00100 10183
AAXX 30181 57378 31912 83402 10046 20020 40316 57014 71000 8807/ 333 10067
AAXX 30181 57426 31850 30000 10034 20030 40311 57002 71000 83500 333 00153 10095
AAXX 30181 57476 32960 80000 10053 20027 40314 57012 8807/ 333 10077
AAXX 30181 57584 11730 83602 10059 20036 40320 57006 69971 76060 885// 333 10064
AAXX 30181 57598 11657 80000 10069 20049 40307 57002 69901 76060 885// 333 10093
AAXX 30181 57655 11950 80000 10049 20028 40325 57007 69931 72160 8807/ 333 10076
AAXX 30181 57713 NIL
AAXX 30181 57776 11/00 90404 11006 21010 40319 57004 69951 74564 333 10007 93430
AAXX 30181 58321 31958 00401 10007 21025 40321 57011 71000 333 10090
AAXX 30181 58437 32980 02907 11006 21192 38195 57007 333 10010
AAXX 30181 58445 NIL
AAXX 30181 58556 31958 00701 10017 21009 40320 57001 71000 333 10096
AAXX 30181 58569 32465 53404 10049 20003 40308 57003 85100 333 10099
AAXX 30181 58646 32660 80401 10075 20024 40303 57006 885// 333 10105
AAXX 30181 58653 NIL
AAXX 30181 58660 NIL
AAXX 30181 58715 11740 83601 10081 20049 40290 57001 69901 76060 8657/ 333 10085
AAXX 30181 58730 11665 82901 10086 20064 40283 57007 69901 72160 885// 333 10115
AAXX 30181 58731 11658 80401 10071 20062 40284 57011 69911 76000 885// 333 10088
AAXX 30181 58754 32661 82701 10084 20020 40300 57003 885// 333 10130
AAXX 30181 58911 31458 82502 10079 20065 40282 57001 71000 885// 333 10093
AAXX 30181 58931 31565 61404 10046 20046 38401 57006 70040 86500 333 10093
AAXX 30181 59254 32760 83601 10121 20080 40269 52003 885// 333 10143
AAXX 30181 59632 32761 73602 10127 20054 40256 52004 875// 333 10168
AAXX 30181 59855 32568 73601 10194 20164 40212 57009 878// 333 10218
AAXX 30181 21931 42998 72302 11242 21273 30175 40209 53004 8703/
AAXX 30181 21824 41994 62216 11222 21232 30160 40169 57002 73832 83032 333 91021 91123
AAXX 30181 21921 41996 80000 11268 21300 30204 40252 58001 77172 8807/
AAXX 30181 21432 41998 02306 11228 21253 30082 40103 57001 73630
BBXX 46004 30181 99509 71361 46/// /3013 10035 40109 52046 22200 00073 10910 70048 333 91216
AAXX 30184 71315 16/// /2612 11102 21158 30121 40177 53008 60001 333 11102 21149 70000
AAXX 30184 71221 17/// /0403 11067 21075 69961 7//4/ 333 11067 21133 70006
AAXX 30184 71226 17/// /0711 11050 21063 69981 7//4/ 333 11028 21105 70008
AAXX 30184 71229 46/// /0204 11091 21101 6///1 333 11091 21177 7//// 555 10010
AAXX 30184 71500 16/// /0102 11045 21106 60001 333 11039 21086 70000
AAXX 30184 71504 16/// ///// 11056 21090 60001 333 11041 21119 70000
AAXX 30184 71541 17/// /0911 11048 21058 60011 7//4/ 333 11048 21096 70014
AAXX 30184 71543 17/// /0504 11054 21070 69951 7//4/ 333 11050 21165 70005
AAXX 30184 71546 17/// /0403 11065 21077 69951 7//4/ 333 11053 21091 70005
AAXX 30184 71547 17/// /0806 11067 21082 69981 7//4/ 333 11064 21095 70008
AAXX 30184 71359 16/// /0906 11089 21108 60001 333 11067 21150 70018
AAXX 30184 71010 16/// /1413 11010 21046 60001 333 11010 21092 7////
AAXX 30184 71011 16/// ///// 11007 21046 60001 333 11007 21047 70000
AAXX 30184 71049 16/// /1409 11195 30040 40064 56009 60001 333 11193 21262 70000
AAXX 30184 71788 16/// /2018 10068 21009 60001 333 10068 21036 70000
AAXX 30184 71792 16/// ///// 11018 21041 60001 333 11018 21100 70008
AAXX 30184 71153 16/// /2309 10050 20003 60001 333 10050 21006 70000
AAXX 30184 71283 17/// /0408 11060 21066 60021 7//4/ 333 11060 21135 70022
AAXX 30184 71411 16/// /2611 10034 21110 30181 40194 53005 60001 333 10035 21041 70000
AAXX 30184 71405 16/// ///// 11040 21068 60001 333 11040 21127 70000
AAXX 30184 71417 16/// /2621 11017 21046 39975 40009 53067 60001 333 11004 21045 70000
AAXX 30184 71984 16/// /2801 11228 21250 30047 40056 53001 60001 333 11223 21316 70000
AAXX 30184 71888 16/// ///// 11031 21049 60001 333 11031 21121 70017
AAXX 30184 71671 16/// /2612 11021 21087 30114 40175 53009 60001 333 11017 21044 70000
AAXX 30184 71673 16/// ///// 11030 21052 60001 333 11030 21135 70004
AAXX 30184 71690 17/// ///// 11061 21071 69951 7//4/ 333 11056 21126 70005
AAXX 30184 71461 17/// /0505 11059 21066 60021 7//4/ 333 11043 21092 70018
AAXX 30184 71468 46/// /3405 11081 21085 39777 40106 5/001 6///1 333 21090 7////
AAXX 30184 71483 16/// ///// 11046 21112 60001 333 11046 21119 70000
AAXX 30184 71067 16/// ///// 11047 21081 60001 333 11041 21125 70004
BBXX 46146 30181 99493 71237 46/// /1707 10076 40016 52026 22200 00073 10301 70003 333 91208
AAXX 30184 71411 16/// /2611 10034 21110 30181 40194 53005 60001 333 10035 21041 70000
AAXX 30184 71221 17/// /0403 11067 21075 69961 7//4/ 333 11067 21133 70006
AAXX 30184 71226 17/// /0711 11050 21063 69981 7//4/ 333 11028 21105 70008
AAXX 30184 71229 46/// /0204 11091 21101 6///1 333 11091 21177 7//// 555 10010
AAXX 30184 71010 16/// /1413 11010 21046 60001 333 11010 21092 7////
AAXX 30184 71011 16/// ///// 11007 21046 60001 333 11007 21047 70000
AAXX 30184 71049 16/// /1409 11195 30040 40064 56009 60001 333 11193 21262 70000
AAXX 30184 71500 16/// /0102 11045 21106 60001 333 11039 21086 70000
AAXX 30184 71504 16/// ///// 11056 21090 60001 333 11041 21119 70000
AAXX 30184 71541 17/// /0911 11048 21058 60011 7//4/ 333 11048 21096 70014
AAXX 30184 71543 17/// /0504 11054 21070 69951 7//4/ 333 11050 21165 70005
AAXX 30184 71546 17/// /0403 11065 21077 69951 7//4/ 333 11053 21091 70005
AAXX 30184 71547 17/// /0806 11067 21082 69981 7//4/ 333 11064 21095 70008
AAXX 30184 71405 16/// ///// 11040 21068 60001 333 11040 21127 70000
AAXX 30184 71417 16/// /2621 11017 21046 39975 40009 53067 60001 333 11004 21045 70000
AAXX 30184 71359 16/// /0906 11089 21108 60001 333 11067 21150 70018
AAXX 30184 71315 16/// /2612 11102 21158 30121 40177 53008 60001 333 11102 21149 70000
AAXX 30184 71888 16/// ///// 11031 21049 60001 333 11031 21121 70017
AAXX 30184 71984 16/// /2801 11228 21250 30047 40056 53001 60001 333 11223 21316 70000
AAXX 30184 71671 16/// /2612 11021 21087 30114 40175 53009 60001 333 11017 21044 70000
AAXX 30184 71673 16/// ///// 11030 21052 60001 333 11030 21135 70004
AAXX 30184 71690 17/// ///// 11061 21071 69951 7//4/ 333 11056 21126 70005
AAXX 30184 71283 17/// /0408 11060 21066 60021 7//4/ 333 11060 21135 70022
AAXX 30184 71153 16/// /2309 10050 20003 60001 333 10050 21006 70000
AAXX 30181 56144 32980 00000 11047 21217 36903 52005 333 00402 10117
AAXX 30181 56152 32980 00000 11157 21227 36349 52001 333 00400 10056
AAXX 30181 56167 32980 00000 11075 21137 37130 52013 333 00301 10139
AAXX 30181 56182 32980 00000 11073 21106 37255 52004 333 00400 10104
AAXX 30181 56357 32980 02501 11080 21184 36481 52002 333 00202 10111
AAXX 30181 56586 32460 83602 10000 21027 38121 52004 885// 333 00200 10026
AAXX 30181 56748 32980 01401 10052 20035 38390 52003 333 00151 10180
AAXX 30181 56763 32980 01602 10108 20040 40150 52006 333 00152 10253
AAXX 30181 56768 32980 02901 10071 20041 38209 52003 333 00000 10173
AAXX 30181 56838 32670 20000 10104 20090 40205 52005 82400 333 00152 10222
AAXX 30181 56886 31758 83402 10064 20049 38343 52009 71000 884// 333 00100 10166
AAXX 30181 56946 32670 10401 10093 20087 40199 52006 81100 333 00151 10243
AAXX 30181 56959 32965 00000 10144 20144 40183 52008 333 00100 10264
AAXX 30181 56969 31420 70901 10151 20148 40193 52006 71000 876// 333 00001 10259
AAXX 30181 57731 32661 81801 10063 20000 40322 57001 885// 333 00151 10081
AAXX 30181 57766 11456 83201 10053 20038 40318 57006 69931 76066 8772/ 333 10074
AAXX 30181 57845 32762 83602 10057 20012 40312 52004 885// 333 10081
AAXX 30181 57853 11420 83402 10046 20028 40321 57004 69911 76060 887// 333 10062
AAXX 30181 57916 32663 80901 10088 20044 40300 52011 885// 333 00251 10111
AAXX 30181 57922 11450 83402 10017 20011 40316 52009 69941 76060 887// 333 00153 10066
AAXX 30181 57932 32661 80201 10084 20001 40311 52009 885// 333 00102 10100
AAXX 30181 58338 32960 30902 10018 21009 40311 57004 80002 333 10092
AAXX 30181 59007 11461 80201 10059 20041 40274 52015 69941 76060 885// 333 10086
AAXX 30181 59046 31757 80701 10103 20049 40284 52001 70500 885// 333 10114
AAXX 30181 59058 11840 83202 10091 20037 40286 52001 69901 72160 885// 333 10101
AAXX 30181 59072 31756 83602 10078 20040 40293 52002 70500 885// 333 10101
AAXX 30181 59087 32760 80903 10116 20053 40268 52002 885// 333 10156
AAXX 30181 59209 11256 82902 10092 20081 40267 52009 69971 76066 887// 333 10095
AAXX 30183 64800 NIL
AAXX 30183 64820 NIL
AAXX 30183 64860 32960 70000 10305 20104 39825 40093 80002 333 10375 58000 87080
AAXX 30183 64861 NIL
AAXX 30183 64870 32960 70404 10235 20098 38913 48508 80002 333 0//00 10316 58001 87080
AAXX 30183 64871 NIL
AAXX 30183 64892 NIL
AAXX 30183 64893 NIL
AAXX 30183 64894 NIL
AAXX 30184 64910 31457 72204 10280 20249 30105 40114 70522 84502 333 10330 59001 84616 87080
AAXX 30184 64911 NIL
AAXX 30184 64950 NIL
AAXX 30184 71067 16/// ///// 11047 21081 60001 333 11041 21125 70004
AAXX 30184 71461 17/// /0505 11059 21066 60021 7//4/ 333 11043 21092 70018
AAXX 30184 71468 46/// /3405 11081 21085 39777 40106 5/001 6///1 333 21090 7////
AAXX 30184 71483 16/// ///// 11046 21112 60001 333 11046 21119 70000
AAXX 30184 71788 16/// /2018 10068 21009 60001 333 10068 21036 70000
AAXX 30184 71792 16/// ///// 11018 21041 60001 333 11018 21100 70008
BBXX 46146 30181 99493 71237 46/// /1707 10076 40016 52026 22200 00073 10301 70003 333 91208
BBXX KS094 30184 99172 70626 43/// /1119 10276 40170 22200 06262
BBXX KS007 30184 99267 70801 43/// ///// 10215 40153 22200
BBXX KS088 30184 99267 70801 43/// /0700 10224 40189 22200 06215
AAXX 30181 45032 36/// /3501 10153 20102 30229 40245 57001
AAXX 30181 45035 36/// /0502 10160 20117 30202 40245 57001
AAXX 30181 45039 36/// /0002 10158 20116 30228 40243 54000
AAXX 30181 45044 36/// /1106 10160 20133 30146 40240 54000
AAXX 30181 45032 36/// /3501 10153 20102 30229 40245 57001
AAXX 30181 45035 36/// /0502 10160 20117 30202 40245 57001
AAXX 30181 45039 36/// /0002 10158 20116 30228 40243 54000
AAXX 30181 45044 36/// /1106 10160 20133 30146 40240 54000
BBXX 44258 30181 99445 70634 46/// /2508 10005 40184 52011 22200 00054 11105 70024 333 91211
AAXX 30180 44214 32698 63201 11173 21209 38302 40423 57004 82570
AAXX 30180 44231 319// 00000 11273 21326 38788 40528 58005 70400
AAXX 30180 44259 32997 32405 11202 21235 39376 40363 56006 80004
AAXX 30180 44277 329// 02701 11122 21228 37835 40419 57006
AAXX 30180 44288 32999 02703 11116 21223 38204 40394 58005
AAXX 30180 44292 319// 00000 11258 21276 38760 40467 58002 70400
AAXX 30180 44304 329// 00000 11287 21318 39048 40432 58009
AAXX 30180 44354 329// 00000 11244 21269 39173 40412 57017
AAXX 30180 44373 32999 02701 11149 21202 38592 40398 54000
BBXX 44258 30181 99445 70634 46/// /2508 10005 40184 52011 22200 00054 11105 70024 333 91211
BBXX 44140 30181 99429 70515 46/// /2408 10143 40187 52005 22200 00081 11411 70056 333 91209
AAXX 30184 67002 32580 23407 10285 20242 30101 40134 60032 82800 333 58020 82820 92417
AAXX 30184 67009 NIL
AAXX 30184 67025 NIL
AAXX 30184 67027 31580 53210 10290 20249 30090 40111 52020 71311 84930 333 10327 82820 83640 81920 94962 95832 555 83360
AAXX 30184 67083 31470 50000 10215 20183 38739 48515 52027 71322 81933 333 10288 81817 81917 84073 94974 94977 95837
AAXX 30184 67095 11456 73602 10250 20238 30092 40098 50012 60032 79596 8597/ 333 10315 81817 81917 84633 86360 94971 94976 94978 95831 95836 95838
AAXX 30184 67113 NIL
AAXX 30184 67117 NIL
AAXX 30184 67137 NIL
AAXX 30184 67143 NIL
AAXX 30184 67161 NIL
AAXX 30184 67197 32480 30000 10242 20217 30113 40123 52020 83800 333 10280 82817 555 82633
AAXX 30184 96009 32456 61603 10244 20232 30072 40107 52023 83922 333 56000 57903 81917 82617 80965
AAXX 30184 96011 32560 51005 10244 20228 30099 40125 57001 82532 333 56000 82620
AAXX 30184 96035 32456 70000 10262 20239 30088 40125 57005 83578 333 56000 83618
AAXX 30184 96073 31450 70000 10248 20233 30114 40125 52004 70522 83922 333 56000 57901 83913 80958
AAXX 30184 96091 32459 60000 10252 20238 30103 40126 58007 84551 333 56800 84613
AAXX 30184 96109 32456 72505 10266 20239 30070 40109 50002 84932 333 56000 57901 81920 83618 80960
AAXX 30184 96145 31430 70000 10250 20238 30105 40108 56008 70521 84520 333 56800 84616 86460
AAXX 30184 96147 NIL
AAXX 30184 96163 32560 40000 10224 20215 30130 40132 52002 81528 333 56000 81625
AAXX 30184 96179 NIL
AAXX 30184 96195 31456 63503 10258 20241 30079 40115 57015 70522 82531 333 56000 82615
AAXX 30184 96221 31958 30000 10258 20246 30090 40105 57018 70510 81031 333 56999 81362 83080
AAXX 30184 96237 32458 60000 10248 20239 30065 40106 57016 83578 333 56000 83618 83460 85280
AAXX 30184 96249 32560 70000 10254 20245 30043 40104 57016 83232 333 56600 57861 83820 80863
AAXX 30184 96253 31550 20000 10239 20224 30074 40098 57020 70500 81202 333 56000 57800 81820
AAXX 30184 96295 32460 60000 10256 20214 39999 40102 56013 84521 333 56000 84615
AAXX 30184 96509 NIL
AAXX 30184 96581 32457 70000 10254 20245 30104 40111 57016 84130 333 56200 84813 86362 80860
AAXX 30184 96633 11458 83305 10252 20250 30088 40096 57013 60011 70292 8392/ 333 56009 57900 81918 82618 88460 809//
AAXX 30184 96645 NIL
AAXX 30184 96655 11456 70000 10244 20241 30097 40131 57010 69961 70262 85612 333 56000 85612
AAXX 30184 96685 31459 40000 10262 20248 30097 40123 54000 70511 81511 333 56000 81618 84462
AAXX 30184 96749 31557 62208 10258 20229 30087 40100 58018 70562 82471 333 56000 82621 84462
AAXX 30184 96781 NIL
AAXX 30184 96805 01558 82805 10268 20238 30098 40107 56011 60011 71562 8422/ 333 56009 57801 69927 84820 88460 80860
AAXX 30184 96839 31457 60000 10256 20238 30091 40098 57015 70392 83932 333 56000 57902 81919 83820 80980
AAXX 30184 96935 01560 50000 10262 20244 30088 40094 57022 60021 70196 81531 333 56000 60017 81620
BBXX 44140 30181 99429 70515 46/// /2408 10143 40187 52005 22200 00081 11411 70056 333 91209
AAXX 30184 97014 01558 72606 10239 20227 30020 40113 57019 60061 76062 84821 333 56600 60017 83820
AAXX 30184 97028 NIL
AAXX 30184 97048 01430 80305 10242 20235 30071 40095 57007 60071 76362 8592/ 333 56809 57981 57881 60057 82914 84814 87559 80980 80860
AAXX 30184 97072 11457 60000 10250 20232 30021 40121 58009 69901 70162 82521 333 56000 82619 84460
AAXX 30184 97086 NIL
AAXX 30184 97096 NIL
AAXX 30184 97120 32459 33502 10252 20216 30063 40096 57012 81231 333 56000 57803 81818 80860
AAXX 30184 97146 NIL
AAXX 30184 97180 31457 70902 10247 20247 30083 40101 57017 70262 83272 333 56000 83819 85459
AAXX 30184 97192 NIL
AAXX 30184 97230 NIL
AAXX 30184 97260 NIL
AAXX 30184 97270 31450 80000 10254 20236 30083 40088 58017 70522 8682/ 333 56009 57800 82815 85617 88460 808//
AAXX 30184 97300 NIL
AAXX 30184 97340 32560 80000 10260 20246 30077 40092 57014 82202 333 56000 82820 88080
AAXX 30184 97372 01457 70000 10254 20248 39969 40089 57019 60031 70062 85271 333 56000 69907 85815 85459
AAXX 30184 97430 01450 83517 10258 20237 30066 40096 57017 69921 71562 8592/ 333 56709 56970 56870 69907 81915 84818 88460 80980 80860
AAXX 30184 97460 NIL
AAXX 30184 97502 NIL
AAXX 30184 97530 NIL
AAXX 30184 97560 01458 80000 10258 20255 30058 40073 55009 60121 76162 85978 333 56000 57902 57804 60127 82917 84619 86361 88279 80980 80660
AAXX 30184 97686 NIL
AAXX 30184 97690 32456 63104 10258 20237 39968 40070 57014 84862 333 56000 57800 84815
AAXX 30184 97724 31457 73602 10262 20237 30068 40084 57021 71792 85972 333 56700 57971 57871 81919 83816 80980 80856
AAXX 30184 97748 NIL
AAXX 30184 97760 01456 73405 10265 20238 30084 40094 57017 60041 72166 84932 333 56000 57901 60047 81915 83816 80958
AAXX 30184 97796 NIL
AAXX 30184 97810 NIL
AAXX 30184 97900 11560 40502 10265 20255 30050 40078 57020 60031 70162 81205 333 56000 57805 81820 84275 80825
AAXX 30184 97980 NIL
AAXX 30184 96001 NIL
AAXX 30184 96015 32450 50000 10254 20248 30113 40120 54000 82442 333 56000 82613
AAXX 30184 96033 31450 60000 10268 20244 30117 40123 57003 70522 83936 333 56000 57902 81920 83617 80980
AAXX 30184 96075 32450 70000 10250 20247 30111 40117 57008 83571 333 56000 83617
AAXX 30184 96087 32459 73610 10254 20231 30084 40117 56010 82531 333 56000 82615 83360 86080
AAXX 30184 96171 31450 60000 10262 20244 30091 40115 50000 70521 83521 333 56000 83616
AAXX 30184 96207 32556 40000 10193 20176 39252 40174 57007 82232 333 56000 57800 81820
AAXX 30184 96525 NIL
AAXX 30184 96529 01450 80000 10232 20229 30109 40133 56020 60041 72162 8612/ 333 56009 60047 86817 88460
AAXX 30184 96559 NIL
AAXX 30184 96607 11458 72703 10262 20247 30099 40114 57013 60011 70296 84221 333 56000 60017 84814
AAXX 30184 96615 32456 70000 10260 20248 30100 40114 56018 81131 333 56000 57801 81814 86082 80856
AAXX 30184 96737 01450 80000 10260 20242 30066 40096 57006 60021 76062 84571 333 56000 69917 84616 84460
AAXX 30184 96739 01440 82412 10250 20236 30065 40114 57013 69901 76062 8652/ 333 56009 69907 86617
AAXX 30184 96741 NIL
AAXX 30184 96745 32556 72506 10266 20233 30105 40110 57007 83571 333 56600 83620 86460
AAXX 30184 96751 01540 83009 10208 20191 39045 48920 53002 69901 72162 8722/ 333 56609 57861 69907 83820 84620 80880
AAXX 30184 96791 11456 60000 10250 20241 30043 40117 57017 60011 70162 81551 333 56000 81618 84360
AAXX 30184 96797 11458 71702 10245 20238 30092 40098 57018 60131 70262 84971 333 56000 57902 81918 84620 80980
AAXX 30184 96837 NIL
AAXX 30184 96925 01464 72706 10256 20239 30092 40097 56018 60011 72996 84972 333 56600 57980 57860 60017 81917 83817 80980 80860
AAXX 30184 96933 32558 60000 10270 20247 30094 40098 57008 81571 333 56200 81520 84461
AAXX 30184 96937 32958 20000 10276 20246 30089 40094 57020 80005 333 56000 82280
AAXX 30184 96973 31458 83104 10264 20243 30089 40095 57018 71792 84971 333 56000 57902 82919 80976 82820 80850
AAXX 30184 96987 31457 70000 10250 20235 30036 40095 57015 71522 85918 333 56000 57902 81918 84618 80980
AAXX 30184 97008 01458 80000 10246 20240 30084 40095 57007 69911 72162 8452/ 333 56009 69917 84618 88459
AAXX 30184 97016 02459 83012 10271 20217 30087 40089 57022 69901 84872 333 56800 57881 69907 83819 80863
AAXX 30184 97126 32457 70000 10254 20242 30047 40108 56008 83920 333 56000 57902 81916 82616 87460 80980
AAXX 30184 97182 01466 61202 10251 20239 30090 40094 57016 69931 70262 82871 333 56000 57800 69907 82819 83458 808//
AAXX 30184 97240 NIL
AAXX 30184 97310 32556 70000 10263 20246 30071 40083 57018 84221 333 56000 57802 84818 87460 80840
AAXX 30184 97320 NIL
AAXX 30184 97378 11560 70000 10252 20249 39932 40095 56004 69901 70262 83171 333 56600 83820 84459
AAXX 30184 97406 NIL
AAXX 30184 97570 11458 73510 10276 20247 30067 40074 57010 69921 71364 86903 333 56000 57900 81913 83815 85617
AAXX 30184 97630 11350 50000 10246 20234 39928 40088 56020 60121 76166 85972 333 56600 57962 82911 83809 85361 80972
AAXX 30184 97700 31460 60000 10266 20242 30071 40085 57015 82232 333 56000 57804 82817 84358 80850
AAXX 30184 97722 31460 70000 10254 20224 30082 40097 57012 71321 85972 333 56000 57961 57861 81918 83819 80971 80857
BBXX 46232 30181 99325 71174 46/// ///// 1//// 91808 22200 00147 11103 20802 328// 41102 70014
BBXX 46247 30181 99378 71228 46/// ///// 1//// 91821 22200 00115 11205 21003 329// 41204 70023
AAXX 30181 98134 11458 80405 10211 20194 39992 40185 58012 69901 72582 8427/ 333 56999 81915 83818
AAXX 30181 98223 32562 50000 10248 20223 40140 58011 81260 333 56999 81820 85360
AAXX 30181 98232 11565 80403 10235 20217 40173 58012 60021 78088 8557/ 333 56199 85620 88358
AAXX 30181 98325 32458 30901 10250 20236 40141 58010 81201 333 56999 81817
AAXX 30181 98328 31461 10000 10160 20154 38545 40116 58007 70544 81101 333 56999 81814
AAXX 30181 98330 32470 10000 10250 20222 30115 40147 58015 81200 333 56999 81818
AAXX 30181 98336 11464 73602 10227 20226 30159 40164 57016 60021 71562 82571 333 56199 82615 83357 84075
AAXX 30181 98429 31560 40202 10255 20236 40145 56011 70564 82830 333 56999 82825 83360
AAXX 30181 98430 31558 60000 10235 20227 40145 58012 70544 82170 333 56999 82620
AAXX 30181 98431 31458 60901 10257 20234 30092 40139 58016 70222 82230 333 56999 82818 86360
AAXX 30181 98440 11465 20905 10265 20238 30145 40150 57012 69951 70584 82200 333 56299 82815
AAXX 30181 98444 32460 40304 10258 20239 30107 40126 58019 82208 333 56299 82818
AAXX 30181 98526 32570 13601 10243 20222 40132 58019 81100 333 56999 81820
AAXX 30181 98531 31568 10402 10249 20219 30119 40123 58016 70544 81200 333 56199 81820
AAXX 30181 98536 32465 80404 10248 20226 39933 40132 58021 8327/ 333 56199 83818 88357
AAXX 30181 98543 32468 60000 10254 20241 30110 40121 58020 83201 333 56999 83818 84075
AAXX 30181 98550 NIL
AAXX 30181 98618 32570 22701 10265 20238 40124 58013 82201 333 56999 82820
AAXX 30181 98630 NIL
AAXX 30181 98637 NIL
AAXX 30181 98646 11560 83602 10244 20236 30107 40135 57016 60161 70266 8222/ 333 56999 82820 88459
AAXX 30181 98653 NIL
AAXX 30181 98741 NIL
AAXX 30181 98747 31460 82101 10245 20235 39902 40106 57020 70544 8327/ 333 56999 83818 88358
AAXX 30181 98753 31465 73602 10257 20244 40102 57019 70544 82238 333 56999 82816 86279
AAXX 30181 98755 NIL
AAXX 30181 98836 31460 70000 10262 20238 40114 57013 70544 81278 333 56999 81818 86281
AAXX 30180 44203 329// 40000 11334 21356 38480 40592 54000 82019
AAXX 30180 44207 329// 32702 11256 21295 38351 40470 57004 82042
AAXX 30180 44212 32999 60000 11311 21334 39266 40568 58009 86030
AAXX 30180 44213 32699 60000 11275 21306 38863 40520 57022 86500
AAXX 30180 44215 32998 60000 11258 21282 38464 40493 57012 86070
AAXX 30180 44218 329// 00000 11250 21274 38666 40487 58004
AAXX 30180 44225 329// 00000 11368 21391 38348 40666 56002
AAXX 30180 44230 329// 00103 11245 21275 38852 40491 58005
AAXX 30180 44232 329// 00000 11314 21348 39189 40486 54000
AAXX 30180 44237 32999 00000 11175 21225 38530 40399 58007
AAXX 30180 44239 329// 03401 11250 21281 38841 40406 58004 555 99600 99905
AAXX 30180 44241 329// 00000 11294 21317 39336 40445 56004
AAXX 30180 44256 415// 70000 11172 21191 39417 40340 56002 77172 8652/
AAXX 30180 44265 329// 00000 11216 21241 38917 40458 51008
AAXX 30180 44272 329// 00000 11179 21238 38254 40387 57017
AAXX 30180 44275 32998 00000 11243 21255 37767 40507 56005
AAXX 30180 44282 32999 02904 11089 21238 38333 40334 58010
AAXX 30180 44284 32999 00000 11263 21289 37902 40600 58005
AAXX 30180 44285 32999 01502 11232 21253 38367 40482 58003
AAXX 30180 44287 32999 00305 11171 21229 38170 40468 58003
AAXX 30180 44294 329// 03502 11310 21343 38603 40525 57004
AAXX 30180 44298 329// 00000 11220 21226 38761 40406 57005
AAXX 30180 44302 329// 32705 11254 21282 39164 40400 58009 83070
AAXX 30180 44305 32999 02903 11241 21271 39109 40388 58008
AAXX 30180 44313 41999 00000 11209 21236 39434 40345 57012 70271
AAXX 30180 44314 32998 00000 11200 21226 39194 40374 57008
AAXX 30180 44317 32998 00000 11196 21222 38991 40386 57009
AAXX 30180 44336 329// 03301 11223 21251 38751 40474 56001
AAXX 30180 44341 329// 00000 11200 21224 38654 40443 56002
AAXX 30180 44347 32999 00000 11175 21225 38770 40408 57005
AAXX 30180 44352 NIL
AAXX 30180 44358 329// 00000 11217 21229 39155 40426 50007
BBXX 46246 30181 99500 71451 46/// ///// 1//// 91759 22200 00068 11306 20805 326// 41304 70032
BBXX 46246 30181 99500 71451 46/// ///// 1//// 91829 22200 00068 10906 20905 325// 41303 70030
BBXX 46036 30181 99484 71339 46/// /2913 10057 40143 52043 22200 00080 11110 70052 333 91216
BBXX 46036 30181 99484 71339 46/// /2913 10057 40143 52043 22200 00080 11110 70052 333 91216
AAXX 30184 83766 21597 73202 10246 20223 39452 40088 5//// 70182 87500 333 60091
AAXX 30184 83836 32497 63603 10266 20185 39199 40075 58016 82374
AAXX 30184 83881 21497 73205 10280 20215 39783 40057 58009 75052 87800 333 69901
AAXX 30184 83980 31596 50902 10291 20169 39810 40084 58010 70521 85200
AAXX 30184 83997 32497 60514 10256 20164 30099 40142 58003 84202
AAXX 30184 83437 21596 82704 10227 20212 39404 40123 76096 8572/ 333 58031 60061
AAXX 30184 83579 32599 60000 10274 20195 38986 40084 86200 333 58004
AAXX 30184 83592 32597 53604 10282 20212 39430 40101 83262 333 59009
BBXX 46243 30181 99462 71241 46/// ///// 1//// 91829 22200 00083 11408 21005 326// 41405 70038
BBXX 46236 30181 99368 71219 46/// ///// 1//// 91820 22200 00122 11304 21002 328// 41304 70021
BBXX 46229 30181 99438 71246 46/// ///// 1//// 91821 22200 00098 11508 21005 329// 41506 70038
BBXX 46225 30181 99329 71174 46/// ///// 1//// 91814 22200 00149 11302 20801 327// 41301 70009
BBXX 46213 30181 99403 71247 46/// ///// 1//// 91824 22200 00110 11807 20804 329// 41806 70036
BBXX 46215 30181 99352 71209 46/// ///// 1//// 91808 22200 00131 12004 20703 325// 42003 70022
AAXX 30184 03008 11480 81617 10046 21002 40032 60012 70382 8482/ 91750 333 10053 83818 88462 90710 91126
BBXX 62163 30184 99475 70084 46/// /2622 10119 20106 40260 57014 22200 00125 10808 70038 333 90710 91128
BBXX 63055 30184 99606 10016 47999 /1405 10043 21045 40066 57010 700// 22200 10805 70026
BBXX 63106 30184 99610 10017 46/// /1204 10034 40068 58006 22200
BBXX 63105 30184 99610 10017 47698 ///// 10039 21068 40067 58007 700// 22200
BBXX 62094 30184 99517 70067 46/// /24// 10111 20106 40142 56016 22200 00106 10505 70026 333 90710 91137
BBXX 62103 30184 99499 70029 46/97 /2626 10118 20110 40174 56012 22200 00119 10703 70015 333 90710 91133
BBXX A8JC5 30184 99335 70275 41498 60708 10196 20138 40345 52007 70322 8544/ 22224 00210 20201 32914 41206 50604 80160
AAXX 30184 78318 11562 10504 10269 20177 30180 40184 58018 60001 70500 81200 333 10270 20178 30/// 56900 58008 81820
AAXX 30184 78325 11564 10506 10259 20173 30130 40188 58020 60001 70500 81160 333 10261 20188 30/// 56190 58010 81820 555 10501
AAXX 30184 78333 11410 21802 10279 20194 30176 40183 58020 60001 70500 82230 333 10279 20182 30/// 56490 58005 82818 555 11802
AAXX 30184 78348 01550 70402 10228 20216 30132 40185 58023 60101 76186 87802 333 10230 20206 31/// 56209 57814 58006 60027 70219 84820 86631 555 10902
AAXX 30184 78349 11566 60201 10274 20186 30078 40187 58025 60001 70511 86400 333 10280 20204 30/// 56200 57872 58004 86824 555 10902
AAXX 30184 78353 12570 40603 10280 20177 30168 40190 58017 60001 84800 333 10280 20221 30/// 56900 58008 83823
AAXX 30184 78360 12570 22503 10302 20200 30159 40170 58022 60001 81802 333 10302 20200 30/// 56909 57889 58007 81820 92012
AAXX 30184 78369 11568 10404 10281 20220 30159 40168 57016 60001 70511 81200 333 10281 20220 30/// 56900 57866 58006 81820 92013
AAXX 30181 23426 32984 23103 11106 21134 30001 40026 52033 82030 333 11055
AAXX 30181 23625 32998 32301 11122 21135 30019 40054 52028 83030 333 11067
AAXX 30181 28076 12697 80000 11086 21089 30059 40133 52024 69920 885// 333 11100
AAXX 30181 28367 11984 02101 11092 21098 30042 40174 52023 69900 70281 333 11025
AAXX 30181 28382 11998 80000 11085 21096 30098 40172 52021 69920 70287 8802/ 333 11042
AAXX 30181 28481 12997 82203 11064 21076 30087 40188 52024 69900 8807/ 333 11055
AAXX 30181 28491 12597 82302 11063 21082 30076 40189 52025 69900 885// 333 11039 88633
AAXX 30181 28573 12997 02302 11080 21086 30086 40193 52016 69920 333 11056
AAXX 30181 28593 11996 82203 11085 21104 30102 40203 52031 69900 77172 8802/ 333 11030
AAXX 30181 28786 12997 82503 11055 21076 30071 40233 52014 69900 8805/ 333 11050
AAXX 30181 28797 11597 82404 11068 21084 30075 40238 52013 69900 70282 885// 333 11038 88620
AAXX 30181 28799 11996 72503 11084 21099 30095 40245 52030 69940 77172 87070 333 11034
AAXX 30181 20046 NIL
AAXX 30181 20069 NIL
AAXX 30181 20087 41497 81606 11131 21151 39925 49937 51003 77173 8552/ 333 85615
AAXX 30181 20292 41498 72005 11151 21170 39975 49995 57007 70283 8553/ 333 91109
AAXX 30181 20353 46/// /3310 11093 21114 39896 49900 52007 333 91114
AAXX 30181 20667 11998 81601 11123 21136 39870 49877 53002 69900 70272 8805/ 333 11129
AAXX 30181 20674 41397 81907 11082 21088 39825 49884 57006 77173 8672/ 333 86707 91111
AAXX 30181 20744 11497 43610 11065 21101 39962 49980 52016 69900 73631 82101 333 11049
AAXX 30181 20891 42998 71703 11161 21203 30010 40054 53006 8705/ 333 91104
AAXX 30181 23022 11496 62907 11057 21068 39889 49949 52024 69900 78583 86900 333 11034
AAXX 30181 23032 11496 62909 11037 21045 39875 49905 52029 69960 78583 86900 333 11028 86911 91113
AAXX 30181 23058 11998 22306 11153 21159 39916 49920 53034 60010 73673 82030 333 11053
AAXX 30181 23242 11396 72205 11178 21204 39920 49936 52021 69920 78581 87900 333 11094 87909
AAXX 30181 23256 11998 82308 11159 21178 39924 49960 52035 60010 77173 80006 333 11045
AAXX 30181 23330 12697 62604 11065 21093 39974 49995 52032 69920 82531 333 11044
AAXX 30181 23445 11997 72106 11108 21121 39967 49993 52032 60010 72272 87030 333 11055
AAXX 30181 23552 11496 81902 11124 21144 39979 40014 52023 60020 77172 8802/ 333 11026 88513
AAXX 30181 23631 32998 82402 11146 21159 30006 40049 52026 80001 333 11099
AAXX 30181 23662 11996 82304 11049 21073 39991 40035 52021 69900 77172 8802/ 333 11026
AAXX 30181 23724 12998 82403 11053 21071 30008 40073 52021 8802/ 333 11058
AAXX 30181 23734 32998 60000 11128 21141 39982 40078 52027 82031 333 11139
AAXX 30181 23849 42996 02403 11137 21152 40103 52025
AAXX 30181 23867 11996 82705 11060 21079 30017 40090 52029 69920 77187 8807/ 333 11020
AAXX 30181 23933 32997 62102 11102 21111 30045 40103 52022 86030 333 11108
AAXX 30181 28064 12998 02301 11081 21091 30047 40141 52029 69900 333 11063
AAXX 30181 28275 12597 82302 11046 21070 30095 40156 52017 69900 885// 333 11055
AAXX 30181 28493 11596 82201 11087 21106 30093 40189 52028 69920 77172 885// 333 11037
AAXX 30181 28698 11596 82202 11069 21081 30067 40226 52022 69950 78582 85931 333 11036
BBXX WC5932 30184 99458 70871 43/// /0207 00/// 10008 21100 40069 57013 7//// 8//// 22200 0//// 2//// 3//// 4//// 5//// 6//// 81026 ICE /////
BBXX 3EUS 30183 99240 71117 41/// ///// 1//// 2//// 4//// 5//// 7//// 8//// 222// 0//// 2//// 3//// 4//// 5//// 6//// 8//// ICE /////
AAXX 30184 63688 32480 60908 10139 20082 48/// 81450 333 10223 58009 81616 86358
AAXX 30184 63695 32980 00000 10140 20106 333 10240
AAXX 30184 63708 32480 30000 10236 20169 48497 83030 333 10290 58011 83359
AAXX 30184 63772 32980 00807 10268 20230 333 10324
AAXX 30184 63820 32580 10608 10267 20238 40116 81100 333 10330 58000 81821
AAXX 30184 63612 NIL
AAXX 30184 63661 NIL
AAXX 30184 63671 NIL
AAXX 30184 63714 NIL
AAXX 30184 63723 NIL
AAXX 30184 63740 NIL
AAXX 30184 63793 NIL
BBXX 42363 30181 99282 70892 46/// /2008 10233 20111 40193 91830 333 91208
BBXX 42364 30181 99291 70881 46/// /2309 10217 20133 40190 91830
BBXX 42361 30181 99276 70925 46/// ///08 10250 20167 40169 58011 91830 555 11065 22069
BBXX 44100 30181 99363 70756 46/// ///// 1//// 91822 22200 00123 11301 20801 306// 41301 70006
BBXX 41110 30181 99341 70777 46/// ///// 1//// 91821 22200 00133 11301 20501 70006
BBXX 42099 30181 99273 70842 46/// ///// 1//// 91827 22200 00243 10502 20502 70011
BBXX 41113 30181 99284 70805 46/// ///// 1//// 91821 22200 00220 11401 20701 308// 41401 70005
BBXX 41112 30181 99307 70813 46/// ///// 1//// 91821 22200 00171 11401 308// 41401 70004
AAXX 30181 38847 3//// /2601 10009 20000 39550 40350 333 10029 777 92093
BBXX A8HD5 30181 99357 11209 41598 31802 10070 20021 40320 54000 70122 82141 22200 04065 20601 30000 40000 5//// 80050
BBXX V7NV4 30184 99333 11408 41797 70233 10110 20072 40180 7//21 86923 22263 00190 20310 30202 40310 50310 6//// 80090 ICE /////
BBXX ZDLP 30183 99526 50429 41297 83220 10057 20050 49975 58025 70252 886// 22261 04039 20202 324// 40908 5//// 80054
BBXX WC5932 30184 99458 70871 43/// /0207 00/// 10008 21100 40069 57013 7//// 8//// 22200 0//// 2//// 3//// 4//// 5//// 6//// 81026 ICE /////
BBXX 44063 30181 99390 70764 46/// /2004 1//// 91820 333 91205
BBXX 44041 30181 99372 70768 46/// /1404 1//// 40179 91810 333 91204
BBXX 44041 30181 99372 70768 46/// /1503 1//// 91820 333 91204
BBXX 44042 30181 99380 70763 46/// /1304 1//// 91820 333 91205
BBXX 44063 30181 99390 70764 46/// /2004 1//// 40175 91810 333 91205
BBXX 44062 30181 99386 70764 46/// /1604 10070 40139 57028 91800 22200 00081 10201 70003 333 91205
BBXX 46132 30181 99497 71279 46/// ///// 1//// 4//// 5//// 22200 0//// 1//// 70/// 333 912//
BBXX 46205 30181 99542 71343 46/// /3014 10030 40023 52051 22200 00071 10809 70044 333 91218
BBXX 46206 30181 99488 71260 46/// /2815 10072 40058 52060 22200 00083 11311 70056 333 91220
BBXX 46185 30181 99524 71298 46/// /3015 10051 40002 52084 22200 00070 10910 70050 333 91218
BBXX WKAE 30183 99269 70799 41598 22205 10232 20152 40185 58020 70100 82200 22244 00240 20101
BBXX 46221 30181 99339 71186 46/// ///// 1//// 91745 22200 00150 10802 20802 326// 41101 70012
BBXX 46114 30181 99364 71222 46/// ///// 1//// 91804 22200 00122 11806 21003 328// 41805 70032
BBXX 51205 30181 99210 71564 46/// ///// 1//// 91818 22200 00236 11005 21004 332// 41303 70023
BBXX 44033 30181 99441 70690 46/30 /1202 11011 40194 56013 91804 22200 00064 10801 70004 333 91202 555 11016 22016
BBXX 44034 30181 99441 70681 46/30 /2602 11012 40193 56014 91804 22200 00077 10802 70011 333 91203 555 11018 22019
BBXX 41115 30181 99184 70673 46/// ///// 1//// 91805 22200 11403 21002 301// 41402 70013
BBXX 42364 30181 99291 70881 46/// /2208 10217 20139 40190 91815
BBXX 42362 30181 99278 70907 46/// /2107 10228 20128 40193 91815
BBXX 41114 30181 99276 70802 46/// ///// 1//// 91816 22200 00233 11302 20301 306// 41301 70008
BBXX 42363 30181 99282 70892 46/// /2108 10228 20111 40193 91815 333 91208
BBXX 41036 30181 99342 70770 46/// ///// 10157 20070 40190 91820 22200 00174
BBXX 41029 30181 99328 70796 46/// /2204 1//// 91800 555 11038 22038
BBXX OZBY2 30184 99380 71429 41/// 61220 10120 2006/ 40240 52010 7//51 8//// 22224 00150 20202 327// 41208 5//// 6//// 80090 ICE /////
BBXX 46036 30181 99484 71339 46/// /2913 10057 40143 52043 22200 00080 11110 70052 333 91216
BBXX 46246 30181 99500 71451 46/// ///// 1//// 91759 22200 00068 11306 20805 326// 41304 70032
BBXX 46246 30181 99500 71451 46/// ///// 1//// 91829 22200 00068 10906 20905 325// 41303 70030
BBXX 46232 30181 99325 71174 46/// ///// 1//// 91808 22200 00147 11103 20802 328// 41102 70014
BBXX 46247 30181 99378 71228 46/// ///// 1//// 91821 22200 00115 11205 21003 329// 41204 70023
BBXX 44140 30181 99429 70515 46/// /2408 10143 40187 52005 22200 00081 11411 70056 333 91209
BBXX 3EUS 30183 99240 71117 41/// ///// 1//// 2//// 4//// 5//// 7//// 8//// 222// 0//// 2//// 3//// 4//// 5//// 6//// 8//// ICE /////
BBXX 44258 30181 99445 70634 46/// /2508 10005 40184 52011 22200 00054 11105 70024 333 91211
BBXX KS088 30184 99267 70801 43/// /0700 10224 40189 22200 06215
BBXX KS007 30184 99267 70801 43/// ///// 10215 40153 22200
BBXX KS094 30184 99172 70626 43/// /1119 10276 40170 22200 06262
BBXX 46146 30181 99493 71237 46/// /1707 10076 40016 52026 22200 00073 10301 70003 333 91208
BBXX 46004 30181 99509 71361 46/// /3013 10035 40109 52046 22200 00073 10910 70048 333 91216
BBXX 46184 30181 99539 71389 46/// /3012 10006 40075 52044 22200 00060 11008 70042 333 91214
BBXX 44059 30181 99368 70763 46/// /2105 1//// 40157 91810 333 91207
BBXX 44057 30181 99395 70761 46/// /0601 1//// 91820 333 91201
BBXX 44057 30181 99395 70761 46/// /0000 1//// 40157 91810 333 91201
BBXX 46092 30181 99368 71220 46/// /3403 10112 40246 52025 91757 22200 00121 555 11026 22026
BBXX 44059 30181 99368 70763 46/// /2105 10135 40158 57030 91800 22200 00103 333 91208
BBXX 44059 30181 99368 70763 46/// /2305 1//// 91820 333 91207
BBXX 44058 30181 99376 70763 46/// /1504 1//// 91820 333 91204
BBXX 44058 30181 99376 70763 46/// /1704 10092 40161 57023 91800 22200 00084 10201 70003 333 91204
BBXX 44058 30181 99376 70763 46/// /1604 1//// 40158 91810 333 91204
BBXX 44057 30181 99395 70761 46/// /0601 10062 40157 57020 91800 22200 00045 333 91201
BBXX 46181 30181 99538 71288 46/// /1806 10027 49954 52058 22200 00036 10200 70001 333 91208
BBXX ZCDM6 30183 99237 70829 41998 01213 10255 20185 40170 58005 70200 80000 22224 00270 20401 30811 40801 50601 80210
BBXX GDTT 30184 99106 70668 41398 30914 10275 20231 40124 58025 70211 81206 22200 02235 20201 304// 40303 80245
BBXX LAXP4 30184 99152 70722 41497 71017 00/// 10230 2023/ 40157 57010 79222 86693 22253 00270 20603 335// 40402 80230 NNNN
BBXX ELWZ5 30184 99467 71567 41297 81431 10065 20018 40020 57019 7//66 887// 22224 04130 2//05 3//// 4//// 5//// 80044
BBXX ZCDG4 30183 99213 70759 41598 20514 10261 20213 40179 57020 70100 82100 22234 00270 20501 300// 4//// 5////
BBXX 44043 30181 99392 70764 46/// /1905 10072 40152 57021 91800 22200 00059 1//00 70002 333 91206
BBXX 41010 30181 99289 70785 46/// /1601 10219 40197 91820 22200 00237 11401 300// 41401 70007 333 91203 555 11014 22015
BBXX 41009 30181 99285 70802 46/// /3602 10209 20151 40200 91820 22200 00231 11401 300// 41401 70007 333 91202 555 11016 22017
BBXX 44043 30181 99392 70764 46/// /1704 1//// 91820 333 91204
BBXX 44043 30181 99392 70764 46/// /1904 1//// 40150 91810 333 91206
BBXX 44042 30181 99380 70763 46/// /1203 10089 40159 57029 91800 22200 00084 1//00 70002 333 91204
BBXX 44042 30181 99380 70763 46/// /1204 1//// 40158 91810 333 91204
BBXX 44062 30181 99386 70764 46/// /1505 1//// 91820 22200 00082 333 91205
BBXX 44041 30181 99372 70768 46/// /1404 10099 40181 57029 91800 22200 00083 1//00 70000 333 91204
BBXX 44062 30181 99386 70764 46/// /1605 1//// 40139 91810 22200 00081 333 91206
BBXX 44063 30181 99390 70764 46/// /2004 10070 40173 57024 91800 22200 00068 10201 70003 333 91204
BBXX MLJA8 30183 99253 10566 41498 30310 10240 20210 40233 54000 70222 8/1// 22200 04250 2//01 317// 4//02 5//// 80220
BBXX A8RV9 30184 99096 50267 41598 31315 10275 20203 40130 53010 70300 8/16/ 22234 20604 311// 40804 5//// 80225
BBXX TBWUK34 30183 99037 70103 41398 71806 10258 20247 40124 56004 72052 877// 22234 00310 20200 318// 40601 5//// 80250
BBXX VQHO7 30184 99061 50291 41498 31122 10265 20225 40115 57013 70300 83200 22234 00270 20404 315// 40506 5//// 80238
BBXX MLRM6 30183 99384 30104 41598 62425 10129 20062 40206 53007 70222 86500 22252 00151 20202 324// 40306 5////
BBXX VQIB9 30184 99330 30302 41598 30711 10215 20166 40126 54000 70200 82543 22254 00240 2//// 3//// 4//// 5//// 80185
BBXX MSTM6 30183 99152 10533 41998 20515 10260 20122 40180 52/// 70211 80005 22214 00248 20103 305// 40102 80180
BBXX TBWUK17 30183 99327 30287 41398 61213 10244 20212 40159 52039 70322 85/// 22253 04260 20101 313// 40504 5//// 80223
BBXX TBWUK18 30183 99321 30405 41298 22014 10220 20205 40137 54000 70100 8214/ 22222 00230 20502 335// 40903 5//// 80210
BBXX VRGJ6 30183 99205 10675 41898 20323 10250 20083 40143 56013 702// 81101 22234 04260 20304 303// 40902 5//// 80160
BBXX DGZT2 30183 99394 70098 41598 30315 10130 20088 40350 52010 70300 83800 22284 04160 2//// 80107
BBXX A8IN9 30183 99419 70201 41598 42306 10159 20149 40345 50001 70111 83541 22254 06160 20602 335// 41803 5//// 80153
BBXX C6OT4 30184 99116 71004 41598 60910 10291 20236 40185 54008 70200 86141 22223 04280 20104 30000 4//// 5//// 80253
BBXX ZCBU3 30184 99341 31646 41298 81840 10175 20102 40105 58016 70222 8/74/ 22224 00200 20402 31200 40508 5//// 80136
BBXX ELVF4 30181 99082 30743 41696 72304 10270 20249 40147 51010 7//// 877/3 22214 06220 20401 32322 40403 50503 80255
BBXX AVMI 30183 99330 31517 41198 60410 10195 20/// 40290 53000 70302 85111 22200 00200
BBXX A8MH2 30184 99278 31560 41598 61824 10230 40130 54000 70322 84444 22234 20505 399// 4//// 5//// 80000
BBXX A8TX8 30183 99078 31198 41/98 /2905 10285 20242 40094 58005 703// 8//// 22224 04300 20400 30000 80255
BBXX C6FS9 30184 99388 31429 46/// /0907 10169 20148 30122 40159 57004 22223 04174 85156
BBXX 9HA2479 30184 99271 31602 46/// /1732 10214 20171 30085 40114 57004 22214 04231 85186
BBXX VNAH 30184 99383 31416 46/// /0702 10163 20127 30126 40150 57007 22200 04198 85142
BBXX VROB 30184 99274 31532 46/// /2008 10205 20133 30132 40157 57004 22200 04247 85161
BBXX 42013 30181 99272 70829 46/// ///// 1//// 40201 91740 22200 00204
AAXX 30184 60101 32460 20101 10091 20064 40334 53004 82500 333 10169 82616
AAXX 30184 60135 32558 30000 10083 20058 40321 50005 83500 333 10169 83620
AAXX 30184 60156 15460 20107 10128 20062 40333 51011 60002 82200 333 10171 82816
AAXX 30184 60230 15958 00407 10145 20018 40303 51010 60002 333 10206
AAXX 30184 60252 32960 02105 10153 20061 40289 53008 333 10205 95800
BBXX 46238 30181 99334 71195 46/// ///// 1//// 91820 22200 00138 11304 20803 329// 41302 70021
BBXX 46239 30181 99363 71221 46/// ///// 1//// 91821 22200 00120 11206 21003 330// 41205 70030
BBXX 46219 30181 99332 71199 46/// ///// 1//// 91828 22200 00131 11306 20805 330// 41303 70030
BBXX 46214 30181 99379 71235 46/// ///// 1//// 91820 22200 00120 11306 21003 330// 41305 70029
BBXX 51204 30181 99213 71581 46/// ///// 1//// 91822 22200 00245 11203 21002 330// 41202 70013
BBXX 51202 30181 99214 71577 46/// ///// 1//// 91809 22200 00238 11104 20804 302// 41101 70019
BBXX 44099 30181 99369 70757 46/// ///// 1//// 91822 22200 00101 11301 20301 70006
AAXX 30184 91723 NIL
AAXX 30184 91964 36/// /0909 10236 20211 40208 52000
AAXX 30181 01380 11580 13105 11065 21101 60002 70200 81500 333 11051 4/032 91113
OOXX AABRI 30184 99839 51342 60134 05251 46/// /1403 11034 21218 39102 49707 5//// 91750
OOXX AAEMI 30184 99785 31731 57083 00521 46/// /2005 11056 21111 39796 49861 5//// 91750
AAXX 30183 63612 32980 00904 10254 20129 40126 333 10354 58008
AAXX 30183 63661 32980 63606 10183 20102 48539 8605/ 10263 333 58006 86359
AAXX 30183 63723 32980 00803 10300 20156 40099 333 10357 59007
AAXX 30183 63793 32980 00000 10245 20167 40095 333 10304 58000
BBXX 44137 30181 99423 70620 46/// /2810 10077 40205 57001 22200 00100 11007 70036 333 91212
BBXX DGXS 30184 99543 71683 41498 43107 11020 21068 40113 57008 72277 844// 22224 00050 2//// 3//// 4//// 5//// 82035
BBXX DHEB 30183 99541 71786 41/98 52022 11030 40092 56017 70222 85/// 22264 04020 2//// 3//// 4//// 5////
BBXX ELWZ5 30184 99467 71567 41297 81431 10065 20018 40020 57019 7//66 887// 22224 04130 2//05 3//// 4//// 5//// 80044
BBXX 3FMH7 30184 99330 11732 41598 71722 00/// 10180 20148 40192 57014 70322 87/// 9//// 22263 00190 1//// 2//03 399// 41206 5//// 6//// 80160
AAXX 30183 63612 32980 00904 10254 20129 40126 333 10354 58008
AAXX 30183 63661 32980 63606 10183 20102 48539 8605/ 10263 333 58006 86359
AAXX 30183 63723 32980 00803 10300 20156 40099 333 10357 59007
AAXX 30183 63793 32980 00000 10245 20167 40095 333 10304 58000
BBXX 44137 30181 99423 70620 46/// /2810 10077 40205 57001 22200 00100 11007 70036 333 91212
AAXX 30181 31152 42997 30000 11392 21425 39921 40391 53004 80002
AAXX 30181 31163 NIL
AAXX 30181 31285 NIL
AAXX 30181 31561 42998 30000 11264 21282 30279 40310 52005 80001
AAXX 30181 31683 41699 13201 11148 21175 30191 40270 53008 70171 81500
AAXX 30181 32010 42998 63102 11191 21203 30215 40268 58001 80030 333 91003 91103
OOXX AAMIZ 30184 99707 30443 58304 22602 46/// /1106 11184 2//// 37400 49643 5//// 91750
OOXX AAVIT 30184 99785 31778 57087 00501 46/// /2011 11044 21075 39758 49820 5//// 91750
OOXX AAPEG 30184 99779 31666 57186 00051 46/// /1204 10001 21143 39818 49824 57001 91800
OOXX AAERI 30184 99849 51288 60048 09901 46/// /0000 11099 21122 3//// 4//// 5//// 91750
OOXX AALAU 30184 99775 31708 57070 00371 46/// /1504 11070 21115 39775 49821 5//// 91750
AAXX 30183 63612 32980 00904 10254 20129 40126 333 10354 58008
AAXX 30183 63661 32980 63606 10183 20102 48539 8605/ 333 10263 333 58006 86359
AAXX 30183 63723 32980 00803 10300 20156 40099 333 10357 59007
AAXX 30183 63793 32980 00000 10245 20167 40095 333 10304 58000
AAXX 30184 71592 16/// /0304 11305 21344 30073 40087 56014 60001 333 11270 21316 70000
AAXX 30184 71963 16/// /0309 11275 21301 39643 40063 53005 60001 333 11253 21277 70000
AAXX 30184 71761 16/// ///// 11051 21104 60001 333 11051 21154 70016
AAXX 30184 71923 16/// ///10 11160 21172 39552 40002 58002 60001 333 11157 21171 70000 555 10010
AAXX 30184 71426 46/// /3221 11127 6///1 333 11123 21161 7////
AAXX 30184 71490 16/// /0414 11302 21329 39760 40098 58001 60001 333 11281 21310 70000
BBXX 44138 30181 99443 70536 46/// /2616 10073 40153 52013 22200 00093 11416 70081 333 91221
AAXX 30184 71923 16/// ///10 11160 21172 39552 40002 58002 60001 333 11157 21171 70000 555 10010
AAXX 30184 71963 16/// /0309 11275 21301 39643 40063 53005 60001 333 11253 21277 70000
AAXX 30184 71426 46/// /3221 11127 6///1 333 11123 21161 7////
AAXX 30184 71761 16/// ///// 11051 21104 60001 333 11051 21154 70016
AAXX 30184 71592 16/// /0304 11305 21344 30073 40087 56014 60001 333 11270 21316 70000
AAXX 30181 40650 12960 50000 10088 20014 40246 50006 60002 80006
AAXX 30181 40608 12960 00000 10026 21002 40261 52012 60002
AAXX 30181 40621 12960 00000 10092 20027 40275 51002 60002
AAXX 30181 40629 12560 50902 10080 20038 40246 54000 60002 83032
AAXX 30181 40634 12960 20000 10090 20045 40232 58004 60002 82040
AAXX 30181 40643 12560 51306 10104 21018 40179 57016 60002 85500
AAXX 30181 40656 12960 00000 10112 20031 40225 52005 60002 80002
AAXX 30181 40665 12960 00000 10092 20025 40258 53008 60002
AAXX 30181 40670 12960 81202 10120 20028 40238 53001 60002 80008
AAXX 30181 40672 12960 80000 10122 20037 40259 53004 60002 8801/
AAXX 30181 40674 12960 50000 10100 21005 40246 52013 60002 80002
AAXX 30181 40676 12960 40000 10102 20021 40244 50004 60002 81032
AAXX 30181 40680 12960 22901 10088 20008 40232 53006 60002 81032
AAXX 30181 40689 12960 00000 10110 20028 40248 51003 60002
AAXX 30181 40691 12960 20000 10136 20004 40258 51002 60002 80001
AAXX 30181 40627 12960 61303 10098 21023 40218 54000 60002 84032
AAXX 30181 40690 12960 20000 10108 20017 40241 52003 60002 80001
AAXX 30181 40664 1800 12960 20000 10080 21055 40244 52007 80002
BBXX 44138 30181 99443 70536 46/// /2616 10073 40153 52013 22200 00093 11416 70081 333 91221
AAXX 30184 71490 16/// /0414 11302 21329 39760 40098 58001 60001 333 11281 21310 70000
AAXX 30184 87585 32960 60505 10287 20161 30074 40104 58009 80007 333 56001 86270
OOXX AAERC 30184 99815 31639 60713 00451 46/// /0000 11018 21181 39751 49806 52004 91750
AAXX 30181 40001 32970 00704 10025 21045 40244 53005
AAXX 30181 40007 32960 00706 10064 20017 40201 50001 333 10108
AAXX 30181 40025 32965 03603 10100 20025 40143 55005 333 10192
AAXX 30181 40045 32570 60907 10080 21021 40229 54000 83550 333 10116 83630 86360
AAXX 30181 40061 32970 50305 10085 21042 40181 56007 80002 333 10108 85070
AAXX 30181 40080 32965 00301 10014 21062 39457 40193 53004 333 10112
AAXX 30181 40087 NIL
AAXX 30181 40095 NIL
AAXX 30181 40009 32965 01001 10046 20005 40203 51002 333 10128
AAXX 30181 40016 NIL
AAXX 30181 40022 32965 00205 10116 20041 40146 53004 222// 20501 333 10152
AAXX 30181 40030 31560 50000 10018 20010 40187 58004 71022 82550 333 10051 82630 85360
AAXX 30181 40039 32970 00000 10050 20012 40204 50000 333 10112
AAXX 30181 40066 32970 01303 10076 20014 40154 53008 333 10090
AAXX 30181 40072 32970 01602 10094 20006 40231 54000 333 10128
AAXX 30181 40083 32970 01801 10042 21046 48464 54000 333 10100
AAXX 30184 89514 32998 71111 10007 49808 52001 87007 333 87270
BBXX 46004 30181 99509 71361 46/// /3013 10035 40109 52046 22200 00073 10910 70048 333 91216
BBXX 46036 30181 99484 71339 46/// /2913 10057 40143 52043 22200 00080 11110 70052 333 91216
BBXX 46181 30181 99538 71288 46/// /1806 10027 49954 52058 22200 00036 10200 70001 333 91208
BBXX 46183 30181 99536 71311 46/// /0904 10038 49999 52068 22200 00074 10705 70024 333 91211
BBXX 46185 30181 99524 71298 46/// /3015 10051 40002 52084 22200 00070 10910 70050 333 91218
BBXX 46204 30181 99514 71288 46/// /2514 10065 40012 52098 22200 00080 11212 70060 333 91218
BBXX 46205 30181 99542 71343 46/// /3014 10030 40023 52051 22200 00071 10809 70044 333 91218
BBXX 46206 30181 99488 71260 46/// /2815 10072 40058 52060 22200 00083 11311 70056 333 91220
BBXX OZBY2 30184 99380 71429 41/// 61220 10120 20060 40240 52010 7//51 8//// 22224 00150 20202 327// 41208 5//// 6//// 80090 ICE /////
AAXX 30181 40608 12960 00000 10026 21002 40261 52012 60002
AAXX 30181 40621 12960 00000 10092 20027 40275 51002 60002
AAXX 30181 40627 12960 61303 10098 21023 40218 54000 60002 84032
AAXX 30181 40629 12560 50902 10080 20038 40246 54000 60002 83032
AAXX 30181 40634 12960 20000 10090 20045 40232 58004 60002 82040
AAXX 30181 40643 12560 51306 10104 21018 40179 57016 60002 85500
AAXX 30181 40650 12960 50000 10088 20014 40246 50006 60002 80006
AAXX 30184 89614 46/// /2604 11066 29100 39035 4//// 5//// 333 90700 91106
AAXX 30184 89807 46/// /1805 11022 29100 39824 4//// 5//// 333 90700 91106
AAXX 30181 40656 12960 00000 10112 20031 40225 52005 60002 80002
AAXX 30181 40665 12960 00000 10092 20025 40258 53008 60002
AAXX 30181 40670 12960 81202 10120 20028 40238 53001 60002 80008
AAXX 30181 40672 12960 80000 10122 20037 40259 53004 60002 8801/
AAXX 30181 40674 12960 50000 10100 21005 40246 52013 60002 80002
AAXX 30181 40676 12960 40000 10102 20021 40244 50004 60002 81032
AAXX 30181 40680 12960 22901 10088 20008 40232 53006 60002 81032
AAXX 30181 40689 12960 00000 10110 20028 40248 51003 60002
AAXX 30181 40690 12960 20000 10108 20017 40241 52003 60002 80001
AAXX 30181 40691 12960 20000 10136 20004 40258 51002 60002 80001
AAXX 30184 94210 35/// /2609 10282 30061 40066 57017
AAXX 30184 94289 46/// /1225 10275 30058 40065 53001 91815
AAXX 30184 94379 46/// /1316 10255 30090 40099 55002 91826
AAXX 30184 94997 46/// ///// 10020 30064 40079 5////
AAXX 30184 94290 46/// /1222 10270 30068 40077 53001 91824
AAXX 30184 94997 46/// ///// 10020 30064 40079 5////
AAXX 30184 94290 46/// /1222 10270 30068 40077 53001 91824
AAXX 30184 89614 46/// /2604 11066 29100 39035 4//// 5//// 333 90700 91106
AAXX 30184 89807 46/// /1805 11022 29100 39824 4//// 5//// 333 90700 91106
AAXX 30184 43014 32996 00000 10190 20147 39476 40132 333 59009
BBXX SHIP 30184 99213 11214 41797 70331 10210 20195 40192 56005 70222 86554 22282 00245 20408 304// 40408 80200
AAXX 30181 55228 32980 00000 11127 21355 36031 57002 333 00000 11003
AAXX 30181 55578 32980 00000 11062 21217 36398 52007 333 00204 10114
AAXX 30181 55664 32980 00000 11046 21260 36043 52001 333 00203 10100
AAXX 30181 55773 32970 00000 11092 21219 36049 54000 333 00102 10070
AAXX 30181 56116 32980 00000 11094 21186 36375 52002 333 00351 10063
AAXX 30181 56137 32980 00000 11062 21217 36834 52005 333 00301 10131
AAXX 30181 56172 32980 00701 11045 21111 37397 52008 333 00401 10113
AAXX 30181 56247 32980 01101 10010 21131 37468 52008 333 00301 10158
AAXX 30181 56312 32980 00000 11037 21062 37129 52005 333 00255 10126
AAXX 30181 56462 32980 03401 11029 21076 37172 52005 333 00201 10127
AAXX 30181 56651 32980 00402 10079 21066 37659 52005 333 00104 10164
AAXX 30181 56691 11363 83603 11023 21030 37834 52008 69911 76666 887// 333 00252 10020 93428
AAXX 30181 56985 32562 31601 10117 20087 38749 40198 52007 83100 333 00100 10173
AAXX 30181 57633 11759 81401 10034 21002 39521 40328 57003 69901 71060 885// 333 00051 10056
AAXX 30181 57902 11456 80402 10034 20034 38711 40306 52010 69971 76066 887// 333 00251 10044
AAXX 30181 55279 32980 00000 11151 21299 35725 57001 333 00261 10011
AAXX 30181 55472 32980 00201 11053 21227 35760 52003 333 00201 10033
AAXX 30181 55696 32980 00000 11082 21100 36385 52011 333 00201 10134
AAXX 30181 56079 32980 00000 11139 21172 36726 54000 333 00453 10027
AAXX 30181 56106 32980 00000 11122 21278 36245 52003 333 00301 10056
AAXX 30181 56257 32980 00000 11076 21218 36308 52001 333 00300 10097
AAXX 30181 56374 32480 80904 11035 21055 37483 52002 885// 333 00300 10017
AAXX 30181 56385 31/00 93201 11064 21067 37052 57004 74944 333 00202 11050
AAXX 30181 56954 32962 00000 10106 20106 40205 52006 333 00100 10244
AAXX 30181 56966 32770 10905 10165 20114 40185 52008 81100 333 00252 10272
AAXX 30181 57237 32960 83201 10021 21008 40318 57003 8807/ 333 10085
AAXX 30181 57306 31957 02901 10042 20039 40316 57006 71000 333 10102
AAXX 30181 57604 11715 81801 10075 20068 40318 57006 69901 71060 885// 333 10086
AAXX 30181 57707 11460 83201 10019 20003 38580 52003 69911 70060 886// 333 00200 10028
AAXX 30181 57832 32660 80702 10039 21007 39559 40321 54000 885// 333 00151 10060
AAXX 30181 38847 416// 80000 10010 20002 40379 58003 76166 8802/
BBXX CFO383 30184 99439 70602 47698 /2524 10037 2104/ 40174 52002 700// 8/ // 22200 0//// 1//// 2//// 3//// 4//// 5//// 6//// 70// 80014 333 91030
BBXX CFO383 30184 99439 70602 47698 /2524 10037 2104/ 40174 52002 700// 8/ // 22200 0//// 1//// 2//// 3//// 4//// 5//// 6//// 70// 80014 333 91030
AAXX 30181 37832 32997 00000 10005 21005 40255 57004 333 10093
AAXX 30181 37729 42997 02003 11028 21041 38560 57008 333 10055 53004
AAXX 30181 37470 32996 03204 10053 20018 30151 40129 53007 333 10084
AAXX 30181 37472 32997 03004 10000 21017 30173 40150 53007 333 10079
AAXX 30181 38111 32997 01209 10021 21022 30258 40229 57015 333 10058
AAXX 30181 38750 32997 00203 10053 20021 30275 40246 57017 333 10127
AAXX 3018/ 48969 NIL
AAXX 3018/ 48962 NIL
AAXX 3018/ 48990 NIL
AAXX 3018/ 48986 NIL
AAXX 3018/ 48995 NIL
AAXX 3018/ 48967 NIL
AAXX 3018/ 48992 NIL
AAXX 3018/ 48965 NIL
AAXX 3018/ 48985 NIL
AAXX 3018/ 48970 NIL
AAXX 3018/ 48991 NIL
AAXX 3018/ 48964 NIL
AAXX 3018/ 48997 NIL
AAXX 3018/ 48968 NIL
AAXX 3018/ 48973 NIL
AAXX 3018/ 48966 NIL
AAXX 3018/ 48983 NIL
AAXX 3018/ 48972 NIL
AAXX 3018/ 48998 NIL
AAXX 3018/ 48993 NIL
AAXX 3018/ 48971 NIL
AAXX 3018/ 48963 NIL
AAXX 3018/ 48987 NIL
BBXX 42360 30181 99267 70905 46/// /2004 10225 91800 22200 00245 10301 70004 333 91205
BBXX 41053 30181 99185 70661 46/// /0808 10272 40161 91830 333 91210
BBXX 41053 30181 99185 70661 46/// /0808 10272 40160 91820 333 91210
BBXX 41053 30181 99185 70661 46/// /0808 10272 40161 91810 333 91210
BBXX 41033 30181 99323 70804 46/// /1802 1//// 40196 58028 91800 555 11024 22024
BBXX 44056 30181 99362 70757 46/// ///// 1//// 91750 22200 00118 11301 21001 70004
BBXX A8IZ2 31112 30184 99367 10140 43/98 82816 10160 20075 40135 57005 7//// 8//// 22234 2//// 3//// 4//// 80115
AAXX 30184 71050 46/// /2202 11114 21128 38874 49945 51022 6///1 333 11015 21135 7////
AAXX 30184 71048 16/// /1507 11003 21025 60001 333 11003 21062 70052
AAXX 30184 71277 46/// /0306 11050 21066 6///1 333 11050 21092 7////
AAXX 30184 71981 16/// /2414 10053 21037 60001 333 10053 21014 70000
AAXX 30184 71982 16/// /3105 10027 21044 60001 333 10032 21027 70000
AAXX 30184 71986 16/// /2018 10023 21024 60001 333 10023 21048 70000
AAXX 30184 71990 17/// /2304 11163 21188 38337 49949 53007 69941 7//4/ 333 11129 21197 70016
AAXX 30184 71406 17/// /3525 11022 21066 30015 40025 53063 69971 7//4/ 333 11007 21039 70129
AAXX 30184 71418 46/// /2732 11018 21042 30067 40100 53028 6///1 333 11013 21054 7////
AAXX 30184 71354 16/// /1108 11042 21083 60001 333 11042 21112 7////
AAXX 30184 71050 46/// /2202 11114 21128 38874 49945 51022 6///1 333 11015 21135 7////
AAXX 30184 71406 17/// /3525 11022 21066 30015 40025 53063 69971 7//4/ 333 11007 21039 70129
AAXX 30184 71418 46/// /2732 11018 21042 30067 40100 53028 6///1 333 11013 21054 7////
AAXX 30184 71048 16/// /1507 11003 21025 60001 333 11003 21062 70052
AAXX 30184 71981 16/// /2414 10053 21037 60001 333 10053 21014 70000
AAXX 30184 71982 16/// /3105 10027 21044 60001 333 10032 21027 70000
AAXX 30184 71986 16/// /2018 10023 21024 60001 333 10023 21048 70000
AAXX 30184 71990 17/// /2304 11163 21188 38337 49949 53007 69941 7//4/ 333 11129 21197 70016
AAXX 30184 71354 16/// /1108 11042 21083 60001 333 11042 21112 7////
AAXX 30184 71277 46/// /0306 11050 21066 6///1 333 11050 21092 7////
AAXX 30181 31285 42999 02001 11263 21294 30242 40329 54000
AAXX 30181 01293 11660 80101 11019 21025 39826 40037 51030 60052 70282 888// 333 10004 91105
AAXX 30184 89610 46/// /0411 11079 39724 4//// 5//// 333 90700 91113
BBXX DAJT 30184 99299 50133 41598 20208 10245 20169 40200 58010 70100 8/1// 22264 04230 2//01 80195
BBXX A8RU5 30184 99123 10440 41/98 /1009 10247 20177 40190 51010 70200 22275 80200
AAXX 30184 89610 46/// /0411 11079 39724 4//// 5//// 333 90700 91113
BBXX VQNW6 30184 99007 30861 41997 03311 10282 20240 40131 51012 702// 80000 22233 00288 2//// 3//// 4//// 5//// 80253
BBXX BATFR19 30184 99067 30055 46/// /1812 10235 20192 40136 53010 22200 00257
BBXX MIBR 30183 99130 30785 41597 82125 10280 20237 40066 52020 71822 87/// 22254 00293 2//// 3//// 4//// 5//// 80250
BBXX ONDY 30184 99132 30753 41397 82126 10260 2023/ 40060 57020 78082 8//// 22214 00290 2//// 3//// 4//// 5//// 6//// 80240 /////
BBXX TBWUK42 30184 99135 30731 41597 81817 10275 20247 40095 57/// 70500 81800 22213 20903 313// 41407 5//// 80255
BBXX 3FMV6 30183 99247 30539 41398 63516 10260 20246 40097 51010 70122 86566 22213 06260 20101 80250
BBXX PCSV 30183 99319 30135 41598 22015 10190 20157 40185 53/// 70111 82100 22273 04193 20603 319// 40803 80169
BBXX A8CK2 30184 99329 30304 41497 40612 10250 20220 40120 52010 70200 84/4/ 22264 21002 3//// 4//// 5//// 80230
BBXX DBBT 30181 99339 30184 46/// /1509 10208 20114 40142 52010 22220 00157
BBXX SHIP 30184 99478 31100 41697 63429 10090 20058 40028 57054 70122 84850 22243 00068 11305 399// 85074
BBXX DBLK 30181 99488 30014 41196 82813 10060 20057 49996 52008 75152 886// 22212 04053 20605 328// 41007
AAXX 30184 89610 46/// /0411 11079 39724 4//// 5//// 333 90700 91113
AAXX 30184 91636 11498 79901 10264 20240 40088 60021 78022 8337/ 333 5689/
AAXX 30184 91643 11498 62404 10255 20241 40083 53013 60081 71688 83368 333 56699 83918 84360 86280
AAXX 30184 91636 11498 79901 10264 20240 40088 60021 78022 8337/ 333 5689/
AAXX 30184 91643 11498 62404 10255 20241 40083 53013 60081 71688 83368 333 56699 83918 84360 86280
AAXX 30181 98550 11458 80000 10248 20237 40120 58018 60151 76086 8322/ 333 56999 83818 88457
AAXX 30181 98653 11462 80402 10281 20261 30052 40097 57013 60151 70584 83278 333 56999 83818 84358
AAXX 30181 98741 11465 80402 10250 20242 40097 57008 60011 70282 8327/ 333 56199 83817 88358
AAXX 30181 98755 11575 40000 10243 20236 40099 58022 60121 70182 82506 333 56999 82620 84080
AAXX 30184 89657 46/// /1301 11016 20001 49849 57003
BBXX 64045 30184 99591 70117 46/// /2522 10096 20091 49910 55003 22200 00101 10707 70037 333 90710 91130
BBXX BATEU08 30184 99588 70188 46/// /2731 10079 20054 49922 53014 22223
BBXX 62112 30184 99584 70002 47498 /1615 10055 20012 40061 57025 700// 22200
BBXX 62113 30184 99584 10002 47599 /1614 10053 20005 40062 58022 700// 22200
BBXX 62129 30184 99584 10003 46/// ///// 10054 20009 40064 58020 22200
BBXX 62114 30184 99583 10000 46/// /1616 10051 20006 40063 57023 22200
BBXX BATFR04 30184 99581 70097 46/// /2529 10102 20090 49936 50003 22243 00107
BBXX PJAI 30184 99581 70014 47397 /1818 10070 20007 40045 57032 762// 22200
BBXX 62111 30184 99580 70003 46/// /1913 10058 21004 40063 57028 22200 10704 70022
BBXX 62117 30184 99579 10000 47898 /1814 10057 20010 40066 57024 700// 22200 10604 70019
BBXX 62105 30184 99554 70122 46/// /2629 10113 20103 40034 52002 22200 00106 10809 70047 333 90710 91141
BBXX 62095 30184 99530 70159 46/// /2518 10118 20113 40108 58003 22200 00112 10809 70043 333 90710 91126
BBXX 62301 30184 99524 70047 46/// /2421 10102 20098 40116 57015 22200 00089 10503 70016 333 90710 91128
BBXX 62094 30184 99517 70067 46/// /24// 10111 20106 40142 56016 22200 00106 10505 70026 333 90710 91137
BBXX 62303 30184 99516 70051 46/// /2523 10116 20106 40142 57014 22200 00110 10605 70026 333 90710 91129
BBXX 62023 30183 99514 70079 46/96 /2632 10110 2//// 40161 5//// 22200 10505 70027 333 91138 555 70051 81004
BBXX 62081 30184 99510 70134 46/// ///// 10124 20119 40172 57007 22200 00119 10709 70045
BBXX VRFX8 30184 99506 70187 41/95 /2422 10140 20120 40150 54000 74544 8//// 22224 0//// 20404 324// 40805 80130
BBXX 62305 30184 99504 10000 46/96 /1817 10083 20075 40169 57022 22200 00113 10702 70009
BBXX BATFR52 30184 99503 70042 46/// /2535 10115 20109 40170 58009 22273 00110
BBXX TESTFR9 30184 99503 70041 46/// /2630 10115 29100 40178 57022 22275
BBXX 62107 30184 99501 70061 46/// /2628 10117 20108 40189 58007 22200 00115 10705 70024 333 90710 91142
BBXX BATFR03 30184 99500 70006 46/// /2323 10112 20110 40161 22284
BBXX 62103 30184 99499 70029 46/97 /2626 10118 20110 40174 56012 22200 00119 10703 70015 333 90710 91133
BBXX BATFR42 30184 99498 70017 46/// /2636 10117 20112 40169 22245 00122
BBXX PHAM 30183 99495 70011 41297 82808 10114 20107 40171 57019 76165 887// 22200 20201 80110
BBXX BATFR14 30184 99495 10001 46/// /1401 10087 20080 40181 56020 22261 00089
BBXX MYSU5 30184 99493 70053 41/97 81332 10120 20101 40195 52010 72586 8//// 22263 00120 20607 3//// 4//// 5//// 80110
BBXX 62027 30184 99491 70022 46/// /2823 1//// 2//// 40194 57013 22200 00107 10905 331// 70023
BBXX 62442 30184 99490 70164 46/// /2323 1//// 2//// 40216 57014 22200 00122 333 90710 91131
BBXX BATEU01 30184 99489 70069 44596 82628 10120 20112 40205 53003 72022 886// 22254 00117 21006 325// 41006 5////
BBXX 62029 30184 99487 70125 46/// /2622 10126 20120 40236 56007 22200 00127 10708 70039 333 90710 91128
BBXX C6KD6 30184 99485 70073 41/97 92527 10130 20121 40235 57025 70311 8972/ 22214 02118 21009 80125
BBXX BAREU08 30184 99480 70080 46/// ///// 40236 52005 22254
BBXX 62163 30184 99475 70084 46/// /2622 10119 20106 40260 57014 22200 00125 10808 70038 333 90710 91128
BBXX C6LU3 30183 99466 70108 41496 82225 10140 2012/ 40290 53005 76062 886// 22254 20908 80130
BBXX BATFR60 30184 99466 70033 46/// /2727 10129 20114 40260 58001 22232 00125
BBXX MCUV3 30183 99465 70102 41497 82830 10135 20106 40282 54000 70222 83589 22253 2//10 327// 4//10 5//// 80120
BBXX 62001 30184 99452 70050 46/// /2621 10129 20102 40304 57007 22200 00130 10707 70037 333 90710 91128
BBXX A8RL2 30184 99443 70137 41/96 82520 10145 20136 40320 57/// 75166 8//// 22214 04139 20905 330// 41204 80140
BBXX PHBO 30183 99434 70224 41297 82220 10150 20139 40322 56007 70222 887// 22214 20902 322// 40902 80144
BBXX BATFR15 30184 99427 70207 46/// /2217 10160 20144 40348 56010 22214 00152
BBXX A8IN9 30183 99419 70201 41598 42306 10159 20149 40345 50001 70111 83541 22254 06160 20602 335// 41803 5//// 80153
BBXX BAREU05 30184 99403 70206 46/// ///// 40379 52006 22224
BBXX DGZT2 30183 99394 70098 41598 30315 10130 20088 40350 52010 70300 83800 22284 04160 2//// 80107
BBXX DDYZ2 30184 99366 10000 41999 02310 10160 20098 40305 56005 7//// 80000 22224 00160 2//// 80125
BBXX 61001 30184 99434 10078 46/// /0612 10141 20036 40130 52038 22200 00140 10804 70022
BBXX BATFR24 30184 99427 10095 46/// /3506 10145 20000 40134 22211 00147
BBXX 61002 30184 99421 10047 46/// ///38 10130 2//// 40220 54000 22200 00133 10909 70047 555 1/052
BBXX BAREU56 30184 99404 10100 46/// ///// 40118 57009 22282
BBXX KABP 30183 99376 10104 41398 53038 10140 2010/ 40171 52008 72585 859// 22263 00163 2//// 3//// 4//// 5//// 6//// 80115 /////
BBXX ZQTP2 30184 99376 10107 41597 33030 10140 20082 40144 54000 70211 839// 22272 00160 2//// 3//// 4//// 5//// 80111
BBXX OXHY2 30183 99373 10083 41398 12611 10151 20084 40225 56019 70200 81070 22224 00168 20307 311// 40407 5//// 80114
BBXX DDYZ2 30184 99366 10000 41999 02310 10160 20098 40305 56005 7//// 80000 22224 00160 2//// 80125
BBXX DQVI 30183 99364 10181 41698 82108 10160 20118 40115 51005 71322 8/9// 22224 00185 20502 80135
BBXX WAHV 30184 99350 10239 41698 62505 10130 2011/ 40120 57004 7//65 8684/ 22274 00172 2//// 3//// 4//// 5//// 6//// 80120 /////
BBXX BAREU63 30184 99342 10179 46/// /2911 10153 29071 40127 57001 22233
BBXX A8HD5 30181 99357 11209 41598 31802 10070 20021 40320 54000 70122 82141 22200 04065 20601 30000 40000 5//// 80050
AAXX 30184 89108 46/// /3311 11199 36925 4//// 57006 91750
AAXX 30184 89314 46/// /1029 11120 38093 4//// 57001 91750
AAXX 30184 89327 46/// /0000 11031 39502 49778 5//// 91750
AAXX 30184 89329 46/// /0403 11086 38595 49644 5//// 91750
AAXX 30184 89332 46/// /1503 11038 39096 49695 5//// 91750
AAXX 30184 89376 46/// /2318 11085 39713 49781 57004 91750
AAXX 30184 89667 46/// /1204 10001 39818 49828 57001 91800
AAXX 30184 89734 46/// /1505 11301 36007 4//// 5//// 91800
AAXX 30184 89744 46/// /0305 11256 36385 4//// 52006 91800
AAXX 30184 89769 46/// /2110 11031 39761 49813 5//// 91750
AAXX 30184 89799 46/// /2310 11232 36743 4//// 57006 91750
AAXX 30184 89828 46/// /3104 11199 36529 4//// 5//// 91750
AAXX 30184 89832 46/// /0913 11010 39524 49814 52005 91750
AAXX 30184 89834 46/// /1518 11119 38124 4//// 57002 91750
AAXX 30184 89865 46/// ///// 1//// 3//// 4//// 5//// 91750
AAXX 30184 89866 46/// /0203 10029 39683 49812 52004 91750
AAXX 30184 89868 46/// /3005 11071 39741 49809 5//// 91750
AAXX 30184 89869 46/// ///01 11016 39732 49809 57002 91750
AAXX 30184 89872 46/// /0000 10019 39763 49818 54000 91750
AAXX 30184 89879 46/// ///01 10042 39712 49748 5//// 91750
BBXX 42023 30181 99261 70831 46/// /1306 1//// 91830 333 91207
BBXX 42023 30181 99261 70831 46/// /1306 1//// 91800 333 91207
AAXX 30184 83270 32698 80000 10276 20226 39638 40119 80000 333 58000
AAXX 30184 83309 31595 40000 10286 20240 39762 40081 72111 843// 333 59018
AAXX 30184 83319 21697 80000 10250 20236 39761 40133 70196 8472/ 333 58002 60161
AAXX 30184 83405 32696 8//// 10288 20248 39940 40073 885// 333 59002
BBXX PDGS 30184 99211 71508 41298 60924 10200 40200 51020 72581 8476/ 22224 00230 20403 309// 40806
BBXX WHKM 30184 99086 30800 41198 33013 10280 20253 40085 52015 7//10 82402 22223 0//// 2//// 3//// 4//// 5//// 6//// 80260 ICE /////
BBXX WDA2768 30184 99430 70875 43/// /0719 00/// 10041 20028 40001 57043 7//// 8//// 22243 0//// 2//// 3//// 4//// 5//// 6//// 80035 ICE /////
BBXX 9V7645 30184 99234 71122 415// 40504 10200 20169 40170 54000 70300 84181 22274 00220 20302 33232 40302 50202 6//// 80180 ICE /////
AAXX 30184 83264 21796 71402 10274 20234 39695 40128 76300 84524 333 58004 60111
AAXX 30184 83358 32698 73206 10300 20222 39672 40067 87300 333 59013
AAXX 30184 82824 /
AAXX 30184 83384 21596 82701 10268 20226 39535 40111 70352 8658/ 333 58015 69941
AAXX 30184 83386 32398 60902 10276 20216 39575 40101 81798 333 58016
AAXX 30184 83388 32497 60000 10275 20209 39430 40095 862// 333 58027
AAXX 30184 83393 32599 60000 10282 20207 39395 40108 83332 333 58021
AAXX 30184 83442 32597 80000 10270 20203 39742 40084 888// 333 58020
AAXX 30184 83479 21598 80508 10236 20222 39312 40105 78185 889// 333 58002 60071
AAXX 30184 83483 21498 80502 10230 20227 39546 40111 70266 8672/ 333 58029 60131
AAXX 30184 83531 21597 63203 10254 20209 39072 40094 70162 84240 333 58001 69941
AAXX 30184 83538 21596 82701 10223 20186 38700 40083 70542 887// 333 59001 60031
AAXX 30184 83574 32794 70902 10308 20195 39572 40173 5//// 87400
AAXX 30184 83582 32598 50503 10288 20213 39335 40113 57002 85200
AAXX 30184 83595 32597 60902 10322 20253 30023 40106 83254 333 59005
AAXX 30184 83692 32699 61806 10232 20189 39084 40111 58005 86200
AAXX 30184 83811 32497 73202 10276 20189 39208 40095 58012 84290
AAXX 30184 83844 32597 809// 10254 20193 30110 40117 56004 8572/
AAXX 30184 83887 32597 81406 10238 20175 39063 40100 57015 8546/
AAXX 30184 83907 32497 42704 10344 20163 39783 40055 56010 84200
AAXX 30184 83914 31596 80508 10243 20179 39318 40076 57020 71792 8492/
AAXX 30184 83919 21597 63204 10194 20153 38957 40131 54000 70352 86800 333 69901
AAXX 30184 83927 32997 01802 10304 20188 39986 40057 57012
AAXX 30184 83936 32497 80903 10282 20189 39962 40083 55002 8437/
AAXX 30184 83948 32497 80510 10233 20193 30115 40121 56005 885//
AAXX 30184 83964 31596 51402 10286 20168 39606 40086 57006 70542 83230
AAXX 30184 83995 32497 70916 10244 20186 30124 40127 54000 85110
BBXX 41052 30181 99183 70648 46/// /0908 10271 40160 91830 333 91210
BBXX 41052 30181 99183 70648 46/// /0908 10270 40160 91820 333 91209
BBXX 41052 30181 99183 70648 46/// /0908 10270 40161 91810 333 91210
BBXX 44024 30181 99423 70659 46/30 /2604 10059 40198 57004 91804 22200 00075 10805 70027 333 91206 555 11048 22050
BBXX WDA2768 30184 99430 70875 43/// /0719 00/// 10041 20028 40001 57043 7//// 8//// 22243 0//// 2//// 3//// 4//// 5//// 6//// 80035 ICE /////
BBXX SHIP 30184 99213 11214 41797 70331 10210 20195 40192 56005 70222 86554 22282 00245 20408 304// 40408 80200
BBXX DAJT 30184 99299 50133 41598 20208 10245 20169 40200 58010 70100 8/1// 22264 04230 2//01 80195
BBXX A8RU5 30184 99123 10440 41/98 /1009 10247 20177 40190 51010 70200 22275 80200
BBXX 9V7645 30184 99234 71122 415// 40504 10200 20169 40170 54000 70300 84181 22274 00220 20302 33232 40302 50202 6//// 80180 ICE /////
BBXX 44056 30181 99362 70757 46/// ///// 1//// 91750 22200 00118 11301 21001 70004
BBXX 42360 30181 99267 70905 46/// /2004 10225 91800 22200 00245 10301 70004 333 91205
BBXX 41033 30181 99323 70804 46/// /1802 1//// 40196 58028 91800 555 11024 22024
BBXX 41053 30181 99185 70661 46/// /0808 10272 40160 91820 333 91210
BBXX 41053 30181 99185 70661 46/// /0808 10272 40161 91810 333 91210
BBXX 41053 30181 99185 70661 46/// /0808 10272 40161 91830 333 91210
BBXX CFO383 30184 99439 70602 47698 /2524 10037 2104/ 40174 52002 700// 8/ // 22200 0//// 1//// 2//// 3//// 4//// 5//// 6//// 70// 80014 333 91030
BBXX 44138 30181 99443 70536 46/// /2616 10073 40153 52013 22200 00093 11416 70081 333 91221
BBXX 44137 30181 99423 70620 46/// /2810 10077 40205 57001 22200 00100 11007 70036 333 91212
BBXX PDGS 30184 99211 71508 41298 60924 10200 40200 51020 72581 8476/ 22224 00230 20403 309// 40806
BBXX 9LD2206 30183 99142 70459 41397 40814 10265 20215 40160 56010 7//00 83260 22262 04266 20502 309// 40803 80230
BBXX 46219 30181 99332 71199 46/// ///// 1//// 91828 22200 00131 11306 20805 330// 41303 70030
BBXX 44099 30181 99369 70757 46/// ///// 1//// 91822 22200 00101 11301 20301 70006
BBXX 46214 30181 99379 71235 46/// ///// 1//// 91820 22200 00120 11306 21003 330// 41305 70029
BBXX 46238 30181 99334 71195 46/// ///// 1//// 91820 22200 00138 11304 20803 329// 41302 70021
BBXX 46239 30181 99363 71221 46/// ///// 1//// 91821 22200 00120 11206 21003 330// 41205 70030
BBXX 42013 30181 99272 70829 46/// ///// 1//// 40201 91740 22200 00204
BBXX 41113 30181 99284 70805 46/// ///// 1//// 91821 22200 00220 11401 20701 308// 41401 70005
BBXX 42099 30181 99273 70842 46/// ///// 1//// 91827 22200 00243 10502 20502 70011
BBXX 42361 30181 99276 70925 46/// ///08 10250 20167 40169 58011 91830 555 11065 22069
BBXX 41110 30181 99341 70777 46/// ///// 1//// 91821 22200 00133 11301 20501 70006
BBXX 42363 30181 99282 70892 46/// /2008 10233 20111 40193 91830 333 91208
BBXX 42364 30181 99291 70881 46/// /2309 10217 20133 40190 91830
BBXX 41112 30181 99307 70813 46/// ///// 1//// 91821 22200 00171 11401 308// 41401 70004
BBXX 44100 30181 99363 70756 46/// ///// 1//// 91822 22200 00123 11301 20801 306// 41301 70006
BBXX 46215 30181 99352 71209 46/// ///// 1//// 91808 22200 00131 12004 20703 325// 42003 70022
BBXX 46213 30181 99403 71247 46/// ///// 1//// 91824 22200 00110 11807 20804 329// 41806 70036
BBXX 46243 30181 99462 71241 46/// ///// 1//// 91829 22200 00083 11408 21005 326// 41405 70038
BBXX 46225 30181 99329 71174 46/// ///// 1//// 91814 22200 00149 11302 20801 327// 41301 70009
BBXX 46229 30181 99438 71246 46/// ///// 1//// 91821 22200 00098 11508 21005 329// 41506 70038
BBXX 46236 30181 99368 71219 46/// ///// 1//// 91820 22200 00122 11304 21002 328// 41304 70021
BBXX A8JC5 30184 99335 70275 41498 60708 10196 20138 40345 52007 70322 8544/ 22224 00210 20201 32914 41206 50604 80160
BBXX WHKM 30184 99086 30800 41198 33013 10280 20253 40085 52015 7//10 82402 22223 0//// 2//// 3//// 4//// 5//// 6//// 80260 ICE /////
AAXX 30184 78988 01475 51215 10284 20225 30125 40135 57023 69971 70281 83201 3333 59001 69947 83816 85081
AAXX 30184 78990 01459 /0000 10251 20221 30139 57020 69911 70000 333 58001 60007
AAXX 30184 78873 02570 20913 10280 20217 30131 40176 57026 60001 82200 333 58000 60007 82820
AAXX 30184 78988 01475 51215 10284 20225 30125 40135 57023 69971 70281 83201 3333 59001 69947 83816 85081
AAXX 30184 78990 01459 /0000 10251 20221 30139 57020 69911 70000 333 58001 60007
AAXX 30184 78873 02570 20913 10280 20217 30131 40176 57026 60001 82200 333 58000 60007 82820
AAXX 30184 78988 01475 51215 10284 20225 30125 40135 57023 69971 70281 83201 3333 59001 69947 83816 85081
AAXX 30184 78990 01459 /0000 10251 20221 30139 57020 69911 70000 333 58001 60007
AAXX 30184 78873 02570 20913 10280 20217 30131 40176 57026 60001 82200 333 58000 60007 82820
AAXX 30184 47575 11/60 52805 10019 21008 30188 40193 51013 69901 72580 85200
AAXX 30184 60115 32970 03602 10097 20070 40319 53004 333 10149
AAXX 30184 91487 NIL
AAXX 30184 91490 NIL
AAXX 30184 91533 NIL
AAXX 30184 91601 NIL
AAXX 30184 91610 11599 21014 10262 20246 40087 53010 60001 70200 81100 333 563//
AAXX 30184 91623 NIL
AAXX 30184 91629 NIL
AAXX 30184 91701 NIL
AAXX 30184 60686 12960 20110 10155 21054 40206 57004 60002 80002 333 10200 83073
AAXX 30181 45032 36/// /3401 10152 20098 30229 40245 54000
AAXX 30181 45035 36/// /0602 10159 20116 30202 40245 54000
AAXX 30181 45039 36/// /0002 10157 20118 30229 40245 52001
AAXX 30181 45044 36/// /1005 10159 20135 30145 40240 57001
AAXX 30181 45032 36/// /3401 10152 20098 30229 40245 54000
AAXX 30181 45035 36/// /0602 10159 20116 30202 40245 54000
AAXX 30181 45039 36/// /0002 10157 20118 30229 40245 52001
AAXX 30181 45044 36/// /1005 10159 20135 30145 40240 57001
AAXX 30184 89646 46/// /0219 11200 29080 37631 4//// 5////
AAXX 30184 89648 46/// /2309 11242 29071 37233 4//// 5////
AAXX 30184 89659 46/// /3006 11212 29067 37695 4//// 5////
AAXX 30184 89661 46/// /2308 11003 29038 39200 4//// 5////
AAXX 30184 89662 42980 02560 10021 21157 39677 49781 52023 222 ICE 98012 333 20020
AAXX 30184 89666 46/// /1712 10006 29051 39640 4//// 5////
AAXX 30184 71793 16/// ///// 11008 21036 60001 333 11008 21095 70023
AAXX 30184 71974 46/// /1502 11401 21441 30155 40201 50001 6///1 333 11377 21411 7////
AAXX 30184 71399 16/// ///// 11005 21032 60001 333 11005 21100 70017
AAXX 30184 71495 16/// /2623 10033 21057 60001 333 10036 21020 70000
AAXX 30184 71012 17/// /1211 11009 21018 69971 7//4/ 333 11009 21133 70028
AAXX 30184 71060 16/// /2805 10008 21048 38408 49946 53002 60001 333 10009 21091 70000 555 10010
AAXX 30184 71073 16/// /2113 10018 21025 60001 333 10018 21025 70000
AAXX 30184 71565 17/// /3401 11081 21110 69941 7//4/ 333 11045 21150 70014
AAXX 30184 71566 17/// /2303 11035 21103 69961 7//4/ 333 11030 21079 70006
AAXX 30184 71567 17/// /1205 11074 21106 69951 7//4/ 333 21179 7////
BBXX 42362 30181 99278 70907 46/// /2207 10228 20128 40193 91830
BBXX DQVN 30183 99256 10354 41/97 80000 10224 20174 40170 52020 70222 8//// 22274 00243 2//// 80191
BBXX ELYP7 30184 99056 31170 414// 32610 10275 20264 40088 58012 70100 834// 22243 00/// 20301 80267
BBXX VRDN3 30184 99057 10815 41/98 /2307 10265 20250 40180 51010 70200 8//// 22214 00/// 2//// 80240
BBXX A8KX4 30184 99426 51326 412// 50714 10155 20087 40210 57020 70322 8/7// 22264 04140 20202 323// 40504 80120
BBXX 9MCN8 30184 99250 11236 41497 80624 10178 20138 40235 5//// 70222 8//// 22213 00240 2//// 80155
BBXX 9VBS 30184 99221 11142 41/97 /0618 10180 20146 40240 54000 70222 8//// 222// 00140 2//// 80160
BBXX ZIPR7 30183 99091 30806 41/98 63620 10285 20250 40071 55001 7//// 864// 22214 00288 2//// 80260
BBXX A8HJ8 30183 99012 11034 41/96 /0206 10260 20232 40120 52010 70200 8//// 222// 00/// 20201 80240
BBXX A8SZ5 30184 99031 11196 41497 83209 10270 20243 40100 57020 703// 8/2// 22283 00/// 2//01 80250
BBXX VRFH2 30183 99347 11400 41398 40025 10100 20040 40220 5/000 70250 832// 22215 00/// 20204 301// 40203 80070
BBXX DQVN 30183 99256 10354 41/97 80000 10224 20174 40170 52020 70222 8//// 22274 00243 2//// 80191
BBXX ELYP7 30184 99056 31170 414// 32610 10275 20264 40088 58012 70100 834// 22243 00/// 20301 80267
BBXX VRDN3 30184 99057 10815 41/98 /2307 10265 20250 40180 51010 70200 8//// 22214 00/// 2//// 80240
BBXX A8KX4 30184 99426 51326 412// 50714 10155 20087 40210 57020 70322 8/7// 22264 04140 20202 323// 40504 80120
BBXX 9MCN8 30184 99250 11236 41497 80624 10178 20138 40235 5//// 70222 8//// 22213 00240 2//// 80155
BBXX 9VBS 30184 99221 11142 41/97 /0618 10180 20146 40240 54000 70222 8//// 222// 00140 2//// 80160
BBXX ZIPR7 30183 99091 30806 41/98 63620 10285 20250 40071 55001 7//// 864// 22214 00288 2//// 80260
BBXX A8HJ8 30183 99012 11034 41/96 /0206 10260 20232 40120 52010 70200 8//// 222// 00/// 20201 80240
BBXX A8SZ5 30184 99031 11196 41497 83209 10270 20243 40100 57020 703// 8/2// 22283 00/// 2//01 80250
BBXX VRFH2 30183 99347 11400 41398 40025 10100 20040 40220 5/000 70250 832// 22215 00/// 20204 301// 40203 80070
BBXX A8OZ4 30184 99348 10246 43798 32006 10150 20100 40115 54000 7//// 83/// 22234 00170 2//// 3//// 4/ /// 5//// 80120
BBXX A8OZ4 30184 99348 10246 43798 32006 10150 20100 40115 54000 7//// 83/// 22234 00170 2//// 3//// 4//// 5//// 80120
BBXX 46241 30181 99330 71173 46/// ///// 1//// 91811 22200 00145 11302 20901 327// 41301 70009
AAXX 30181 89063 42798 83501 10016 20003 39628 49639 56008 885// 333 44113
BBXX 46216 30181 99343 71198 46/// ///// 1//// 91827 22200 00142 11303 20802 327// 41302 70014
BBXX 46223 30181 99335 71178 46/// ///// 1//// 91830 22200 00149 11302 21001 328// 41301 70008
BBXX 46231 30181 99327 71174 46/// ///// 1//// 91824 22200 00147 11402 21002 327// 41402 70011
BBXX 46222 30181 99336 71183 46/// ///// 1//// 91826 22200 00147 11302 21002 327// 41302 70012
BBXX 46242 30181 99332 71174 46/// ///// 1//// 91828 22200 00142 11102 20801 325// 41101 70008
AAXX 30184 68581 36/// /1302 10200 20172 39352 48503 52005 333 10294 20200 91004 555 91013
BBXX 63106 30184 99610 10017 46/// /1204 10034 40068 58006 22200
BBXX 63113 30184 99610 10017 46/// /0305 10061 21056 40066 58007 22200 10907 70037
BBXX 62163 30184 99475 70084 46/// /2521 10130 20117 40256 57017 22200 00124 10808 70038 333 90710 91128
BBXX 2AUO5 30183 99606 10016 41597 39904 10050 21033 40074 58005 70200 834// 22281 20000 335// 40307 80021
BBXX 62103 30184 99499 70029 46/97 /2627 10118 20111 40170 58011 22200 00119 10704 70018 333 90710 91135
BBXX 62094 30184 99517 70067 46/// /2423 10111 20106 40142 56016 22200 00106 10505 70026 333 90710 91137
BBXX C6NI8 30183 99432 70106 41497 52617 10130 20121 40364 56010 70322 84485 22213 04160 21106 334// 41406 5//// 80125
BBXX 63119 30184 99583 10009 41497 61816 10058 20018 40061 55005 70322 8/876 22200 20403 335// 40805 5//// 80042
AAXX 30184 78988 01475 51215 10284 20225 30125 40135 57023 69971 70281 83201 3333 59001 69947 83816 85081
AAXX 30184 78990 01459 /0000 10251 20221 30139 57020 69911 70000 333 58001 60007
AAXX 30184 78873 02570 20913 10280 20217 30131 40176 57026 60001 82200 333 58000 60007 82820
BBXX MINUK05 3018/ 99571 70021 46/// ///// 10025 40048 57035
BBXX MINUK04 3018/ 99549 10067 46/// ///// 10068 4//// 52020
BBXX MINUK03 3018/ 99549 70011 46/// ///// 10048 40065 57051
BBXX MINUK01 3018/ 99600 70011 46/// ///// 10060 40033 57041
BBXX 46221 30181 99339 71186 46/// ///// 1//// 91815 22200 00150 10802 20802 328// 41201 70010
AAXX 30184 97320 32560 60000 10263 20249 30073 40083 57025 83131 333 56000 83820 83360
BBXX VRBQ6 30184 99546 71704 41298 60710 11030 21100 40139 52005 70222 868// 22264 00039 2//// 3//// 4//// 81010
BBXX VRBQ6 30184 99546 71704 41298 60710 11030 21100 40139 52005 70222 868// 22264 00039 2//// 3//// 4//// 81010
AAXX 30184 71102 16/// ///// 11046 21066 60001 333 11046 21139 70011
AAXX 30184 71105 16/// ///// 10056 21019 60001 333 10056 21047 70000
AAXX 30184 71841 16/// /0301 11133 21151 39704 40114 58003 60001 333 11133 21207 7////
AAXX 30184 71383 16/// ///// 11232 21277 39567 40213 53002 60001 333 11215 21286 70000
AAXX 30184 71502 16/// /1213 11218 21234 39996 40012 53013 60001 333 11214 21242 70000
AAXX 30184 71509 16/// /2219 10076 20000 60001 333 10076 21011 7////
AAXX 30184 71517 16/// /2317 10071 21002 60001 333 10071 21021 70000
AAXX 30184 71518 16/// /2218 10054 21011 60001 333 10054 21025 70000
AAXX 30184 71519 16/// /1915 10059 21005 60001 333 10059 21038 70000
AAXX 30184 71520 16/// /1602 11201 21231 39494 40203 53007 60001 333 11200 21348 70000
AAXX 30184 71521 16/// /2804 11245 21283 60001 333 11243 21294 70000
AAXX 30184 71523 16/// ///// 11193 21236 39800 40198 58020 60001 333 11191 21328 70000
AAXX 30184 71528 16/// /2218 10064 21007 60001 333 10065 21005 70000
AAXX 30184 71051 16/// ///// 10004 21040 60001 333 10012 21065 7////
AAXX 30184 71057 16/// ///// 10026 21040 60001 333 10031 21030 70000
AAXX 30184 71070 16/// ///// 10071 21008 60001 333 10071 21024 70012
AAXX 30184 71089 17/// ///// 11025 21031 60011 7//4/ 333 11025 21132 70030
AAXX 30184 71789 16/// ///// 10060 21015 60001 333 10060 21011 70000
AAXX 30184 71791 16/// /1214 11061 21078 60001 333 11060 21136 70018
AAXX 30184 71794 17/// ///// 11024 21030 69961 7//4/ 333 11024 21122 70031
AAXX 30184 71795 16/// ///// 10071 21023 60001 333 10071 21037 70000
AAXX 30184 71796 16/// ///// 11006 21035 60001 333 11006 21136 70020
AAXX 30184 71433 46/// /1505 10000 21006 39839 40070 56006 6///1 333 10000 21013 7////
AAXX 30184 71006 16/// /1511 11013 21036 60001 333 70009
AAXX 30184 71007 17/// ///// 10051 21016 69971 7//4/ 333 10051 21004 7////
AAXX 30184 71008 16/// /2406 10022 21023 60001 333 10029 21065 70000
AAXX 30184 71009 16/// /1103 11014 21039 60001 333 10019 21071 70000
AAXX 30184 71035 16/// ///// 10018 21043 60001 333 10027 21074 70000
AAXX 30184 71409 16/// ///// 10032 21023 60001 333 10036 21035 70005
AAXX 30184 71433 46/// /1505 10000 21006 39839 40070 56006 6///1 333 10000 21013 7////
AAXX 30184 71841 16/// /0301 11133 21151 39704 40114 58003 60001 333 11133 21207 7////
AAXX 30184 71409 16/// ///// 10032 21023 60001 333 10036 21035 70005
AAXX 30184 71051 16/// ///// 10004 21040 60001 333 10012 21065 7////
AAXX 30184 71057 16/// ///// 10026 21040 60001 333 10031 21030 70000
AAXX 30184 71070 16/// ///// 10071 21008 60001 333 10071 21024 70012
AAXX 30184 71089 17/// ///// 11025 21031 60011 7//4/ 333 11025 21132 70030
AAXX 30184 71502 16/// /1213 11218 21234 39996 40012 53013 60001 333 11214 21242 70000
AAXX 30184 71509 16/// /2219 10076 20000 60001 333 10076 21011 7////
AAXX 30184 71517 16/// /2317 10071 21002 60001 333 10071 21021 70000
AAXX 30184 71518 16/// /2218 10054 21011 60001 333 10054 21025 70000
AAXX 30184 71519 16/// /1915 10059 21005 60001 333 10059 21038 70000
AAXX 30184 71520 16/// /1602 11201 21231 39494 40203 53007 60001 333 11200 21348 70000
AAXX 30184 71521 16/// /2804 11245 21283 60001 333 11243 21294 70000
AAXX 30184 71523 16/// ///// 11193 21236 39800 40198 58020 60001 333 11191 21328 70000
AAXX 30184 71528 16/// /2218 10064 21007 60001 333 10065 21005 70000
AAXX 30184 71789 16/// ///// 10060 21015 60001 333 10060 21011 70000
AAXX 30184 71791 16/// /1214 11061 21078 60001 333 11060 21136 70018
AAXX 30184 71794 17/// ///// 11024 21030 69961 7//4/ 333 11024 21122 70031
AAXX 30184 71795 16/// ///// 10071 21023 60001 333 10071 21037 70000
AAXX 30184 71796 16/// ///// 11006 21035 60001 333 11006 21136 70020
AAXX 30184 71383 16/// ///// 11232 21277 39567 40213 53002 60001 333 11215 21286 70000
AAXX 30184 71102 16/// ///// 11046 21066 60001 333 11046 21139 70011
AAXX 30184 71105 16/// ///// 10056 21019 60001 333 10056 21047 70000
AAXX 30184 71006 16/// /1511 11013 21036 60001 333 70009
AAXX 30184 71007 17/// ///// 10051 21016 69971 7//4/ 333 10051 21004 7////
AAXX 30184 71008 16/// /2406 10022 21023 60001 333 10029 21065 70000
AAXX 30184 71009 16/// /1103 11014 21039 60001 333 10019 21071 70000
AAXX 30184 71035 16/// ///// 10018 21043 60001 333 10027 21074 70000
AAXX 30184 89528 46/// /3610 4//// 5////
AAXX 30184 89628 46/// /3118 4//// 5////
AAXX 30184 68487 36/// /1805 10206 20172 38978 48502 52008 333 10295 20206 91007 555 91015
AAXX 30184 68589 16/// /0000 10189 20140 38251 48508 52010 69922 333 10252 20189 91003 555 20002 91020
AAXX 30184 89063 42798 83501 10016 20003 39628 49639 56008 885// 333 44113
BBXX VQGQ4 30184 99220 11279 41/97 80225 10210 20178 40190 58020 70322 8//// 22233 00243 20606 301// 40506 80190
BBXX SHIP 30184 99149 11265 41398 20321 10270 20257 40141 51030 70200 82/// 22235 00220 2//// 3//// 4//// 80260
BBXX VRGO8 30184 99105 11027 41/98 /3220 10275 20227 40178 53010 70222 8//// 22273 00240 2//// 3//// 4//// 80240
BBXX OYCY2 30184 99362 11315 41797 81408 10060 2002/ 40290 54000 70222 8562/ 22253 00170 2//// 3//// 4//// 5//// 6//// 80040 ICE /////
BBXX 9VBS 30184 99221 11142 41/97 /0618 10180 20146 40240 54000 70222 8//// 222// 00140 2//// 80160
BBXX SHIP 30184 99250 11236 41497 80624 10178 20138 40235 5//// 70222 8//// 22213 00240 2//// 80155
BBXX VRFH2 30183 99347 11400 41398 40025 10100 20040 40220 5/000 70250 832// 22215 00/// 20204 301// 40203 80070
BBXX VRDN3 30184 99057 10815 41/98 /2307 10265 20250 40180 51010 70200 8//// 22214 00/// 2//// 80240
BBXX PFFH 30183 99055 70124 41397 49902 10290 20277 40110 52020 70322 84756 22233 00270 20101 80280 90968 0349
BBXX DQVN 30183 99256 10354 41/97 80000 10224 20174 40170 52020 70222 8//// 22274 00243 2//// 80191
BBXX WAZV 30184 99534 71384 41598 53021 10000 2102/ 40100 52060 72672 8484/ 22253 00060 20603 329// 41305 5//// 6//// 81010 ICE /////
BBXX SHIP 30184 99546 71704 41298 60710 11030 21100 40139 52005 70222 868// 22264 00039 2//// 3//// 4//// 81010
BBXX 46221 30181 99339 71186 46/// ///// 1//// 91815 22200 00150 10802 20802 328// 41201 70010
BBXX 46242 30181 99332 71174 46/// ///// 1//// 91828 22200 00142 11102 20801 325// 41101 70008
BBXX 46222 30181 99336 71183 46/// ///// 1//// 91826 22200 00147 11302 21002 327// 41302 70012
BBXX 46216 30181 99343 71198 46/// ///// 1//// 91827 22200 00142 11303 20802 327// 41302 70014
BBXX 46231 30181 99327 71174 46/// ///// 1//// 91824 22200 00147 11402 21002 327// 41402 70011
BBXX 46223 30181 99335 71178 46/// ///// 1//// 91830 22200 00149 11302 21001 328// 41301 70008
BBXX 46241 30181 99330 71173 46/// ///// 1//// 91811 22200 00145 11302 20901 327// 41301 70009
BBXX 42362 30181 99278 70907 46/// /2207 10228 20128 40193 91830
BBXX 41052 30181 99183 70648 46/// /0908 10270 40161 91810 333 91210
BBXX 41052 30181 99183 70648 46/// /0908 10271 40160 91830 333 91210
BBXX 44024 30181 99423 70659 46/30 /2604 10059 40198 57004 91804 22200 00075 10805 70027 333 91206 555 11048 22050
BBXX 41052 30181 99183 70648 46/// /0908 10270 40160 91820 333 91209
BBXX 42023 30181 99261 70831 46/// /1306 1//// 91830 333 91207
BBXX 42023 30181 99261 70831 46/// /1306 1//// 91800 333 91207
BBXX ELYP7 30184 99056 31170 414// 32610 10275 20264 40088 58012 70100 834// 22243 00/// 20301 80267
BBXX A8SZ5 30184 99031 11196 41497 83209 10270 20243 40100 57020 703// 8/2// 22283 00/// 2//01 80250
BBXX A8KX4 30184 99426 51326 412// 50714 10155 20087 40210 57020 70322 8/7// 22264 04140 20202 323// 40504 80120
BBXX A8HJ8 30183 99012 11034 41/96 /0206 10260 20232 40120 52010 70200 8//// 222// 00/// 20201 80240
BBXX ZIPR7 30183 99091 30806 41/98 63620 10285 20250 40071 55001 7//// 864// 22214 00288 2//// 80260
BBXX MINUK05 3018/ 99571 70021 46/// ///// 10025 40048 57035
BBXX MINUK01 3018/ 99600 70011 46/// ///// 10060 40033 57041
BBXX MINUK03 3018/ 99549 70011 46/// ///// 10048 40065 57051
BBXX MINUK04 3018/ 99549 10067 46/// ///// 10068 4//// 52020
BBXX C6NI8 30183 99432 70106 41497 52617 10130 20121 40364 56010 70322 84485 22213 04160 21106 334// 41406 5//// 80125
BBXX 63119 30184 99583 10009 41497 61816 10058 20018 40061 55005 70322 8/876 22200 20403 335// 40805 5//// 80042
BBXX A8OZ4 30184 99348 10246 43798 32006 10150 20100 40115 54000 7//// 83/// 22234 00170 2//// 3//// 4//// 5//// 80120
BBXX A8OZ4 30184 99348 10246 43798 32006 10150 20100 40115 54000 7//// 83/// 22234 00170 2//// 3//// 4/ /// 5//// 80120
BBXX WAZV 30184 99534 71384 41598 53021 10000 2102/ 40100 52060 72672 8484/ 22253 00060 20603 329// 41305 5//// 6//// 81010 ICE /////
BBXX 46208 30181 99525 71327 46/// /3212 10042 40035 52052 22200 00069 11009 70044 333 91216
BBXX 46145 30181 99544 71324 46/// /3214 10020 49996 52053 22200 00068 11007 70035 333 91216
BBXX 46145 30181 99544 71324 46/// /3214 10020 49996 52053 22200 00068 11007 70035 333 91216
BBXX 46208 30181 99525 71327 46/// /3212 10042 40035 52052 22200 00069 11009 70044 333 91216
AAXX 30184 71346 16/// /2223 10076 21011 60001 333 10076 20003 70000
AAXX 30184 71249 16/// /2518 10018 21028 60001 333 10018 21067 7////
AAXX 30184 71014 16/// /1907 10001 21045 60001 333 10002 21055 7////
AAXX 30184 71413 16/// ///// 11009 21036 60001 333 11009 21086 70000
AAXX 30184 71414 16/// ///// 11102 21121 60001 333 11067 21180 70021
AAXX 30184 71440 16/// ///// 10031 21030 60001 333 10031 21034 70000
AAXX 30184 71055 46/// /0901 11262 21288 39677 40019 52008 6///1 333 11238 21262 7////
AAXX 30184 71065 16/// ///// 11045 21094 60001 333 11045 21168 70017
AAXX 30184 71857 16/// ///// 11099 21110 60001 333 11099 21182 7////
AAXX 30184 71540 16/// /0402 11076 21098 60001 333 11066 21114 70000
AAXX 30184 71544 16/// ///// 11049 21096 60001 333 11049 21089 70000
AAXX 30184 71481 16/// /2802 11056 21106 60001 333 11034 21092 70000
AAXX 30184 71498 16/// /2206 10003 21031 60001 333 10027 21031 70000
AAXX 30184 71904 16/// ///// 11001 21038 60001 333 10002 21123 70000
AAXX 30184 71360 17/// ///// 11031 21031 69961 7//4/ 333 11031 21160 70020
AAXX 30184 71380 16/// /2104 11055 21079 60001 333 11042 21145 70000
AAXX 30184 71797 16/// ///// 11052 21080 60001 333 11052 21139 70021
AAXX 30184 71674 16/// ///// 11022 21044 60001 333 11022 21108 70004
AAXX 30184 71904 16/// ///// 11001 21038 60001 333 10002 21123 70000
AAXX 30184 71346 16/// /2223 10076 21011 60001 333 10076 20003 70000
AAXX 30184 71055 46/// /0901 11262 21288 39677 40019 52008 6///1 333 11238 21262 7////
AAXX 30184 71065 16/// ///// 11045 21094 60001 333 11045 21168 70017
AAXX 30184 71014 16/// /1907 10001 21045 60001 333 10002 21055 7////
AAXX 30184 71857 16/// ///// 11099 21110 60001 333 11099 21182 7////
AAXX 30184 71413 16/// ///// 11009 21036 60001 333 11009 21086 70000
AAXX 30184 71414 16/// ///// 11102 21121 60001 333 11067 21180 70021
AAXX 30184 71440 16/// ///// 10031 21030 60001 333 10031 21034 70000
AAXX 30184 71249 16/// /2518 10018 21028 60001 333 10018 21067 7////
AAXX 30184 71674 16/// ///// 11022 21044 60001 333 11022 21108 70004
AAXX 30184 71481 16/// /2802 11056 21106 60001 333 11034 21092 70000
AAXX 30184 71498 16/// /2206 10003 21031 60001 333 10027 21031 70000
AAXX 30184 71360 17/// ///// 11031 21031 69961 7//4/ 333 11031 21160 70020
AAXX 30184 71380 16/// /2104 11055 21079 60001 333 11042 21145 70000
AAXX 30184 71540 16/// /0402 11076 21098 60001 333 11066 21114 70000
AAXX 30184 71544 16/// ///// 11049 21096 60001 333 11049 21089 70000
AAXX 30184 71797 16/// ///// 11052 21080 60001 333 11052 21139 70021
BBXX ZIPR7 30183 99091 30806 41/98 63620 10285 20250 40071 55001 7//// 864// 22214 00288 2//// 80260
AAXX 30184 88903 45/// /2617 10058 21016 39919 49919 50017
AAXX 30181 58968 11558 80903 10144 20121 30233 40241 57012 69931 76165 887//
AAXX 30181 58974 46/// /0509 10146 20094 30123 40250 58012
AAXX 30181 59358 31650 83502 10167 20126 30187 40219 54000 71022 885//
AAXX 30181 59559 32564 50409 10197 20144 30168 40197 58007 84210
AAXX 30181 59792 12460 80408 10201 20177 30203 40208 57004 69901 8542/
AAXX 30181 59997 32460 20606 10277 20258 30132 40140 57010 82200
AAXX 30181 59158 32662 83301 10164 20115 30110 40212 55001 885//
AAXX 30181 59562 32660 83401 10176 20130 30215 40227 58007 8552/
AAXX 30181 59567 46/// /0107 10161 20161 39829 40214 57008
OOXX FRP28 30151 99163 70615 ///// 00091 26/// /0000 10293 29067 30216 91559 333 60000
OOXX FRP28 30161 99163 70615 ///// 00091 26/// /0000 10294 29064 30215 91609 333 60000
OOXX FRP28 30161 99163 70615 ///// 00091 26/// /0000 10300 29062 30213 91619 333 60000
OOXX FRP28 30161 99163 70615 ///// 00091 26/// /0000 10303 29060 30210 91629 333 60000
OOXX FRP28 30161 99163 70615 ///// 00091 26/// /0000 10306 29059 30211 91639 333 60000
OOXX FRP28 30161 99163 70615 ///// 00091 26/// /0000 10291 29066 30209 91649 333 60000
OOXX FRP28 30161 99163 70615 ///// 00091 26/// /0000 10280 29068 30209 91659 333 60000
OOXX FRP28 30171 99163 70615 ///// 00091 26/// /0000 10288 29063 30204 91709 333 60000
OOXX FRP28 30171 99163 70615 ///// 00091 26/// /0000 10288 29064 30206 91719 333 60000
OOXX FRP28 30171 99163 70615 ///// 00091 26/// /0000 10295 29063 30204 91729 333 60000
OOXX FRP28 30171 99163 70615 ///// 00091 26/// /0000 10296 29064 30205 91739 333 60000
OOXX FRP28 30171 99163 70615 ///// 00091 26/// /0000 10298 29063 30204 91749 333 60000
AAXX 30184 48001 NIL
AAXX 30184 48004 NIL
AAXX 30184 48008 32510 50000 10160 20144 40167 83950 333 56180 58003
AAXX 30184 48010 NIL
AAXX 30184 48018 32920 03201 10180 20165 40159 333 59009
AAXX 30184 48019 NIL
AAXX 30184 48020 NIL
AAXX 30184 48025 NIL
AAXX 30184 48035 NIL
AAXX 30184 48037 NIL
AAXX 30184 48042 32556 70000 10220 20205 40156 84850 333 56880 59011
AAXX 30184 48045 NIL
AAXX 30184 48048 NIL
AAXX 30184 48053 32540 40000 10200 20185 40160 81956 333 56899 59011
AAXX 30184 48057 NIL
AAXX 30184 48060 32410 10000 10162 20144 40176 81100 333 56500 59019
AAXX 30184 48062 32450 30000 10230 20210 40140 83800 333 56900 58002
AAXX 30184 48071 32940 00000 10240 20226 40133 333 59008
AAXX 30184 48077 NIL
AAXX 30184 48078 NIL
AAXX 30184 48080 32550 20000 10212 20195 40132 81870 333 56990 59002
AAXX 30184 48094 32950 00903 10240 20210 40144 333 59004
AAXX 30184 48097 32956 03602 10240 20191 40140 333 59004
AAXX 30184 48108 NIL
AAXX 30184 48109 NIL
AAXX 30184 48110 31594 43603 10240 20209 40143 705// 81536 333 56999 58000
AAXX 30184 48112 32597 60906 10261 20215 40110 82876 333 56299 59010
AAXX 30181 80001 32570 20702 10290 20248 30135 40136 81101 333 562/0 58000 81820
AAXX 30181 80002 NIL
AAXX 30181 80009 31560 53002 10310 20249 30096 40101 70500 81805 333 560/0 58008 81820 85070
AAXX 30181 80022 31956 32305 10290 20245 30096 40098 70500 81101 333 569/0 59005 81815 83070
AAXX 30181 80028 NIL
AAXX 30181 80036 31568 50506 10323 20219 70522 81808 333 560/0 81820 85270
AAXX 30181 80063 NIL
AAXX 30181 80084 11559 63306 10300 20241 70511 82805 333 563/9 82830 84270
AAXX 30181 80091 31462 70000 10301 20246 70522 83802 333 569/0 83615 85070
AAXX 30181 80094 31465 72705 10240 20195 38806 70522 83805 333 566/9 59007 83810 85270
AAXX 30181 80097 NIL
AAXX 30181 80099 31466 30605 10314 20200 39937 40082 70500 83806 333 566/9 58003 83815
AAXX 30181 80110 31570 80000 10255 20130 38510 70522 83107 333 560/9 58000 83830 88270
AAXX 30181 80112 31470 80804 10190 20137 37906 70522 82276 333 56999 57894 58002 82818 83358 85070
AAXX 30181 80144 NIL
AAXX 30181 80210 11463 62803 10238 20196 38659 60031 70565 82836 333 56660 59010 82815 83358
AAXX 30181 80214 31460 61303 10277 20209 39114 70522 82875 333 56559 58000 82818 84358
AAXX 30181 80222 31568 61207 10196 20080 37522 70522 85835 333 56299 58002 85820
AAXX 30181 80234 32562 50702 10306 20200 39615 40110 84531 333 56239 59003 84623
AAXX 30181 80241 NIL
AAXX 30181 80252 NIL
AAXX 30181 80259 31565 60303 10298 20191 39041 70522 83235 333 56899 57730 58002 83823 84358
AAXX 30181 80308 NIL
AAXX 30181 80315 31563 30202 10313 20222 39582 40072 71500 83250 333 5688/ 59004 83830
AAXX 30181 80322 NIL
AAXX 30181 80342 32565 60104 10216 20172 38212 86800 333 564// 59012 86823
AAXX 30181 80361 NIL
AAXX 30181 80370 32470 61105 10152 20093 85850 333 5633/ 85818
AAXX 30181 80372 NIL
AAXX 30181 80398 11466 50000 10303 20256 30013 40108 69911 71552 85230 333 5699/ 57882 59005 81813 84815
AAXX 30184 71023 16864 30406 11125 21136 39218 49990 57012 60001 333 11037 21144 70010
AAXX 30184 91844 46/// /1402 10247 40071 22200 00262
AAXX 30184 71023 16864 30406 11125 21136 39218 49990 57012 60001 333 11037 21144 70010
BBXX OYCY2 30184 99362 11315 41797 81408 10060 20020 40290 54000 70222 8562/ 22253 00170 2//// 3//// 4//// 5//// 6//// 80040 ICE /////
BBXX VRFH2 30183 99347 11400 41398 40025 10100 20040 40220 5/000 70250 832// 22215 00/// 20204 301// 40203 80070
AAXX 30181 38911 32997 03203 10005 21028 30073 40381 58003 333 10061
AAXX 30181 01271 17/37 93503 11008 21022 30024 40045 53031 60032 771// 333 10022 91110
AAXX 3018/ 89869 46/// ///// 11011 39749 4//// 5////
AAXX 3018/ 89329 46/// ///// 11086 38599 4//// 5////
AAXX 3018/ 89799 46/// ///// 11235 4//// 5////
AAXX 3018/ 89868 46/// ///// 11071 39751 4//// 5////
AAXX 3018/ 89332 46/// ///// 11046 39096 4//// 5////
AAXX 3018/ 89769 46/// ///// 11031 39782 4//// 5////
AAXX 3018/ 89314 46/// ///// 11120 38101 4//// 5////
AAXX 3018/ 89327 46/// ///// 11031 39526 4//// 5////
AAXX 3018/ 89108 46/// ///// 11199 36927 4//// 5////
BBXX 62163 30184 99475 70084 46/// /2622 10119 20106 40260 57014 22200 00125 10808 70038 333 90710 91128
BBXX 63055 30184 99606 10016 47999 /1405 10043 21045 40066 57010 700// 22200 10805 70026
BBXX 63106 30184 99610 10017 46/// /1204 10034 40068 58006 22200
BBXX 63105 30184 99610 10017 47698 ///// 10039 21068 40067 58007 700// 22200
BBXX 62094 30184 99517 70067 46/// /24// 10111 20106 40142 56016 22200 00106 10505 70026 333 90710 91137
BBXX 62103 30184 99499 70029 46/97 /2626 10118 20110 40174 56012 22200 00119 10703 70015 333 90710 91133
BBXX MINFR05 3018/ 99042 70033 46/// ///// 10268 40118 52010
BBXX 46145 30181 99544 71324 46/// /3214 10020 49996 52053 22200 00068 11007 70035 333 91216
BBXX 46208 30181 99525 71327 46/// /3212 10042 40035 52052 22200 00069 11009 70044 333 91216
BBXX BSH03 30181 99540 10081 46/// ///// 22200 00067 20805 70023
BBXX BSH05 30181 99549 10082 46/// ///// 22200 22026 70128
OOXX PAP50 30151 99090 70795 ///// 00901 26/// /0304 10304 29045 30016 91550 333 60000
OOXX PAP50 30161 99090 70795 ///// 00901 26/// /0403 10310 29045 30016 91600 333 60000
OOXX PAP50 30161 99090 70795 ///// 00901 26/// /0302 10307 29044 30016 91610 333 60000
OOXX PAP50 30161 99090 70795 ///// 00901 26/// /0603 10310 29043 30013 91620 333 60000
OOXX PAP50 30161 99090 70795 ///// 00901 26/// /0103 10305 29048 30013 91630 333 60000
OOXX PAP50 30161 99090 70795 ///// 00901 26/// /3604 10311 29045 30011 91640 333 60000
OOXX PAP50 30161 99090 70795 ///// 00901 26/// /0203 10315 29043 30010 91650 333 60000
OOXX PAP50 30171 99090 70795 ///// 00901 26/// /3605 10307 29045 30009 91700 333 60000
OOXX PAP50 30171 99090 70795 ///// 00901 26/// /0104 10307 29045 30009 91710 333 60000
OOXX PAP50 30171 99090 70795 ///// 00901 26/// /0405 10306 29045 30006 91720 333 60000
OOXX PAP50 30171 99090 70795 ///// 00901 26/// /0203 10310 29044 30007 91730 333 60000
OOXX PAP50 30171 99090 70795 ///// 00901 26/// /0503 10310 29041 30006 91740 333 60000
OOXX GBP68 30161 99371 50123 ///// 00641 26/// /3507 10000 29087 30153 91610 333 60000
OOXX GBP68 30161 99371 50123 ///// 00641 26/// /3508 10000 29087 30153 91620 333 60000
OOXX GBP68 30161 99371 50123 ///// 00641 26/// /3506 10000 29088 30153 91630 333 60000
OOXX GBP68 30161 99371 50123 ///// 00641 26/// /3507 10000 29088 30149 91640 333 60000
OOXX GBP68 30161 99371 50123 ///// 00641 26/// /3506 10000 29088 30151 91650 333 60000
OOXX GBP68 30171 99371 50123 ///// 00641 26/// /3506 10000 29088 30151 91700 333 60000
OOXX GBP68 30171 99371 50123 ///// 00641 26/// /3506 10000 29088 30148 91710 333 60000
OOXX GBP68 30171 99371 50123 ///// 00641 26/// /3506 10000 29089 30151 91720 333 60000
OOXX GBP68 30171 99371 50123 ///// 00641 26/// /3508 10000 29087 30152 91730 333 60000
OOXX GBP68 30171 99371 50123 ///// 00641 26/// /3507 10000 29087 30151 91740 333 60000
OOXX GBP68 30171 99371 50123 ///// 00641 26/// /3508 10000 29088 30153 91750 333 60000
OOXX GBP68 30181 99371 50123 ///// 00641 26/// /3508 10000 29088 30150 91800 333 60000
OOXX RUP58 30161 99442 11320 ///// 01121 26/// /0000 11177 29054 30123 91652 333 60000
OOXX RUP58 30171 99442 11320 ///// 01121 26/// /1301 11177 29055 30123 91702 333 60000
OOXX RUP58 30171 99442 11320 ///// 01121 26/// /1101 11175 29054 30122 91712 333 60000
OOXX RUP58 30171 99442 11320 ///// 01121 26/// /3401 11185 29055 30122 91722 333 60000
OOXX RUP58 30171 99442 11320 ///// 01121 26/// /0000 11192 29058 30122 91732 333 60000
OOXX RUP58 30171 99442 11320 ///// 01121 26/// /1202 11196 29059 30121 91742 333 60000
OOXX RUP58 30171 99442 11320 ///// 01121 26/// /1001 11187 29059 30122 91752 333 60000
OOXX RUP58 30181 99442 11320 ///// 01121 26/// /1202 11195 29060 30121 91802 333 60000
OOXX RUP58 30181 99442 11320 ///// 01121 26/// /0000 11194 29060 30120 91812 333 60000
OOXX RUP58 30181 99442 11320 ///// 01121 26/// /3601 11198 29061 30121 91822 333 60000
OOXX RUP58 30181 99442 11320 ///// 01121 26/// /1902 11207 29060 30121 91832 333 60000
OOXX RUP58 30181 99442 11320 ///// 01121 26/// /1101 11205 29067 30120 91842 333 60000
OOXX CAP17 30161 99476 70527 ///// 01331 26/// /0614 11017 29064 39879 91600 333 60000
OOXX CAP17 30161 99476 70527 ///// 01331 26/// /0511 11013 29062 39876 91610 333 60000
OOXX CAP17 30161 99476 70527 ///// 01331 26/// /0512 11012 29058 39879 91620 333 60000
OOXX CAP17 30161 99476 70527 ///// 01331 26/// /0513 11011 29056 39878 91630 333 60000
OOXX CAP17 30161 99476 70527 ///// 01331 26/// /0513 11013 29059 39882 91640 333 60000
OOXX CAP17 30161 99476 70527 ///// 01331 26/// /0512 11014 29060 39883 91650 333 60000
OOXX CAP17 30171 99476 70527 ///// 01331 26/// /0512 11015 29061 39883 91700 333 60000
OOXX CAP17 30171 99476 70527 ///// 01331 26/// /0514 11016 29063 39888 91710 333 60000
OOXX CAP17 30171 99476 70527 ///// 01331 26/// /0612 11017 29065 39889 91720 333 60000
OOXX CAP17 30171 99476 70527 ///// 01331 26/// /0512 11017 29067 39894 91730 333 60000
OOXX CAP17 30171 99476 70527 ///// 01331 26/// /0509 11017 29069 39899 91740 333 60000
OOXX CAP17 30171 99476 70527 ///// 01331 26/// /0511 11018 29071 39900 91750 333 60000
OOXX CAP14 30161 99487 71234 ///// 00431 26/// /2605 10069 29069 39956 91640 333 60000
OOXX CAP14 30161 99487 71234 ///// 00431 26/// /2606 10069 29071 39959 91650 333 60000
OOXX CAP14 30171 99487 71234 ///// 00431 26/// /2506 10061 29073 39956 91700 333 69920
OOXX CAP14 30171 99487 71234 ///// 00431 26/// /2505 10065 29068 39959 91710 333 60000
OOXX CAP14 30171 99487 71234 ///// 00431 26/// /2607 10069 29067 39965 91720 333 60000
OOXX CAP14 30171 99487 71234 ///// 00431 26/// /2405 10059 29075 39967 91730 333 60000
OOXX CAP14 30171 99487 71234 ///// 00431 26/// /2303 10062 29073 39968 91740 333 60000
OOXX CAP14 30171 99487 71234 ///// 00431 26/// /2505 10062 29072 39970 91750 333 60000
OOXX CAP14 30181 99487 71234 ///// 00431 26/// /2405 10067 29069 39974 91800 333 60000
OOXX CAP14 30181 99487 71234 ///// 00431 26/// /2405 10063 29072 39972 91810 333 60000
OOXX CAP14 30181 99487 71234 ///// 00431 26/// /2304 10067 29069 39971 91820 333 60000
OOXX CAP14 30181 99487 71234 ///// 00431 26/// /2504 10076 29065 39974 91830 333 60000
OOXX AUP09 30161 99124 31309 ///// 00321 26/// ///// 1//// 29/// 3//// 91618 333 6///0
OOXX AUP09 30161 99124 31309 ///// 00321 26/// ///// 1//// 29/// 3//// 91628 333 6///0
OOXX AUP09 30161 99124 31309 ///// 00321 26/// ///// 1//// 29/// 3//// 91638 333 6///0
OOXX AUP09 30161 99124 31309 ///// 00321 26/// ///// 1//// 29/// 3//// 91648 333 6///0
OOXX AUP09 30161 99124 31309 ///// 00321 26/// ///// 1//// 29/// 3//// 91658 333 6///0
OOXX AUP09 30171 99124 31309 ///// 00321 26/// ///// 1//// 29/// 3//// 91708 333 6///0
OOXX AUP09 30171 99124 31309 ///// 00321 26/// ///// 1//// 29/// 3//// 91718 333 6///0
OOXX AUP09 30171 99124 31309 ///// 00321 26/// ///// 1//// 29/// 3//// 91728 333 6///0
OOXX AUP09 30171 99124 31309 ///// 00321 26/// ///// 1//// 29/// 3//// 91738 333 6///0
OOXX AUP09 30171 99124 31309 ///// 00321 26/// ///// 1//// 29/// 3//// 91748 333 6///0
OOXX AUP09 30171 99124 31309 ///// 00321 26/// ///// 1//// 29/// 3//// 91758 333 6///0
OOXX AUP09 30181 99124 31309 ///// 00321 26/// ///// 1//// 29/// 3//// 91808 333 6///0
OOXX KIP39 30161 99020 51574 ///// 00181 26/// /1204 10250 29088 30110 91630 333 60000
OOXX KIP39 30161 99020 51574 ///// 00181 26/// /1303 10249 29088 30112 91640 333 60000
OOXX KIP39 30161 99020 51574 ///// 00181 26/// /1303 10250 29088 30114 91650 333 60000
OOXX KIP39 30171 99020 51574 ///// 00181 26/// /1303 10250 29089 30115 91700 333 60000
OOXX KIP39 30171 99020 51574 ///// 00181 26/// /1204 10254 29087 30115 91710 333 60000
OOXX KIP39 30171 99020 51574 ///// 00181 26/// /1304 10256 29086 30117 91720 333 60000
OOXX KIP39 30171 99020 51574 ///// 00181 26/// /1304 10257 29086 30119 91730 333 60000
OOXX KIP39 30171 99020 51574 ///// 00181 26/// /1204 10254 29086 30120 91740 333 60000
OOXX KIP39 30171 99020 51574 ///// 00181 26/// /1203 10256 29087 30121 91750 333 60000
OOXX KIP39 30181 99020 51574 ///// 00181 26/// /1204 10258 29086 30121 91800 333 60000
OOXX KIP39 30181 99020 51574 ///// 00181 26/// /1204 10264 29083 30122 91810 333 60000
OOXX KIP39 30181 99020 51574 ///// 00181 26/// /1205 10265 29082 30123 91820 333 60000
OOXX FJP26 30161 99178 31775 ///// 00311 26/// /0902 10247 29090 30046 91620 333 60000
OOXX FJP26 30161 99178 31775 ///// 00311 26/// /0902 10247 29090 30047 91630 333 60000
OOXX FJP26 30161 99178 31775 ///// 00311 26/// /0802 10246 29091 30048 91640 333 60000
OOXX FJP26 30161 99178 31775 ///// 00311 26/// /1001 10246 29091 30049 91650 333 60000
OOXX FJP26 30171 99178 31775 ///// 00311 26/// /1101 10246 29091 30050 91700 333 60000
OOXX FJP26 30171 99178 31775 ///// 00311 26/// /1402 10245 29092 30050 91710 333 60000
OOXX FJP26 30171 99178 31775 ///// 00311 26/// /1202 10245 29092 30052 91720 333 60000
OOXX FJP26 30171 99178 31775 ///// 00311 26/// /0801 10245 29092 30052 91730 333 60000
OOXX FJP26 30171 99178 31775 ///// 00311 26/// /0801 10246 29089 30052 91740 333 60000
OOXX FJP26 30171 99178 31775 ///// 00311 26/// /0602 10247 29089 30053 91750 333 60000
OOXX FJP26 30181 99178 31775 ///// 00311 26/// /1002 10247 29089 30053 91800 333 60000
OOXX FJP26 30181 99178 31775 ///// 00311 26/// /1202 10247 29088 30053 91810 333 60000
OOXX RUP54 30161 99586 10494 ///// 01271 26/// /0704 11024 29088 39960 91627 333 60120
OOXX RUP54 30161 99586 10494 ///// 01271 26/// /0605 11024 29088 39963 91637 333 60120
OOXX RUP54 30161 99586 10494 ///// 01271 26/// /0505 11024 29088 39962 91647 333 60120
OOXX RUP54 30161 99586 10494 ///// 01271 26/// /0506 11024 29088 39962 91657 333 60120
OOXX RUP54 30171 99586 10494 ///// 01271 26/// /0505 11023 29088 39963 91707 333 60120
OOXX RUP54 30171 99586 10494 ///// 01271 26/// /0704 11023 29088 39963 91717 333 60120
OOXX RUP54 30171 99586 10494 ///// 01271 26/// /0507 11023 29088 39963 91727 333 60120
OOXX RUP54 30171 99586 10494 ///// 01271 26/// /0506 11022 29088 39965 91737 333 60120
OOXX RUP54 30171 99586 10494 ///// 01271 26/// /0605 11022 29088 39966 91747 333 60120
OOXX RUP54 30171 99586 10494 ///// 01271 26/// /0506 11021 29088 39966 91757 333 60120
OOXX RUP54 30181 99586 10494 ///// 01271 26/// /0505 11021 29088 39967 91807 333 60120
OOXX RUP54 30181 99586 10494 ///// 01271 26/// /0505 11021 29088 39968 91817 333 60120
OOXX NZP46 30161 99438 51765 ///// 00221 26/// /3306 10157 29/// 30140 91630 333 60000
OOXX NZP46 30161 99438 51765 ///// 00221 26/// /3307 10157 29/// 30140 91640 333 60000
OOXX NZP46 30161 99438 51765 ///// 00221 26/// /3307 10156 29/// 30142 91650 333 60000
OOXX NZP46 30171 99438 51765 ///// 00221 26/// /3306 10156 29/// 30142 91700 333 60000
OOXX NZP46 30171 99438 51765 ///// 00221 26/// /3307 10157 29/// 30142 91710 333 69920
OOXX NZP46 30171 99438 51765 ///// 00221 26/// /3206 10156 29/// 30142 91720 333 69920
OOXX NZP46 30171 99438 51765 ///// 00221 26/// /3206 10157 29/// 30143 91730 333 60000
OOXX NZP46 30171 99438 51765 ///// 00221 26/// /3206 10158 29/// 30144 91740 333 60000
OOXX NZP46 30171 99438 51765 ///// 00221 26/// /3206 10158 29/// 30144 91750 333 69940
OOXX NZP46 30181 99438 51765 ///// 00221 26/// /3207 10157 29/// 30145 91800 333 69920
OOXX NZP46 30181 99438 51765 ///// 00221 26/// /3107 10157 29/// 30145 91810 333 60000
OOXX NZP46 30181 99438 51765 ///// 00221 26/// /3106 10158 29/// 30145 91820 333 69920
OOXX AUP04 30171 99377 31451 ///// 00311 26/// /3301 10153 29090 30100 91708 333 60000
OOXX AUP04 30171 99377 31451 ///// 00311 26/// /0101 10154 29091 30100 91718 333 60000
OOXX AUP04 30171 99377 31451 ///// 00311 26/// /0201 10156 29090 30099 91728 333 60000
OOXX AUP04 30171 99377 31451 ///// 00311 26/// /3401 10156 29090 30103 91738 333 60000
OOXX AUP04 30171 99377 31451 ///// 00311 26/// /0201 10156 29089 30103 91748 333 60000
OOXX AUP04 30171 99377 31451 ///// 00311 26/// /3601 10154 29090 30104 91758 333 60000
OOXX AUP04 30181 99377 31451 ///// 00311 26/// /3501 10152 29090 30104 91808 333 60000
OOXX AUP04 30181 99377 31451 ///// 00311 26/// /3401 10152 29090 30106 91818 333 60000
OOXX AUP04 30181 99377 31451 ///// 00311 26/// /3501 10153 29090 30106 91828 333 60000
OOXX AUP04 30181 99377 31451 ///// 00311 26/// /0101 10151 29090 30106 91838 333 60000
OOXX AUP04 30181 99377 31451 ///// 00311 26/// /0301 10153 29090 30106 91848 333 60000
OOXX AUP04 30181 99377 31451 ///// 00311 26/// /1001 10152 29090 30106 91858 333 60000
OOXX MRP43 30161 99181 70159 ///// 00101 26/// /0607 10232 29012 30181 91650 333 60000
OOXX MRP43 30171 99181 70159 ///// 00101 26/// /0708 10230 29012 30181 91700 333 60000
OOXX MRP43 30171 99181 70159 ///// 00101 26/// /0607 10230 29012 30181 91710 333 60000
OOXX MRP43 30171 99181 70159 ///// 00101 26/// /0607 10229 29013 30182 91720 333 60000
OOXX MRP43 30171 99181 70159 ///// 00101 26/// /0607 10230 29013 30183 91730 333 60000
OOXX MRP43 30171 99181 70159 ///// 00101 26/// /0607 10228 29012 30183 91740 333 60000
OOXX MRP43 30171 99181 70159 ///// 00101 26/// /0607 10226 29012 30185 91750 333 60000
OOXX MRP43 30181 99181 70159 ///// 00101 26/// /0606 10225 29012 30187 91800 333 60000
OOXX MRP43 30181 99181 70159 ///// 00101 26/// /0607 10223 29013 30187 91810 333 60000
OOXX MRP43 30181 99181 70159 ///// 00101 26/// /0505 10221 29013 30189 91820 333 60000
OOXX MRP43 30181 99181 70159 ///// 00101 26/// /0605 10218 29013 30189 91830 333 60000
OOXX MRP43 30181 99181 70159 ///// 00101 26/// /0605 10216 29013 30190 91840 333 60000
OOXX MYP42 30161 99045 11014 ///// 15551 26/// /0801 10177 29095 38445 91604 333 60000
OOXX MYP42 30161 99045 11014 ///// 15551 26/// /0604 10180 29094 38442 91614 333 60000
OOXX MYP42 30161 99045 11014 ///// 15551 26/// /0305 10176 29095 38449 91624 333 60000
OOXX MYP42 30161 99045 11014 ///// 15551 26/// /0204 10175 29094 38451 91634 333 60000
OOXX MYP42 30161 99045 11014 ///// 15551 26/// /0807 10178 29095 38449 91644 333 69920
OOXX MYP42 30161 99045 11014 ///// 15551 26/// /0803 10175 29095 38453 91654 333 60000
OOXX MYP42 30171 99045 11014 ///// 15551 26/// /0704 10176 29094 38440 91704 333 60000
OOXX MYP42 30171 99045 11014 ///// 15551 26/// /1105 10177 29094 38440 91714 333 60000
OOXX MYP42 30171 99045 11014 ///// 15551 26/// /0906 10180 29094 38447 91724 333 60000
OOXX MYP42 30171 99045 11014 ///// 15551 26/// /0802 10176 29094 38438 91734 333 60000
OOXX MYP42 30171 99045 11014 ///// 15551 26/// /1309 10174 29094 38449 91744 333 60000
OOXX MYP42 30171 99045 11014 ///// 15551 26/// /1304 10177 29094 38444 91754 333 60000
OOXX NOP49 30161 99782 10154 ///// 04691 26/// /1303 11218 29072 39471 91610 333 6///0
OOXX NOP49 30161 99782 10154 ///// 04691 26/// /1303 11222 29071 39471 91620 333 6///0
OOXX NOP49 30161 99782 10154 ///// 04691 26/// /1402 11217 29072 39471 91630 333 6///0
OOXX NOP49 30161 99782 10154 ///// 04691 26/// /1503 11216 29073 39470 91640 333 6///0
OOXX NOP49 30161 99782 10154 ///// 04691 26/// /1601 11218 29070 39470 91650 333 6///0
OOXX NOP49 30171 99782 10154 ///// 04691 26/// /1601 11209 29072 39470 91700 333 6///0
OOXX NOP49 30171 99782 10154 ///// 04691 26/// /1401 11207 29070 39470 91710 333 6///0
OOXX NOP49 30171 99782 10154 ///// 04691 26/// /1602 11210 29068 39469 91720 333 6///0
OOXX NOP49 30171 99782 10154 ///// 04691 26/// /1501 11213 29070 39468 91730 333 6///0
OOXX NOP49 30171 99782 10154 ///// 04691 26/// /1602 11214 29069 39469 91740 333 6///0
OOXX NOP49 30171 99782 10154 ///// 04691 26/// /1602 11218 29070 39468 91750 333 6///0
OOXX NOP49 30181 99782 10154 ///// 04691 26/// /1602 11213 29071 39468 91800 333 6///0
OOXX RUP59 30161 99539 10848 ///// 02121 26/// /0905 11044 29080 39954 91650 333 60000
OOXX RUP59 30171 99539 10848 ///// 02121 26/// /0904 11044 29081 39955 91700 333 60000
OOXX RUP59 30171 99539 10848 ///// 02121 26/// /0904 11044 29081 39955 91710 333 60000
OOXX RUP59 30171 99539 10848 ///// 02121 26/// /0904 11043 29081 39956 91720 333 60000
OOXX RUP59 30171 99539 10848 ///// 02121 26/// /0905 11044 29081 39955 91730 333 60000
OOXX RUP59 30171 99539 10848 ///// 02121 26/// /0905 11044 29082 39956 91740 333 60000
OOXX RUP59 30171 99539 10848 ///// 02121 26/// /0904 11045 29083 39956 91750 333 60000
OOXX RUP59 30181 99539 10848 ///// 02121 26/// /0904 11045 29083 39957 91800 333 60000
OOXX RUP59 30181 99539 10848 ///// 02121 26/// /0904 11045 29083 39959 91810 333 60000
OOXX RUP59 30181 99539 10848 ///// 02121 26/// /0904 11046 29083 39957 91820 333 60000
OOXX RUP59 30181 99539 10848 ///// 02121 26/// /0904 11046 29083 39958 91830 333 60000
OOXX RUP59 30181 99539 10848 ///// 02121 26/// /0904 11047 29083 39959 91840 333 60000
OOXX GBP67 30161 99159 50057 ///// 04381 26/// /0504 10179 29079 39672 91620 333 60000
OOXX GBP67 30161 99159 50057 ///// 04381 26/// /0804 10180 29079 39673 91630 333 60000
OOXX GBP67 30161 99159 50057 ///// 04381 26/// /0904 10180 29080 39672 91640 333 60000
OOXX GBP67 30161 99159 50057 ///// 04381 26/// /0904 10178 29080 39673 91650 333 60000
OOXX GBP67 30171 99159 50057 ///// 04381 26/// /0904 10178 29080 39673 91700 333 60000
OOXX GBP67 30171 99159 50057 ///// 04381 26/// /0704 10177 29082 39674 91710 333 60000
OOXX GBP67 30171 99159 50057 ///// 04381 26/// /0804 10176 29083 39675 91720 333 60000
OOXX GBP67 30171 99159 50057 ///// 04381 26/// /0904 10175 29082 39676 91730 333 60000
OOXX GBP67 30171 99159 50057 ///// 04381 26/// /0804 10176 29081 39675 91740 333 60000
OOXX GBP67 30171 99159 50057 ///// 04381 26/// /0904 10175 29082 39678 91750 333 60000
OOXX GBP67 30181 99159 50057 ///// 04381 26/// /0904 10176 29081 39678 91800 333 60000
OOXX AUP07 30161 99/// ///// ///// ///// 26/// /3012 10073 29095 39973 91650 333 60000
OOXX AUP07 30171 99/// ///// ///// ///// 26/// /3012 10073 29095 39971 91700 333 60000
OOXX AUP07 30171 99/// ///// ///// ///// 26/// /3012 10073 29095 39969 91710 333 60000
OOXX AUP07 30171 99/// ///// ///// ///// 26/// /3011 10073 29095 39968 91720 333 60000
OOXX AUP07 30171 99/// ///// ///// ///// 26/// /3011 10073 29095 39967 91730 333 60000
OOXX AUP07 30171 99/// ///// ///// ///// 26/// /3012 10073 29095 39966 91740 333 69920
OOXX AUP07 30171 99/// ///// ///// ///// 26/// /3012 10073 29095 39963 91750 333 60000
OOXX AUP07 30181 99/// ///// ///// ///// 26/// /3013 10074 29095 39961 91800 333 60000
OOXX AUP07 30181 99/// ///// ///// ///// 26/// /3014 10074 29094 39959 91810 333 60000
OOXX AUP07 30181 99/// ///// ///// ///// 26/// /3014 10074 29094 39958 91820 333 60000
OOXX AUP07 30181 99/// ///// ///// ///// 26/// /3014 10074 29094 39957 91830 333 60000
OOXX AUP07 30181 99/// ///// ///// ///// 26/// /3013 10074 29094 39956 91840 333 60000
OOXX RUP60 30161 99531 11588 ///// 00651 26/// /2703 11092 29061 30138 91652 333 60000
OOXX RUP60 30171 99531 11588 ///// 00651 26/// /3003 11092 29060 30138 91702 333 60000
OOXX RUP60 30171 99531 11588 ///// 00651 26/// /3006 11095 29062 30137 91712 333 60000
OOXX RUP60 30171 99531 11588 ///// 00651 26/// /2901 11098 29062 30137 91722 333 60000
OOXX RUP60 30171 99531 11588 ///// 00651 26/// /3206 11104 29063 30137 91732 333 60000
OOXX RUP60 30171 99531 11588 ///// 00651 26/// /3005 11108 29066 30137 91742 333 60000
OOXX RUP60 30171 99531 11588 ///// 00651 26/// /2505 11116 29067 30138 91752 333 60000
OOXX RUP60 30181 99531 11588 ///// 00651 26/// /3103 11114 29069 30137 91802 333 60000
OOXX RUP60 30181 99531 11588 ///// 00651 26/// /2901 11109 29069 30138 91812 333 60000
OOXX RUP60 30181 99531 11588 ///// 00651 26/// /3002 11107 29067 30138 91822 333 60000
OOXX RUP60 30181 99531 11588 ///// 00651 26/// /3002 11126 29068 30139 91832 333 60000
OOXX RUP60 30181 99531 11588 ///// 00651 26/// /3302 11134 29073 30139 91842 333 60000
OOXX ISP34 30161 99641 70219 ///// 01301 26/// /1407 10009 29001 39739 91610 333 6///0
OOXX ISP34 30161 99641 70219 ///// 01301 26/// /1507 10010 29001 39737 91620 333 6///0
OOXX ISP34 30161 99641 70219 ///// 01301 26/// /1508 10012 29001 39735 91630 333 6///0
OOXX ISP34 30161 99641 70219 ///// 01301 26/// /1608 10013 29001 39731 91640 333 6///0
OOXX ISP34 30161 99641 70219 ///// 01301 26/// /1709 10013 29001 39727 91650 333 6///0
OOXX ISP34 30171 99641 70219 ///// 01301 26/// /1509 10013 29001 39722 91700 333 6///0
OOXX ISP34 30171 99641 70219 ///// 01301 26/// /1507 10012 29001 39718 91710 333 6///0
OOXX ISP34 30171 99641 70219 ///// 01301 26/// /1608 10013 29001 39713 91720 333 6///0
OOXX ISP34 30171 99641 70219 ///// 01301 26/// /1507 10015 29001 39710 91730 333 6///0
OOXX ISP34 30171 99641 70219 ///// 01301 26/// /1609 10017 29001 39707 91740 333 6///0
OOXX ISP34 30171 99641 70219 ///// 01301 26/// /1607 10017 29001 39705 91750 333 6///0
OOXX ISP34 30181 99641 70219 ///// 01301 26/// /1608 10019 29001 39702 91800 333 6///0
OOXX ARP01 30161 99345 50585 ///// 00311 26/// /1101 10123 29033 30085 91610 333 60000
OOXX ARP01 30161 99345 50585 ///// 00311 26/// /0000 10125 29033 30085 91620 333 60000
OOXX ARP01 30161 99345 50585 ///// 00311 26/// /1101 10125 29033 30085 91630 333 60000
OOXX ARP01 30161 99345 50585 ///// 00311 26/// /1101 10125 29034 30085 91640 333 60000
OOXX ARP01 30161 99345 50585 ///// 00311 26/// /1101 10124 29034 30085 91650 333 60000
OOXX ARP01 30171 99345 50585 ///// 00311 26/// /1101 10124 29034 30085 91700 333 60000
OOXX ARP01 30171 99345 50585 ///// 00311 26/// /1101 10125 29034 30085 91710 333 60000
OOXX ARP01 30171 99345 50585 ///// 00311 26/// /1101 10127 29033 30084 91720 333 60000
OOXX ARP01 30171 99345 50585 ///// 00311 26/// /0000 10127 29033 30083 91730 333 60000
OOXX ARP01 30171 99345 50585 ///// 00311 26/// /1101 10125 29034 30083 91740 333 60000
OOXX ARP01 30171 99345 50585 ///// 00311 26/// /0000 10126 29034 30083 91750 333 60000
OOXX ARP01 30181 99345 50585 ///// 00311 26/// /1101 10127 29034 30082 91800 333 60000
AAXX 30184 91559 46/// /0000 10231 40070 22200 00291
AAXX 30184 89667 46/// /0506 11000 29043 39817 4//// 5//// 91840
AAXX 3018/ 89828 46/// ///// 11199 36556 4//// 5//// 91840
AAXX 3018/ 89108 46/// ///// 11201 36927 4//// 5//// 91840
AAXX 3018/ 89879 46/// ///// 10054 39735 4//// 5//// 91840
AAXX 3018/ 89667 46/// ///// 11010 39818 4//// 5//// 91830
AAXX 3018/ 89667 46/// ///// 10010 39819 4//// 5//// 91820
AAXX 3018/ 89872 46/// ///// 10001 39768 4//// 5//// 91840
AAXX 3018/ 89869 46/// ///// 10008 39749 4//// 5//// 91840
AAXX 3018/ 89866 46/// ///// 10023 39723 4//// 5//// 91840
AAXX 3018/ 89329 46/// ///// 11113 38597 4//// 5//// 91840
AAXX 3018/ 89799 46/// ///// 11236 4//// 5//// 91840
AAXX 3018/ 89769 46/// ///// 11034 39786 4//// 5//// 91840
AAXX 30184 96525 31458 60000 10254 20244 30104 40111 56018 85976 333 56700 57900 81915 84615 809//
AAXX 30184 71373 16/// /2901 11097 21138 60001 333 11096 21215 70000
AAXX 30184 71376 16/// /0902 11098 21152 39870 40188 58023 60001 333 11097 21286 70000
AAXX 30184 71175 46/// /2810 11056 21100 30122 6///1 333 7////
AAXX 30184 71191 16/// ///// 11019 21119 60001 333 11019 21094 70000 555 10010
AAXX 30184 71721 16/// /3302 11163 21189 39913 40173 58020 60001 333 11163 21256 70000
AAXX 30184 71614 16/// /0706 11126 21165 30101 40170 56022 60001 333 11126 21220 70000
AAXX 30184 71463 46/// /2207 10053 20015 39881 40104 58012 6///1 333 10058 21007 7////
AAXX 30184 89807 46/// /2110 11022 29100 39824 4//// 5//// 91830 333 90700 91113
AAXX 30184 89614 46/// /2203 11067 29099 39047 4//// 5//// 91830 333 90700 91105
AAXX 30184 89807 46/// /2110 11022 29100 39824 4//// 5//// 91830 333 90700 91113
AAXX 30184 89614 46/// /2203 11067 29099 39047 4//// 5//// 91830 333 90700 91105
AAXX 30184 71721 16/// /3302 11163 21189 39913 40173 58020 60001 333 11163 21256 70000
AAXX 30184 71373 16/// /2901 11097 21138 60001 333 11096 21215 70000
AAXX 30184 71376 16/// /0902 11098 21152 39870 40188 58023 60001 333 11097 21286 70000
AAXX 30184 71614 16/// /0706 11126 21165 30101 40170 56022 60001 333 11126 21220 70000
AAXX 30184 71463 46/// /2207 10053 20015 39881 40104 58012 6///1 333 10058 21007 7////
AAXX 30184 71175 46/// /2810 11056 21100 30122 6///1 333 7////
AAXX 30184 71191 16/// ///// 11019 21119 60001 333 11019 21094 70000 555 10010
BBXX SHIP 30184 99546 71704 41298 60710 11030 21100 40139 52005 70222 868// 22264 00039 2//// 3//// 4//// 81010
BBXX VRBQ6 30184 99546 71704 41298 60710 11030 21100 40139 52005 70222 868// 22264 00039 2//// 3//// 4//// 81010
AAXX 30184 91531 46/// /0703 1//// 40074 22200 00255
AAXX 30184 96179 32460 70000 10260 20245 30073 40110 57020 83208 333 56000 57802 83817 80850
BBXX 46145 30181 99544 71324 46/// /3214 10020 49996 52053 22200 00068 11007 70035 333 91216
BBXX 46208 30181 99525 71327 46/// /3212 10042 40035 52052 22200 00069 11009 70044 333 91216
BBXX WAZV 30184 99534 71384 41598 53021 10000 21020 40100 52060 72672 8484/ 22253 00060 20603 329// 41305 5//// 6//// 81010 ICE /////
AAXX 30184 71016 16/// ///// 10019 60001 333 10027 21010 70000
BBXX 44055 30181 99391 70753 46/// ///// 1//// 91830 22200 00070 1//00 70002
BBXX 46110 30181 99481 71230 46/// /2005 10070 40055 91819
BBXX 46109 30181 99481 71234 46/// /2109 10066 40057 91757 22200 00078
AAXX 30184 71016 16/// ///// 10019 60001 333 10027 21010 70000
AAXX 30184 91642 46/// /0000 1//// 40078 22200 0////
AAXX 30181 80001 32570 20702 10290 20248 30135 40136 81101 333 562/0 58000 81820
AAXX 30181 80002 NIL
AAXX 30181 80009 31560 53002 10310 20249 30096 40101 70500 81805 333 560/0 58008 81820 85070
AAXX 30181 80022 31956 32305 10290 20245 30096 40098 70500 81101 333 569/0 59005 81815 83070
AAXX 30181 80028 NIL
AAXX 30181 80036 31568 50506 10323 20219 70522 81808 333 560/0 81820 85270
AAXX 30181 80063 NIL
AAXX 30181 80084 11559 63306 10300 20241 70511 82805 333 563/9 82830 84270
AAXX 30181 80091 31462 70000 10301 20246 70522 83802 333 569/0 83615 85070
AAXX 30181 80094 31465 72705 10240 20195 38806 70522 83805 333 566/9 59007 83810 85270
AAXX 30181 80097 NIL
AAXX 30181 80099 31466 30605 10314 20200 39937 40082 70500 83806 333 566/9 58003 83815
AAXX 30181 80110 31570 80000 10255 20130 38510 70522 83107 333 560/9 58000 83830 88270
AAXX 30181 80112 31470 80804 10190 20137 37906 70522 82276 333 56999 57894 58002 82818 83358 85070
AAXX 30181 80144 NIL
AAXX 30181 80001 32570 20702 10290 20248 30135 40136 81101 333 562/0 58000 81820
AAXX 30181 80002 NIL
AAXX 30181 80009 31560 53002 10310 20249 30096 40101 70500 81805 333 560/0 58008 81820 85070
AAXX 30181 80022 31956 32305 10290 20245 30096 40098 70500 81101 333 569/0 59005 81815 83070
AAXX 30181 80028 NIL
AAXX 30181 80036 31568 50506 10323 20219 70522 81808 333 560/0 81820 85270
AAXX 30181 80063 NIL
AAXX 30181 80084 11559 63306 10300 20241 70511 82805 333 563/9 82830 84270
AAXX 30181 80091 31462 70000 10301 20246 70522 83802 333 569/0 83615 85070
AAXX 30181 80094 31465 72705 10240 20195 38806 70522 83805 333 566/9 59007 83810 85270
AAXX 30181 80097 NIL
AAXX 30181 80099 31466 30605 10314 20200 39937 40082 70500 83806 333 566/9 58003 83815
AAXX 30181 80110 31570 80000 10255 20130 38510 70522 83107 333 560/9 58000 83830 88270
AAXX 30181 80112 31470 80804 10190 20137 37906 70522 82276 333 56999 57894 58002 82818 83358 85070
AAXX 30181 80144 NIL
BBXX 42043 30181 99290 70949 46/// /1401 1//// 40165 58006 91800 22200 00136 333 91201
BBXX 42046 30181 99279 70940 46/// /2205 1//// 40172 58003 91800 22200 00222 333 91205
BBXX 44056 30181 99362 70757 46/// ///// 1//// 91820 22200 00119 11301 21001 70004
BBXX SHIP 30184 99307 11373 41598 43223 10150 20066 40205 56010 70300 8314/ 22244 00190 2//// 3//// 4//// 80105
BBXX 46094 30181 99446 71243 46/// /2906 10092 91830
BBXX 46094 30181 99446 71243 46/// /2806 10093 91820
BBXX 46094 30181 99446 71243 46/// /3004 10093 91810
BBXX 46094 30181 99446 71243 46/// /2905 10095 91800
BBXX 46094 30181 99446 71243 46/// /2604 10096 91750
BBXX 46094 30181 99446 71243 46/// /2805 10097 91740
BBXX 42085 30181 99179 70665 46/// /0908 10270 40158 91830 333 91209
BBXX 42085 30181 99179 70665 46/// /0809 10268 40159 91820 333 91211
BBXX 42085 30181 99179 70665 46/// /0909 10272 40160 91810 333 91213
BBXX C6VG8 30184 99303 70763 41/// /9904 10200 2//// 40190 5//// 7//// 8//// 22214 00230 2//// 3//// 4//// 5//// 6//// 8//// ICE /////
AAXX 30184 41515 02995 00000 10064 21143 38590 48550 60003 333 59003 60007
AAXX 30184 41560 22696 31803 10000 21095 38289 48523 60003 82320 333 58003 60007
AAXX 30184 41571 119// 00000 10075 20011 39603 40210 60003 70500 333 59006
AAXX 30184 41594 NIL
AAXX 30184 41685 32993 02302 10075 21046 38963 48531 333 58005
AAXX 30184 41710 01995 03102 10085 21123 39437 40240 60003 70600 333 58004 60007
AAXX 30184 41718 11995 00000 10080 20058 30085 40194 60003 70400 333 59014
AAXX 30184 41739 02696 53604 10110 21008 39093 48538 60003 83530 333 56990 58003 60007 83635 82360
AAXX 30184 41744 32996 03102 10090 21040 38807 48525 333 58000
AAXX 30184 41749 01993 00000 10135 20074 30164 40199 60003 70400 333 59017 60007
AAXX 30184 41506 02995 00000 10015 21027 48551 60003 333 59020 60007
AAXX 30184 41508 22996 00000 10056 21081 48557 60003 333 59014 60007
AAXX 30184 41523 12996 00000 10050 21030 48540 60003 333 59017 60007
AAXX 30184 41535 12997 00000 10050 21014 48505 60003 333 59020
AAXX 30184 41536 NIL
AAXX 30184 41573 12996 00000 10030 21089 48529 60003 333 59006
AAXX 30184 41600 02996 00000 10080 20058 39885 40192 60003 333 59008 60007
AAXX 30184 41630 11996 00000 10070 20035 40198 60003 70400 333 59012
AAXX 30184 41678 11006 00000 10105 20074 40200 60003 71000 333 59007 60007
AAXX 30184 41696 02996 00000 11020 21128 38047 48582 60003 333 59005 60007
AAXX 30184 41697 02996 00000 10161 20043 40188 60003 333 59022 60007
AAXX 30184 41700 11995 00000 10100 20068 40182 60003 70400 333 59023
AAXX 30184 41725 02996 00000 10120 20056 40183 60003 333 59017 60007
AAXX 30184 41746 02996 00000 10120 20079 40194 60003 333 59018 60007
AAXX 30184 41759 11696 80000 10190 20138 30186 40192 60002 70500 86530 333 56990 58004 86630 86360
AAXX 30184 41785 02996 00000 10150 20092 40188 60003 333 59006 60007
AAXX 30184 41529 12995 00000 10067 20001 39810 40205 60003 333 59017
AAXX 30184 41598 11996 00000 10070 20047 39919 40204 60003 70500 333 58003
AAXX 30184 41620 32995 01305 10050 21116 38613 48513 333 59020
AAXX 30184 41624 02995 00000 10090 20045 39980 40189 60003 333 59014 60007
AAXX 30184 41640 01995 00000 10115 20085 39944 40202 60003 70400 333 59006 60007
AAXX 30184 41660 119// 01304 10010 21054 38474 48565 60003 70500 333 59004
AAXX 30184 41675 11995 00000 10085 20039 30042 40186 60003 70400 333 59016
AAXX 30184 41712 12996 00502 10070 21036 39267 48552 60003 333 58007
AAXX 30184 41715 01996 00000 10130 20068 30122 40190 60003 70500 333 59020 60007
AAXX 30184 41756 01595 50910 10200 20167 30124 40188 60003 70404 85400 333 56900 58012 60007 85625
AAXX 30184 41764 31995 03602 10140 20068 30128 40179 60003 70400 333 59006 60007
AAXX 30184 41768 02996 00000 10125 20049 30180 40187 60003 333 59006 60007
AAXX 30184 41780 02996 00000 10175 20021 40195 60003 333 58005 60007
AAXX 30184 41515 02995 00000 10064 21143 38590 48550 60003 333 59003 60007
AAXX 30184 41560 22696 31803 10000 21095 38289 48523 60003 82320 333 58003 60007
AAXX 30184 41571 119// 00000 10075 20011 39603 40210 60003 70500 333 59006
AAXX 30184 41594 NIL
AAXX 30184 41685 32993 02302 10075 21046 38963 48531 333 58005
AAXX 30184 41710 01995 03102 10085 21123 39437 40240 60003 70600 333 58004 60007
AAXX 30184 41718 11995 00000 10080 20058 30085 40194 60003 70400 333 59014
AAXX 30184 41739 02696 53604 10110 21008 39093 48538 60003 83530 333 56990 58003 60007 83635 82360
AAXX 30184 41744 32996 03102 10090 21040 38807 48525 333 58000
AAXX 30184 41749 01993 00000 10135 20074 30164 40199 60003 70400 333 59017 60007
AAXX 30184 41529 12995 00000 10067 20001 39810 40205 60003 333 59017
AAXX 30184 41598 11996 00000 10070 20047 39919 40204 60003 70500 333 58003
AAXX 30184 41620 32995 01305 10050 21116 38613 48513 333 59020
AAXX 30184 41624 02995 00000 10090 20045 39980 40189 60003 333 59014 60007
AAXX 30184 41640 01995 00000 10115 20085 39944 40202 60003 70400 333 59006 60007
AAXX 30184 41660 119// 01304 10010 21054 38474 48565 60003 70500 333 59004
AAXX 30184 41675 11995 00000 10085 20039 30042 40186 60003 70400 333 59016
AAXX 30184 41712 12996 00502 10070 21036 39267 48552 60003 333 58007
AAXX 30184 41715 01996 00000 10130 20068 30122 40190 60003 70500 333 59020 60007
AAXX 30184 41756 01595 50910 10200 20167 30124 40188 60003 70404 85400 333 56900 58012 60007 85625
AAXX 30184 41764 31995 03602 10140 20068 30128 40179 60003 70400 333 59006 60007
AAXX 30184 41768 02996 00000 10125 20049 30180 40187 60003 333 59006 60007
AAXX 30184 41780 02996 00000 10175 20021 40195 60003 333 58005 60007
BBXX ELVF4 30181 99082 30743 41696 72304 10270 20249 40147 51010 7//// 877/3 22214 06220 20401 32322 40403 50503 80255
BBXX WHKM 30184 99086 30800 41198 33013 10280 20253 40085 52015 7//10 82402 22223 0//// 2//// 3//// 4//// 5//// 6//// 80260 /////
BBXX TBWUK18 30183 99321 30405 41298 22014 10220 20205 40137 54000 70100 8214/ 22222 00230 20502 335// 40903 5//// 80210
BBXX TBWUK17 30183 99327 30287 41398 61213 10244 20212 40159 52039 70322 85/// 22253 04260 20101 313// 40504 5//// 80223
BBXX VQIB9 30184 99330 30302 41598 30711 10215 20166 40126 54000 70200 82543 22254 00240 2//// 3//// 4//// 5//// 80185
BBXX MLRM6 30183 99384 30104 41598 62425 10129 20062 40206 53007 70222 86500 22252 00151 20202 324// 40306 5////
AAXX 30184 92036 46/// /3502 10279 40067 22200 00318
BBXX 46094 30181 99446 71243 46/// /2604 10096 91750
BBXX 46094 30181 99446 71243 46/// /2906 10092 91830
BBXX 46094 30181 99446 71243 46/// /2805 10097 91740
BBXX 46094 30181 99446 71243 46/// /3004 10093 91810
BBXX 46094 30181 99446 71243 46/// /2905 10095 91800
BBXX 46094 30181 99446 71243 46/// /2806 10093 91820
BBXX 44056 30181 99362 70757 46/// ///// 1//// 91820 22200 00119 11301 21001 70004
BBXX 42043 30181 99290 70949 46/// /1401 1//// 40165 58006 91800 22200 00136 333 91201
BBXX 42046 30181 99279 70940 46/// /2205 1//// 40172 58003 91800 22200 00222 333 91205
BBXX 44055 30181 99391 70753 46/// ///// 1//// 91830 22200 00070 1//00 70002
BBXX 46110 30181 99481 71230 46/// /2005 10070 40055 91819
BBXX 46109 30181 99481 71234 46/// /2109 10066 40057 91757 22200 00078
BBXX MINFR05 3018/ 99042 70033 46/// ///// 10268 40118 52010
BBXX 66022 30181 99541 10142 46/// /2406 10043 30030 22200 00041
AAXX 30184 62600 32970 00207 10250 20070 39921 40155 10305 59003
AAXX 30184 62640 32970 03605 10280 20080 40098 10337 59004
AAXX 30184 62641 32570 02005 10258 20220 30110 40158 82500 10292 56900 59018 82630
AAXX 30184 62650 32970 03605 10270 20070 39856 40125 10336 58004
AAXX 30184 62660 32970 03605 10280 20140 39822 40116 10345 59010
AAXX 30184 62680 31968 00402 10280 20150 39798 40087 70600 10375 59002
AAXX 30184 62721 32970 73207 103215 20075 39654 40083 80007 10380 56009 59008 87275
AAXX 30184 62730 32970 00000 10307 20053 39571 40123 10400 58000
AAXX 30184 62733 32970 03603 10285 20150 39572 40094 10350 58002
AAXX 30184 62750 32970 73204 10290 20150 39639 40060 80007 10375 56009 59005 87275
AAXX 30184 62751 32970 70104 10307 20113 39280 40095 80007 10402 56009 59008 87275
AAXX 30184 62752 32970 03601 10295 20065 39417 40072 10405 58012
AAXX 30184 62762 32970 70000 10262 20138 39390 40058 80007 10393 56009 58002 87275
AAXX 30184 62771 32970 73106 10270 20090 39467 40099 80007 10350 56009 58003 87275
AAXX 30184 62772 32970 03602 10280 20152 39652 40078 10368 58003
BBXX 63106 30184 99610 10017 46/// /1204 10034 40068 58006 22200
BBXX 63113 30184 99610 10017 46/// /0305 10061 21056 40066 58007 22200 10907 70037
BBXX 62163 30184 99475 70084 46/// /2521 10130 20117 40256 57017 22200 00124 10808 70038 333 90710 91128
BBXX 2AUO5 30183 99606 10016 41597 39904 10050 21033 40074 58005 70200 834// 22281 20000 335// 40307 80021
BBXX 62103 30184 99499 70029 46/97 /2627 10118 20111 40170 58011 22200 00119 10704 70018 333 90710 91135
BBXX 62094 30184 99517 70067 46/// /2423 10111 20106 40142 56016 22200 00106 10505 70026 333 90710 91137
AAXX 30184 93713 46/// /0000 10156 40092 22200 00174
BBXX FHZI 30184 99649 31439 46/// /1710 11002 21021 39816 49827 57004 22281 05018 86009
BBXX 42085 30181 99179 70665 46/// /0909 10272 40160 91810 333 91213
BBXX 42085 30181 99179 70665 46/// /0908 10270 40158 91830 333 91209
BBXX 42085 30181 99179 70665 46/// /0809 10268 40159 91820 333 91211
BBXX C6VG8 30184 99303 70763 41/// /9904 10200 2//// 40190 5//// 7//// 8//// 22214 00230 2//// 3//// 4//// 5//// 6//// 8//// ICE /////
BBXX MINUK01 3018/ 99600 70011 46/// ///// 10060 40033 57041
BBXX MINUK05 3018/ 99571 70021 46/// ///// 10025 40048 57035
BBXX MINUK03 3018/ 99549 70011 46/// ///// 10048 40065 57051
BBXX C6NI8 30183 99432 70106 41497 52617 10130 20121 40364 56010 70322 84485 22213 04160 21106 334// 41406 5//// 80125
AAXX 30184 62781 32970 70402 10270 20200 39475 40110 80007 10383 56009 59005 87275
AAXX 30184 62790 32970 70000 10288 20034 39582 40095 80007 10366 56009 59013 87275
AAXX 30184 62795 32970 70000 10280 20110 39599 40072 80007 80007 10400 56009 58006 87275
AAXX 30184 62801 32970 33605 10250 20170 3//// 4/// 83500 10282 56900 5//// 83630
AAXX 30184 62805 32970 70000 10245 20115 39529 40053 80007 10395 56009 59002 87275
AAXX 30184 62809 32970 70402 10298 20107 39584 40085 80007 10380 56998 59005 87275
AAXX 30184 62781 32970 70402 10270 20200 39475 40110 80007 10383 56009 59005 87275
AAXX 30184 62790 32970 70000 10288 20034 39582 40095 80007 10366 56009 59013 87275
AAXX 30184 62795 32970 70000 10280 20110 39599 40072 80007 80007 10400 56009 58006 87275
AAXX 30184 62801 32970 33605 10250 20170 3//// 4/// 83500 10282 56900 5//// 83630
AAXX 30184 62805 32970 70000 10245 20115 39529 40053 80007 10395 56009 59002 87275
AAXX 30184 62809 32970 70402 10298 20107 39584 40085 80007 10380 56998 59005 87275
BBXX 42013 30181 99272 70829 46/// ///// 1//// 40193 91820 22200 00204
BBXX 42013 30181 99272 70829 46/// ///// 1//// 40195 58021 91800 22200 00204
AAXX 30181 98132 11445 80708 10201 20195 40226 58015 60031 76064 8527/ 333 56199 85816 88357
AAXX 30181 98133 NIL
AAXX 30181 98222 31575 20501 10240 20205 40136 58008 70544 81206 333 56999 81820
AAXX 30181 98233 31570 83601 10220 20198 40165 58008 70544 885// 333 56999 88620
AAXX 30181 98324 31462 10000 10256 20219 40140 57009 70544 81101 333 56999 81816
AAXX 30181 98327 31668 72803 10221 20200 39974 40149 57013 70544 82208 333 56999 82842 87280
AAXX 30181 98334 32468 80000 10234 20224 39958 40162 57014 8327/ 333 56999 83817 88358
AAXX 30181 98425 32557 80902 10267 20216 40139 58014 8212/ 333 56999 82820 88459
AAXX 30181 98426 31562 10902 10240 20207 40147 57017 70544 81100 333 56999 81820
AAXX 30181 98427 11472 70202 10244 20230 39946 40124 58014 69901 70381 82270 333 56999 82818 86357
AAXX 30181 98428 32458 50401 10262 20234 40143 58010 82461 333 56999 82618
AAXX 30181 98432 31568 20000 10260 20233 40144 58012 70544 82200 333 56999 82820
AAXX 30181 98433 31460 30808 10210 20201 39412 40134 58010 70111 83270 333 56999 83812
AAXX 30181 98434 11468 83602 10250 20236 30147 40155 58016 69951 70282 8527/ 333 56199 85818 88358
AAXX 30181 98435 32470 70403 10259 20239 40144 5//// 84270 333 56199 84818 87358
AAXX 30181 98442 NIL
AAXX 30181 98446 31465 73603 10252 20238 30098 40144 58012 71522 83208 333 56899 83818 87270
AAXX 30181 98447 11470 60704 10236 20228 39870 40129 5//// 60021 71582 83201 333 56199 83818 83070
AAXX 30181 98538 32468 33604 10264 20241 30120 40125 58018 81201 333 56999 81811 83075
AAXX 30181 98546 32575 60405 10268 20251 30117 40125 57021 82208 333 56999 82820 86275
AAXX 30181 98548 32465 80000 10267 20239 30126 40132 58001 84207 333 56999 84815 88273
AAXX 30181 98553 31462 83203 10270 20243 30117 40121 58008 70544 84207 333 56999 84818 88272
AAXX 30181 98558 11460 80407 10263 20252 40118 58016 60351 72586 8592/ 333 56999 84915 88457
AAXX 30181 98642 11458 83203 10250 20239 30106 40115 58014 60021 76188 8522/ 333 56199 85815 88457
AAXX 30181 98644 32464 80301 10250 20243 30105 40114 57016 8327/ 333 56999 83817 88358
AAXX 30181 98648 31468 53601 10246 20221 30045 40127 57011 70544 82262 333 56999 82817 84072
AAXX 30181 98746 31460 81802 10242 20216 40079 58028 70544 8397/ 333 56999 83918 88358
AAXX 30181 98751 32468 80000 10227 20213 39436 40103 57014 8497/ 333 56999 84915 88356
AAXX 30181 98752 11460 60000 10257 20249 40112 57021 60041 71582 82970 333 56999 82916 86358
AAXX 30181 98851 32468 82702 10248 20223 39955 40103 58017 8117/ 333 56999 81818 88358
BBXX 62163 30184 99475 70084 46/// /2622 10119 20106 40260 57014 22200 00125 10808 70038 333 90710 91128
BBXX 63055 30184 99606 10016 47999 /1405 10043 21045 40066 57010 700// 22200 10805 70026
BBXX 63106 30184 99610 10017 46/// /1204 10034 40068 58006 22200
BBXX 63105 30184 99610 10017 47698 ///// 10039 21068 40067 58007 700// 22200
BBXX 62094 30184 99517 70067 46/// /24// 10111 20106 40142 56016 22200 00106 10505 70026 333 90710 91137
BBXX 62103 30184 99499 70029 46/97 /2626 10118 20110 40174 56012 22200 00119 10703 70015 333 90710 91133
BBXX 42013 30181 99272 70829 46/// ///// 1//// 40193 91820 22200 00204
BBXX 42013 30181 99272 70829 46/// ///// 1//// 40195 58021 91800 22200 00204
BBXX FHZI 30184 99649 31439 46/// /1710 11002 21021 39816 49827 57004 22281 05018 86009
BBXX SKEC 30181 99555 10151 46/// ///// 10041 49992 52016 22232 00057
AAXX 30184 71408 46/// /2533 11012 21043 39975 40054 51033 6///1 333 11008 21036 7////
AAXX 30184 71408 46/// /2533 11012 21043 39975 40054 51033 6///1 333 11008 21036 7////
BBXX 42369 30181 99272 70903 46/// /2606 1//// 91740 22200 10401 70007
AAXX 30184 40255 42960 40000 10088 20023 39449 40178 54002 84030 333 10115 84360
AAXX 30184 40260 32960 01610 10116 21023 39390 40181 57010 333 10140
AAXX 30184 40270 11950 42204 10104 20006 39269 40177 54003 69902 70511 84030 333 10115 84360
AAXX 30184 40272 11958 40000 10100 20023 39334 40175 52010 69902 70500 83031 333 10140 83360 83070
AAXX 30184 40290 NIL
AAXX 30184 40340 12660 43606 10150 20076 40161 52005 69912 84200 333 10170 84830
BBXX 42370 30181 99273 70905 46/// ///// 10222 91740 22200 10301 70006
BBXX 42376 30181 99291 70879 46/// /1809 10223 40168 91740 22200 10201 70007
BBXX 42392 30181 99272 70900 46/// ///// 1//// 91740 22200 10301 70007
BBXX 42887 30181 99282 70885 46/// /2406 10231 91740 22200 10401 70007
BBXX ONCT 30184 99126 70653 41798 70926 10280 2024/ 40120 56015 70311 877// 22274 04270 20504 308// 4//// 5//// 6//// 80250 ICE /////
BBXX WCW 30184 99410 70820 41/97 81522 10080 2//// 40041 57002 70202 88/// 22232 0//// 20401 3//// 4//// 5//// 6//// 8//// ICE /////
BBXX 3EKU3 30184 99535 71488 41697 72621 00/// 10080 20060 40010 54002 70222 87221 22274 00042 20601 31111 40300 50200 6//// /////
BBXX 42369 30181 99272 70903 46/// /2606 1//// 91740 22200 10401 70007
BBXX ONCT 30184 99126 70653 41798 70926 10280 2024/ 40120 56015 70311 877// 22274 04270 20504 308// 4//// 5//// 6//// 80250 ICE /////
BBXX SKEC 30181 99555 10151 46/// ///// 10041 49992 52016 22232 00057
AAXX 3018/ 89327 46/// ///// 11031 39536 4//// 5////
AAXX 3018/ 89868 46/// ///// 11069 39750 4//// 5////
BBXX DGZS2 30183 99118 11108 41597 60321 10245 20224 40140 57/// 70222 85478 22254 00260 20604 304// 40804 80230
BBXX A8PB2 30184 99059 10857 41497 32310 10250 20222 40070 54000 70322 8312/ 22224 04290 20401 80230
BBXX VRAR7 30183 99358 11445 41/98 /2830 10110 20040 40170 57030 70222 8//// 22214 00182 2//// 80075
BBXX 63106 30184 99610 10017 46/// /1204 10034 40068 58006 22200
BBXX 63113 30184 99610 10017 46/// /0305 10061 21056 40066 58007 22200 10907 70037
BBXX 62163 30184 99475 70084 46/// /2521 10130 20117 40256 57017 22200 00124 10808 70038 333 90710 91128
BBXX 2AUO5 30183 99606 10016 41597 39904 10050 21033 40074 58005 70200 834// 22281 20000 335// 40307 80021
BBXX 62103 30184 99499 70029 46/97 /2627 10118 20111 40170 58011 22200 00119 10704 70018 333 90710 91135
BBXX 62094 30184 99517 70067 46/// /2423 10111 20106 40142 56016 22200 00106 10505 70026 333 90710 91137
BBXX ZCDQ5 30183 99359 10214 43598 71415 10110 20095 40110 57005 70303 87/74 22274 00115 20202 3//// 4//// 5//// 80095
BBXX 9MBX5 30184 99389 31420 41398 33012 10170 20153 40149 53006 7//11 81145 22224 20202 80160
BBXX 9MBX5 30184 99389 31420 41398 33012 10170 20153 40149 53006 7//11 81145 22224 20202 80160
BBXX WCW 30184 99410 70820 41/97 81522 10080 2//// 40041 57002 70202 88/// 22232 0//// 20401 3//// 4//// 5//// 6//// 8//// ICE /////
BBXX ZCDQ5 30183 99359 10214 43598 71415 10110 20095 40110 57005 70303 87/74 22274 00115 20202 3//// 4//// 5//// 80095
BBXX SHIP 30183 99358 11445 41/98 /2830 10110 20040 40170 57030 70222 8//// 22214 00182 2//// 80075
BBXX DGZS2 30183 99118 11108 41597 60321 10245 20224 40140 57/// 70222 85478 22254 00260 20604 304// 40804 80230
BBXX A8PB2 30184 99059 10857 41497 32310 10250 20222 40070 54000 70322 8312/ 22224 04290 20401 80230
BBXX 42887 30181 99282 70885 46/// /2406 10231 91740 22200 10401 70007
BBXX 42392 30181 99272 70900 46/// ///// 1//// 91740 22200 10301 70007
BBXX 42376 30181 99291 70879 46/// /1809 10223 40168 91740 22200 10201 70007
BBXX 42370 30181 99273 70905 46/// ///// 10222 91740 22200 10301 70006
BBXX ZCDQ5 30183 99359 10214 43598 71415 10110 20095 40110 57005 70303 87/74 22274 00115 20202 3//// 4//// 5//// 80095
AAXX 30184 89272 46/// /1311 11118 21142 37962 49581 57001 91840
AAXX 30184 89257 46/// /1704 11065 21097 39722 49792 52001 91840
AAXX 3018/ 89332 46/// ///// 11040 39095 4//// 5//// 91840
AAXX 3018/ 89314 46/// ///// 11120 38098 4//// 5//// 91840
AAXX 3018/ 89872 46/// ///// 11010 39768 4//// 5//// 91830
AAXX 3018/ 89866 46/// ///// 10029 39722 4//// 5//// 91830
AAXX 3018/ 89329 46/// ///// 11118 38598 4//// 5//// 91830
AAXX 3018/ 89868 46/// ///// 11079 39749 4//// 5//// 91840
AAXX 3018/ 89327 46/// ///// 11030 39529 4//// 5//// 91840
AAXX 3018/ 89879 46/// ///// 10051 39736 4//// 5//// 91830
AAXX 30184 64500 32460 52008 10274 20240 30099 40112 83230 333 10290 58001 83811 85360 94916 95836
AAXX 30184 64501 32360 82004 10260 20239 3//// 4//// 885// 333 10280 5//// 83608 88626
AAXX 30184 64550 32458 8//// 10250 20231 30/// 40/// 885// 333 10280 5//// 84611 88616
AAXX 30184 64551 32460 70000 10260 20238 30088 40117 8353/ 333 10276 59003 83610 87360
AAXX 30184 64570 32460 80000 10250 20236 39620 40127 8457/ 333 10266 58006 84611 88360
AAXX 30184 89013 46/// /0813 11175 21207 37619 49623 57006 91750
AAXX 30184 89257 46/// /1505 11068 21102 39722 49792 54000 91750
AAXX 30184 89272 46/// /1213 11117 21148 37962 49580 57002 91750
AAXX 30184 91375 46/// /0908 10253 40088 22200 00280
AAXX 30181 20046 31998 03505 11259 21277 39987 40021 52013 70230 333 11247
AAXX 30181 20069 41312 80114 11143 21160 39889 49902 52022 77373 8672/ 333 86707 91118 92982
BBXX 3EKU3 30184 99535 71488 41697 72621 00/// 10080 20060 40010 54002 70222 87221 22274 00042 20601 31111 40300 50200 6//// /////
BBXX SHIP 30183 99358 11445 41/98 /2830 10110 20040 40170 57030 70222 8//// 22214 00182 2//// 80075
BBXX VRAR7 30183 99358 11445 41/98 /2830 10110 20040 40170 57030 70222 8//// 22214 00182 2//// 80075
BBXX 42369 30181 99272 70903 46/// /2606 1//// 91800 22200 10401 70007
BBXX 42370 30181 99273 70905 46/// ///// 10222 91800 22200 10401 70007
BBXX 42376 30181 99291 70879 46/// /1809 10225 40165 58020 91800 22200 10201 70007
BBXX 42392 30181 99272 70900 46/// ///// 1//// 91800 22200 10401 70007
BBXX 42887 30181 99282 70885 46/// /2306 10233 91800 22200 10401 70007
AAXX 30184 91165 12466 61008 10217 20167 30162 40197 53013 69931 91753
AAXX 30184 91212 12966 00810 10250 20211 31375 40110 56015 69901 91754
AAXX 30184 91245 32466 4//// 10240 20240 30157 91750
AAXX 30184 91285 32766 22105 10189 20133 30175 40189 51012 91753
AAXX 30184 91334 32474 60607 10269 20232 30091 40094 55007 82101
AAXX 30184 91348 11474 50805 10277 20238 30051 40103 55000 60011 70281 83101
AAXX 30184 91376 11462 80909 10259 20241 30086 40090 53003 60191 72286 8687/
AAXX 30184 91408 11473 60807 10258 20238 30046 40084 57019 60051 70282 82201
AAXX 30184 91413 11469 60812 10270 20232 30069 40095 58010 69951 70282 83171
AAXX 30184 91610 11599 21014 10262 20246 40087 53010 60001 70200 81100
AAXX 30184 91155 NIL
AAXX 30184 91203 NIL
AAXX 30184 91217 NIL
AAXX 30184 91232 NIL
AAXX 30184 91250 NIL
AAXX 30184 91275 NIL
AAXX 30184 91317 NIL
AAXX 30184 91324 NIL
AAXX 30184 91339 NIL
AAXX 30184 91353 NIL
AAXX 30184 91356 NIL
AAXX 30184 91366 NIL
AAXX 30184 91367 NIL
AAXX 30184 91369 NIL
AAXX 30184 91371 NIL
AAXX 30184 91378 NIL
AAXX 30184 91425 NIL
AAXX 30184 91434 NIL
AAXX 30184 91601 NIL
BBXX 62163 30184 99475 70084 46/// /2622 10119 20106 40260 57014 22200 00125 10808 70038 333 90710 91128
BBXX 63055 30184 99606 10016 47999 /1405 10043 21045 40066 57010 700// 22200 10805 70026
BBXX 63106 30184 99610 10017 46/// /1204 10034 40068 58006 22200
BBXX 63105 30184 99610 10017 47698 ///// 10039 21068 40067 58007 700// 22200
BBXX 62094 30184 99517 70067 46/// /24// 10111 20106 40142 56016 22200 00106 10505 70026 333 90710 91137
BBXX 62103 30184 99499 70029 46/97 /2626 10118 20110 40174 56012 22200 00119 10703 70015 333 90710 91133
BBXX 64049 30183 99571 10022 41197 63008 10057 20052 40081 54000 70211 8/231 22200 04091 20604 334// 40605 5//// 80055
AAXX 30184 91245 32466 4//// 10240 20240 30157 91750
AAXX 30184 91165 12466 61008 10217 20167 30162 40197 53013 69931 91753
AAXX 30184 91212 12966 00810 10250 20211 31375 40110 56015 69901 91754
AAXX 30184 91285 32766 22105 10189 20133 30175 40189 51012 91753
AAXX 30184 91334 32474 60607 10269 20232 30091 40094 55007 82101
AAXX 30184 91348 11474 50805 10277 20238 30051 40103 55000 60011 70281 83101
AAXX 30184 91376 11462 80909 10259 20241 30086 40090 53003 60191 72286 8687/
AAXX 30184 91408 11473 60807 10258 20238 30046 40084 57019 60051 70282 82201
AAXX 30184 91413 11469 60812 10270 20232 30069 40095 58010 69951 70282 83171
BBXX 42369 30181 99272 70903 46/// /2606 1//// 91800 22200 10401 70007
BBXX 42392 30181 99272 70900 46/// ///// 1//// 91800 22200 10401 70007
BBXX 42887 30181 99282 70885 46/// /2306 10233 91800 22200 10401 70007
BBXX 42376 30181 99291 70879 46/// /1809 10225 40165 58020 91800 22200 10201 70007
BBXX 42370 30181 99273 70905 46/// ///// 10222 91800 22200 10401 70007
BBXX PHAL 30183 99056 70114 41398 72005 10281 20240 40113 58002 70222 877// 22273 20100 31625 40502 50601 80251 90969
BBXX 9MBX5 30184 99389 31420 41398 33012 10170 20153 40149 53006 7//11 81145 22224 20202 80160
AAXX 30184 71988 16/// /2706 10001 21095 30186 40206 51001 60001 333 10002 21022 70008
AAXX 30184 71554 16/// /2608 11111 21151 30196 40202 53010 60001 333 11111 21134 70011
AAXX 30184 71427 16/// /2411 11075 21115 30168 40176 53015 60001 333 11075 21123 70000
AAXX 3018/ 68902 46/// ///// 40150 57010
AAXX 30181 10738 11584 72303 10022 21006 39718 40198 51019 69972 70282 878// 333 10043 20010 31000 55300 82830 86640
BBXX VRJI2 30183 99252 70218 41797 20519 10210 2018/ 40250 54000 7//00 82888 22253 04210 20502 306// 40804 5//// 6//// 80190
BBXX VRJI2 30183 99252 70218 41797 20519 10210 2018/ 40250 54000 7//00 82888 22253 04210 20502 306// 40804 5//// 6//// 80190
BBXX 64049 30183 99571 10022 41197 63008 10057 20052 40081 54000 70211 8/231 22200 04091 20604 334// 40605 5//// 80055
BBXX S6IH 30181 99293 70401 41497 31206 10240 20194 40315 52010 70311 82143 22223 04222 20404 332// 41604 5//// 80210
AAXX 30184 71170 16/// /2306 11066 21074 60001 333 11066 21146 70024
AAXX 30184 71170 16/// /2306 11066 21074 60001 333 11066 21146 70024
BBXX 42044 30181 99262 70971 46/// /1702 10170 20163 40157 91830 22200 00162 333 91203
BBXX 42044 30181 99262 70971 46/// /1704 10172 20164 40159 57007 91800 22200 00160 333 91205
BBXX 42045 30181 99262 70965 46/// /2204 10159 40161 91830 22200 00200 333 91205
BBXX 42045 30181 99262 70965 46/// /2305 10166 40163 91800 22200 00207 333 91206
BBXX PJGO 30184 99571 10022 47/98 /2005 10063 20011 40089 58014 700// 22200
BBXX 63106 30184 99610 10017 46/// /1204 10034 40068 58006 22200
BBXX 63113 30184 99610 10017 46/// /0305 10061 21056 40066 58007 22200 10907 70037
BBXX 62163 30184 99475 70084 46/// /2521 10130 20117 40256 57017 22200 00124 10808 70038 333 90710 91128
BBXX 2AUO5 30183 99606 10016 41597 39904 10050 21033 40074 58005 70200 834// 22281 20000 335// 40307 80021
BBXX 62103 30184 99499 70029 46/97 /2627 10118 20111 40170 58011 22200 00119 10704 70018 333 90710 91135
BBXX 62094 30184 99517 70067 46/// /2423 10111 20106 40142 56016 22200 00106 10505 70026 333 90710 91137
BBXX 42046 30181 99279 70940 46/// /2204 1//// 40168 91830 22200 00223 333 91205
BBXX 42047 30181 99279 70936 46/// /2203 10216 20180 40169 91830 22200 00220 333 91204
BBXX 42047 30181 99279 70936 46/// /2104 10217 20178 40173 91800 22200 00221 333 91205
BBXX 42369 30181 99272 70903 46/// /2606 1//// 91820 22200 10401 70007
BBXX 42370 30181 99273 70905 46/// ///// 10222 91820 22200 10401 70007
BBXX 42376 30181 99291 70879 46/// /1809 10225 40165 91820 22200 10201 70007
BBXX 42392 30181 99272 70900 46/// ///// 1//// 91820 22200 10401 70007
BBXX 42887 30181 99282 70885 46/// /2205 10233 91820 22200 10402 70008
BBXX 42887 30181 99282 70885 46/// /2205 10233 91820 22200 10402 70008
BBXX 42392 30181 99272 70900 46/// ///// 1//// 91820 22200 10401 70007
BBXX 42376 30181 99291 70879 46/// /1809 10225 40165 91820 22200 10201 70007
BBXX 42370 30181 99273 70905 46/// ///// 10222 91820 22200 10401 70007
BBXX 42369 30181 99272 70903 46/// /2606 1//// 91820 22200 10401 70007
BBXX 42047 30181 99279 70936 46/// /2104 10217 20178 40173 91800 22200 00221 333 91205
BBXX 42047 30181 99279 70936 46/// /2203 10216 20180 40169 91830 22200 00220 333 91204
BBXX 42046 30181 99279 70940 46/// /2204 1//// 40168 91830 22200 00223 333 91205
BBXX 42045 30181 99262 70965 46/// /2204 10159 40161 91830 22200 00200 333 91205
BBXX 42045 30181 99262 70965 46/// /2305 10166 40163 91800 22200 00207 333 91206
BBXX 42044 30181 99262 70971 46/// /1702 10170 20163 40157 91830 22200 00162 333 91203
BBXX 42044 30181 99262 70971 46/// /1704 10172 20164 40159 57007 91800 22200 00160 333 91205
BBXX MINFR00 3018/ 99072 51182 46/// ///// 10243 40144 52011
BBXX 52243 30181 99193 11666 46/// ///// 1//// 91800 22200 00265
BBXX 51179 30181 99143 51708 46/// ///// 1//// 91800 22200 00286
BBXX 51178 30181 99142 51695 46/// ///// 1//// 91800 22200 00285
BBXX 52246 30181 99152 11457 46/// ///// 1//// 91800 22200 00280
BBXX 51176 30181 99278 71758 46/// ///// 1//// 91800 22200 00238
BBXX 52245 30181 99181 11458 46/// ///// 1//// 91800 22200 00277
BBXX 51174 30181 99142 51697 46/// ///// 1//// 91800 22200 00287
BBXX 52244 30181 99200 11452 46/// ///// 1//// 91800 22200 00263
BBXX 51173 30181 99260 71739 46/// ///// 1//// 91800 22200 00246
BBXX 51172 30181 99284 71783 46/// ///// 1//// 91800 22200 00222
BBXX 51171 30181 99064 71623 46/// ///// 1//// 91800 22200 00276
BBXX 51170 30181 99168 71695 46/// ///// 1//// 91800 22200 00254
BBXX 51169 30181 99004 51600 46/// ///// 1//// 91800 22200 00254
BBXX 52248 30181 99135 11448 46/// ///// 1//// 91800 22200 00282
BBXX 62163 30184 99475 70084 46/// /2622 10119 20106 40260 57014 22200 00125 10808 70038 333 90710 91128
BBXX 63055 30184 99606 10016 47999 /1405 10043 21045 40066 57010 700// 22200 10805 70026
BBXX 63106 30184 99610 10017 46/// /1204 10034 40068 58006 22200
BBXX 63105 30184 99610 10017 47698 ///// 10039 21068 40067 58007 700// 22200
BBXX 62094 30184 99517 70067 46/// /24// 10111 20106 40142 56016 22200 00106 10505 70026 333 90710 91137
BBXX 62103 30184 99499 70029 46/97 /2626 10118 20110 40174 56012 22200 00119 10703 70015 333 90710 91133
BBXX 64049 30183 99571 10022 41197 63008 10057 20052 40081 54000 70211 8/231 22200 04091 20604 334// 40605 5//// 80055
BBXX MINFR00 3018/ 99072 51182 46/// ///// 10243 40144 52011
BBXX 52245 30181 99181 11458 46/// ///// 1//// 91800 22200 00277
BBXX 52248 30181 99135 11448 46/// ///// 1//// 91800 22200 00282
BBXX 52244 30181 99200 11452 46/// ///// 1//// 91800 22200 00263
BBXX 52243 30181 99193 11666 46/// ///// 1//// 91800 22200 00265
BBXX 52246 30181 99152 11457 46/// ///// 1//// 91800 22200 00280
BBXX 51170 30181 99168 71695 46/// ///// 1//// 91800 22200 00254
BBXX 51171 30181 99064 71623 46/// ///// 1//// 91800 22200 00276
BBXX 51172 30181 99284 71783 46/// ///// 1//// 91800 22200 00222
BBXX 51173 30181 99260 71739 46/// ///// 1//// 91800 22200 00246
BBXX 51176 30181 99278 71758 46/// ///// 1//// 91800 22200 00238
BBXX 51169 30181 99004 51600 46/// ///// 1//// 91800 22200 00254
BBXX 51178 30181 99142 51695 46/// ///// 1//// 91800 22200 00285
BBXX 51174 30181 99142 51697 46/// ///// 1//// 91800 22200 00287
BBXX 51179 30181 99143 51708 46/// ///// 1//// 91800 22200 00286
AAXX 30184 97796 01456 70000 10252 20237 30047 40098 57017 69951 70562 84932 333 56000 57900 69957 82912 84613 80980
BBXX V7SY6 30184 99131 11134 41697 63624 10270 20243 40300 51010 7//22 86/// 22213 00260 20606 305// 40606 80250
BBXX MINFR09 3018/ 99236 11447 46/// ///// 40142 57019
AAXX 30184 48555 31550 40000 10252 20234 30101 40144 55012 71011 82105 333 59006
AAXX 30181 02805 11413 83403 11057 21072 39862 49997 52007 60012 78682 887// 333 11051 21076 47///
BBXX PJGO 30184 99571 10022 47/98 /2005 10063 20011 40089 58014 700// 22200
BBXX 63106 30184 99610 10017 46/// /1204 10034 40068 58006 22200
BBXX 63113 30184 99610 10017 46/// /0305 10061 21056 40066 58007 22200 10907 70037
BBXX 62163 30184 99475 70084 46/// /2521 10130 20117 40256 57017 22200 00124 10808 70038 333 90710 91128
BBXX 2AUO5 30183 99606 10016 41597 39904 10050 21033 40074 58005 70200 834// 22281 20000 335// 40307 80021
BBXX 62103 30184 99499 70029 46/97 /2627 10118 20111 40170 58011 22200 00119 10704 70018 333 90710 91135
BBXX 62094 30184 99517 70067 46/// /2423 10111 20106 40142 56016 22200 00106 10505 70026 333 90710 91137
AAXX 30184 97406 11460 80000 10242 20233 30065 40091 57011 60011 70262 85923 333 56000 57901 57801 81917 84818 87460 80975 80860
AAXX 30184 96837 11458 70000 10262 20241 30111 40114 58009 69911 71362 83971 333 56000 57900 81920 83823
AAXX 30184 97810 11458 60000 10256 20248 30071 40080 56006 60011 70162 82232 333 56700 57874 82819 80835
BBXX A8KO3 30180 99319 31156 41698 72312 10210 20164 40050 54000 70322 864// 22274 00170 20304 80180
BBXX A8KO3 30180 99319 31156 41698 72312 10210 20164 40050 54000 70322 864// 22274 00170 20304 80180
BBXX MINFR09 3018/ 99236 11447 46/// ///// 40142 57019
BBXX V7SY6 30184 99131 11134 41697 63624 10270 20243 40300 51010 7//22 86/// 22213 00260 20606 305// 40606 80250
AAXX 30184 97028 32560 70000 10252 20232 30100 40106 58002 84521 333 56000 84620 86460
AAXX 30181 29789 42999 82901 11167 21173 39066 40320 53004 80001
AAXX 30184 97460 32460 70000 10264 20223 30075 40089 57010 83876 333 56000 57802 82817 80858
AAXX 30181 23804 41397 82003 11016 21024 39931 40080 52017 70272 887// 333 86708
AAXX 30181 31987 32999 00102 11161 21251 30004 40282 55003 333 42998
AAXX 30184 89266 46/// /1509 11039 21057 39643 49780 57001 91810
AAXX 30181 23975 415// 52304 11034 21052 30023 40132 52031 78582 85900
AAXX 30184 48427 31950 00000 10228 20183 30136 40144 57006 71000 333 58008
BBXX 62163 30184 99475 70084 46/// /2622 10119 20106 40260 57014 22200 00125 10808 70038 333 90710 91128
BBXX 63055 30184 99606 10016 47999 /1405 10043 21045 40066 57010 700// 22200 10805 70026
BBXX 63106 30184 99610 10017 46/// /1204 10034 40068 58006 22200
BBXX 63105 30184 99610 10017 47698 ///// 10039 21068 40067 58007 700// 22200
BBXX 62094 30184 99517 70067 46/// /24// 10111 20106 40142 56016 22200 00106 10505 70026 333 90710 91137
BBXX 62103 30184 99499 70029 46/97 /2626 10118 20110 40174 56012 22200 00119 10703 70015 333 90710 91133
BBXX 64049 30183 99571 10022 41197 63008 10057 20052 40081 54000 70211 8/231 22200 04091 20604 334// 40605 5//// 80055
BBXX ZCDG7 30184 99313 71183 41297 83428 10132 20130 40190 52011 70222 886// 22225 00160 20204 328// 40405 5////
BBXX ZCDG7 30184 99313 71183 41297 83428 10132 20130 40190 52011 70222 886// 22225 00160 20204 328// 40405 5////
BBXX A8KO3 30180 99319 31156 41698 72312 10210 20164 40050 54000 70322 864// 22274 00170 20304 80180
BBXX UGOD 30181 99456 11399 41/92 93405 10005 40202 52008 77477 22253 00067 20301 30500 40604
AAXX 30184 71713 16/// /2407 11122 21179 60001 333 11120 21169 70000
BBXX MINFR03 3018/ 99241 10632 46/// ///// 10233 40186 52002
AAXX 30184 71713 16/// /2407 11122 21179 60001 333 11120 21169 70000
AAXX 30181 30758 41929 50000 11283 21313 39483 40409 52005 70511 80001
BBXX MINFR03 3018/ 99241 10632 46/// ///// 10233 40186 52002
AAXX 30184 71971 16/// /0402 11362 21397 30029 40077 57017 60001 333 11296 21372 70000
AAXX 30181 29209 42598 82003 11061 21080 30034 40162 52035 86502
AAXX 30184 97192 32430 40000 10260 20249 30061 40116 57005 82271 333 56000 57803 82816 80857
BBXX PJGO 30184 99571 10022 47/98 /2005 10063 20011 40089 58014 700// 22200
BBXX 63106 30184 99610 10017 46/// /1204 10034 40068 58006 22200
BBXX 63113 30184 99610 10017 46/// /0305 10061 21056 40066 58007 22200 10907 70037
BBXX 62163 30184 99475 70084 46/// /2521 10130 20117 40256 57017 22200 00124 10808 70038 333 90710 91128
BBXX 2AUO5 30183 99606 10016 41597 39904 10050 21033 40074 58005 70200 834// 22281 20000 335// 40307 80021
BBXX 62103 30184 99499 70029 46/97 /2627 10118 20111 40170 58011 22200 00119 10704 70018 333 90710 91135
BBXX 62094 30184 99517 70067 46/// /2423 10111 20106 40142 56016 22200 00106 10505 70026 333 90710 91137
AAXX 30184 97086 01458 72702 10268 20248 30072 40096 56012 60021 71562 84570 333 56000 60017 84617 86460
AAXX 30181 25745 42698 30000 11389 21417 30192 40252 57007 83500
BBXX UGOD 30181 99456 11399 41/92 93405 10005 40202 52008 77477 22253 00067 20301 30500 40604
BBXX 62163 30184 99475 70084 46/// /2622 10119 20106 40260 57014 22200 00125 10808 70038 333 90710 91128
BBXX 63055 30184 99606 10016 47999 /1405 10043 21045 40066 57010 700// 22200 10805 70026
BBXX 63106 30184 99610 10017 46/// /1204 10034 40068 58006 22200
BBXX 63105 30184 99610 10017 47698 ///// 10039 21068 40067 58007 700// 22200
BBXX 62094 30184 99517 70067 46/// /24// 10111 20106 40142 56016 22200 00106 10505 70026 333 90710 91137
BBXX 62103 30184 99499 70029 46/97 /2626 10118 20110 40174 56012 22200 00119 10703 70015 333 90710 91133
BBXX 64049 30183 99571 10022 41197 63008 10057 20052 40081 54000 70211 8/231 22200 04091 20604 334// 40605 5//// 80055
AAXX 30184 96741 32556 72506 10262 20230 30096 40100 57008 84571 333 56000 84620
BBXX PJGO 30184 99571 10022 47/98 /2005 10063 20011 40089 58014 700// 22200
BBXX 63106 30184 99610 10017 46/// /1204 10034 40068 58006 22200
BBXX 63113 30184 99610 10017 46/// /0305 10061 21056 40066 58007 22200 10907 70037
BBXX 62163 30184 99475 70084 46/// /2521 10130 20117 40256 57017 22200 00124 10808 70038 333 90710 91128
BBXX 2AUO5 30183 99606 10016 41597 39904 10050 21033 40074 58005 70200 834// 22281 20000 335// 40307 80021
BBXX 62103 30184 99499 70029 46/97 /2627 10118 20111 40170 58011 22200 00119 10704 70018 333 90710 91135
BBXX 62094 30184 99517 70067 46/// /2423 10111 20106 40142 56016 22200 00106 10505 70026 333 90710 91137
AAXX 30183 63671 32980 00905 10252 20169 333 10339
BBXX 62163 30184 99475 70084 46/// /2622 10119 20106 40260 57014 22200 00125 10808 70038 333 90710 91128
BBXX 63055 30184 99606 10016 47999 /1405 10043 21045 40066 57010 700// 22200 10805 70026
BBXX 63106 30184 99610 10017 46/// /1204 10034 40068 58006 22200
BBXX 63105 30184 99610 10017 47698 ///// 10039 21068 40067 58007 700// 22200
BBXX 62094 30184 99517 70067 46/// /24// 10111 20106 40142 56016 22200 00106 10505 70026 333 90710 91137
BBXX 62103 30184 99499 70029 46/97 /2626 10118 20110 40174 56012 22200 00119 10703 70015 333 90710 91133
BBXX 64049 30183 99571 10022 41197 63008 10057 20052 40081 54000 70211 8/231 22200 04091 20604 334// 40605 5//// 80055
BBXX 42043 30181 99290 70949 46/// /1201 1//// 40164 91830 22200 00136 333 91201
AAXX 30181 32010 42998 63102 11191 21203 30215 40268 58001 86030 333 91003 91103
BBXX PJGO 30184 99571 10022 47/98 /2005 10063 20011 40089 58014 700// 22200
BBXX 63106 30184 99610 10017 46/// /1204 10034 40068 58006 22200
BBXX 63113 30184 99610 10017 46/// /0305 10061 21056 40066 58007 22200 10907 70037
BBXX 62163 30184 99475 70084 46/// /2521 10130 20117 40256 57017 22200 00124 10808 70038 333 90710 91128
BBXX 2AUO5 30183 99606 10016 41597 39904 10050 21033 40074 58005 70200 834// 22281 20000 335// 40307 80021
BBXX 62103 30184 99499 70029 46/97 /2627 10118 20111 40170 58011 22200 00119 10704 70018 333 90710 91135
BBXX 62094 30184 99517 70067 46/// /2423 10111 20106 40142 56016 22200 00106 10505 70026 333 90710 91137
BBXX 42043 30181 99290 70949 46/// /1201 1//// 40164 91830 22200 00136 333 91201
BBXX 52249 30181 99052 31503 46/// ///// 1//// 91800 22200 00306
BBXX 62163 30184 99475 70084 46/// /2622 10119 20106 40260 57014 22200 00125 10808 70038 333 90710 91128
BBXX 63055 30184 99606 10016 47999 /1405 10043 21045 40066 57010 700// 22200 10805 70026
BBXX 63106 30184 99610 10017 46/// /1204 10034 40068 58006 22200
BBXX 63105 30184 99610 10017 47698 ///// 10039 21068 40067 58007 700// 22200
BBXX 62094 30184 99517 70067 46/// /24// 10111 20106 40142 56016 22200 00106 10505 70026 333 90710 91137
BBXX 62103 30184 99499 70029 46/97 /2626 10118 20110 40174 56012 22200 00119 10703 70015 333 90710 91133
BBXX 64049 30183 99571 10022 41197 63008 10057 20052 40081 54000 70211 8/231 22200 04091 20604 334// 40605 5//// 80055
BBXX 52249 30181 99052 31503 46/// ///// 1//// 91800 22200 00306
BBXX A8VL8 30184 99209 11108 41596 70318 10190 20141 40230 52030 70222 8769/ 22200 0//// 2//// 3//// 4//// 5//// 6//// 80160 ICE /////
BBXX A8VL8 30184 99209 11108 41596 70318 10190 20141 40230 52030 70222 8769/ 22200 0//// 2//// 3//// 4//// 5//// 6//// 80160 ICE /////
BBXX PJGO 30184 99571 10022 47/98 /2005 10063 20011 40089 58014 700// 22200
BBXX 63106 30184 99610 10017 46/// /1204 10034 40068 58006 22200
BBXX 63113 30184 99610 10017 46/// /0305 10061 21056 40066 58007 22200 10907 70037
BBXX 62163 30184 99475 70084 46/// /2521 10130 20117 40256 57017 22200 00124 10808 70038 333 90710 91128
BBXX 2AUO5 30183 99606 10016 41597 39904 10050 21033 40074 58005 70200 834// 22281 20000 335// 40307 80021
BBXX 62103 30184 99499 70029 46/97 /2627 10118 20111 40170 58011 22200 00119 10704 70018 333 90710 91135
BBXX 62094 30184 99517 70067 46/// /2423 10111 20106 40142 56016 22200 00106 10505 70026 333 90710 91137
AAXX 30181 78090 15/// /0000 10256 30195 40199 69901 91800 222// 00307
AAXX 30184 97980 01450 70000 10270 10250 30078 40085 52004 60241 76062 86842 333 56000 60247 83816 83620
BBXX 62163 30184 99475 70084 46/// /2622 10119 20106 40260 57014 22200 00125 10808 70038 333 90710 91128
BBXX 63055 30184 99606 10016 47999 /1405 10043 21045 40066 57010 700// 22200 10805 70026
BBXX 63106 30184 99610 10017 46/// /1204 10034 40068 58006 22200
BBXX 63105 30184 99610 10017 47698 ///// 10039 21068 40067 58007 700// 22200
BBXX 62094 30184 99517 70067 46/// /24// 10111 20106 40142 56016 22200 00106 10505 70026 333 90710 91137
BBXX 62103 30184 99499 70029 46/97 /2626 10118 20110 40174 56012 22200 00119 10703 70015 333 90710 91133
BBXX 64049 30183 99571 10022 41197 63008 10057 20052 40081 54000 70211 8/231 22200 04091 20604 334// 40605 5//// 80055
AAXX 30184 97240 31458 50000 10239 20233 39990 40104 57005 70521 83131 333 56000 83816
BBXX PJGO 30184 99571 10022 47/98 /2005 10063 20011 40089 58014 700// 22200
BBXX 63106 30184 99610 10017 46/// /1204 10034 40068 58006 22200
BBXX 63113 30184 99610 10017 46/// /0305 10061 21056 40066 58007 22200 10907 70037
BBXX 62163 30184 99475 70084 46/// /2521 10130 20117 40256 57017 22200 00124 10808 70038 333 90710 91128
BBXX 2AUO5 30183 99606 10016 41597 39904 10050 21033 40074 58005 70200 834// 22281 20000 335// 40307 80021
BBXX 62103 30184 99499 70029 46/97 /2627 10118 20111 40170 58011 22200 00119 10704 70018 333 90710 91135
BBXX 62094 30184 99517 70067 46/// /2423 10111 20106 40142 56016 22200 00106 10505 70026 333 90710 91137
AAXX 30181 98630 32575 30203 10258 20250 40128 58013 82201 222// 2//02 333 56199 82820
AAXX 30184 71728 12986 01403 11216 21268 39997 40233 57009 60001 333 11211 21290 70000
AAXX 30184 71728 12986 01403 11216 21268 39997 40233 57009 60001 333 11211 21290 70000
BBXX 62163 30184 99475 70084 46/// /2622 10119 20106 40260 57014 22200 00125 10808 70038 333 90710 91128
BBXX 63055 30184 99606 10016 47999 /1405 10043 21045 40066 57010 700// 22200 10805 70026
BBXX 63106 30184 99610 10017 46/// /1204 10034 40068 58006 22200
BBXX 63105 30184 99610 10017 47698 ///// 10039 21068 40067 58007 700// 22200
BBXX 62094 30184 99517 70067 46/// /24// 10111 20106 40142 56016 22200 00106 10505 70026 333 90710 91137
BBXX 62103 30184 99499 70029 46/97 /2626 10118 20110 40174 56012 22200 00119 10703 70015 333 90710 91133
BBXX 64049 30183 99571 10022 41197 63008 10057 20052 40081 54000 70211 8/231 22200 04091 20604 334// 40605 5//// 80055
AAXX 30181 98133 31467 70703 10/// 20/// 40178 5//// 70544 83570 333 56299 83618 87360
AAXX 30184 96645 32440 70000 10242 20235 30082 40114 57007 85532 333 56000 85612
AAXX 30184 91723 NIL
AAXX 30184 91964 36/// /0909 10236 20211 40208 52000
BBXX PJGO 30184 99571 10022 47/98 /2005 10063 20011 40089 58014 700// 22200
BBXX 63106 30184 99610 10017 46/// /1204 10034 40068 58006 22200
BBXX 63113 30184 99610 10017 46/// /0305 10061 21056 40066 58007 22200 10907 70037
BBXX 62163 30184 99475 70084 46/// /2521 10130 20117 40256 57017 22200 00124 10808 70038 333 90710 91128
BBXX 2AUO5 30183 99606 10016 41597 39904 10050 21033 40074 58005 70200 834// 22281 20000 335// 40307 80021
BBXX 62103 30184 99499 70029 46/97 /2627 10118 20111 40170 58011 22200 00119 10704 70018 333 90710 91135
BBXX 62094 30184 99517 70067 46/// /2423 10111 20106 40142 56016 22200 00106 10505 70026 333 90710 91137
AAXX 30181 34545 32598 81603 10010 20004 30054 40167 56009 885// 333 10014
AAXX 30184 71770 17/// /0702 10034 20004 39263 40028 53008 69981 7//4/ 333 10076 21001 70048
AAXX 30184 64500 32460 52008 10274 20240 30099 40112 83230 333 10290 58001 83811 85360 94916 95836
AAXX 30184 DUPE
AAXX 30181 03962 11230 82510 10111 20109 30102 40126 57004 60052 75165 886// 333 10119 81703 83706 86708
AAXX 30184 89573 35980 10706 11018 21094 39915 49937 52008 81030
AAXX 30184 89573 35980 10706 11018 21094 39915 49937 52008 81030
BBXX 62163 30184 99475 70084 46/// /2622 10119 20106 40260 57014 22200 00125 10808 70038 333 90710 91128
BBXX 63055 30184 99606 10016 47999 /1405 10043 21045 40066 57010 700// 22200 10805 70026
BBXX 63106 30184 99610 10017 46/// /1204 10034 40068 58006 22200
BBXX 63105 30184 99610 10017 47698 ///// 10039 21068 40067 58007 700// 22200
BBXX 62094 30184 99517 70067 46/// /24// 10111 20106 40142 56016 22200 00106 10505 70026 333 90710 91137
BBXX 62103 30184 99499 70029 46/97 /2626 10118 20110 40174 56012 22200 00119 10703 70015 333 90710 91133
BBXX 64049 30183 99571 10022 41197 63008 10057 20052 40081 54000 70211 8/231 22200 04091 20604 334// 40605 5//// 80055
BBXX VRDT5 30183 99059 31326 41/// 82507 10260 2023/ 40110 54000 7//11 88/76 22233 00280 20602 39999 40802 50802 6//// 80240 ICE /////
BBXX VRDT5 30183 99059 31326 41/// 82507 10260 2023/ 40110 54000 7//11 88/76 22233 00280 20602 39999 40802 50802 6//// 80240 ICE /////
AAXX 30184 42675 31596 40000 10194 20138 40152 70520 84200 333 59007 84830
BBXX ZQAY4 30184 99131 31524 41497 32714 10280 20237 40067 56006 71311 83200 22243 00317 20802 327// 40803 5//// 80250
AAXX 30184 89625 46/// /3008 11224 29081 36531 4//// 5//// 91800
BBXX PJGO 30184 99571 10022 47/98 /2005 10063 20011 40089 58014 700// 22200
BBXX 63106 30184 99610 10017 46/// /1204 10034 40068 58006 22200
BBXX 63113 30184 99610 10017 46/// /0305 10061 21056 40066 58007 22200 10907 70037
BBXX 62163 30184 99475 70084 46/// /2521 10130 20117 40256 57017 22200 00124 10808 70038 333 90710 91128
BBXX 2AUO5 30183 99606 10016 41597 39904 10050 21033 40074 58005 70200 834// 22281 20000 335// 40307 80021
BBXX 62103 30184 99499 70029 46/97 /2627 10118 20111 40170 58011 22200 00119 10704 70018 333 90710 91135
BBXX 62094 30184 99517 70067 46/// /2423 10111 20106 40142 56016 22200 00106 10505 70026 333 90710 91137
BBXX VRBK6 30184 99043 11038 41597 /3620 10240 2023/ 40110 54000 75051 8//// 222// 0//// 2//// 3//// 4//// 5//// 6//// 80230 ICE /////
AAXX 30184 43497 22970 02507 10250 20214 30088 40105 333 58012 60007
BBXX UGSN 30181 99514 11409 42/98 /2910 11120 40267 52003 22200 00014 2//// ICE 51093
BBXX VRBK6 30184 99043 11038 41597 /3620 10240 2023/ 40110 54000 75051 8//// 222// 0//// 2//// 3//// 4//// 5//// 6//// 80230 ICE /////
AAXX 30184 48583 01456 80000 10235 20228 30120 40126 57005 60503 72162 82877 333 58012 60327 70576
AAXX 30184 48581 01550 80802 10233 20225 30092 40133 57005 60283 76162 83576 333 58003 60077 70275
BBXX UGSN 30181 99514 11409 42/98 /2910 11120 40267 52003 22200 00014 2//// ICE 51093
BBXX 62163 30184 99475 70084 46/// /2622 10119 20106 40260 57014 22200 00125 10808 70038 333 90710 91128
BBXX 63055 30184 99606 10016 47999 /1405 10043 21045 40066 57010 700// 22200 10805 70026
BBXX 63106 30184 99610 10017 46/// /1204 10034 40068 58006 22200
BBXX 63105 30184 99610 10017 47698 ///// 10039 21068 40067 58007 700// 22200
BBXX 62094 30184 99517 70067 46/// /24// 10111 20106 40142 56016 22200 00106 10505 70026 333 90710 91137
BBXX 62103 30184 99499 70029 46/97 /2626 10118 20110 40174 56012 22200 00119 10703 70015 333 90710 91133
BBXX 64049 30183 99571 10022 41197 63008 10057 20052 40081 54000 70211 8/231 22200 04091 20604 334// 40605 5//// 80055
AAXX 30184 41965 31950 00000 10163 20150 30153 40162 70500 333 58008 70000
AAXX 30184 71382 16/// /0000 11136 21180 39205 40200 58006 60001 333 11136 21317 70000
AAXX 30184 71382 16/// /0000 11136 21180 39205 40200 58006 60001 333 11136 21317 70000
AAXX 30184 42398 31596 09901 10117 20115 40179 71000 80000 333 58009
AAXX 30184 41966 32940 03601 10166 20160 30097 40179 333 58011 70000
AAXX 30184 91367 11470 81008 10267 20236 60151 76082 84217 333 56229 84815 84460 88280 555 93018
AAXX 30184 91367 11470 81008 10267 20236 60151 76082 84217 333 56229 84815 84460 88280 555 93018
AAXX 30184 91367 11470 81008 10267 20236 60151 76082 84217 333 56229 84815 84460 88280 555 93018
BBXX ONAN 30184 99321 11262 41598 33625 10080 2004/ 40260 51020 7//00 834// 22273 00110 20301 335// 40603 5//// 6//// 80060 ICE /////
BBXX ONAN 30184 99321 11262 41598 33625 10080 2004/ 40260 51020 7//00 834// 22273 00110 20301 335// 40603 5//// 6//// 80060 ICE /////
AAXX 30181 38932 414// 80000 10001 21005 40370 53003 77177 8802/
BBXX ONAN 30184 99321 11262 41598 33625 10080 20040 40260 51020 7//00 834// 22273 00110 20301 335// 40603 5//// 6//// 80060 ICE /////
BBXX A8VL9 30184 99049 30843 41497 61316 10270 20243 40130 54000 7//22 8684/ 22213 06280 20406 313// 4//// 5//// 6//// 80250 ICE /////
BBXX A8VL9 30184 99049 30843 41497 61316 10270 20243 40130 54000 7//22 8684/ 22213 06280 20406 313// 4//// 5//// 6//// 80250 ICE /////
BBXX PHKM 30183 99433 70098 41297 82413 10148 20133 40355 57007 70311 887// 22213 2//// 80139
BBXX PHKM 30183 99433 70098 41297 82413 10148 20133 40355 57007 70311 887// 22213 2//// 80139
BBXX PHKM 30183 99433 70098 41297 82413 10148 20133 40355 57007 70311 887// 22213 2//// 80139
BBXX UGWJ 30181 99223 30564 42/98 30305 10301 40160 54000 22252 00271 20201
BBXX UGWJ 30181 99223 30564 42/98 30305 10301 40160 54000 22252 00271 20201
BBXX A8VL9 30184 99049 30843 41497 61316 10270 20243 40130 54000 7//22 8684/ 22213 06280 20406 313// 4//// 5//// 6//// 80250 /////
BBXX WL3108 30184 99426 70872 41/95 81020 10028 49991 71022 22283 00067 20602
BBXX WL3108 30184 99426 70872 41/95 81020 10028 49991 71022 22283 00067 20602
AAXX 30181 15310 01494 81902 10005 20004 30034 40122 52008 69902 71054 886// 333 10025 20005 31004 55300 10019 20001 30000 60007 91005 91106
AAXX 30184 67009 32580 62612 10278 20254 30003 40121 51013 86900 333 82820 81920 85640 94974/6/7 95814/6/7
AAXX 30184 67009 32580 62612 10278 20254 30003 40121 51013 86900 333 82820 81920 85640 94974 95814
AAXX 30181 10200 11580 42603 10036 20020 30128 40126 51011 60012 70380 84801 333 10074 20025 32001 55300 20000 30000 81827 83644 91114
AAXX 30184 89257 46/// /1504 11067 21102 39722 49792 5//// 91810
AAXX 30184 89257 46/// /1505 11069 21102 39722 49792 5//// 91800
AAXX 30181 10895 01160 82806 10005 20005 39574 40157 53024 60032 77887 877// 333 10014 21001 3/000 44004 55300 20000 30000 69997 81702 87705 91114 96487 96486 96473
AAXX 30184 44454 42956 00000 10050 20028 38709 48540 333 58011
AAXX 30183 91553 31598 59902 10255 20238 40078 53004 70222 85200 333 569// 84820 81925
AAXX 30183 91553 31598 59902 10255 20238 40078 53004 70222 85200 333 569// 84820 81925
AAXX 30181 14015 11440 80000 10011 20005 39770 40139 52019 69912 71072 8557/ 333 10016 4/001 84710 85635 93100
BBXX DBBH 30181 99386 10156 41/98 /3207 10130 20071 40109 57005 70222 22251 04165
BBXX DBBH 30181 99386 10156 41/98 /3207 10130 20071 40109 57005 70222 22251 04165
BBXX DBBH 30181 99386 10156 41/98 /3207 10130 20071 40109 57005 70222 22251 04165
AAXX 30184 67280 11465 8//// 10266 20256 40105 60042 78022 883// 333 10320 58011 94332
AAXX 30184 67291 11508 8//// 10224 20216 3//// 48/// 60042 760// 889// 333 10262 5//// 94390
AAXX 30184 67327 32980 01606 10233 20185 40125 52016 333 10310
AAXX 30184 67331 32570 33506 10286 20181 40123 52028 333 10312 94324
AAXX 30184 67346 32965 00000 10/// 20/// 40112 52015 333 10310 94300
AAXX 30184 67280 11465 8//// 10266 20256 40105 60042 78022 883// 333 10320 58011 94332
AAXX 30184 67291 11508 8//// 10224 20216 3//// 48/// 60042 760// 889// 333 10262 5//// 94390
AAXX 30184 67327 32980 01606 10233 20185 40125 52016 333 10310
AAXX 30184 67331 32570 33506 10286 20181 40123 52028 333 10312 94324
AAXX 30184 67346 32965 00000 10/// 20/// 40112 52015 333 10310 94300
AAXX 30184 67283 31580 6//// 10284 20240 40116 71322 83933 333 10345 58008 94320
AAXX 30181 10980 11/01 92912 11081 21084 38084 48443 53010 60072 77174 333 11056 21088 3/109 48092 55300 20000 30000 91119 91215 96049 96473 96471 96449
BBXX DEFY 30183 99150 70719 41598 30618 10280 20237 40140 57021 72588 83262 22252 02273 80249
BBXX DEFY 30183 99150 70719 41598 30618 10280 20237 40140 57021 72588 83262 22252 02273 80249
AAXX 30181 22271 31/93 91405 11063 21078 39987 49997 52023 74984 333 11008
AAXX 30181 10035 11570 42804 10031 20020 30025 40084 51022 69912 70381 84500 333 10061 20012 31000 55300 20000 30000 40974 84633 91115 91211
AAXX 30181 10776 01481 72806 10019 20002 39707 40160 51026 69932 72176 878// 333 10029 20009 31100 55300 20000 30000 69907 81815 87650 91114
AAXX 30181 10488 01472 72807 10018 20004 39820 40106 51019 60052 72187 8683/ 333 10029 20004 32100 55300 20000 30000 41119 60027 81810 84636 85656 96486
AAXX 30181 10544 01/00 92604 11021 21021 39058 48428 52019 60062 74974 333 11011 21021 3/102 48021 553// 6///7 96147 96271 96473
AAXX 30181 10035 11570 42804 10031 20020 30025 40084 51022 69912 70361 84500 333 10061 20012 31000 55300 20000 30000 40974 84633 91115 91211
AAXX 30181 10776 01481 72806 10019 20002 39707 40160 51024 69932 72176 878// 333 10029 20009 31100 55300 20000 30000 69907 81815 87650 91114
AAXX 30181 10544 01/00 92604 11021 21021 39058 48428 52019 60062 74974 333 11016 21031 3/103 48021 55300 69967 96147 96271 96473
AAXX 30184 71332 16/// /0610 11307 21340 30066 40097 58001 60001 333 11293 21338 70000
AAXX 30184 71363 16/// /3612 11354 21393 30022 40080 56001 60001 333 11310 21359 70000
AAXX 30184 71363 16/// /3612 11354 21393 30022 40080 56001 60001 333 11310 21359 70000
AAXX 30184 71029 17/// /0920 11302 21336 30092 40134 50001 69941 7//4/ 333 11293 21347 70004
